o;?<?xml version="1.0" encoding="utf-8"?>
<kml xmlns="http://www.opengis.net/kml/2.2">
  <Document>
    <name>Compose_New</name>
    <open>1</open>
    <description>Compose_New Exported with ET GeoWizards</description>
    <Style id="Compose">
      <LineStyle>
        <color>FF6E6E6E</color>
        <width>0.4</width>
      </LineStyle>
      <PolyStyle>
        <color>FFF2C9D2</color>
        <fill>1</fill>
        <outline>1</outline>
      </PolyStyle>
      <IconStyle>
        <color>BFFFFFFF</color>
        <scale>0.8</scale>
        <Icon>
          <href>http://maps.google.com/mapfiles/kml/shapes/info-i.png</href>
        </Icon>
      </IconStyle>
    </Style>
    <Style id="Compose_info">
      <IconStyle>
        <color>BFFFFFFF</color>
        <scale>0.8</scale>
        <Icon>
          <href>http://maps.google.com/mapfiles/kml/shapes/info-i.png</href>
        </Icon>
      </IconStyle>
    </Style>
    <Schema name="Compose_schema" id="Compose_schema">
      <SimpleField type="int" name="FID">
        <displayName>FID</displayName>
      </SimpleField>
      <SimpleField type="string" name="SOC1">
        <displayName>SOC1</displayName>
      </SimpleField>
      <SimpleField type="string" name="UID">
        <displayName>UID</displayName>
      </SimpleField>
      <SimpleField type="string" name="STATE">
        <displayName>STATE</displayName>
      </SimpleField>
      <SimpleField type="string" name="DISTRICT">
        <displayName>DISTRICT</displayName>
      </SimpleField>
      <SimpleField type="string" name="VILLAGE">
        <displayName>VILLAGE</displayName>
      </SimpleField>
      <SimpleField type="string" name="SOCIETY">
        <displayName>SOCIETY</displayName>
      </SimpleField>
      <SimpleField type="string" name="Site">
        <displayName>Site</displayName>
      </SimpleField>
      <SimpleField type="double" name="Y_Plant">
        <displayName>Y_Plant</displayName>
      </SimpleField>
      <SimpleField type="string" name="Folder_01">
        <displayName>Folder_01</displayName>
      </SimpleField>
      <SimpleField type="string" name="Image_01">
        <displayName>Image_01</displayName>
      </SimpleField>
      <SimpleField type="string" name="Date_01">
        <displayName>Date_01</displayName>
      </SimpleField>
      <SimpleField type="string" name="Folder_02">
        <displayName>Folder_02</displayName>
      </SimpleField>
      <SimpleField type="string" name="Image_02">
        <displayName>Image_02</displayName>
      </SimpleField>
      <SimpleField type="string" name="Date_02">
        <displayName>Date_02</displayName>
      </SimpleField>
      <SimpleField type="string" name="Com_01">
        <displayName>Com_01</displayName>
      </SimpleField>
      <SimpleField type="string" name="Com_02">
        <displayName>Com_02</displayName>
      </SimpleField>
      <SimpleField type="string" name="ELI">
        <displayName>ELI</displayName>
      </SimpleField>
    </Schema>
    <Folder>
      <name>Compose</name>
      <open>0</open>
      <Placemark>
        <name>Haliyapur</name>
        <styleUrl>#Compose</styleUrl>
        <ExtendedData>
          <SchemaData schemaUrl="#Compose_schema">
            <SimpleData name="FID">0</SimpleData>
            <SimpleData name="SOC1">Haliyapur</SimpleData>
            <SimpleData name="UID">7</SimpleData>
            <SimpleData name="STATE">Uttar Pradesh</SimpleData>
            <SimpleData name="DISTRICT">Sultanpur</SimpleData>
            <SimpleData name="VILLAGE">Haliyapur</SimpleData>
            <SimpleData name="SOCIETY">Haliyapur</SimpleData>
            <SimpleData name="Site">Haliyapur</SimpleData>
            <SimpleData name="Y_Plant">2009</SimpleData>
            <SimpleData name="Folder_01">P143R042_5X19901117</SimpleData>
            <SimpleData name="Image_01">p143r042_5dt19901117</SimpleData>
            <SimpleData name="Date_01">17-Nov-90</SimpleData>
            <SimpleData name="Folder_02">LT51430422009037KHC00</SimpleData>
            <SimpleData name="Image_02">L5143042_04220090206</SimpleData>
            <SimpleData name="Date_02">06-Feb-09</SimpleData>
            <SimpleData name="Com_01">NF</SimpleData>
            <SimpleData name="Com_02">NF</SimpleData>
            <SimpleData name="ELI">Y</SimpleData>
          </SchemaData>
        </ExtendedData>
        <MultiGeometry>
          <Point>
            <extrude>0</extrude>
            <altitudeMode>clampToGround</altitudeMode>
            <coordinates>81.746480,26.497411,0.000000</coordinates>
          </Point>
          <Polygon>
            <extrude>0</extrude>
            <tesselate>1</tesselate>
            <altitudeMode>clampToGround</altitudeMode>
            <outerBoundaryIs>
              <LinearRing>
                <coordinates>81.749184,26.501727,0.000000 81.748726,26.501973,0.000000 81.747642,26.501583,0.000000 81.746864,26.501027,0.000000 81.746193,26.499861,0.000000 81.744415,26.497389,0.000000 81.744247,26.496388,0.000000 81.743775,26.494833,0.000000 81.743859,26.494305,0.000000 81.744057,26.493694,0.000000 81.745056,26.493472,0.000000 81.746697,26.494611,0.000000 81.747139,26.494529,0.000000 81.747413,26.494888,0.000000 81.748696,26.496055,0.000000 81.747970,26.496778,0.000000 81.748169,26.498250,0.000000 81.748921,26.499875,0.000000 81.748424,26.500023,0.000000 81.748323,26.500339,0.000000 81.748473,26.501018,0.000000 81.748674,26.501200,0.000000 81.749184,26.501727,0.000000 </coordinates>
              </LinearRing>
            </outerBoundaryIs>
          </Polygon>
        </MultiGeometry>
      </Placemark>
      <Placemark>
        <name>Haliyapur</name>
        <styleUrl>#Compose</styleUrl>
        <ExtendedData>
          <SchemaData schemaUrl="#Compose_schema">
            <SimpleData name="FID">1</SimpleData>
            <SimpleData name="SOC1">Haliyapur</SimpleData>
            <SimpleData name="UID">8</SimpleData>
            <SimpleData name="STATE">Uttar Pradesh</SimpleData>
            <SimpleData name="DISTRICT">Sultanpur</SimpleData>
            <SimpleData name="VILLAGE">Pipri</SimpleData>
            <SimpleData name="SOCIETY">Haliyapur</SimpleData>
            <SimpleData name="Site">Pipri</SimpleData>
            <SimpleData name="Y_Plant">2011</SimpleData>
            <SimpleData name="Folder_01">LE71430421999338SGS00</SimpleData>
            <SimpleData name="Image_01">L71143042_04219991204</SimpleData>
            <SimpleData name="Date_01">04-Dec-99</SimpleData>
            <SimpleData name="Folder_02">LT51430422010104KHC00</SimpleData>
            <SimpleData name="Image_02">L5143042_04220100414</SimpleData>
            <SimpleData name="Date_02">14-Apr-2010</SimpleData>
            <SimpleData name="Com_01">NF</SimpleData>
            <SimpleData name="Com_02">NF</SimpleData>
            <SimpleData name="ELI">Y</SimpleData>
          </SchemaData>
        </ExtendedData>
        <MultiGeometry>
          <Point>
            <extrude>0</extrude>
            <altitudeMode>clampToGround</altitudeMode>
            <coordinates>81.765335,26.469151,0.000000</coordinates>
          </Point>
          <Polygon>
            <extrude>0</extrude>
            <tesselate>1</tesselate>
            <altitudeMode>clampToGround</altitudeMode>
            <outerBoundaryIs>
              <LinearRing>
                <coordinates>81.766566,26.473986,0.000000 81.766251,26.474193,0.000000 81.766746,26.475194,0.000000 81.766586,26.475277,0.000000 81.766945,26.475889,0.000000 81.766197,26.476249,0.000000 81.766388,26.476667,0.000000 81.766357,26.476805,0.000000 81.766747,26.477443,0.000000 81.767334,26.478361,0.000000 81.767197,26.478501,0.000000 81.767334,26.478694,0.000000 81.766945,26.478889,0.000000 81.767914,26.479778,0.000000 81.767997,26.479665,0.000000 81.768722,26.480749,0.000000 81.767829,26.481307,0.000000 81.766640,26.480250,0.000000 81.766083,26.479640,0.000000 81.765693,26.479361,0.000000 81.764389,26.478306,0.000000 81.763275,26.476973,0.000000 81.761970,26.475194,0.000000 81.761696,26.473750,0.000000 81.762085,26.473084,0.000000 81.761947,26.471640,0.000000 81.762001,26.471138,0.000000 81.762108,26.470722,0.000000 81.762276,26.470111,0.000000 81.762413,26.469723,0.000000 81.762970,26.469055,0.000000 81.764969,26.466972,0.000000 81.766052,26.465779,0.000000 81.767387,26.464222,0.000000 81.768974,26.465638,0.000000 81.768196,26.466193,0.000000 81.766357,26.468000,0.000000 81.767440,26.468556,0.000000 81.767693,26.468779,0.000000 81.766777,26.469610,0.000000 81.767060,26.469888,0.000000 81.767029,26.469944,0.000000 81.767555,26.470751,0.000000 81.767220,26.470916,0.000000 81.767281,26.471027,0.000000 81.767082,26.471137,0.000000 81.767303,26.471415,0.000000 81.766670,26.471952,0.000000 81.766289,26.471833,0.000000 81.766018,26.471751,0.000000 81.765476,26.471669,0.000000 81.765205,26.471791,0.000000 81.764934,26.471912,0.000000 81.764708,26.472237,0.000000 81.764662,26.472602,0.000000 81.764662,26.472846,0.000000 81.764661,26.473171,0.000000 81.764751,26.473496,0.000000 81.764976,26.473781,0.000000 81.765111,26.473943,0.000000 81.765427,26.474025,0.000000 81.766014,26.473985,0.000000 81.766566,26.473986,0.000000 </coordinates>
              </LinearRing>
            </outerBoundaryIs>
          </Polygon>
        </MultiGeometry>
      </Placemark>
      <Placemark>
        <name>Harkhumau</name>
        <styleUrl>#Compose</styleUrl>
        <ExtendedData>
          <SchemaData schemaUrl="#Compose_schema">
            <SimpleData name="FID">2</SimpleData>
            <SimpleData name="SOC1">Harkhumau</SimpleData>
            <SimpleData name="UID">9</SimpleData>
            <SimpleData name="STATE">Uttar Pradesh</SimpleData>
            <SimpleData name="DISTRICT">Amethi</SimpleData>
            <SimpleData name="VILLAGE">Gayshpur</SimpleData>
            <SimpleData name="SOCIETY">Harkhumau</SimpleData>
            <SimpleData name="Site">Gyashpur</SimpleData>
            <SimpleData name="Y_Plant">2009</SimpleData>
            <SimpleData name="Folder_01">P143R042_5X19901117</SimpleData>
            <SimpleData name="Image_01">p143r042_5dt19901117</SimpleData>
            <SimpleData name="Date_01">17-Nov-90</SimpleData>
            <SimpleData name="Folder_02">LT51430422009037KHC00</SimpleData>
            <SimpleData name="Image_02">L5143042_04220090206</SimpleData>
            <SimpleData name="Date_02">06-Feb-09</SimpleData>
            <SimpleData name="Com_01">NF</SimpleData>
            <SimpleData name="Com_02">NF</SimpleData>
            <SimpleData name="ELI">Y</SimpleData>
          </SchemaData>
        </ExtendedData>
        <MultiGeometry>
          <Point>
            <extrude>0</extrude>
            <altitudeMode>clampToGround</altitudeMode>
            <coordinates>81.611278,26.572334,0.000000</coordinates>
          </Point>
          <Polygon>
            <extrude>0</extrude>
            <tesselate>1</tesselate>
            <altitudeMode>clampToGround</altitudeMode>
            <outerBoundaryIs>
              <LinearRing>
                <coordinates>81.616458,26.575276,0.000000 81.616626,26.575552,0.000000 81.616016,26.575749,0.000000 81.615260,26.575692,0.000000 81.614513,26.575163,0.000000 81.614177,26.575192,0.000000 81.613985,26.575024,0.000000 81.613627,26.574998,0.000000 81.613239,26.574638,0.000000 81.613070,26.574137,0.000000 81.612789,26.573860,0.000000 81.612483,26.574025,0.000000 81.611598,26.574025,0.000000 81.610789,26.574276,0.000000 81.610568,26.574025,0.000000 81.610316,26.574305,0.000000 81.610072,26.574803,0.000000 81.609348,26.574553,0.000000 81.608989,26.574554,0.000000 81.608653,26.574360,0.000000 81.608149,26.574469,0.000000 81.607844,26.574276,0.000000 81.607287,26.574249,0.000000 81.605929,26.573887,0.000000 81.606402,26.573166,0.000000 81.606960,26.572554,0.000000 81.607707,26.571997,0.000000 81.608515,26.571388,0.000000 81.609096,26.570805,0.000000 81.609874,26.570055,0.000000 81.610378,26.570581,0.000000 81.611041,26.569998,0.000000 81.611705,26.571524,0.000000 81.611849,26.571610,0.000000 81.611957,26.571665,0.000000 81.612345,26.571749,0.000000 81.613070,26.572137,0.000000 81.613597,26.572497,0.000000 81.613818,26.572748,0.000000 81.614376,26.573664,0.000000 81.614711,26.573971,0.000000 81.615488,26.574276,0.000000 81.615847,26.574415,0.000000 81.616122,26.574694,0.000000 81.616458,26.575276,0.000000 </coordinates>
              </LinearRing>
            </outerBoundaryIs>
          </Polygon>
        </MultiGeometry>
      </Placemark>
      <Placemark>
        <name>Urermau</name>
        <styleUrl>#Compose</styleUrl>
        <ExtendedData>
          <SchemaData schemaUrl="#Compose_schema">
            <SimpleData name="FID">3</SimpleData>
            <SimpleData name="SOC1">Urermau</SimpleData>
            <SimpleData name="UID">10</SimpleData>
            <SimpleData name="STATE">Uttar Pradesh</SimpleData>
            <SimpleData name="DISTRICT">Amethi</SimpleData>
            <SimpleData name="VILLAGE">Bakshi Ka Purwa</SimpleData>
            <SimpleData name="SOCIETY">Urermau</SimpleData>
            <SimpleData name="Site">Bakshi Ka Purwa</SimpleData>
            <SimpleData name="Y_Plant">2009</SimpleData>
            <SimpleData name="Folder_01">P143R042_5X19901117</SimpleData>
            <SimpleData name="Image_01">p143r042_5dt19901117</SimpleData>
            <SimpleData name="Date_01">17-Nov-90</SimpleData>
            <SimpleData name="Folder_02">LT51430422009037KHC00</SimpleData>
            <SimpleData name="Image_02">L5143042_04220090206</SimpleData>
            <SimpleData name="Date_02">06-Feb-09</SimpleData>
            <SimpleData name="Com_01">NF</SimpleData>
            <SimpleData name="Com_02">NF</SimpleData>
            <SimpleData name="ELI">Y</SimpleData>
          </SchemaData>
        </ExtendedData>
        <MultiGeometry>
          <Point>
            <extrude>0</extrude>
            <altitudeMode>clampToGround</altitudeMode>
            <coordinates>81.612537,26.606685,0.000000</coordinates>
          </Point>
          <Polygon>
            <extrude>0</extrude>
            <tesselate>1</tesselate>
            <altitudeMode>clampToGround</altitudeMode>
            <outerBoundaryIs>
              <LinearRing>
                <coordinates>81.613894,26.606512,0.000000 81.613583,26.606417,0.000000 81.613472,26.606306,0.000000 81.613194,26.606472,0.000000 81.613389,26.607722,0.000000 81.612611,26.607722,0.000000 81.611889,26.607833,0.000000 81.611194,26.608028,0.000000 81.611050,26.607468,0.000000 81.611134,26.607455,0.000000 81.611324,26.607405,0.000000 81.611381,26.607303,0.000000 81.611476,26.607201,0.000000 81.611628,26.607150,0.000000 81.611704,26.607065,0.000000 81.611707,26.607051,0.000000 81.611750,26.607083,0.000000 81.612194,26.607056,0.000000 81.612472,26.606778,0.000000 81.612083,26.605889,0.000000 81.612778,26.605500,0.000000 81.612917,26.605778,0.000000 81.613306,26.605583,0.000000 81.613556,26.605917,0.000000 81.614000,26.605944,0.000000 81.614023,26.605969,0.000000 81.613982,26.605997,0.000000 81.613944,26.606133,0.000000 81.613943,26.606270,0.000000 81.613943,26.606440,0.000000 81.613894,26.606512,0.000000 </coordinates>
              </LinearRing>
            </outerBoundaryIs>
          </Polygon>
        </MultiGeometry>
      </Placemark>
      <Placemark>
        <name>Dabhiyar</name>
        <styleUrl>#Compose</styleUrl>
        <ExtendedData>
          <SchemaData schemaUrl="#Compose_schema">
            <SimpleData name="FID">4</SimpleData>
            <SimpleData name="SOC1">Dabhiyar</SimpleData>
            <SimpleData name="UID">11</SimpleData>
            <SimpleData name="STATE">Uttar Pradesh</SimpleData>
            <SimpleData name="DISTRICT">Pratapgarh</SimpleData>
            <SimpleData name="VILLAGE">Puremureli</SimpleData>
            <SimpleData name="SOCIETY">Dabhiyar</SimpleData>
            <SimpleData name="Site">Puremureli</SimpleData>
            <SimpleData name="Y_Plant">2010</SimpleData>
            <SimpleData name="Folder_01">LE71430421999338SGS00</SimpleData>
            <SimpleData name="Image_01">L71143042_04219991204</SimpleData>
            <SimpleData name="Date_01">04-Dec-99</SimpleData>
            <SimpleData name="Folder_02">LT51430422010104KHC00</SimpleData>
            <SimpleData name="Image_02">L5143042_04220100414</SimpleData>
            <SimpleData name="Date_02">14-Apr-10</SimpleData>
            <SimpleData name="Com_01">NF</SimpleData>
            <SimpleData name="Com_02">NF</SimpleData>
            <SimpleData name="ELI">Y</SimpleData>
          </SchemaData>
        </ExtendedData>
        <MultiGeometry>
          <Point>
            <extrude>0</extrude>
            <altitudeMode>clampToGround</altitudeMode>
            <coordinates>81.705238,26.001743,0.000000</coordinates>
          </Point>
          <Polygon>
            <extrude>0</extrude>
            <tesselate>1</tesselate>
            <altitudeMode>clampToGround</altitudeMode>
            <outerBoundaryIs>
              <LinearRing>
                <coordinates>81.708473,26.002610,0.000000 81.707833,26.002862,0.000000 81.706718,26.003251,0.000000 81.705918,26.003279,0.000000 81.705108,26.003360,0.000000 81.704918,26.002946,0.000000 81.705109,26.002917,0.000000 81.705109,26.002555,0.000000 81.704140,26.002832,0.000000 81.703942,26.002027,0.000000 81.704109,26.001723,0.000000 81.703278,26.001418,0.000000 81.703248,26.001167,0.000000 81.703583,26.001083,0.000000 81.703277,26.000556,0.000000 81.703026,25.999778,0.000000 81.702973,25.998388,0.000000 81.703087,25.998193,0.000000 81.702774,25.997555,0.000000 81.702308,25.996973,0.000000 81.702446,25.996833,0.000000 81.702003,25.996250,0.000000 81.702637,25.995750,0.000000 81.703248,25.996305,0.000000 81.704025,25.996334,0.000000 81.704720,25.996945,0.000000 81.704109,25.997222,0.000000 81.704247,25.997361,0.000000 81.703972,25.997638,0.000000 81.704193,25.997972,0.000000 81.704109,25.998471,0.000000 81.704888,25.999501,0.000000 81.705666,26.000917,0.000000 81.705918,26.001556,0.000000 81.706802,26.001751,0.000000 81.707642,26.001668,0.000000 81.707917,26.001666,0.000000 81.708358,26.002306,0.000000 81.708473,26.002610,0.000000 </coordinates>
              </LinearRing>
            </outerBoundaryIs>
            <innerBoundaryIs>
              <LinearRing>
                <coordinates>81.705055,26.000746,0.000000 81.705124,26.001164,0.000000 81.705039,26.001354,0.000000 81.704787,26.001353,0.000000 81.704493,26.001315,0.000000 81.704494,26.001011,0.000000 81.704578,26.000745,0.000000 81.705055,26.000746,0.000000 </coordinates>
              </LinearRing>
            </innerBoundaryIs>
          </Polygon>
        </MultiGeometry>
      </Placemark>
      <Placemark>
        <name>Medhawa</name>
        <styleUrl>#Compose</styleUrl>
        <ExtendedData>
          <SchemaData schemaUrl="#Compose_schema">
            <SimpleData name="FID">5</SimpleData>
            <SimpleData name="SOC1">Medhawa</SimpleData>
            <SimpleData name="UID">12</SimpleData>
            <SimpleData name="STATE">Uttar Pradesh</SimpleData>
            <SimpleData name="DISTRICT">Pratapgarh</SimpleData>
            <SimpleData name="VILLAGE">Pichura</SimpleData>
            <SimpleData name="SOCIETY">Medhawa</SimpleData>
            <SimpleData name="Site">Pichura</SimpleData>
            <SimpleData name="Y_Plant">2011</SimpleData>
            <SimpleData name="Folder_01">LE71430421999338SGS00</SimpleData>
            <SimpleData name="Image_01">L71143042_04219991204</SimpleData>
            <SimpleData name="Date_01">04-Dec-99</SimpleData>
            <SimpleData name="Folder_02">LT51430422010104KHC00</SimpleData>
            <SimpleData name="Image_02">L5143042_04220100414</SimpleData>
            <SimpleData name="Date_02">14-Apr-2010</SimpleData>
            <SimpleData name="Com_01">NF</SimpleData>
            <SimpleData name="Com_02">NF</SimpleData>
            <SimpleData name="ELI">Y</SimpleData>
          </SchemaData>
        </ExtendedData>
        <MultiGeometry>
          <Point>
            <extrude>0</extrude>
            <altitudeMode>clampToGround</altitudeMode>
            <coordinates>81.681099,25.992962,0.000000</coordinates>
          </Point>
          <Polygon>
            <extrude>0</extrude>
            <tesselate>1</tesselate>
            <altitudeMode>clampToGround</altitudeMode>
            <outerBoundaryIs>
              <LinearRing>
                <coordinates>81.681002,25.988712,0.000000 81.680916,25.988807,0.000000 81.680726,25.989165,0.000000 81.680642,25.989639,0.000000 81.680809,25.991387,0.000000 81.680946,25.991611,0.000000 81.681968,25.992360,0.000000 81.683639,25.993249,0.000000 81.683808,25.993668,0.000000 81.683807,25.994278,0.000000 81.683609,25.994723,0.000000 81.683167,25.995084,0.000000 81.682335,25.994889,0.000000 81.680443,25.993834,0.000000 81.679947,25.993667,0.000000 81.679611,25.993639,0.000000 81.678666,25.993639,0.000000 81.678475,25.992721,0.000000 81.678444,25.991916,0.000000 81.679611,25.992082,0.000000 81.679558,25.991472,0.000000 81.679108,25.991501,0.000000 81.679085,25.990862,0.000000 81.679528,25.990943,0.000000 81.679336,25.990529,0.000000 81.678863,25.990613,0.000000 81.678390,25.989805,0.000000 81.678695,25.989554,0.000000 81.679222,25.990140,0.000000 81.680138,25.989666,0.000000 81.679916,25.989276,0.000000 81.679748,25.989276,0.000000 81.679558,25.988806,0.000000 81.679886,25.988582,0.000000 81.680480,25.988455,0.000000 81.680671,25.988513,0.000000 81.680992,25.988707,0.000000 81.681002,25.988712,0.000000 </coordinates>
              </LinearRing>
            </outerBoundaryIs>
          </Polygon>
        </MultiGeometry>
      </Placemark>
      <Placemark>
        <name>Urermau</name>
        <styleUrl>#Compose</styleUrl>
        <ExtendedData>
          <SchemaData schemaUrl="#Compose_schema">
            <SimpleData name="FID">6</SimpleData>
            <SimpleData name="SOC1">Urermau</SimpleData>
            <SimpleData name="UID">18</SimpleData>
            <SimpleData name="STATE">Uttar Pradesh</SimpleData>
            <SimpleData name="DISTRICT">Amethi</SimpleData>
            <SimpleData name="VILLAGE">Pali</SimpleData>
            <SimpleData name="SOCIETY">Urermau</SimpleData>
            <SimpleData name="Site">Pali</SimpleData>
            <SimpleData name="Y_Plant">2011</SimpleData>
            <SimpleData name="Folder_01">LE71430421999338SGS00</SimpleData>
            <SimpleData name="Image_01">L71143042_04219991204</SimpleData>
            <SimpleData name="Date_01">04-Dec-99</SimpleData>
            <SimpleData name="Folder_02">LT51430422010104KHC00</SimpleData>
            <SimpleData name="Image_02">L5143042_04220100414</SimpleData>
            <SimpleData name="Date_02">14-Apr-2010</SimpleData>
            <SimpleData name="Com_01">NF</SimpleData>
            <SimpleData name="Com_02">NF</SimpleData>
            <SimpleData name="ELI">Y</SimpleData>
          </SchemaData>
        </ExtendedData>
        <MultiGeometry>
          <Point>
            <extrude>0</extrude>
            <altitudeMode>clampToGround</altitudeMode>
            <coordinates>81.618637,26.616834,0.000000</coordinates>
          </Point>
          <Polygon>
            <extrude>0</extrude>
            <tesselate>1</tesselate>
            <altitudeMode>clampToGround</altitudeMode>
            <outerBoundaryIs>
              <LinearRing>
                <coordinates>81.618615,26.622174,0.000000 81.618558,26.622174,0.000000 81.618066,26.622373,0.000000 81.617708,26.622493,0.000000 81.617393,26.622492,0.000000 81.617167,26.622237,0.000000 81.616449,26.621958,0.000000 81.616166,26.621957,0.000000 81.616417,26.621777,0.000000 81.617142,26.621000,0.000000 81.616997,26.620944,0.000000 81.617531,26.620472,0.000000 81.617195,26.620196,0.000000 81.617081,26.620361,0.000000 81.616447,26.620251,0.000000 81.616531,26.619888,0.000000 81.616555,26.619748,0.000000 81.616386,26.619667,0.000000 81.616059,26.619639,0.000000 81.615471,26.619973,0.000000 81.615196,26.619862,0.000000 81.614670,26.619527,0.000000 81.614472,26.619639,0.000000 81.613915,26.618305,0.000000 81.614219,26.618250,0.000000 81.614693,26.618415,0.000000 81.615280,26.618110,0.000000 81.615448,26.618361,0.000000 81.615723,26.618305,0.000000 81.615669,26.618194,0.000000 81.616279,26.617860,0.000000 81.616363,26.617417,0.000000 81.617225,26.617028,0.000000 81.617584,26.617610,0.000000 81.618080,26.617196,0.000000 81.617859,26.616777,0.000000 81.618362,26.616582,0.000000 81.618638,26.616834,0.000000 81.618416,26.617084,0.000000 81.618469,26.617249,0.000000 81.618615,26.617250,0.000000 81.618531,26.617445,0.000000 81.618584,26.617611,0.000000 81.618530,26.617751,0.000000 81.618553,26.617861,0.000000 81.618637,26.617972,0.000000 81.618499,26.618139,0.000000 81.618530,26.618249,0.000000 81.619163,26.617750,0.000000 81.619057,26.617694,0.000000 81.619583,26.617473,0.000000 81.619858,26.617862,0.000000 81.620026,26.617805,0.000000 81.620139,26.617890,0.000000 81.620307,26.617778,0.000000 81.620498,26.618084,0.000000 81.620751,26.617917,0.000000 81.620613,26.617751,0.000000 81.620446,26.617751,0.000000 81.620331,26.617555,0.000000 81.620865,26.617306,0.000000 81.620918,26.617055,0.000000 81.621834,26.617333,0.000000 81.623001,26.617584,0.000000 81.623169,26.617695,0.000000 81.623359,26.617944,0.000000 81.622497,26.618360,0.000000 81.622361,26.619112,0.000000 81.622665,26.619473,0.000000 81.622192,26.619833,0.000000 81.622170,26.619805,0.000000 81.622086,26.619888,0.000000 81.622309,26.620102,0.000000 81.622179,26.620243,0.000000 81.622262,26.620792,0.000000 81.622001,26.621058,0.000000 81.621643,26.621258,0.000000 81.621420,26.621297,0.000000 81.621062,26.621336,0.000000 81.621011,26.621383,0.000000 81.620820,26.621348,0.000000 81.620532,26.621421,0.000000 81.620244,26.621605,0.000000 81.620039,26.621752,0.000000 81.619751,26.621825,0.000000 81.619504,26.621861,0.000000 81.619258,26.621861,0.000000 81.618929,26.621934,0.000000 81.618764,26.622007,0.000000 81.618615,26.622174,0.000000 </coordinates>
              </LinearRing>
            </outerBoundaryIs>
          </Polygon>
        </MultiGeometry>
      </Placemark>
      <Placemark>
        <name>Barajhagarpur</name>
        <styleUrl>#Compose</styleUrl>
        <ExtendedData>
          <SchemaData schemaUrl="#Compose_schema">
            <SimpleData name="FID">7</SimpleData>
            <SimpleData name="SOC1">Barajhagarpur</SimpleData>
            <SimpleData name="UID">15</SimpleData>
            <SimpleData name="STATE">Uttar Pradesh</SimpleData>
            <SimpleData name="DISTRICT">Unnao</SimpleData>
            <SimpleData name="VILLAGE">Barajhagarpur</SimpleData>
            <SimpleData name="SOCIETY">Barajhagarpur</SimpleData>
            <SimpleData name="Site">Barajhagarpur</SimpleData>
            <SimpleData name="Y_Plant">2010</SimpleData>
            <SimpleData name="Folder_01">P144R042_5X19891121</SimpleData>
            <SimpleData name="Image_01">p144r042_5dt19891121</SimpleData>
            <SimpleData name="Date_01">21-Nov-89</SimpleData>
            <SimpleData name="Folder_02">LT51440422010031KHC00</SimpleData>
            <SimpleData name="Image_02">L5144042_04220100131</SimpleData>
            <SimpleData name="Date_02">31-Jan-10</SimpleData>
            <SimpleData name="Com_01">NF</SimpleData>
            <SimpleData name="Com_02">NF</SimpleData>
            <SimpleData name="ELI">Y</SimpleData>
          </SchemaData>
        </ExtendedData>
        <MultiGeometry>
          <Point>
            <extrude>0</extrude>
            <altitudeMode>clampToGround</altitudeMode>
            <coordinates>80.660111,26.250813,0.000000</coordinates>
          </Point>
          <Polygon>
            <extrude>0</extrude>
            <tesselate>1</tesselate>
            <altitudeMode>clampToGround</altitudeMode>
            <outerBoundaryIs>
              <LinearRing>
                <coordinates>80.661514,26.249699,0.000000 80.661556,26.249750,0.000000 80.661972,26.249694,0.000000 80.662583,26.249306,0.000000 80.662972,26.249528,0.000000 80.662472,26.249778,0.000000 80.662694,26.250000,0.000000 80.662944,26.250139,0.000000 80.662833,26.250556,0.000000 80.662528,26.250694,0.000000 80.662861,26.251167,0.000000 80.661972,26.251583,0.000000 80.661167,26.251889,0.000000 80.660472,26.252167,0.000000 80.660056,26.251528,0.000000 80.659750,26.250917,0.000000 80.659167,26.251278,0.000000 80.658639,26.251639,0.000000 80.658639,26.251944,0.000000 80.658278,26.252222,0.000000 80.657778,26.252472,0.000000 80.657250,26.252167,0.000000 80.657411,26.251703,0.000000 80.657431,26.251739,0.000000 80.657516,26.251766,0.000000 80.657629,26.251716,0.000000 80.657659,26.251563,0.000000 80.657688,26.251487,0.000000 80.657830,26.251412,0.000000 80.658085,26.251363,0.000000 80.658198,26.251364,0.000000 80.658424,26.251366,0.000000 80.658622,26.251367,0.000000 80.658820,26.251344,0.000000 80.658963,26.251217,0.000000 80.658992,26.251116,0.000000 80.658909,26.250988,0.000000 80.658893,26.250935,0.000000 80.659028,26.250861,0.000000 80.659056,26.250417,0.000000 80.659583,26.250083,0.000000 80.659618,26.249857,0.000000 80.659761,26.249959,0.000000 80.660102,26.250013,0.000000 80.660387,26.249964,0.000000 80.660728,26.249967,0.000000 80.661013,26.249969,0.000000 80.661241,26.249920,0.000000 80.661412,26.249819,0.000000 80.661514,26.249699,0.000000 </coordinates>
              </LinearRing>
            </outerBoundaryIs>
          </Polygon>
        </MultiGeometry>
      </Placemark>
      <Placemark>
        <name>Kumhrawa</name>
        <styleUrl>#Compose</styleUrl>
        <ExtendedData>
          <SchemaData schemaUrl="#Compose_schema">
            <SimpleData name="FID">8</SimpleData>
            <SimpleData name="SOC1">Kumhrawa</SimpleData>
            <SimpleData name="UID">1</SimpleData>
            <SimpleData name="STATE">Uttar Pradesh</SimpleData>
            <SimpleData name="DISTRICT">Lucknow</SimpleData>
            <SimpleData name="VILLAGE">Godhena</SimpleData>
            <SimpleData name="SOCIETY">Kumhrawa</SimpleData>
            <SimpleData name="Site">Godhena</SimpleData>
            <SimpleData name="Y_Plant">2009</SimpleData>
            <SimpleData name="Folder_01">p144r041_5x19891121</SimpleData>
            <SimpleData name="Image_01">p144r041_5t19891121</SimpleData>
            <SimpleData name="Date_01">21-Nov-89</SimpleData>
            <SimpleData name="Folder_02">LT51440412009156KHC00</SimpleData>
            <SimpleData name="Image_02">l5144041_04120090605</SimpleData>
            <SimpleData name="Date_02">05-jun-09</SimpleData>
            <SimpleData name="Com_01">NF</SimpleData>
            <SimpleData name="Com_02">NF</SimpleData>
            <SimpleData name="ELI">Y</SimpleData>
          </SchemaData>
        </ExtendedData>
        <MultiGeometry>
          <Point>
            <extrude>0</extrude>
            <altitudeMode>clampToGround</altitudeMode>
            <coordinates>80.995071,27.143820,0.000000</coordinates>
          </Point>
          <Polygon>
            <extrude>0</extrude>
            <tesselate>1</tesselate>
            <altitudeMode>clampToGround</altitudeMode>
            <outerBoundaryIs>
              <LinearRing>
                <coordinates>80.996517,27.144986,0.000000 80.996597,27.145056,0.000000 80.996667,27.145842,0.000000 80.996506,27.146528,0.000000 80.995983,27.146183,0.000000 80.996028,27.145875,0.000000 80.995767,27.145756,0.000000 80.995439,27.145089,0.000000 80.995044,27.144372,0.000000 80.994681,27.144144,0.000000 80.994486,27.144133,0.000000 80.993992,27.143825,0.000000 80.993475,27.143233,0.000000 80.994097,27.142958,0.000000 80.994764,27.142694,0.000000 80.995256,27.143533,0.000000 80.995667,27.143275,0.000000 80.995744,27.143417,0.000000 80.995967,27.143314,0.000000 80.996517,27.144986,0.000000 </coordinates>
              </LinearRing>
            </outerBoundaryIs>
          </Polygon>
        </MultiGeometry>
      </Placemark>
      <Placemark>
        <name>Madwa</name>
        <styleUrl>#Compose</styleUrl>
        <ExtendedData>
          <SchemaData schemaUrl="#Compose_schema">
            <SimpleData name="FID">9</SimpleData>
            <SimpleData name="SOC1">Madwa</SimpleData>
            <SimpleData name="UID">5</SimpleData>
            <SimpleData name="STATE">Uttar Pradesh</SimpleData>
            <SimpleData name="DISTRICT">Sultanpur</SimpleData>
            <SimpleData name="VILLAGE">Madwa</SimpleData>
            <SimpleData name="SOCIETY">Madwa</SimpleData>
            <SimpleData name="Site">Madwa</SimpleData>
            <SimpleData name="Y_Plant">2011</SimpleData>
            <SimpleData name="Folder_01">P143R042_5X19901117</SimpleData>
            <SimpleData name="Image_01">p143r042_5dt19901117</SimpleData>
            <SimpleData name="Date_01">17-Nov-90</SimpleData>
            <SimpleData name="Folder_02">LT51430422010104KHC00</SimpleData>
            <SimpleData name="Image_02">L5143042_04220100414</SimpleData>
            <SimpleData name="Date_02">14-Apr-2010</SimpleData>
            <SimpleData name="Com_01">NF</SimpleData>
            <SimpleData name="Com_02">NF</SimpleData>
            <SimpleData name="ELI">Y</SimpleData>
          </SchemaData>
        </ExtendedData>
        <MultiGeometry>
          <Point>
            <extrude>0</extrude>
            <altitudeMode>clampToGround</altitudeMode>
            <coordinates>81.694888,26.519631,0.000000</coordinates>
          </Point>
          <Polygon>
            <extrude>0</extrude>
            <tesselate>1</tesselate>
            <altitudeMode>clampToGround</altitudeMode>
            <outerBoundaryIs>
              <LinearRing>
                <coordinates>81.696442,26.520204,0.000000 81.695570,26.520543,0.000000 81.695010,26.520185,0.000000 81.694096,26.520536,0.000000 81.693606,26.520133,0.000000 81.693697,26.519675,0.000000 81.693333,26.519406,0.000000 81.693858,26.518783,0.000000 81.694158,26.519006,0.000000 81.694353,26.518675,0.000000 81.694833,26.519069,0.000000 81.695200,26.518800,0.000000 81.696289,26.519897,0.000000 81.696442,26.520204,0.000000 </coordinates>
              </LinearRing>
            </outerBoundaryIs>
          </Polygon>
        </MultiGeometry>
      </Placemark>
      <Placemark>
        <name>Kachnao</name>
        <styleUrl>#Compose</styleUrl>
        <ExtendedData>
          <SchemaData schemaUrl="#Compose_schema">
            <SimpleData name="FID">10</SimpleData>
            <SimpleData name="SOC1">Kachnao</SimpleData>
            <SimpleData name="UID">4</SimpleData>
            <SimpleData name="STATE">Uttar Pradesh</SimpleData>
            <SimpleData name="DISTRICT">Amethi</SimpleData>
            <SimpleData name="VILLAGE">Kachnao</SimpleData>
            <SimpleData name="SOCIETY">Kachnao</SimpleData>
            <SimpleData name="Site">Kachnao</SimpleData>
            <SimpleData name="Y_Plant">2011</SimpleData>
            <SimpleData name="Folder_01">P143R042_5X19901117</SimpleData>
            <SimpleData name="Image_01">p143r042_5dt19901117</SimpleData>
            <SimpleData name="Date_01">17-Nov-90</SimpleData>
            <SimpleData name="Folder_02">LT51430422010104KHC00</SimpleData>
            <SimpleData name="Image_02">L5143042_04220100414</SimpleData>
            <SimpleData name="Date_02">14-Apr-2010</SimpleData>
            <SimpleData name="Com_01">NF</SimpleData>
            <SimpleData name="Com_02">NF</SimpleData>
            <SimpleData name="ELI">Y</SimpleData>
          </SchemaData>
        </ExtendedData>
        <MultiGeometry>
          <Point>
            <extrude>0</extrude>
            <altitudeMode>clampToGround</altitudeMode>
            <coordinates>81.728638,26.516546,0.000000</coordinates>
          </Point>
          <Polygon>
            <extrude>0</extrude>
            <tesselate>1</tesselate>
            <altitudeMode>clampToGround</altitudeMode>
            <outerBoundaryIs>
              <LinearRing>
                <coordinates>81.730578,26.517028,0.000000 81.729131,26.518306,0.000000 81.728375,26.517839,0.000000 81.727333,26.516925,0.000000 81.728411,26.516686,0.000000 81.728272,26.516194,0.000000 81.727778,26.516311,0.000000 81.728006,26.516708,0.000000 81.727464,26.516858,0.000000 81.727267,26.516469,0.000000 81.726939,26.516544,0.000000 81.726697,26.515992,0.000000 81.727147,26.515772,0.000000 81.726914,26.515386,0.000000 81.727150,26.515278,0.000000 81.727308,26.515558,0.000000 81.727742,26.515442,0.000000 81.727650,26.515094,0.000000 81.728047,26.514978,0.000000 81.728167,26.515181,0.000000 81.728528,26.515153,0.000000 81.729194,26.514764,0.000000 81.730228,26.515803,0.000000 81.730578,26.517028,0.000000 </coordinates>
              </LinearRing>
            </outerBoundaryIs>
          </Polygon>
        </MultiGeometry>
      </Placemark>
      <Placemark>
        <name>Poorabgaon</name>
        <styleUrl>#Compose</styleUrl>
        <ExtendedData>
          <SchemaData schemaUrl="#Compose_schema">
            <SimpleData name="FID">11</SimpleData>
            <SimpleData name="SOC1">Poorabgaon</SimpleData>
            <SimpleData name="UID">2</SimpleData>
            <SimpleData name="STATE">Uttar Pradesh</SimpleData>
            <SimpleData name="DISTRICT">Pratapgarh</SimpleData>
            <SimpleData name="VILLAGE">Talasiristabad</SimpleData>
            <SimpleData name="SOCIETY">Poorabgaon</SimpleData>
            <SimpleData name="Site">Talasiristabad</SimpleData>
            <SimpleData name="Y_Plant">2010</SimpleData>
            <SimpleData name="Folder_01">LE71430421999338SGS00</SimpleData>
            <SimpleData name="Image_01">L71143042_04219991204</SimpleData>
            <SimpleData name="Date_01">04-Dec-99</SimpleData>
            <SimpleData name="Folder_02">LT51430422010104KHC00</SimpleData>
            <SimpleData name="Image_02">L5143042_04220100414</SimpleData>
            <SimpleData name="Date_02">14-Apr-10</SimpleData>
            <SimpleData name="Com_01">NF</SimpleData>
            <SimpleData name="Com_02">NF</SimpleData>
            <SimpleData name="ELI">Y</SimpleData>
          </SchemaData>
        </ExtendedData>
        <MultiGeometry>
          <Point>
            <extrude>0</extrude>
            <altitudeMode>clampToGround</altitudeMode>
            <coordinates>81.772132,25.984507,0.000000</coordinates>
          </Point>
          <Polygon>
            <extrude>0</extrude>
            <tesselate>1</tesselate>
            <altitudeMode>clampToGround</altitudeMode>
            <outerBoundaryIs>
              <LinearRing>
                <coordinates>81.770903,25.986500,0.000000 81.770931,25.985319,0.000000 81.770944,25.984556,0.000000 81.770736,25.984403,0.000000 81.770333,25.984400,0.000000 81.770292,25.983736,0.000000 81.771236,25.983611,0.000000 81.771875,25.983278,0.000000 81.771792,25.983056,0.000000 81.771986,25.982944,0.000000 81.772389,25.982750,0.000000 81.772722,25.983333,0.000000 81.772778,25.983500,0.000000 81.772833,25.983444,0.000000 81.773083,25.984250,0.000000 81.773972,25.984056,0.000000 81.773889,25.984861,0.000000 81.773708,25.984583,0.000000 81.773417,25.984733,0.000000 81.773444,25.985000,0.000000 81.772306,25.985139,0.000000 81.772500,25.986111,0.000000 81.772194,25.986139,0.000000 81.771706,25.986133,0.000000 81.770903,25.986500,0.000000 </coordinates>
              </LinearRing>
            </outerBoundaryIs>
          </Polygon>
        </MultiGeometry>
      </Placemark>
      <Placemark>
        <name>Chirla-bhagwatpur</name>
        <styleUrl>#Compose</styleUrl>
        <ExtendedData>
          <SchemaData schemaUrl="#Compose_schema">
            <SimpleData name="FID">12</SimpleData>
            <SimpleData name="SOC1">Chirla-bhagwatpur</SimpleData>
            <SimpleData name="UID">3</SimpleData>
            <SimpleData name="STATE">Uttar Pradesh</SimpleData>
            <SimpleData name="DISTRICT">Allahabad</SimpleData>
            <SimpleData name="VILLAGE">Chirla-bhagwatpur</SimpleData>
            <SimpleData name="SOCIETY">Chirla-bhagwatpur</SimpleData>
            <SimpleData name="Site">Chirla Bhagwatpur</SimpleData>
            <SimpleData name="Y_Plant">2010</SimpleData>
            <SimpleData name="Folder_01">LE71430421999338SGS00</SimpleData>
            <SimpleData name="Image_01">l71143042_04220000325</SimpleData>
            <SimpleData name="Date_01">03-mar-2000</SimpleData>
            <SimpleData name="Folder_02">LT51430422010104KHC00</SimpleData>
            <SimpleData name="Image_02">L5143042_04220100414</SimpleData>
            <SimpleData name="Date_02">14-Apr-10</SimpleData>
            <SimpleData name="Com_01">NF</SimpleData>
            <SimpleData name="Com_02">NF</SimpleData>
            <SimpleData name="ELI">Y</SimpleData>
          </SchemaData>
        </ExtendedData>
        <MultiGeometry>
          <Point>
            <extrude>0</extrude>
            <altitudeMode>clampToGround</altitudeMode>
            <coordinates>81.699604,25.417566,0.000000</coordinates>
          </Point>
          <Polygon>
            <extrude>0</extrude>
            <tesselate>1</tesselate>
            <altitudeMode>clampToGround</altitudeMode>
            <outerBoundaryIs>
              <LinearRing>
                <coordinates>81.700736,25.418589,0.000000 81.700292,25.419700,0.000000 81.699764,25.419567,0.000000 81.699514,25.419089,0.000000 81.699264,25.418839,0.000000 81.699347,25.418783,0.000000 81.699222,25.418617,0.000000 81.698722,25.418611,0.000000 81.698472,25.418222,0.000000 81.698861,25.417917,0.000000 81.698944,25.418061,0.000000 81.699203,25.417978,0.000000 81.699139,25.417722,0.000000 81.698944,25.417139,0.000000 81.699131,25.416556,0.000000 81.699250,25.416192,0.000000 81.699139,25.415861,0.000000 81.699694,25.415872,0.000000 81.700250,25.415853,0.000000 81.700278,25.416464,0.000000 81.700556,25.416569,0.000000 81.700569,25.416847,0.000000 81.700000,25.417125,0.000000 81.700000,25.417556,0.000000 81.700375,25.417658,0.000000 81.700736,25.418589,0.000000 </coordinates>
              </LinearRing>
            </outerBoundaryIs>
          </Polygon>
        </MultiGeometry>
      </Placemark>
    </Folder>
  </Document>
</kml>