<?xml version="1.0" encoding="utf-8" ?>
<kml xmlns="http://www.opengis.net/kml/2.2">
<Document id="root_doc">
<Schema name="lzrp_vcs_reference_area" id="lzrp_vcs_reference_area">
	<SimpleField name="Id" type="float"></SimpleField>
	<SimpleField name="Area_ha" type="float"></SimpleField>
</Schema>
<Folder><name>lzrp_vcs_reference_area</name>
  <Placemark>
	<name>Reference</name>
	<Style><LineStyle><color>ff0000ff</color></LineStyle><PolyStyle><fill>0</fill></PolyStyle></Style>
	<ExtendedData><SchemaData schemaUrl="#lzrp_vcs_reference_area">
		<SimpleData name="Id">3</SimpleData>
		<SimpleData name="Area_ha">49877.050219087010191</SimpleData>
	</SchemaData></ExtendedData>
      <MultiGeometry><Polygon><outerBoundaryIs><LinearRing><coordinates>29.0803191758846,-15.4783019588855 29.080718017958,-15.4777636609802 29.0815257298562,-15.4771822972603 29.0832229845185,-15.4768077221564 29.0834340653406,-15.4757299215908 29.0840141705239,-15.4745769257841 29.0863683091106,-15.4733354939631 29.0862067586867,-15.4719743212048 29.0867875585515,-15.4708930349772 29.0888552033791,-15.4705866524771 29.0904726785711,-15.4696390165762 29.0911634255067,-15.4682172061359 29.0931074529004,-15.4654256418226 29.0951529076967,-15.4629199884081 29.0974128225836,-15.4621335811089 29.1000584079736,-15.4604828524921 29.1013265855609,-15.4591320473313 29.1034608179726,-15.4556692226863 29.1045327362882,-15.4544158943496 29.105197742208,-15.4519232784045 29.1040901340876,-15.4496387494672 29.10288589698,-15.4475463825272 29.1013849723455,-15.4453611909886 29.1006765918763,-15.4435509872073 29.1025101506439,-15.4396128967782 29.1024908820486,-15.4377005365736 29.1008885795861,-15.4352294103782 29.1006731383498,-15.4334145323857 29.09942347823,-15.4319466958902 29.0993359682697,-15.4318439062704 29.098977125694,-15.4314224094172 29.0987674761267,-15.430181236391 29.0993569571857,-15.4292462011818 29.1002890360775,-15.429043219494 29.1021378116067,-15.4290735276992 29.103270949784,-15.4290149783065 29.103254577181,-15.4273894707398 29.1030736454007,-15.4265544477515 29.1038778224061,-15.4251578421248 29.1040425319995,-15.4248717899288 29.1047164074143,-15.4232636468163 29.1049534451097,-15.4223290348943 29.105361777673,-15.4212732646532 29.1065398778527,-15.4183454644765 29.1064213863326,-15.4175308859399 29.1063280392612,-15.4168891603365 29.1059637027138,-15.4174185652397 29.1054859282189,-15.4177176567138 29.1036371042493,-15.4188750251754 29.1023858594431,-15.4194367324702 29.1014441443002,-15.4189196960282 29.1011494748175,-15.4185834095289 29.1009880817152,-15.4186156297684 29.1000435409182,-15.418108160309 29.0995793656756,-15.4172877630203 29.0987795620993,-15.417402903526 29.0978693461545,-15.4175668992028 29.0978597911013,-15.4175779280325 29.0976500816139,-15.4178199927398 29.0975777144306,-15.4179760715331 29.0973969731989,-15.4183841953413 29.0968603499852,-15.4189391219465 29.0964320047471,-15.4196747179726 29.0962304292165,-15.4200208797896 29.09542858492,-15.4204253038943 29.0950136235639,-15.4203335915932 29.0949313142999,-15.4199901083431 29.095243771252,-15.4196907143295 29.0952450570474,-15.4196859205214 29.095462334895,-15.4188758168282 29.0950936904696,-15.4184872214014 29.094878160048,-15.4176381687721 29.0948646608128,-15.4172749103613 29.0945878964705,-15.4172010195303 29.094264913241,-15.4174335717419 29.093928431651,-15.4173028658024 29.09359708754,-15.417039401169 29.0933222664613,-15.4168208788305 29.0928766884777,-15.4166242603745 29.0927843357657,-15.4162617444727 29.0926466944684,-15.4158064187184 29.0926436611986,-15.4155034808527 29.0926384369126,-15.4149817067234 29.092889283005,-15.4141904133181 29.0924834032127,-15.4142659581208 29.0914096678183,-15.4140967685166 29.0912010252197,-15.413985992838 29.0904805595482,-15.4136034682078 29.0902168854584,-15.4132843483687 29.0902089673415,-15.4132747646221 29.0900689428641,-15.4131052948742 29.0902698965309,-15.4124714111898 29.0903197977624,-15.4123140033173 29.0908634867813,-15.4112330723881 29.0908914839132,-15.4103362962598 29.0904627672398,-15.4099283950857 29.0904627671918,-15.4099283950401 29.0902862003114,-15.4097604002518 29.0902570214114,-15.4097326379064 29.0901075926416,-15.4096801448668 29.089932172441,-15.4091725465915 29.0897712374578,-15.4095619847187 29.0877715660827,-15.4088594944216 29.0877256649347,-15.4087427533258 29.0873922747464,-15.4078948235408 29.0871554682867,-15.4063909035032 29.0871166641974,-15.406334873345 29.086479685305,-15.4054151220392 29.086346829882,-15.4052232868358 29.0862178209625,-15.4050370058145 29.0861105092174,-15.4050628596052 29.0854434066804,-15.4052235773991 29.084625952396,-15.4048009194034 29.0835408379745,-15.4034842516695 29.0829078455588,-15.4030239957323 29.0819468406011,-15.4030329996763 29.0813493875684,-15.4024289633167 29.0804889278605,-15.4013970581534 29.0792688410101,-15.4013726142078 29.078303210543,-15.4009154544655 29.0783664478652,-15.3998390406977 29.0787303596522,-15.3992618662194 29.0796231518028,-15.399322759121 29.0795003885484,-15.3992149317143 29.0829587835968,-15.3952930267318 29.0873122600537,-15.3896227219322 29.0877692478404,-15.3892909468008 29.0886274002677,-15.3883648595583 29.0893433668048,-15.3870193407119 29.0896680213591,-15.3839944398318 29.0906273713293,-15.3833351565651 29.0921801434421,-15.3828806732572 29.0938795074829,-15.3813155156105 29.0940596019874,-15.3796116414439 29.0946206935917,-15.3785544535186 29.0935653377936,-15.37749334897 29.0921833198289,-15.3772768351059 29.091184199896,-15.3769108835672 29.0906642988787,-15.376664742145 29.0905068127598,-15.3756979858217 29.0904218119534,-15.3745871055385 29.0895664495219,-15.3740572259605 29.0886502729851,-15.3738530503507 29.0875715725668,-15.3739062000336 29.0865356489054,-15.3738011560907 29.0863810290225,-15.3737413870305 29.0853038421559,-15.3733249914153 29.0851167193061,-15.3728438201174 29.0852088492595,-15.3721974641063 29.0866753185631,-15.3710003236397 29.0873543338602,-15.3699061865659 29.0893624321508,-15.3686680932594 29.090436688433,-15.3676778221233 29.0904983888604,-15.3676261633456 29.0882599999996,-15.3670399999999 29.0878799999996,-15.3657499999999 29.0860099999996,-15.3631899999999 29.0835299999996,-15.3627399999999 29.0822099999996,-15.35985 29.0808699999996,-15.35832 29.0791199999996,-15.35608 29.0766087898364,-15.3544422597379 29.0761299999996,-15.35413 29.074226822739,-15.3537787339043 29.0706099999996,-15.35306 29.0697399999996,-15.3503799999999 29.0691799999996,-15.3436399999999 29.0679999999996,-15.3421999999999 29.0669456720611,-15.3405013414918 29.0649499999996,-15.33807 29.0624199999996,-15.3352399999999 29.0595217537229,-15.3322065404255 29.0581999999996,-15.32999 29.056666400516,-15.3276379752943 29.0549199999996,-15.3238299999999 29.0519550677244,-15.3214989658992 29.0503846234606,-15.3200712892957 29.0481003408949,-15.3189291480129 29.0453999999996,-15.3173899999999 29.0432199999997,-15.31581 29.0419613314999,-15.3130756739386 29.0405899999996,-15.31071 29.0397399999996,-15.3084199999999 29.0384199999996,-15.3076799999999 29.0368216957273,-15.3067938968832 29.0348229484824,-15.3049379172987 29.033395271879,-15.3030819377141 29.0323299999996,-15.30043 29.0313199999996,-15.29725 29.0302543833513,-15.2960863223569 29.0288267067478,-15.2945158780931 29.0281299999996,-15.29302 29.0275199999996,-15.29101 29.0265424241822,-15.2905183836033 29.0259713535408,-15.2882341010377 29.0251499999997,-15.28552 29.0240199999997,-15.28171 29.0238958664318,-15.278606391726 29.0239188373655,-15.2786559719134 29.0240891404386,-15.2785479260817 29.0242922686531,-15.2768477170654 29.0235067193492,-15.2764311896777 29.0235666756069,-15.2766311229986 29.0222999999996,-15.2750699999999 29.0216499999996,-15.27139 29.0211172530889,-15.2681038609284 29.0203199999996,-15.26618 29.0192199999997,-15.26296 29.019534462289,-15.2616621198226 29.0286974907874,-15.2625621458794 29.0322094782645,-15.2646492106695 29.0336476214488,-15.2650599391351 29.0446742695969,-15.2639909555105 29.0460266755721,-15.2639180711219 29.0509252670857,-15.2610884919738 29.0523569365152,-15.2608332293093 29.0668698933019,-15.2592469267412 29.0706766539762,-15.2595750192668 29.0733558153958,-15.2593686354527 29.0753634191702,-15.2606213570861 29.0779155050179,-15.2601739418382 29.0966466636378,-15.2627236773843 29.1021115452324,-15.2604931333635 29.1035226136691,-15.2581794761874 29.1096951629953,-15.2531574199695 29.1110594782046,-15.2524181331846 29.1131852197152,-15.2530034783245 29.1139406120474,-15.2537228008986 29.1159356227167,-15.2537039810653 29.1180644182036,-15.2545919319458 29.1279484709275,-15.2516531154661 29.1327523558655,-15.2513350598236 29.1406569793153,-15.2499884771079 29.1466276566991,-15.2485390755073 29.151838440436,-15.2459466379066 29.1601098892912,-15.2439299972746 29.1638859559154,-15.2412905854813 29.1645427945921,-15.2406271205221 29.1695333635104,-15.2418398171039 29.1697799999994,-15.2423399999999 29.2221499999993,-15.2532999999999 29.2237264290214,-15.2550916715396 29.2238499999993,-15.2576399999999 29.2229899999993,-15.2627199999999 29.2221299999993,-15.2691699999999 29.2228132271361,-15.2706068953877 29.2230999999993,-15.2712099999999 29.2256799999993,-15.2744299999999 29.2303899999993,-15.2803799999999 29.2331199019373,-15.2838429628966 29.2462999999993,-15.3005599999999 29.2478399999993,-15.3047099999999 29.2483499999992,-15.3056399999999 29.2530099999993,-15.3110699999999 29.2559243138281,-15.3126070794052 29.2572799999992,-15.3141299999999 29.2588899999993,-15.3150799999999 29.2612685482881,-15.3161639378558 29.2631999999992,-15.3184699999999 29.2683099999992,-15.3245199999999 29.2724699999992,-15.3295099999999 29.2753499999992,-15.3329899999999 29.2754317880792,-15.3338133380464 29.2744679863757,-15.3348841097886 29.2729967242967,-15.3359877928736 29.2718930068284,-15.3369657584582 29.2701757628318,-15.3381939038503 29.2697468810438,-15.3391604766036 29.2692866241502,-15.3400776775539 29.2691946941702,-15.3407245995279 29.2694706823823,-15.3415484800238 29.2702066081941,-15.3422863600121 29.270666373808,-15.3425617578759 29.2720463042124,-15.3427464693328 29.2726897224132,-15.3428393019364 29.2740697261059,-15.3432995562034 29.2756330889665,-15.3440334973517 29.2769206722312,-15.3447702420692 29.2779324247616,-15.3455052804482 29.278852435755,-15.3461509005728 29.2791402097494,-15.3462940478378 29.278920877982,-15.3473111805066 29.2789195110893,-15.3473175179062 29.2788587063283,-15.34728229125 29.278448845289,-15.3470847589156 29.2781418197747,-15.3468869213411 29.2778347882691,-15.3466890815211 29.2773228255925,-15.3463924683184 29.2769123174763,-15.34629434804 29.2767093989174,-15.3458973386995 29.2764036408266,-15.3455005838615 29.2760971895872,-15.3452032289117 29.2756879147164,-15.3449061963545 29.2752780010191,-15.3447086405524 29.2748675029548,-15.3446105754796 29.2744570508658,-15.3445125163591 29.2740472052424,-15.344314987161 29.2736373649438,-15.3441174552465 29.2732270000986,-15.344019425295 29.2728177173126,-15.343722404779 29.2724079080887,-15.343524883535 29.2719976149206,-15.3434268883092 29.2715868939034,-15.3434284104718 29.2711762416408,-15.3434299293699 29.2707656525764,-15.3434314477707 29.2531197909989,-15.3453140286405 29.2528389993226,-15.345343973854 29.2527233528849,-15.345356308388 29.2525171937763,-15.3455524805457 29.2521043892695,-15.3460433477581 29.2517953181751,-15.3462393815126 29.2513867529479,-15.3467390510152 29.2510741955346,-15.3471273911095 29.2508680418337,-15.3474235523395 29.250661773227,-15.3480170300861 29.2502493828884,-15.3485104439955 29.2505584540887,-15.3488093036828 29.2510735762208,-15.3489109265934 29.2513822794922,-15.3492093531395 29.2516909222077,-15.3495076939211 29.2521024077665,-15.3498063685773 29.2519994800154,-15.3499050512396 29.2514848829877,-15.3501013497804 29.2509701423907,-15.3500994155588 29.250557954264,-15.3502957342535 29.2502486802644,-15.3505916569952 29.2499393620988,-15.3508876232223 29.2496299123297,-15.351381889684 29.24921728581,-15.351875835413 29.2488045834614,-15.3522707640682 29.2483917836033,-15.3526657744368 29.24808141739,-15.35306069798 29.2477710673288,-15.3535550359458 29.2475642815731,-15.3539509201778 29.2475650153449,-15.3542490418096 29.2477719432374,-15.3547459692024 29.2478750419559,-15.3551429213445 29.2478749745516,-15.3553412412829 29.2477716130884,-15.3558367389072 29.2475649866755,-15.3564311551503 29.2472551470119,-15.3568270569066 29.2469453094213,-15.3570246706264 29.2466353517355,-15.3574206940137 29.2461186809947,-15.357915560406 29.2457041182189,-15.35831119164 29.245291043274,-15.3586082117672 29.2448777471278,-15.358607520604 29.2444646784803,-15.3587061736594 29.2440512060684,-15.3587054926971 29.2435342431756,-15.358704638708 29.2431205601225,-15.3587039590383 29.2427067893693,-15.3587032722532 29.2422929301106,-15.3587025901056 29.2418789757422,-15.3587019045302 29.2414656789487,-15.3589000374838 29.2410518975202,-15.359098121331 29.2407414247164,-15.3591970161442 29.2402241208752,-15.3594943903373 29.2399138945784,-15.3597921086217 29.2396036388456,-15.3600898557833 29.2392933592435,-15.3603876299591 29.2389828562247,-15.3605860412969 29.238672311849,-15.3607844743702 29.2381545772681,-15.3610821199368 29.2377422331,-15.3610819070819 29.2373326020165,-15.3612806344301 29.2371271941701,-15.3615786811106 29.2369217976738,-15.3618767085792 29.2365117010518,-15.3622739821126 29.2361013511441,-15.3627705285537 29.2356920714292,-15.3629689725523 29.2351768796112,-15.3633660159078 29.2347627719393,-15.3635644942325 29.234555711407,-15.3639617563436 29.2341452712807,-15.3641601210415 29.2337350764472,-15.3642591166789 29.2333247516859,-15.3644574400173 29.2328064901656,-15.36465599629 29.2324946974498,-15.3648546713683 29.231974587162,-15.3652521427518 29.2316631187534,-15.365351522553 29.2311432365337,-15.3656497576784 29.2308329217459,-15.3657490589229 29.2305244683952,-15.3660469360185 29.2304222008934,-15.3665436505146 29.2303198033578,-15.366940979411 29.2302172770246,-15.367238945274 29.2301151878941,-15.3677355332759 29.230116333704,-15.3681327658279 29.2303231818434,-15.368530150098 29.230632586005,-15.3688283188946 29.2308379475511,-15.3690272851747 29.2313509196654,-15.3694254898991 29.2316589707835,-15.3696246351252 29.2321724723564,-15.3699234445873 29.2323777616657,-15.3700231396383 29.2324772434351,-15.3704216290818 29.2321664808825,-15.3707200036901 29.2318556861325,-15.3710184108148 29.2314406362929,-15.3716152946219 29.231026431879,-15.3719137912544 29.2305085435988,-15.3723118310235 29.2300942393779,-15.3726103995152 29.22957685537,-15.3728095005684 29.2291631002099,-15.3729090822642 29.2287489801334,-15.3731081992955 29.2285412503959,-15.3734068331575 29.2285313160048,-15.3734539110547 29.2284362163628,-15.3739045509581 29.228228120765,-15.3743027939339 29.2280196669786,-15.3748006351618 29.2277081191114,-15.375198996173 29.227706765092,-15.3755972976303 29.2277050779668,-15.3760952089407 29.2280139696941,-15.3764934418785 29.2285303579015,-15.3766924077665 29.2288399121165,-15.3768914585388 29.2293569063105,-15.3768912259467 29.2298738677927,-15.3768909969964 29.2302874132012,-15.3768908128466 29.2305966134372,-15.3771894157122 29.2305947390267,-15.3777869497257 29.2306971943158,-15.3780856842924 29.2306953252037,-15.378683305818 29.2309011807006,-15.3789820166241 29.2314118810305,-15.3793830369909 29.2319202621238,-15.3795867260774 29.2320238916237,-15.379387575635 29.2323331906757,-15.3789900247678 29.2325412291501,-15.3784918023847 29.232592833062,-15.3784172303658 29.2327476830804,-15.3781934560541 29.2332611404826,-15.3777972668502 29.233568966288,-15.3775994767984 29.2339797109009,-15.3773024052434 29.2344912367534,-15.3772057959706 29.235010004841,-15.3770056397909 29.2353230456129,-15.3768049239641 29.2358429451668,-15.3767035756009 29.2363633886022,-15.3765023914342 29.2368822833348,-15.3765009767134 29.2372966290564,-15.3765997035203 29.2372932799937,-15.3770990445402 29.2372889197577,-15.3775991672931 29.2372838994774,-15.3780999038138 29.2375909406023,-15.3784004117975 29.238107661041,-15.378400343632 29.2385200825274,-15.3785004774361 29.2390328007801,-15.3787024083715 29.2394425858569,-15.3789042046365 29.2397494776782,-15.3791057887356 29.240055398675,-15.3794078642772 29.2403603904274,-15.3798105283634 29.2407706775233,-15.3800126356136 29.2410759690399,-15.3804155989749 29.2413853664804,-15.3804164583552 29.2420098842726,-15.380512302861 29.2424264354957,-15.3807085756614 29.2427391362179,-15.3808055522762 29.2430448214998,-15.3813081491528 29.2435653350697,-15.3813041992583 29.2440839498854,-15.381302179084 29.2444961606254,-15.38160227006 29.2446077628938,-15.3817109746664 29.2447146677145,-15.3817319559422 29.2450427192901,-15.3820352988331 29.247072064753,-15.3839117625158 29.247171953737,-15.384407800909 29.2474804591398,-15.3849088179234 29.2475839487993,-15.385207519836 29.247586300505,-15.3856016410261 29.2475892352965,-15.3860940650908 29.2475921740891,-15.3865862379245 29.2475945220361,-15.3869797980401 29.2475980403693,-15.3875698274248 29.2476021441445,-15.3882577440211 29.2477071619564,-15.3886518007349 29.2479148103753,-15.3890469297908 29.2481224102768,-15.3894419695883 29.2485337124481,-15.3895449920287 29.2490473292912,-15.3895511044272 29.2494588866841,-15.3896541766973 29.2496659008082,-15.3899511368614 29.2499752173649,-15.3901511673651 29.2503870635423,-15.3903533050088 29.2507978821771,-15.3901611590597 29.2511049010923,-15.3897720600067 29.2516196013922,-15.3897782240718 29.2520315215309,-15.3897831553722 29.2526496833325,-15.389790556164 29.2530622757774,-15.389893798912 29.2535481993301,-15.3898996346913 29.258523953731,-15.3944998512234 29.2697849518254,-15.3999785835032 29.2753409851242,-15.4044408738871 29.2800406590739,-15.412598680775 29.2857703833321,-15.4145308279744 29.2878696623016,-15.4161931382868 29.2879166315491,-15.4162303298353 29.2908420097613,-15.4185467004741 29.2939393453257,-15.4239803149915 29.2938576346367,-15.4240075052968 29.2937428194236,-15.4240641815712 29.2934559520126,-15.424178095559 29.2932263850461,-15.4244021185413 29.2930535785878,-15.4246284659183 29.2928812869081,-15.424853038905 29.2926530626269,-15.4250164866321 29.2924810205258,-15.4251853781779 29.2923662697832,-15.4254084801909 29.2921951608064,-15.4255172454813 29.2920239060721,-15.4257366467014 29.2919097078552,-15.4259013628503 29.2917384673989,-15.4260655097404 29.2915101400965,-15.4262291103034 29.2912817146996,-15.4264480633076 29.2911103268101,-15.4266676207933 29.2908818395954,-15.4268313544024 29.2906533092385,-15.4269398206468 29.2904818708021,-15.4269935329628 29.290253294811,-15.4270489632393 29.290024772697,-15.4270498695558 29.289624978129,-15.4270514549428 29.2893961662517,-15.4269936582576 29.2892248934916,-15.4272156238376 29.2891107893885,-15.4273822361135 29.2889969886696,-15.4276607393736 29.2888260757511,-15.4278833271459 29.2886551388211,-15.4280501369389 29.2884271904173,-15.4282167928116 29.2881991742128,-15.4283277469321 29.2880853489502,-15.4284388452408 29.2879148575229,-15.4286610279177 29.2877444538364,-15.4288830894397 29.2875741471449,-15.4291050242907 29.2873464818205,-15.4292157491243 29.2870618518246,-15.4293263724412 29.2868342962089,-15.4294370459892 29.2866070727184,-15.4296031562136 29.2863796480072,-15.4297137593478 29.2862665607873,-15.4298799101792 29.2860398906817,-15.4301012395265 29.2858130047365,-15.4302670854217 29.2855862062083,-15.4304328678879 29.2852448439046,-15.4304877948053 29.2851886539032,-15.4305983823618 29.2851902788237,-15.4308745464378 29.2850213891828,-15.4313150870921 29.2849093043879,-15.4317003784209 29.2847964733959,-15.4319203429434 29.2847408948777,-15.4321953479396 29.2846281389245,-15.4324151399925 29.2845723398693,-15.4326349571535 29.2844021617065,-15.432744604271 29.2841747826025,-15.4327991983755 29.2839473902995,-15.4328537914936 29.2837199904248,-15.432908387181 29.2834927029097,-15.4329630501566 29.2832661533876,-15.4330180947128 29.282982637765,-15.4330182451132 29.282755525652,-15.432963445886 29.2825280022667,-15.4330727277021 29.28235697084,-15.4332914633524 29.2821873783545,-15.4334012646699 29.281960530037,-15.4334560761625 29.2816763365827,-15.4334558985565 29.2813921253713,-15.4334557198647 29.2811647412416,-15.4334555735517 29.2809942010615,-15.4334554668472 29.2807111450276,-15.4335651941754 29.2805424278114,-15.4337298973269 29.2803160030511,-15.4338942458294 29.2799759369059,-15.4340584999904 29.2796359109103,-15.4342227315979 29.2794095799709,-15.4343870069851 29.2792401019351,-15.4345512871114 29.2790713231752,-15.4348250912362 29.2789015720165,-15.4350986794045 29.2788374828027,-15.4353713581986 29.2786091408461,-15.4355353744752 29.2783827642217,-15.4355901308739 29.2781575568231,-15.4355902304452 29.27798633614,-15.4356995732422 29.2777586890624,-15.4358089044903 29.2775255880091,-15.4360274732628 29.2772942062213,-15.4361367286154 29.2771223007969,-15.4363009492866 29.2769523317968,-15.4364652746569 29.2766721500441,-15.4366295566965 29.2765040634173,-15.4367390308047 29.2762805124711,-15.4367936921321 29.2759446799518,-15.4370124519241 29.2757768461479,-15.4371217738959 29.2754976552644,-15.4372309498877 29.275274904978,-15.437230729717 29.2749937554299,-15.4372305228843 29.2747657338906,-15.43733983541 29.2745954126623,-15.4375038096496 29.2744255750951,-15.437722436194 29.2743132506794,-15.4379410357562 29.2742013064479,-15.4381048872856 29.2740894282456,-15.4383233566248 29.2739775699592,-15.4385417923003 29.2738656938748,-15.4387055364171 29.273753919191,-15.4389785201354 29.2736981456407,-15.439251581092 29.273530398031,-15.4394697024302 29.2733627006798,-15.4396877653438 29.273195047871,-15.4399057581466 29.2731392894212,-15.4401240278004 29.2730275201774,-15.4403967077132 29.2728601640518,-15.4405052975904 29.2726905420125,-15.4407235542663 29.2726860742965,-15.4410521968105 29.2726234638673,-15.4412721484421 29.2725607977729,-15.4414922153805 29.2725000602346,-15.4417665395975 29.2724408753774,-15.4420405235528 29.2723816716915,-15.4423145844941 29.2722641674119,-15.4425345068847 29.2720881244569,-15.4427550679571 29.2719706495859,-15.4429204391397 29.2717944287722,-15.4431412322594 29.2716182559772,-15.44330736555 29.2714421399854,-15.4434187792769 29.271265756279,-15.4435850952029 29.2710892643904,-15.4437515106079 29.2709124960786,-15.4439728987917 29.2708532683987,-15.4441381897347 29.270735108251,-15.4443591004056 29.270616899517,-15.4445801036929 29.2704400028177,-15.4447470179865 29.2702041451601,-15.4449147807829 29.2699095367755,-15.4449734884408 29.26955629743,-15.445142634047 29.2693808428643,-15.4452542194677 29.2691467927936,-15.4454213963255 29.2688540404993,-15.4455892623064 29.2686783117111,-15.4458110062388 29.2684438818937,-15.4460334736273 29.2682679868162,-15.4462554168898 29.2680385757005,-15.4464208215158 29.2678940928794,-15.4465577974883 29.267862221378,-15.4465880123179 29.2675673473585,-15.4467020135403 29.2673352586508,-15.4468135878724 29.2670442002967,-15.4470360640977 29.2667129861038,-15.4471409711499 29.2665460504661,-15.4471940181209 29.2663222775929,-15.4473569847499 29.2662080355696,-15.4475770532339 29.2660331592146,-15.4477436730224 29.2657386768919,-15.4479126762745 29.2655708348435,-15.4480761448243 29.2653470899922,-15.4482390218409 29.2651244515927,-15.4483463497555 29.2648486450133,-15.4484518644824 29.2646864075435,-15.4486126659859 29.2645800686611,-15.4487739596871 29.2643622784641,-15.4489339336138 29.2642021590419,-15.449148482744 29.2639864870787,-15.4493622205434 29.2637674022189,-15.4494677420118 29.2635502773866,-15.4496271808713 29.2633925908968,-15.4498950369993 29.2633662877802,-15.4500474439838 29.2633031618803,-15.4500172646885 29.2630848689215,-15.4499128987705 29.263085668671,-15.4494944024875 29.2625391508122,-15.449704338857 29.2621021962725,-15.4498094762519 29.2616653721824,-15.4499145816911 29.2611195636365,-15.4500197817982 29.2606828362431,-15.450229358203 29.2601359735869,-15.4503348279009 29.2595872496026,-15.4506496352123 29.2591489483364,-15.4510682594482 29.2584917096788,-15.4515914632475 29.2579441763319,-15.4519054681032 29.2575063571089,-15.4521148035633 29.2570686032935,-15.4522198000347 29.2563055892123,-15.4526374252051 29.2557629562289,-15.4529500997703 29.2553287621063,-15.453262724821 29.2548946701353,-15.4535752731442 29.2543516608957,-15.4535753149251 29.2538088750212,-15.4535753540037 29.2532664317764,-15.4536794902423 29.2528328830337,-15.453991770173 29.2522908961824,-15.4541998669824 29.2519659791605,-15.4545120215453 29.2516411118852,-15.4548241282566 29.2513164811859,-15.4553443306606 29.2512084909279,-15.4557605722944 29.2511004968573,-15.4561768356378 29.2509925827955,-15.4566972156081 29.2507761398625,-15.4570092788146 29.2503431371661,-15.4574251249479 29.2500184428046,-15.4577369545537 29.2495852674564,-15.4579444009122 29.2491521311087,-15.4583598345837 29.2488273227523,-15.4587753424502 29.24861076822,-15.4591909780643 29.248502419432,-15.459606797265 29.2485022504947,-15.4600228419547 29.2487184547414,-15.4604394420906 29.2488264962772,-15.4608558300364 29.2488263281893,-15.4612719468773 29.2488264092149,-15.4616882608458 29.2489374480615,-15.4622118373547 29.2487218291429,-15.4625245073136 29.2486137741572,-15.4626285158166 29.2480730587618,-15.4630438437984 29.2476400632393,-15.4632504024254 29.2470988468211,-15.4634561574795 29.2465575685547,-15.4635571302312 29.2462330914025,-15.4636595475064 29.2459084577872,-15.463657285349 29.2450441144408,-15.46365284756 29.2445052328369,-15.463653010855 29.2439662904803,-15.4636531716443 29.2435350943925,-15.4636533030094 29.2429961158352,-15.4635495146686 29.2426728456791,-15.4633424440026 29.2426733543532,-15.4627201238032 29.2422420317002,-15.4627217625138 29.241702635581,-15.4627208062715 29.2412711898644,-15.4627200356335 29.2406240630984,-15.4628228638057 29.2400848172144,-15.4630298292794 29.2393301355639,-15.4631324045506 29.2387910998209,-15.4633393017491 29.2382522200262,-15.4634422216578 29.2377133575227,-15.463649057781 29.2372824594411,-15.4638557561185 29.2368516596063,-15.4641661608026 29.2363134384474,-15.4642684670747 29.235883017976,-15.4642672124616 29.2352375558084,-15.4642653412716 29.2348072601465,-15.4644717138301 29.2343771712694,-15.464470441242 29.2338397860054,-15.4642612697098 29.2333026559718,-15.463844604387 29.232872938568,-15.4637396310977 29.2323353619483,-15.4637385951097 29.2319050035008,-15.4637380755596 29.2313671046483,-15.4637374244471 29.2306141100868,-15.4637365145632 29.2299687533307,-15.4637357289748 29.2294310955462,-15.4640461086765 29.2288934590807,-15.4642527766754 29.2284620106128,-15.4646679550875 29.2280315666714,-15.464875000804 29.2276040736068,-15.4652873110532 29.2269620459376,-15.4656989793049 29.2264276837419,-15.4661106548859 29.2258923300119,-15.4663158371746 29.2254644309533,-15.4665211878639 29.2249293949487,-15.4667262365671 29.2243945284598,-15.466931219152 29.2241807262147,-15.4673444789063 29.2237498120455,-15.4677590347169 29.223423148423,-15.4681760449393 29.2232040987476,-15.4685931126369 29.2229852517131,-15.4689065406694 29.2223380120992,-15.4692183639548 29.2221222360456,-15.4693223188291 29.2217981174783,-15.4696340216153 29.2214813287307,-15.4700439384603 29.2211637825792,-15.4705578896022 29.2209482771013,-15.4709723751252 29.2205178846093,-15.4712830502389 29.2201941063147,-15.4715944903774 29.2197632299409,-15.4719055386834 29.219332323589,-15.4722166091859 29.2190084514978,-15.4725281211765 29.2185765741738,-15.4729435201023 29.2182517001265,-15.473359417202 29.2180338284874,-15.4737758399837 29.2171706420116,-15.4745026638233 29.2175470362594,-15.4745043228947 29.2165530397332,-15.4750785803299 29.2135710314636,-15.476801319877 29.1835824003439,-15.4806751637906 29.1119971650117,-15.4899055947951 29.1117738406274,-15.4899343544043 29.0904254129047,-15.4926824973075 29.0880060709628,-15.4918490456054 29.0721956223008,-15.4864015714765 29.0733219377462,-15.4851486482113 29.0739810793589,-15.4844969780534 29.0749245824347,-15.4826951002386 29.0763124943632,-15.4809607711416 29.0781448040633,-15.4792939836253 29.0799153186498,-15.478847022295 29.0803062965404,-15.4783193414624 29.0803191758846,-15.4783019588855</coordinates></LinearRing></outerBoundaryIs></Polygon></MultiGeometry>
  </Placemark>
</Folder>
</Document></kml>
