<?xml version="1.0" encoding="UTF-8"?>
<kml xmlns="http://www.opengis.net/kml/2.2" xmlns:gx="http://www.google.com/kml/ext/2.2" xmlns:kml="http://www.opengis.net/kml/2.2" xmlns:atom="http://www.w3.org/2005/Atom">
<Document>
	<name>Southople_Polygon.kml</name>
	<Style id="s_ylw-pushpin">
		<IconStyle>
			<scale>1.1</scale>
			<Icon>
				<href>http://maps.google.com/mapfiles/kml/pushpin/ylw-pushpin.png</href>
			</Icon>
			<hotSpot x="20" y="2" xunits="pixels" yunits="pixels"/>
		</IconStyle>
	</Style>
	<Style id="s_ylw-pushpin_hl">
		<IconStyle>
			<scale>1.3</scale>
			<Icon>
				<href>http://maps.google.com/mapfiles/kml/pushpin/ylw-pushpin.png</href>
			</Icon>
			<hotSpot x="20" y="2" xunits="pixels" yunits="pixels"/>
		</IconStyle>
	</Style>
	<StyleMap id="m_ylw-pushpin">
		<Pair>
			<key>normal</key>
			<styleUrl>#s_ylw-pushpin</styleUrl>
		</Pair>
		<Pair>
			<key>highlight</key>
			<styleUrl>#s_ylw-pushpin_hl</styleUrl>
		</Pair>
	</StyleMap>
	<Placemark>
		<name>Untitled Polygon</name>
		<styleUrl>#m_ylw-pushpin</styleUrl>
		<Polygon>
			<tessellate>1</tessellate>
			<outerBoundaryIs>
				<LinearRing>
					<coordinates>
						-70.43319583920975,4.943541929944976,0 -70.43391510642005,4.943192718546541,0 -70.43442596827735,4.942843878922293,0 -70.43397577265422,4.940760218456341,0 -70.43343522049402,4.939045347840855,0 -70.43322072323639,4.938364881260068,0 -70.43189314204037,4.938023292416091,0 -70.43107937306833,4.938021604719952,0 -70.42945187014007,4.93801822138999,0 -70.42863814600555,4.938016515668976,0 -70.42762133934448,4.938015044578758,0 -70.42721473105375,4.938014649659511,0 -70.42569357577455,4.937675512594099,0 -70.42508436107079,4.93767492375781,0 -70.42447515918106,4.937674344816443,0 -70.42286429954299,4.936999758074879,0 -70.42076416093474,4.935992963897015,0 -70.41997643148426,4.935326316882122,0 -70.41870108646278,4.934331808154625,0 -70.41772207391037,4.933672340120581,0 -70.41646149087434,4.932688978758214,0 -70.4153782848415,4.93236166455914,0 -70.41418151836467,4.932359828051268,0 -70.4133013621819,4.932033537164966,0 -70.41230519746991,4.932032033084062,0 -70.41130907264225,4.932030507391936,0 -70.41003530384927,4.931704744439394,0 -70.40916229095232,4.931381102164944,0 -70.40789445887401,4.931058434027102,0 -70.40762022810857,4.930735849479377,0 -70.4061589985986,4.930414725737033,0 -70.40541871502748,4.929773282994526,0 -70.40495115741295,4.929453693097511,0 -70.40389347343373,4.929135155742941,0 -70.40217833415024,4.928499958182359,0 -70.40158845022616,4.928500310931953,0 -70.40020767920925,4.927551926780292,0 -70.39942360008972,4.92755195085575,0 -70.39779132494883,4.927237044918173,0 -70.39720391191668,4.927237059935039,0 -70.39524588624096,4.927237117610035,0 -70.3942663236834,4.927235530184095,0 -70.39348256307905,4.927233911487436,0 -70.39230696192352,4.927231469218669,0 -70.39160420222048,4.926600864370329,0 -70.3909045329883,4.925973027937993,0 -70.39026359758898,4.925659544737712,0 -70.38904021663373,4.925345561031368,0 -70.3886509719019,4.925344753138204,0 -70.38737834142985,4.924721276233456,0 -70.38698997023521,4.924720489220854,0 -70.38523652653151,4.923483307504608,0 -70.38426989500294,4.923481332621855,0 -70.38253602012782,4.922254985066619,0 -70.38215107105279,4.922254208923144,0 -70.38075908796181,4.921947341382254,0 -70.37994635492207,4.921642498168245,0 -70.37879410433986,4.921640166626619,0 -70.37817676701259,4.921338465025242,0 -70.3771369588811,4.920735264844175,0 -70.37621427356966,4.919538814706162,0 -70.37658907990829,4.918062661343309,0 -70.37654371797932,4.916310302765355,0 -70.37627328552919,4.914293041392088,0 -70.37608254134354,4.912870153742688,0 -70.37533845626729,4.911460412429028,0 -70.37515449477348,4.910066783348032,0 -70.37500868136033,4.908962176980146,0 -70.37482809131593,4.907594090203473,0 -70.37523009420534,4.906511149647315,0 -70.37544785965447,4.905436457215461,0 -70.37577322514066,4.905169881262298,0 -70.37670803474039,4.904107930767162,0 -70.37731445921423,4.903316793094311,0 -70.37734246813585,4.902267234081422,0 -70.37737025020238,4.9012260224892,0 -70.3771831361191,4.899935544881643,0 -70.37699800441261,4.898658286954016,0 -70.37677825109135,4.897142127923211,0 -70.37698244528184,4.896142102526441,0 -70.37718505243772,4.895149839667934,0 -70.3771121470087,4.894656166658547,0 -70.37703164238906,4.892943704500792,0 -70.37719546019672,4.891735127597562,0 -70.37708764083271,4.891015023047625,0 -70.37711531790762,4.890061709084644,0 -70.37761621493642,4.888881343477816,0 -70.37781068907137,4.887944561628427,0 -70.37841351974261,4.887480019174705,0 -70.37880842007226,4.886784066965886,0 -70.37962892762367,4.885632679598717,0 -70.38027528544033,4.884492151739431,0 -70.38091565296551,4.88336219651443,0 -70.38080120674114,4.882689588165474,0 -70.38114359441285,4.881798210608907,0 -70.38124307200651,4.880473673949996,0 -70.38146688333406,4.878948335806395,0 -70.38184983826912,4.877442912926735,0 -70.38166037917135,4.876379069172051,0 -70.38183093780489,4.87553495291924,0 -70.3818873020527,4.874072104986886,0 -70.38178452055303,4.872627290761947,0 -70.3817940206313,4.871809687779595,0 -70.38192372428493,4.870795790205147,0 -70.38173922808157,4.869790630603314,0 -70.38172179505284,4.86800337285615,0 -70.38165881682842,4.866827240195781,0 -70.38170462479862,4.866243728903856,0 -70.38198504825306,4.865277951105512,0 -70.38229942352132,4.864511264975481,0 -70.38245925921157,4.863749745895162,0 -70.3823142258375,4.862993296400786,0 -70.3822855632525,4.862054949858128,0 -70.38230029451918,4.860569953380354,0 -70.38245758547522,4.859835513198546,0 -70.38283594275235,4.859472590819678,0 -70.38306356075938,4.85911027372982,0 -70.38311111723402,4.857848666588959,0 -70.38341320490306,4.857135264203823,0 -70.38363746792319,4.856780572971319,0 -70.38382841836774,4.855546113672779,0 -70.38391002960273,4.853806315010615,0 -70.38405865935461,4.853118613448127,0 -70.38406136353483,4.852434785221091,0 -70.38428180949632,4.851417963466737,0 -70.38450017048351,4.850410774059481,0 -70.38471647044274,4.849413088351295,0 -70.38475303985838,4.848260226127564,0 -70.38489521211032,4.847607517727032,0 -70.38531901954285,4.846959804448202,0 -70.38535190411997,4.845833592172948,0 -70.38545514087262,4.845036856967155,0 -70.38594339727094,4.844721326322934,0 -70.38639414485401,4.844248932864486,0 -70.38677614095487,4.844092684542289,0 -70.38756707673096,4.843311452184578,0 -70.38824784894968,4.842686185955467,0 -70.3881987202069,4.84190999045641,0 -70.38805004796902,4.84129342751379,0 -70.38803892726985,4.840680487652302,0 -70.38792837775085,4.840223336501192,0 -70.38784450258603,4.839315135608683,0 -70.38773515006729,4.838864190857096,0 -70.38759011474247,4.838266104897184,0 -70.38741004299197,4.837523544967965,0 -70.38723132884179,4.836786547165837,0 -70.38701862297918,4.835909389249279,0 -70.38677285992854,4.834895891361525,0 -70.38610435214147,4.834321941744161,0 -70.3857074506424,4.834322309996965,0 -70.38531053564913,4.834322674628013,0 -70.3848146878217,4.834466448954029,0 -70.38425161718223,4.834898229693161,0 -70.3833845080089,4.835767329248088,0 -70.38315030331067,4.835913023243242,0 -70.38212157585483,4.835478208744498,0 -70.38123021116891,4.835045198169477,0 -70.38040310477982,4.834901778734829,0 -70.3797098349347,4.834758442856098,0 -70.37904642514484,4.834758505288638,0 -70.378060426915,4.834470779791895,0 -70.37723831666878,4.834328621525923,0 -70.37684129257964,4.834328933301498,0 -70.37628514143282,4.83418677043219,0 -70.37530661752012,4.833901658976702,0 -70.37491048885771,4.833902009181812,0 -70.37358855389755,4.833900297559143,0 -70.37345613668839,4.833899684691175,0 -70.37279411612039,4.833896630845964,0 -70.37150081369565,4.834048086819673,0 -70.3699369735282,4.834191692778966,0 -70.36954018149794,4.834191996904611,0 -70.36887885942593,4.834192511627801,0 -70.36808525588688,4.834193116724879,0 -70.36713927828831,4.834051437316212,0 -70.36647840431517,4.834051946306817,0 -70.36555316604495,4.8340526524389,0 -70.36542098452146,4.834052753017796,0 -70.36476008694656,4.834053253589883,0 -70.36383481111577,4.834053957426073,0 -70.36238076799307,4.834055061615874,0 -70.36119106469728,4.834055963279712,0 -70.36066229783968,4.834056362001097,0 -70.36028079043473,4.834199066169763,0 -70.36001621049643,4.83419926525536,0 -70.35844019349463,4.834335069158589,0 -70.3575503240192,4.834755278633278,0 -70.3571641198689,4.834894780511615,0 -70.35653595813601,4.835320192482137,0 -70.35588292277396,4.835465550893813,0 -70.35536234585693,4.835611961322344,0 -70.35473003583235,4.836049434276458,0 -70.35435146057931,4.836342027751375,0 -70.35409486876466,4.836488875473028,0 -70.35318858956032,4.836930710765524,0 -70.35253731163962,4.837226281339168,0 -70.35188406051874,4.837522750305768,0 -70.35134596332986,4.837523683022865,0 -70.35108549450645,4.837672144667311,0 -70.35015886608112,4.837970443071429,0 -70.3499046265528,4.838268463290842,0 -70.34924386899553,4.8385681027191,0 -70.34845895471669,4.839169162415645,0 -70.34779914113544,4.839622488882373,0 -70.34713628980141,4.840077890319819,0 -70.34660169656269,4.840382825675996,0 -70.34593354376175,4.840841727880919,0 -70.34567371194609,4.841301997060819,0 -70.34555012994012,4.841764141935445,0 -70.34530998633687,4.843006805311295,0 -70.34436371681599,4.843950365123084,0 -70.34354817092313,4.844902507777989,0 -70.34314298923854,4.845702263227975,0 -70.3428702569705,4.846185183084097,0 -70.34217577951252,4.84683326797503,0 -70.3417613191791,4.847648246706449,0 -70.34176972282359,4.848468841945829,0 -70.3416339774583,4.849129651543207,0 -70.3416418947921,4.849960398275305,0 -70.3415077332845,4.850966617835616,0 -70.34151520851171,4.851812035727717,0 -70.34137645257407,4.852493845900409,0 -70.34167254841165,4.853178266558996,0 -70.34240098349613,4.853347350728519,0 -70.34284219892659,4.853690534277787,0 -70.34342451062699,4.853688110608838,0 -70.3442979193145,4.853684482912767,0 -70.34517125570002,4.853680856625013,0 -70.34648112348353,4.853675408256816,0 -70.34752526182132,4.854364284056253,0 -70.34768427973104,4.854711902259948,0 -70.34832552655291,4.856113638105205,0 -70.34923197396964,4.856640906175036,0 -70.34983870527184,4.856993838842174,0 -70.3506043680371,4.857525998540979,0 -70.35139310365098,4.858420882567647,0 -70.35185934183588,4.858780231421961,0 -70.35217792718962,4.859141407265159,0 -70.35265776206441,4.859685404939783,0 -70.35331260766537,4.860598717586012,0 -70.35348581471776,4.860966555650103,0 -70.35440054627196,4.861147193987796,0 -70.35519205893826,4.861699750129265,0 -70.35600121386997,4.86244191225868,0 -70.35662135460089,4.862628387336939,0 -70.35707610876646,4.862627667474217,0 -70.35815270740532,4.862813331726697,0 -70.35879167143474,4.863187991007242,0 -70.35946918905636,4.863956903101011,0 -70.35970992457987,4.864925528777266,0 -70.35993484283786,4.865706766926644,0 -70.36002498677303,4.866690183971626,0 -70.36009724977356,4.867481128665697,0 -70.36004470221097,4.868647717499939,0 -70.36013052057817,4.869627222719024,0 -70.36019970067726,4.870416772525058,0 -70.36026934546028,4.871211671982771,0 -70.36037470213434,4.872414163024374,0 -70.36030477484873,4.873427780606396,0 -70.36019894181639,4.874040999885278,0 -70.35943795226648,4.87446091094706,0 -70.35883377549843,4.874880195005561,0 -70.35825950322965,4.875714526990367,0 -70.35779470170428,4.875928416277819,0 -70.35748949931181,4.876140509313248,0 -70.35638068486587,4.876364394766483,0 -70.35605965919318,4.87637063237799,0 -70.35494904065641,4.876600928306259,0 -70.3543187875878,4.876822299166076,0 -70.35399697177505,4.876828574205287,0 -70.35270934766366,4.876853688466194,0 -70.35190427661942,4.876869378219056,0 -70.35094594872808,4.877080563678882,0 -70.35014784991786,4.877294748378535,0 -70.34983376673263,4.877509342244725,0 -70.34888793294061,4.878153794038051,0 -70.34892966854966,4.879230521397494,0 -70.34879974031784,4.880098918284944,0 -70.34866886776231,4.880973634418952,0 -70.34853686459137,4.88185240509176,0 -70.34856921721284,4.882736855153134,0 -70.34860999393999,4.883851499285354,0 -70.34830950860089,4.884752056608209,0 -70.34783196398105,4.885432949766208,0 -70.34733757211578,4.885662263248803,0 -70.34700293848181,4.885663766482096,0 -70.34617233431638,4.885895015877785,0 -70.34483237174077,4.8859004063137,0 -70.34382717822901,4.885900355190383,0 -70.34332458297857,4.885900334116304,0 -70.34164740507109,4.885671957136117,0 -70.34080727782546,4.884989521580684,0 -70.34063668048896,4.884085521175233,0 -70.3406321066791,4.882964855962851,0 -70.34062847686877,4.882075674120674,0 -70.34062487610434,4.88119297215753,0 -70.33996606487239,4.880098567075413,0 -70.33931260718353,4.879446651374035,0 -70.33866356197068,4.878582912180979,0 -70.33801626386529,4.878153342599142,0 -70.33753519956713,4.877508832671991,0 -70.33673138399828,4.877079986479308,0 -70.33609165386275,4.87665481498588,0 -70.33545031331306,4.876446592981571,0 -70.33400017669614,4.876451323572797,0 -70.33303354438355,4.876451159969464,0 -70.33287846230998,4.876240152023997,0 -70.33191956415126,4.876029362594474,0 -70.33063302327278,4.876029150288881,0 -70.32983765576688,4.875818780619689,0 -70.328552213756,4.875819200418178,0 -70.32726650337266,4.875821762836325,0 -70.32689922013952,4.876670688480143,0 -70.32701492613762,4.877524772203401,0 -70.32693459770925,4.879032517061192,0 -70.32705181262577,4.879901874069846,0 -70.3270057799224,4.880777914636635,0 -70.32761823083901,4.881658993168711,0 -70.32857597694638,4.88232300289109,0 -70.32904246410466,4.882988658532917,0 -70.32916969859777,4.883883977195989,0 -70.32913102267364,4.884786669823644,0 -70.32909205385802,4.885696041520684,0 -70.32990233705594,4.886378666263568,0 -70.3303889345012,4.886836107606925,0 -70.33071709960574,4.887065070886559,0 -70.33171264511917,4.887522710720018,0 -70.3325361941172,4.888215453803355,0 -70.33336432800078,4.888912038535942,0 -70.33402699595233,4.889613331025864,0 -70.33451797007604,4.890556608202972,0 -70.33466988260835,4.891509154588691,0 -70.33483210495179,4.891988145589614,0 -70.3358549366427,4.892469012535144,0 -70.3365429278077,4.892469058492186,0 -70.33740504478924,4.89222847485465,0 -70.33826159678594,4.892710250940012,0 -70.33825632556663,4.893679227613565,0 -70.33824835980157,4.895145641909275,0 -70.33859300993524,4.895881327443038,0 -70.33876396129621,4.89686899077607,0 -70.33875974808235,4.898114697583658,0 -70.33875365411056,4.899902179830209,0 -70.33892643204116,4.901455175136232,0 -70.34017376319557,4.90171435787089,0 -70.34088691817371,4.901713490828828,0 -70.3414217762201,4.901712848115035,0 -70.34231319556979,4.901711753868848,0 -70.34303313307974,4.902233810658851,0 -70.34322619349094,4.903285737219197,0 -70.34324073565408,4.90434642263656,0 -70.34198011579791,4.904347991277683,0 -70.34125974916073,4.90434888114437,0 -70.34017918086092,4.904350218879283,0 -70.3394591550834,4.903819671122785,0 -70.33892140201566,4.903291033631008,0 -70.33802778008844,4.902764951165273,0 -70.33767567937208,4.90197858923181,0 -70.33696176768505,4.901979462767589,0 -70.33606939737499,4.901979477107094,0 -70.33571245956834,4.90197912503496,0 -70.33429005812548,4.901717381769437,0 -70.33358290788866,4.901457737385174,0 -70.33304853555326,4.901458104396442,0 -70.3319797894228,4.901458830031918,0 -70.33090230852963,4.90171967364788,0 -70.33018937303241,4.901716050997128,0 -70.32964449518904,4.901976905408317,0 -70.32927709801943,4.902239305523868,0 -70.32800328769052,4.902762622156581,0 -70.32778820186509,4.903557303509873,0 -70.32703188387498,4.904352405288397,0 -70.32536766451618,4.905152970573793,0 -70.32479563067307,4.905689001516914,0 -70.32387449764012,4.905958287514483,0 -70.32311608741074,4.906497731045817,0 -70.32162675434434,4.907039869393952,0 -70.321080880238,4.907040245270305,0 -70.31974632880126,4.907857007186873,0 -70.31974632880126,4.907857007186873,0 -70.3186621454448,4.910058005817557,0 -70.3174435793317,4.911452536027953,0 -70.31658419453743,4.912861350832794,0 -70.31611386415867,4.914001481467381,0 -70.31563953347148,4.915151387966472,0 -70.31381539036221,4.916604664411341,0 -70.31300470458965,4.917190436177599,0 -70.3128157476763,4.917190779567426,0 -70.31143316969134,4.917779666639585,0 -70.30972897372391,4.917782088683584,0 -70.3087492889278,4.918077836858604,0 -70.30799103174682,4.918078913347175,0 -70.30685361833669,4.918080512152728,0 -70.30571618445664,4.918082130837539,0 -70.30438914617871,4.918083995066455,0 -70.30363082099474,4.918085078342919,0 -70.3026434686368,4.918381480791776,0 -70.30074555280542,4.918384145637533,0 -70.3000708078139,4.917795676251096,0 -70.30000800890672,4.916916342313547,0 -70.29919283109456,4.916043608108454,0 -70.29848358793707,4.915754519713813,0 -70.29740022386871,4.915466581230914,0 -70.29631912127947,4.915179229389109,0 -70.29538106074091,4.915180520233197,0 -70.2940677461503,4.91518232752418,0 -70.29341476716203,4.914607359530373,0 -70.29276452548537,4.914034811080115,0 -70.29201717666322,4.914035824362361,0 -70.29052244852574,4.914037863665626,0 -70.2898794918512,4.91346794772118,0 -70.2877288294814,4.912050038226654,0 -70.28728397173681,4.911481168626521,0 -70.28684100148797,4.910914689373193,0 -70.28577675526623,4.909789098551593,0 -70.28460255664889,4.909238533680171,0 -70.28423475536975,4.909240786438279,0 -70.28337239070687,4.90897269009376,0 -70.28208621631838,4.90898053504268,0 -70.28171870781148,4.90898277709361,0 -70.28073572727904,4.908443621244072,0 -70.27987924583867,4.908177066754826,0 -70.27957357843052,4.907907707003361,0 -70.27859869012909,4.907372788793695,0 -70.27762688275141,4.906841676821056,0 -70.2768971677415,4.906846736598343,0 -70.27520214399972,4.906322728502714,0 -70.27496764236498,4.905790712441826,0 -70.27413936130672,4.904735457911839,0 -70.27282419848838,4.904217066326264,0 -70.27180743566785,4.903961057153099,0 -70.27090470212913,4.903967184724206,0 -70.26984887640293,4.903188647199033,0 -70.26876857235165,4.903195926401702,0 -70.26786841462574,4.903201665300148,0 -70.2671119824719,4.902685131121245,0 -70.26585409163428,4.902692974615055,0 -70.26513523587263,4.902697451975521,0 -70.26431110491046,4.902442693022743,0 -70.26341327506378,4.902448276899651,0 -70.26305412469135,4.902450501243659,0 -70.26251537614887,4.902453854495609,0 -70.26097671151524,4.902203992837112,0 -70.26025893559422,4.902208445486759,0 -70.25954111418479,4.90221289323115,0 -70.25874335000626,4.902477314335362,0 -70.25778195177389,4.903264759671547,0 -70.25670069787645,4.903271523460205,0 -70.25579956172132,4.903277150306082,0 -70.25553593421813,4.903540346071548,0 -70.25402665992991,4.90486835953502,0 -70.2533926676838,4.905143323161134,0 -70.25212421761914,4.906233277456188,0 -70.25047752090455,4.907336942681047,0 -70.24974103656211,4.907891132755439,0 -70.24836666764176,4.908167316060391,0 -70.24735255882965,4.908988980326093,0 -70.24642199376775,4.910090255392281,0 -70.24576850105078,4.910917175916148,0 -70.24528654421478,4.912311309712021,0 -70.24479961200656,4.913719844689436,0 -70.24506412105961,4.914576308007087,0 -70.24570419137297,4.915441073840999,0 -70.24645206793772,4.915446916466745,0 -70.24795600647214,4.915445629112569,0 -70.24946065199724,4.915443108856713,0 -70.25021416632134,4.916018036181141,0 -70.25087510020597,4.916305911099044,0 -70.25154138697708,4.917175417409522,0 -70.25211434811618,4.917757913477434,0 -70.25240756478503,4.918637223855543,0 -70.25317602984443,4.919225550826084,0 -70.25356563778757,4.919816998955695,0 -70.25434024145358,4.920409505463296,0 -70.25492822411745,4.921001294336041,0 -70.25562110548444,4.921896340303307,0 -70.25611227996969,4.922191114622764,0 -70.25700844422519,4.92308705591649,0 -70.25780390540194,4.923684796440259,0 -70.25830040952017,4.923983260243073,0 -70.25947070500216,4.923967115060457,0 -70.26007827176684,4.924571204529348,0 -70.26096987011943,4.92486605343048,0 -70.26225481714849,4.925156058885095,0 -70.26287074897657,4.925765119173128,0 -70.26388243546991,4.926371252479213,0 -70.26461568078759,4.927303823580857,0 -70.26532054172027,4.927612122862556,0 -70.26614272076206,4.928236138975895,0 -70.26668972268335,4.929183623117896,0 -70.26740139695308,4.929495936675049,0 -70.26823347147077,4.930128107353628,0 -70.26894827723817,4.930444381740869,0 -70.26938701903531,4.931086552431594,0 -70.27058003194276,4.931081215393267,0 -70.27114601790359,4.932050222022371,0 -70.27186806556914,4.93237226220696,0 -70.27279162920769,4.932694099385774,0 -70.27383727279178,4.933359070201834,0 -70.27496076058988,4.933697555341771,0 -70.27561287078933,4.934369286118659,0 -70.27661465216001,4.934374072110162,0 -70.27774559410759,4.934714495080891,0 -70.27841029792289,4.935380651796547,0 -70.27921682835097,4.93537824715653,0 -70.2798863919634,4.93604742093239,0 -70.28123388460955,4.936380133089608,0 -70.28123473738476,4.937394961855356,0 -70.27992571147429,4.943993072276977,0 -70.28026800260057,4.945418780932797,0 -70.28151923855388,4.94541481659098,0 -70.28297894384816,4.945410211256764,0 -70.28403217241431,4.946485790205109,0 -70.28459442153785,4.946845331147275,0 -70.2854324241812,4.946842663750812,0 -70.28675241746819,4.946477119195054,0 -70.28758935834033,4.946474441046592,0 -70.28863497290021,4.946472992360832,0 -70.28974013971823,4.946110226226089,0 -70.29147103121196,4.94573805673395,0 -70.29272341997489,4.945733282656706,0 -70.29355831047526,4.945730097510307,0 -70.29439317045079,4.945726924306567,0 -70.29543670078094,4.945722932500844,0 -70.2964801848002,4.945718941347417,0 -70.29835833754358,4.94571176858266,0 -70.29919301877459,4.945708593989031,0 -70.30023633267213,4.945704604134035,0 -70.30169689230191,4.945699024077496,0 -70.303783248236,4.945691040567459,0 -70.30640464090654,4.944609577950483,0 -70.30785964593493,4.944604028274561,0 -70.30959327375118,4.943887397998629,0 -70.31128557560663,4.943525713031193,0 -70.31259199258481,4.942813419684318,0 -70.31536044070698,4.941769061097581,0 -70.31662191396738,4.941419527113549,0 -70.31793073186185,4.940379516311719,0 -70.32006949379627,4.939003418138313,0 -70.32214852824129,4.938318601142079,0 -70.32247654876709,4.939684713171794,0 -70.32329392005147,4.939683484290367,0 -70.32411128295389,4.939682261555805,0 -70.32468982403573,4.940369405357142,0 -70.32569774314906,4.940713088218351,0 -70.32651790899861,4.940711853283785,0 -70.32735227041435,4.940365407967583,0 -70.32947073290634,4.938307745162131,0 -70.33012454888331,4.936952774460035,0 -70.33194656765429,4.936950072199791,0 -70.33419206847414,4.93593935959678,0 -70.33561791678213,4.934939851115101,0 -70.33703409997773,4.933947852000686,0 -70.33783760378869,4.933619087109284,0 -70.3386415502036,4.932635249155696,0 -70.33963889788231,4.931009759700949,0 -70.33963889737589,4.933292276902252,0 -70.34044220670357,4.934613807334171,0 -70.34104629656498,4.934946568495993,0 -70.34185809325541,4.935948148864794,0 -70.34247947297578,4.937629821147469,0 -70.34309607220084,4.938307697895772,0 -70.34413348422014,4.939672779506785,0 -70.34457045673604,4.941396792264282,0 -70.34502505181592,4.943844143705417,0 -70.34588285512082,4.945261527609662,0 -70.34633052960488,4.946692200870109,0 -70.34698384540788,4.947774118751108,0 -70.34741276146133,4.948136506921051,0 -70.34910482234473,4.948499929901105,0 -70.35057731315983,4.948500114334977,0 -70.35162908807187,4.948500244331448,0 -70.35331214582988,4.948502950393002,0 -70.35478487307927,4.948505553439229,0 -70.35688883974559,4.948509319612649,0 -70.35899292099767,4.948513254140763,0 -70.35962416115828,4.948514432302719,0 -70.36130751844009,4.948517552934135,0 -70.36217602088669,4.948883853223087,0 -70.36322940893017,4.948885809546527,0 -70.36449351287587,4.948888139142578,0 -70.36635791494597,4.948526900811157,0 -70.36741015354203,4.948528846607224,0 -70.36867286566269,4.948531195867741,0 -70.36975958117419,4.948889613540933,0 -70.37039107240204,4.948887135395893,0 -70.37186447157849,4.948881330076603,0 -70.37303467285639,4.949968387620618,0 -70.37409211748972,4.949971598480067,0 -70.37451510120265,4.949972868330274,0 -70.37531876836667,4.949609723046125,0 -70.37700883231186,4.949614855947629,0 -70.37848766051222,4.949619118024287,0 -70.37949615606388,4.949254389070488,0 -70.38033969822861,4.949254388556013,0 -70.38118325656214,4.949254401208967,0 -70.38202680869942,4.949254388120453,0 -70.3832921386077,4.949254404531308,0 -70.38439951676806,4.949619129817566,0 -70.38688988520765,4.950718524073535,0 -70.38858501846858,4.950718526950985,0 -70.38985636674573,4.950718510820217,0 -70.39112771346976,4.950718487630298,0 -70.39218717884228,4.950718480085255,0 -70.39345853206501,4.950718472509297,0 -70.39473202848143,4.950725566326897,0 -70.39587052212934,4.949994070601535,0 -70.39777668505077,4.950005197071942,0 -70.39862394485228,4.950010149716287,0 -70.39989491600791,4.950017577801967,0 -70.4013756794061,4.950019820587187,0 -70.40243259941644,4.950019104699928,0 -70.40335441031942,4.95038718677841,0 -70.40441259450812,4.950386466792388,0 -70.40533786150348,4.950755414153745,0 -70.40605321628719,4.951125397895398,0 -70.40724484304477,4.95075411264764,0 -70.4080103557277,4.950384016757304,0 -70.4090684995308,4.950383293149504,0 -70.41025312956533,4.950012519463166,0 -70.41269817630604,4.949633171515701,0 -70.41290879618963,4.949631806835449,0 -70.41438302581783,4.949622275491275,0 -70.41501479577464,4.949618183124926,0 -70.41576808131913,4.949250693335942,0 -70.41799228576741,4.948879930598856,0 -70.42000485219204,4.948519436625342,0 -70.42105761936882,4.948521211532271,0 -70.4221104022525,4.948522985608065,0 -70.42253151354352,4.948523685065124,0 -70.42400543343162,4.948526108159076,0 -70.42526881578617,4.948528160083967,0 -70.42642933873442,4.948167015389844,0 -70.42737735926542,4.947807003921447,0 -70.42884836883958,4.947810246726717,0 -70.4300024569248,4.947451667955686,0 -70.43167432330922,4.946735615729198,0 -70.43261193729954,4.946379084767975,0 -70.43342567616956,4.944954822708872,0 -70.43331596912516,4.944600171541815,0 -70.43319583920975,4.943541929944976,0 
					</coordinates>
				</LinearRing>
			</outerBoundaryIs>
		</Polygon>
	</Placemark>
</Document>
</kml>
