<?xml version="1.0" encoding="UTF-8"?>
<kml xmlns="http://www.opengis.net/kml/2.2" xmlns:gx="http://www.google.com/kml/ext/2.2" xmlns:kml="http://www.opengis.net/kml/2.2" xmlns:atom="http://www.w3.org/2005/Atom">
<Document>
	<name>Loreto_farmers_kml .kmz</name>
	<Schema name="Loreto_farmers_kml" id="Loreto_farmers_kml">
		<SimpleField type="int" name="ID"></SimpleField>
		<SimpleField type="float" name="HECTARES"></SimpleField>
		<SimpleField type="int" name="Plant_Year"></SimpleField>
		<SimpleField type="string" name="village"></SimpleField>
	</Schema>
	<Style id="s_ylw-pushpin_hl">
		<IconStyle>
			<scale>1.3</scale>
			<Icon>
				<href>http://maps.google.com/mapfiles/kml/pushpin/ylw-pushpin.png</href>
			</Icon>
			<hotSpot x="20" y="2" xunits="pixels" yunits="pixels"/>
		</IconStyle>
		<LineStyle>
			<color>ff000000</color>
		</LineStyle>
		<PolyStyle>
			<color>ffff00ff</color>
		</PolyStyle>
	</Style>
	<Style id="s_ylw-pushpin">
		<IconStyle>
			<scale>1.1</scale>
			<Icon>
				<href>http://maps.google.com/mapfiles/kml/pushpin/ylw-pushpin.png</href>
			</Icon>
			<hotSpot x="20" y="2" xunits="pixels" yunits="pixels"/>
		</IconStyle>
		<LineStyle>
			<color>ff000000</color>
		</LineStyle>
		<PolyStyle>
			<color>ffff00ff</color>
		</PolyStyle>
	</Style>
	<StyleMap id="m_ylw-pushpin">
		<Pair>
			<key>normal</key>
			<styleUrl>#s_ylw-pushpin</styleUrl>
		</Pair>
		<Pair>
			<key>highlight</key>
			<styleUrl>#s_ylw-pushpin_hl</styleUrl>
		</Pair>
	</StyleMap>
	<Folder>
		<name>Loreto_farmers_kml</name>
		<open>1</open>
		<Placemark>
			<name>Juan Davila Sinti (2012)</name>
			<styleUrl>#m_ylw-pushpin</styleUrl>
			<ExtendedData>
				<SchemaData schemaUrl="#Loreto_farmers_kml">
					<SimpleData name="ID">1</SimpleData>
					<SimpleData name="HECTARES">0.932</SimpleData>
					<SimpleData name="Plant_Year">2012</SimpleData>
					<SimpleData name="village">Moralillo</SimpleData>
				</SchemaData>
			</ExtendedData>
			<Polygon>
				<outerBoundaryIs>
					<LinearRing>
						<coordinates>
							-73.34447384170683,-3.91548613056786,0 -73.34450083547922,-3.915495227198752,0 -73.34451884317444,-3.91549526289315,0 -73.34457288403013,-3.91548632688499,0 -73.3446089171903,-3.915477355180939,0 -73.34462694265451,-3.915468347783567,0 -73.34471699890253,-3.915459483147169,0 -73.34475303206251,-3.915450511435748,0 -73.34479805130424,-3.915450600656406,0 -73.34487008209315,-3.915450743404418,0 -73.34489709363967,-3.915450796933322,0 -73.3449330912706,-3.915459911394523,0 -73.34496907113817,-3.915478068945349,0 -73.34500510430094,-3.915469097222244,0 -73.34501412591476,-3.915460071972881,0 -73.34504115522742,-3.915451082406076,0 -73.34505912739925,-3.915469204270951,0 -73.34508615671238,-3.915460214702609,0 -73.34509514279894,-3.915469275634816,0 -73.34513114043631,-3.915478390088722,0 -73.34515813422456,-3.915487486701275,0 -73.34516715583771,-3.915478461449649,0 -73.34520317123977,-3.915478532809025,0 -73.3452391866425,-3.91547860416685,0 -73.34526619819498,-3.9154786576842,0 -73.34529326303146,-3.915451581923668,0 -73.34532031010545,-3.91543354925397,0 -73.34532933171678,-3.915424523999593,0 -73.34535637878938,-3.915406491328018,0 -73.34536538263993,-3.915406509165641,0 -73.34539241195169,-3.91539751958512,0 -73.34541043741258,-3.91538851216652,0 -73.34541568341537,-3.915366707649685,0 -73.34540152236001,-3.915343278865191,0 -73.345392589548,-3.915307088656952,0 -73.34538362121734,-3.9152889846345,0 -73.34536566679733,-3.915261819682489,0 -73.34535671622696,-3.915234672567502,0 -73.34534774789735,-3.915216568545291,0 -73.3453297757198,-3.915198446686174,0 -73.34532979347939,-3.915189403593611,0 -73.34532080739096,-3.915180342664069,0 -73.34532082515055,-3.915171299571543,0 -73.34532988227669,-3.915144188130765,0 -73.34532089618854,-3.91513512720142,0 -73.34531189234109,-3.915135109364551,0 -73.34531192786002,-3.91511702317956,0 -73.34530297729118,-3.9150898760653,0 -73.34529404448196,-3.915053685858744,0 -73.34528507615427,-3.915035581837176,0 -73.34527612558618,-3.915008434723313,0 -73.34526717501834,-3.914981287609582,0 -73.34524021676033,-3.914954104822447,0 -73.34524025227917,-3.914936018638037,0 -73.34522228010835,-3.914917896780023,0 -73.34523130171243,-3.914908871524697,0 -73.34522233338659,-3.914890767503625,0 -73.34520436121689,-3.914872645645783,0 -73.34518638904794,-3.914854523787875,0 -73.34519541065129,-3.914845498532796,0 -73.34521347161652,-3.914818404929989,0 -73.34524057194115,-3.914773242977966,0 -73.34524966457653,-3.914728045352502,0 -73.34526770777838,-3.914709994839018,0 -73.34527676489475,-3.914682883397147,0 -73.34522274184089,-3.914682776383974,0 -73.34518676198996,-3.914664618855882,0 -73.34515078214109,-3.914646461326892,0 -73.34513277445824,-3.914646425653838,0 -73.34512377061687,-3.914646407817166,0 -73.34508775525181,-3.914646336469508,0 -73.34506076148841,-3.9146372398663,0 -73.34504275380657,-3.914637204191391,0 -73.34500675620389,-3.914628089749206,0 -73.34497978020367,-3.914609950052915,0 -73.34488079124793,-3.914582624555986,0 -73.34483578981275,-3.914573492269103,0 -73.34479977445609,-3.914573420910359,0 -73.34475480854978,-3.914546202439568,0 -73.34473640018126,-3.914538315266608,0 -73.34471879319575,-3.91454613107783,0 -73.34474573365927,-3.914582356959351,0 -73.34468268902398,-3.914591275163181,0 -73.34464665590515,-3.914600246887072,0 -73.34461964438933,-3.91460019336168,0 -73.34457460743209,-3.914609147239979,0 -73.34454759591698,-3.914609093712138,0 -73.34451156279832,-3.914618065429256,0 -73.34449355512191,-3.914618029742685,0 -73.34445757530216,-3.914599872191011,0 -73.34443954986018,-3.914608879592046,0 -73.34441253834692,-3.914608826059842,0 -73.34437650522931,-3.914617797770525,0 -73.34436748362438,-3.914626823014102,0 -73.34435844425181,-3.91464489134572,0 -73.3443583909491,-3.914672020610378,0 -73.34436734148444,-3.914699167720176,0 -73.34436728818129,-3.914726296984922,0 -73.34437627425235,-3.914735357918393,0 -73.34438522478817,-3.914762505028494,0 -73.34438520702039,-3.914771548116812,0 -73.34439417532423,-3.914789652138726,0 -73.34439415755644,-3.91479869522708,0 -73.34438510041286,-3.914825806646681,0 -73.34437606103664,-3.91484387497766,0 -73.34438501157213,-3.914871022088184,0 -73.34438497603554,-3.914889108264769,0 -73.34440293041214,-3.914916273221259,0 -73.34440287710716,-3.914943402486354,0 -73.34441184541174,-3.914961506508947,0 -73.34440280603329,-3.914979574839785,0 -73.3444117743379,-3.914997678862528,0 -73.34439366004115,-3.915051901700163,0 -73.3444026461146,-3.915060962634884,0 -73.34440262834566,-3.915070005723218,0 -73.34441159665043,-3.915088109746334,0 -73.34441154334338,-3.915115239011436,0 -73.34441150780515,-3.915133325188161,0 -73.34441147226674,-3.915151411364878,0 -73.34441145449748,-3.915160454453233,0 -73.34442042280261,-3.915178558476707,0 -73.34442939110802,-3.915196662500241,0 -73.34443835941369,-3.915214766523837,0 -73.34442928449172,-3.915250921030776,0 -73.3444201917986,-3.915296118625625,0 -73.34444711448589,-3.915341387609385,0 -73.3444739660965,-3.915422828947817,0 -73.34447384170683,-3.91548613056786,0 
						</coordinates>
					</LinearRing>
				</outerBoundaryIs>
			</Polygon>
		</Placemark>
		<Placemark>
			<name>Noe Huayunga Ojaicuro (2012)</name>
			<styleUrl>#m_ylw-pushpin</styleUrl>
			<ExtendedData>
				<SchemaData schemaUrl="#Loreto_farmers_kml">
					<SimpleData name="ID">2</SimpleData>
					<SimpleData name="HECTARES">0.752</SimpleData>
					<SimpleData name="Plant_Year">2012</SimpleData>
					<SimpleData name="village">Moralillo</SimpleData>
				</SchemaData>
			</ExtendedData>
			<Polygon>
				<outerBoundaryIs>
					<LinearRing>
						<coordinates>
							-73.33440028138614,-3.900906744272401,0 -73.33442732794551,-3.900888711849185,0 -73.33445439231461,-3.900861636379021,0 -73.33449941054231,-3.900861725820696,0 -73.33455345022649,-3.90085279010149,0 -73.33456245387231,-3.900852807988914,0 -73.33459850407404,-3.900834793445164,0 -73.33464352230364,-3.900834882878488,0 -73.3347246263497,-3.900798871665073,0 -73.33474266925627,-3.900780821341817,0 -73.33475170851628,-3.900762753132955,0 -73.334778701647,-3.900771849834404,0 -73.33482373768364,-3.900762896209316,0 -73.33485074862209,-3.900762949861357,0 -73.3348867988183,-3.900744935300878,0 -73.33490480611076,-3.900744971067483,0 -73.33491382756222,-3.900735945902923,0 -73.33493183485473,-3.900735981668866,0 -73.33496788504931,-3.900717967103651,0 -73.33498591014622,-3.90070895982021,0 -73.3350039174388,-3.900708995584358,0 -73.33504897127811,-3.900690998896335,0 -73.3350669963742,-3.900681991610527,0 -73.33505801053121,-3.900672930680903,0 -73.33504907809836,-3.900636740606177,0 -73.33503110641368,-3.900618618747092,0 -73.33500413108457,-3.900600479006513,0 -73.33498623061607,-3.900546184954831,0 -73.33496833014854,-3.900491890903685,0 -73.33495035846809,-3.900473769044876,0 -73.33493238678841,-3.900455647186003,0 -73.33490542927034,-3.900428464397578,0 -73.33490551828898,-3.900383249158818,0 -73.33489660366466,-3.900338016038623,0 -73.33489663927159,-3.900319929943168,0 -73.33489674609142,-3.900265671656753,0 -73.33486982418503,-3.900220402774909,0 -73.33483393424777,-3.900157029917137,0 -73.33482509083746,-3.90007562460883,0 -73.33480719037883,-3.900021330562391,0 -73.33478928992119,-3.899967036516491,0 -73.334816336439,-3.89994900406384,0 -73.33480736840693,-3.899930900088482,0 -73.33478943234354,-3.899894692137949,0 -73.33478948575123,-3.899867562995961,0 -73.33478051771998,-3.899849459020899,0 -73.33478057112734,-3.899822329879007,0 -73.33477158529394,-3.89981326895138,0 -73.33474453878137,-3.899831301404099,0 -73.33471745666137,-3.899867419949445,0 -73.33469042794978,-3.89987640935228,0 -73.3346363883301,-3.899885345107973,0 -73.33460934181353,-3.899903377554069,0 -73.33459133454171,-3.899903341788823,0 -73.33456427021889,-3.899930417279076,0 -73.33450120915586,-3.899948378186743,0 -73.33444713392122,-3.899975400018841,0 -73.33442010520652,-3.899984389410217,0 -73.33434802269684,-3.900011375463495,0 -73.3343119903453,-3.900020346964514,0 -73.33424892927748,-3.900038307847975,0 -73.33422191837047,-3.900038254186501,0 -73.33421289692542,-3.90004727934378,0 -73.33419485403473,-3.900065329657795,0 -73.33416778969728,-3.900092405127454,0 -73.33416775407683,-3.900110491216273,0 -73.33416771845624,-3.900128577305084,0 -73.33412271808596,-3.900119444818191,0 -73.33410469300303,-3.900128452084632,0 -73.33408665010856,-3.900146502394546,0 -73.33408657886307,-3.900182674570631,0 -73.33408654324006,-3.90020076065866,0 -73.33409549344226,-3.900227907680265,0 -73.33409542219566,-3.900264079856443,0 -73.33408634731057,-3.900300234142678,0 -73.33408629387439,-3.900327363274641,0 -73.33410422990254,-3.900363571230867,0 -73.33411316229272,-3.900399761297263,0 -73.33411312666831,-3.900417847385445,0 -73.33411307323138,-3.900444976517703,0 -73.33412205905853,-3.900454037452112,0 -73.3341400485256,-3.900463116276681,0 -73.3341760808967,-3.900454144792043,0 -73.33420305619335,-3.900472284549695,0 -73.33423903513184,-3.900490442196205,0 -73.33426606386445,-3.900481452818558,0 -73.33427503188328,-3.900499556797011,0 -73.3343018825086,-3.900580997867527,0 -73.33434677604335,-3.900644388626855,0 -73.33435567282106,-3.900698664786475,0 -73.33434661574452,-3.900725776032851,0 -73.33434656231083,-3.900752905168147,0 -73.33435549470953,-3.900789095237868,0 -73.33437344856432,-3.900816260151915,0 -73.33438238096382,-3.900852450222079,0 -73.33439129555198,-3.900897683337719,0 -73.33440028138614,-3.900906744272401,0 
						</coordinates>
					</LinearRing>
				</outerBoundaryIs>
			</Polygon>
		</Placemark>
		<Placemark>
			<name>Celso Palla Garcia (2012)</name>
			<styleUrl>#m_ylw-pushpin</styleUrl>
			<ExtendedData>
				<SchemaData schemaUrl="#Loreto_farmers_kml">
					<SimpleData name="ID">3</SimpleData>
					<SimpleData name="HECTARES">0.652</SimpleData>
					<SimpleData name="Plant_Year">2012</SimpleData>
					<SimpleData name="village">Moralillo</SimpleData>
				</SchemaData>
			</ExtendedData>
			<Polygon>
				<outerBoundaryIs>
					<LinearRing>
						<coordinates>
							-73.33411231816244,-3.914516004519278,0 -73.33413936528403,-3.914497972300818,0 -73.33415749799579,-3.91443470692055,0 -73.33415756949941,-3.914398534755434,0 -73.334175630703,-3.914371441538632,0 -73.33417572007998,-3.914326226331744,0 -73.33417573795526,-3.914317183290361,0 -73.3341848132432,-3.914281029077772,0 -73.33421191397819,-3.914235867728269,0 -73.33422997517484,-3.914208774507948,0 -73.33423908620527,-3.914154534209761,0 -73.33423922919455,-3.914082189875996,0 -73.3342213288652,-3.914027895723051,0 -73.33422136461198,-3.914009809639729,0 -73.33419433538485,-3.914018798826982,0 -73.33416732403147,-3.9140187449717,0 -73.33410436903995,-3.913982447141494,0 -73.3340413961802,-3.913955192349678,0 -73.33396038000947,-3.913945987728541,0 -73.33387939959712,-3.913918697020104,0 -73.33379836556075,-3.913918535425232,0 -73.33372638894357,-3.913891262660565,0 -73.33367236625826,-3.913891154922387,0 -73.33362731159653,-3.913909151215786,0 -73.33356428513234,-3.913909025512861,0 -73.33346524354987,-3.913908827970097,0 -73.33337522363394,-3.913899605337816,0 -73.33331221506116,-3.913890436578701,0 -73.33324022059631,-3.913872206817046,0 -73.33315924024305,-3.913844916051762,0 -73.33308721002113,-3.913844772352901,0 -73.33306021657364,-3.913835675427898,0 -73.33297918257918,-3.913835513757022,0 -73.33294320324406,-3.913817355829195,0 -73.33296108559443,-3.913880693008442,0 -73.33296085306927,-3.913998252474505,0 -73.33296974952681,-3.914052528654508,0 -73.33297869964525,-3.914079675727138,0 -73.33301457166964,-3.914152091874814,0 -73.33305948325319,-3.914206439915813,0 -73.33307747292935,-3.914215518881352,0 -73.33309537317341,-3.9142698130287,0 -73.33308627995716,-3.91431501024582,0 -73.33309524796603,-3.914333114283458,0 -73.33311543505305,-3.914329125525853,0 -73.33314030265345,-3.914315118033535,0 -73.33319436112269,-3.914297139744058,0 -73.33323941580802,-3.914279143487037,0 -73.3333295072915,-3.914252194000695,0 -73.3333565544082,-3.914234161811034,0 -73.33339260530687,-3.914216147581199,0 -73.33343767787005,-3.914189108271776,0 -73.33348273254899,-3.914171111996877,0 -73.33349173633188,-3.914171129956808,0 -73.33350072223297,-3.914180190954939,0 -73.33352775146389,-3.914171201795562,0 -73.33362686460191,-3.914135227188606,0 -73.33366284397495,-3.914153385098981,0 -73.33369880547031,-3.914180586047676,0 -73.33372572742464,-3.914225855116972,0 -73.33368971228666,-3.914225783285749,0 -73.33368956924495,-3.91429812759895,0 -73.33364444303362,-3.914352296039643,0 -73.33362638181849,-3.914379389237822,0 -73.33363533196008,-3.914406536313771,0 -73.33366232543737,-3.914415633230568,0 -73.33370730860793,-3.914433809103572,0 -73.33374321647185,-3.914488139173978,0 -73.33375220237872,-3.914497200171942,0 -73.33375214873666,-3.9145243292901,0 -73.33379720343709,-3.914506333003174,0 -73.33383321858904,-3.914506404834905,0 -73.33384218661764,-3.914524508872197,0 -73.33388722343898,-3.914515555619601,0 -73.3339412640489,-3.91450662032079,0 -73.33399528678108,-3.914506728058498,0 -73.33409432846062,-3.914506925568567,0 -73.33411231816244,-3.914516004519278,0 
						</coordinates>
					</LinearRing>
				</outerBoundaryIs>
			</Polygon>
		</Placemark>
		<Placemark>
			<name>Edilberto Curinuqui Murayari (2012)</name>
			<styleUrl>#m_ylw-pushpin</styleUrl>
			<ExtendedData>
				<SchemaData schemaUrl="#Loreto_farmers_kml">
					<SimpleData name="ID">4</SimpleData>
					<SimpleData name="HECTARES">0.864</SimpleData>
					<SimpleData name="Plant_Year">2012</SimpleData>
					<SimpleData name="village">Varillal</SimpleData>
				</SchemaData>
			</ExtendedData>
			<Polygon>
				<outerBoundaryIs>
					<LinearRing>
						<coordinates>
							-73.34182965247103,-3.89103734743914,0 -73.34182075501802,-3.890983071184629,0 -73.34181183987799,-3.890937838012063,0 -73.34181194599765,-3.890883579522319,0 -73.34180299548407,-3.890856432513402,0 -73.34180308391583,-3.890811217105404,0 -73.34178518288917,-3.890756923088324,0 -73.34178525363362,-3.890720750762172,0 -73.34177632080649,-3.890684560672467,0 -73.34177640923576,-3.890639345264898,0 -73.34179445174765,-3.890621294628223,0 -73.34178550123391,-3.890594147620385,0 -73.34178555429007,-3.890567018375664,0 -73.34179471702511,-3.890485648403907,0 -73.34178583724993,-3.89042232907018,0 -73.34178596104154,-3.89035902749887,0 -73.34178603177868,-3.890322855172362,0 -73.34176813075027,-3.890268561159213,0 -73.34176821917048,-3.890223345751385,0 -73.34176828990591,-3.890187173425087,0 -73.34172325439444,-3.890196127698316,0 -73.34166921531769,-3.890205064206239,0 -73.34165119050209,-3.89021407176202,0 -73.3416061549905,-3.890223026027824,0 -73.34158814786022,-3.890222990501055,0 -73.34157012304404,-3.890231998054562,0 -73.3415521159139,-3.890231962526942,0 -73.34152512290554,-3.890222866154337,0 -73.34148910864664,-3.890222795096951,0 -73.34147110151743,-3.890222759567679,0 -73.34140809425428,-3.890213592132279,0 -73.3413630587457,-3.890222546383959,0 -73.3413090196732,-3.890231482866353,0 -73.34124597703727,-3.890240401577606,0 -73.3412099804727,-3.890231287428944,0 -73.34115595909272,-3.890231180821807,0 -73.34109293415128,-3.890231056442431,0 -73.34103889508276,-3.890239992905993,0 -73.3410029162163,-3.890221835671372,0 -73.34097588783686,-3.890230825439638,0 -73.3409308700255,-3.890230736588076,0 -73.34091284520812,-3.890239744124409,0 -73.34092181338418,-3.89025784805049,0 -73.34092172491805,-3.890303063438809,0 -73.34092165414441,-3.890339235749428,0 -73.34093048077165,-3.890429684297346,0 -73.34093936047891,-3.890493003612707,0 -73.34093019766533,-3.890574373539837,0 -73.3409390596748,-3.8906467359333,0 -73.34095692525065,-3.89071911609975,0 -73.34096575186851,-3.890809564649832,0 -73.34095667751866,-3.890845719187793,0 -73.34096555721914,-3.89090903850499,0 -73.34097449000623,-3.890945228589287,0 -73.34098335201008,-3.891017590984963,0 -73.34098331661815,-3.891035677140536,0 -73.34097429535107,-3.891044702444568,0 -73.3410012883684,-3.8910537988434,0 -73.34104630622508,-3.891053887709959,0 -73.34109130638782,-3.891063019652388,0 -73.34111829940851,-3.891072116048245,0 -73.34113630655251,-3.891072151592819,0 -73.34121733870259,-3.891072311538629,0 -73.34125335299258,-3.891072382623151,0 -73.34130740981419,-3.891054403088503,0 -73.34135240998573,-3.891063535018161,0 -73.34137043482367,-3.89105452747808,0 -73.34139744554267,-3.891054580786453,0 -73.34144248109963,-3.891045626551921,0 -73.34146047055505,-3.891054705169285,0 -73.3415055061128,-3.89104575093109,0 -73.34154152040695,-3.891045822002782,0 -73.34155050629056,-3.891054882850856,0 -73.34158653827558,-3.89104591084023,0 -73.34160454542331,-3.891045946374533,0 -73.34162257026044,-3.891036938827727,0 -73.34164956329337,-3.891046035208607,0 -73.34167657401592,-3.891046088507897,0 -73.34170360242719,-3.89103709872522,0 -73.34174860261118,-3.891046230635094,0 -73.34179363817196,-3.891037276379947,0 -73.34181162763421,-3.891046354991332,0 -73.34182965247103,-3.89103734743914,0 
						</coordinates>
					</LinearRing>
				</outerBoundaryIs>
			</Polygon>
		</Placemark>
		<Placemark>
			<name>Cesar Vela Tangoa (2013)</name>
			<styleUrl>#m_ylw-pushpin</styleUrl>
			<ExtendedData>
				<SchemaData schemaUrl="#Loreto_farmers_kml">
					<SimpleData name="ID">5</SimpleData>
					<SimpleData name="HECTARES">1.034</SimpleData>
					<SimpleData name="Plant_Year">2013</SimpleData>
					<SimpleData name="village">Varillal</SimpleData>
				</SchemaData>
			</ExtendedData>
			<Polygon>
				<outerBoundaryIs>
					<LinearRing>
						<coordinates>
							-73.37608283360034,-3.884683510303503,0 -73.37610091009813,-3.884647372085865,0 -73.37612804213349,-3.884584121518226,0 -73.37613721871668,-3.884493706494243,0 -73.37614639529396,-3.884403291469153,0 -73.37616462739672,-3.884285764091608,0 -73.37617378666947,-3.884204392303094,0 -73.37618292864744,-3.884132063753121,0 -73.37619200146338,-3.88409590816061,0 -73.37619210520008,-3.884041648723094,0 -73.3761741843345,-3.883996397794645,0 -73.37618329172493,-3.883942155722522,0 -73.3761834127468,-3.883878853045458,0 -73.3761925892854,-3.883788438013732,0 -73.37620169666695,-3.883734195939717,0 -73.37622884592585,-3.883661902112231,0 -73.37625599517791,-3.883589608281804,0 -73.37629211350246,-3.883535418290719,0 -73.37630115172568,-3.883517349172295,0 -73.37636435013536,-3.883427038297875,0 -73.37642761766395,-3.883300554449637,0 -73.37646373596063,-3.883246364441044,0 -73.37647286058835,-3.883183079112648,0 -73.37649093701445,-3.883146940864965,0 -73.37649097157868,-3.883128854382703,0 -73.37649105798853,-3.883083638177011,0 -73.37649124808665,-3.882984162524311,0 -73.37647343088902,-3.882884652157225,0 -73.37646454821153,-3.882821332112497,0 -73.37646468645808,-3.882748986183791,0 -73.3764647901413,-3.882694726737178,0 -73.37645601114119,-3.882577147246665,0 -73.37644716301821,-3.882495740721073,0 -73.3764381593771,-3.882495723365312,0 -73.37641113117388,-3.882504714538362,0 -73.37634805384478,-3.882531722764905,0 -73.37631203928082,-3.882531653336407,0 -73.37624899651343,-3.882540575073003,0 -73.37620397831033,-3.882540488281649,0 -73.37614093554447,-3.882549410009398,0 -73.3761229282639,-3.882549375290756,0 -73.37608691370322,-3.882549305852318,0 -73.37603289186342,-3.882549201691778,0 -73.37598787366468,-3.882549114888683,0 -73.3759608454608,-3.882558106044542,0 -73.37596079360512,-3.882585235761135,0 -73.37594271718315,-3.88262137399343,0 -73.37594257889673,-3.882693719903545,0 -73.37594245789397,-3.882757022574791,0 -73.3759333159603,-3.88282935112202,0 -73.37592422588361,-3.882874549952478,0 -73.37591517037946,-3.882901662305213,0 -73.37592413944826,-3.882919766145629,0 -73.37592407029925,-3.882955939100114,0 -73.37593298750625,-3.883001172656685,0 -73.37594188742565,-3.883055449452194,0 -73.37593281462981,-3.883091605043059,0 -73.37592363810323,-3.883182020064908,0 -73.37592353437242,-3.883236279496272,0 -73.37592339606239,-3.883308625404642,0 -73.37590528503229,-3.88336285010528,0 -73.37588713941895,-3.883435161281186,0 -73.37588705296912,-3.883480377472901,0 -73.37588696651825,-3.883525593664566,0 -73.37588682819478,-3.883597939571124,0 -73.37590471446164,-3.883661276972876,0 -73.37591361436841,-3.883715553770021,0 -73.37590452426159,-3.88376075259492,0 -73.3759133895841,-3.883833115869146,0 -73.37590431676504,-3.883869271455056,0 -73.3759042994734,-3.883878314693388,0 -73.3759041957227,-3.883932574123331,0 -73.37590409197053,-3.883986833553206,0 -73.37590400550927,-3.884032049744712,0 -73.37590391904699,-3.884077265936167,0 -73.37589486351342,-3.884104378282268,0 -73.37588580797895,-3.884131490628012,0 -73.37588568692702,-3.884194793295313,0 -73.37591257684517,-3.884258148070828,0 -73.37590348672043,-3.884303346892692,0 -73.37590343483954,-3.884330476607389,0 -73.37590341754583,-3.884339519845617,0 -73.37591240391042,-3.884348580453593,0 -73.37590336566444,-3.884366649560291,0 -73.37589429282983,-3.884402805143075,0 -73.37590322731232,-3.884438995466001,0 -73.37589418906441,-3.884457064572077,0 -73.37589408529756,-3.884511324001007,0 -73.37590295060028,-3.884583687277033,0 -73.37590276035473,-3.884683162896815,0 -73.37590269117329,-3.884719335849405,0 -73.37592069849789,-3.884719370592129,0 -73.37595673044243,-3.884710396838037,0 -73.37600173146059,-3.884719526929628,0 -73.37609178538307,-3.884710657389827,0 -73.37610078904611,-3.884710674759177,0 -73.37608283360034,-3.884683510303503,0 
						</coordinates>
					</LinearRing>
				</outerBoundaryIs>
			</Polygon>
		</Placemark>
		<Placemark>
			<name>Marlo Aquituari Silvano (2013)</name>
			<styleUrl>#m_ylw-pushpin</styleUrl>
			<ExtendedData>
				<SchemaData schemaUrl="#Loreto_farmers_kml">
					<SimpleData name="ID">6</SimpleData>
					<SimpleData name="HECTARES">1.226</SimpleData>
					<SimpleData name="Plant_Year">2013</SimpleData>
					<SimpleData name="village">Moralillo</SimpleData>
				</SchemaData>
			</ExtendedData>
			<Polygon>
				<outerBoundaryIs>
					<LinearRing>
						<coordinates>
							-73.33224154373021,-3.908941741541444,0 -73.33224168669966,-3.90886939727257,0 -73.33225085125684,-3.908788027918554,0 -73.33225099421986,-3.908715683649072,0 -73.33225113718021,-3.908643339379458,0 -73.33226023024682,-3.908598142158537,0 -73.3322694126573,-3.908507729767956,0 -73.33225140522367,-3.908507693873584,0 -73.33217939336092,-3.908498507258816,0 -73.33216135018789,-3.908516557429239,0 -73.3321073457608,-3.908507406704671,0 -73.33204431974914,-3.90850728106048,0 -73.33200830488627,-3.90850720926167,0 -73.33196328630859,-3.908507119510981,0 -73.33192728931991,-3.908498004676445,0 -73.3318732849029,-3.908488853938358,0 -73.33181027677404,-3.90847968524543,0 -73.33175623661376,-3.908488620563743,0 -73.33169322848994,-3.90847945186255,0 -73.33158518392625,-3.908479236417681,0 -73.33149516467164,-3.908470013839397,0 -73.33144114239512,-3.90846990610618,0 -73.33144121390582,-3.908433733986167,0 -73.33142333162489,-3.908370396865136,0 -73.33142342101183,-3.90832518171542,0 -73.33140548509948,-3.908288973685043,0 -73.33141457819559,-3.908243776490777,0 -73.3314056638705,-3.908198543386211,0 -73.33142374279619,-3.908162407176022,0 -73.33140573537774,-3.908162371266621,0 -73.33137872425037,-3.908162317401795,0 -73.33131569828798,-3.908162191713813,0 -73.33127069762281,-3.908153058904502,0 -73.33121667537279,-3.908152951165519,0 -73.33117167471141,-3.908143818351551,0 -73.33114466358788,-3.908143764479426,0 -73.33110864875708,-3.908143692648571,0 -73.3310636480998,-3.908134559829502,0 -73.33102761539023,-3.908143531023486,0 -73.33095556785214,-3.908152430377985,0 -73.33086551290172,-3.908161293804608,0 -73.33079344748295,-3.908179236170814,0 -73.33071239624151,-3.908188117540433,0 -73.33065837400467,-3.908188009764449,0 -73.33062234129571,-3.908196980938125,0 -73.33050523946221,-3.908223876483133,0 -73.33047822834533,-3.908223822588399,0 -73.33047812102292,-3.908278080741928,0 -73.33045993473478,-3.908368475066005,0 -73.33046883111483,-3.908422751184958,0 -73.33046877745078,-3.90844988026147,0 -73.3304416768848,-3.908495041489305,0 -73.33045062692746,-3.908522188532166,0 -73.33045053748391,-3.908567403659151,0 -73.33045046592831,-3.908603575760703,0 -73.33043235117361,-3.908657797978079,0 -73.33043226172596,-3.908703013104494,0 -73.33043213649749,-3.908766314281391,0 -73.33043208282751,-3.908793443357173,0 -73.33045005447065,-3.908811565343992,0 -73.3304860693178,-3.908811637215445,0 -73.33052208416561,-3.90881170908535,0 -73.33055811690286,-3.908802737927866,0 -73.3306391503135,-3.908802899625631,0 -73.33068415098901,-3.908812032480758,0 -73.3307651307459,-3.908839323247081,0 -73.3308011277137,-3.90884843813244,0 -73.33086413582502,-3.908857606908457,0 -73.33090015068177,-3.908857678762935,0 -73.33094515136877,-3.908866811606472,0 -73.33097218039725,-3.908857822467245,0 -73.33100817737181,-3.908866937344987,0 -73.3310262205696,-3.908848887213416,0 -73.33104424588291,-3.908839880109198,0 -73.33109826817214,-3.90883998787822,0 -73.33114328674763,-3.908840077683075,0 -73.33116127629563,-3.908849156632964,0 -73.33122428442249,-3.908858325383546,0 -73.33124229185411,-3.908858361303235,0 -73.33130531786612,-3.908858487019097,0 -73.33135033644736,-3.908858576813239,0 -73.33139535502966,-3.908858666604961,0 -73.33143136989624,-3.908858738436595,0 -73.33152137130817,-3.908877004069475,0 -73.33158436157429,-3.908895215826064,0 -73.33166541291368,-3.908886334397324,0 -73.33169240619117,-3.908895431293932,0 -73.33171939946958,-3.908904528189914,0 -73.33176440018651,-3.908913660994235,0 -73.33180940090541,-3.908922793796551,0 -73.33187244481572,-3.908913876439871,0 -73.33191746341298,-3.908913966204773,0 -73.33198949317078,-3.908914109823583,0 -73.33210648791469,-3.908941472289874,0 -73.33213349907705,-3.908941526141931,0 -73.33217849980976,-3.90895065892673,0 -73.3322054931016,-3.908959755810018,0 -73.332214496823,-3.90895977375982,0 -73.33224154373021,-3.908941741541444,0 
						</coordinates>
					</LinearRing>
				</outerBoundaryIs>
			</Polygon>
		</Placemark>
		<Placemark>
			<name>Zulema Moreno Tulumba (2013)</name>
			<styleUrl>#m_ylw-pushpin</styleUrl>
			<ExtendedData>
				<SchemaData schemaUrl="#Loreto_farmers_kml">
					<SimpleData name="ID">7</SimpleData>
					<SimpleData name="HECTARES">0.912</SimpleData>
					<SimpleData name="Plant_Year">2013</SimpleData>
					<SimpleData name="village">Morallilo</SimpleData>
				</SchemaData>
			</ExtendedData>
			<Polygon>
				<outerBoundaryIs>
					<LinearRing>
						<coordinates>
							-73.35381512853361,-3.913316148498723,0 -73.35385110868158,-3.913334305710096,0 -73.35386002425004,-3.913379539106847,0 -73.35386893981847,-3.91342477250386,0 -73.35386890449848,-3.91344285876793,0 -73.35387785538687,-3.913470005901138,0 -73.35388682393557,-3.913488109902372,0 -73.3538867886154,-3.913506196166579,0 -73.35389577482448,-3.913515257035809,0 -73.35390477869376,-3.913515274772839,0 -73.35393179030181,-3.913515327983355,0 -73.35395878425084,-3.913524424325427,0 -73.35399478207063,-3.913533538403015,0 -73.35402175836282,-3.91355167787629,0 -73.35403964249147,-3.91361501527735,0 -73.35406661878712,-3.913633154750654,0 -73.35410261661418,-3.913642268826034,0 -73.35415663984421,-3.913642375236853,0 -73.35419265533172,-3.91364244617546,0 -73.35424664325036,-3.91366063884789,0 -73.35425562946588,-3.913669699715551,0 -73.35427361955431,-3.913678778316996,0 -73.35429160964323,-3.913687856918213,0 -73.3543186212621,-3.91368791011857,0 -73.35434561522528,-3.913697006452209,0 -73.3543636406277,-3.913687998783893,0 -73.35437266215665,-3.913678973382387,0 -73.35439969143172,-3.913669983445595,0 -73.35442672070654,-3.913660993507687,0 -73.35443570692483,-3.91367005437423,0 -73.35446271854509,-3.913670107569689,0 -73.35447170476398,-3.91367916843605,0 -73.35448969485684,-3.913688247033907,0 -73.35448965954778,-3.913706333303531,0 -73.3544896065839,-3.913733462707952,0 -73.35448053209018,-3.913769617515269,0 -73.35447151056049,-3.913778642917999,0 -73.35447147525024,-3.913796729187419,0 -73.35447143993981,-3.91381481545683,0 -73.35448037319395,-3.913851005727978,0 -73.35448935941422,-3.913860066595009,0 -73.35448930644824,-3.913887195999326,0 -73.3545072612344,-3.913914360868416,0 -73.35451621214486,-3.913941508005319,0 -73.35453409631111,-3.914004845414465,0 -73.35457911569853,-3.914004934075348,0 -73.35461504293583,-3.914050220678877,0 -73.35464201926166,-3.914068360144558,0 -73.35466899558885,-3.914086499609847,0 -73.35467798181345,-3.914095560476723,0 -73.3547139973298,-3.914095631401064,0 -73.35473202274193,-3.914086623726819,0 -73.35474104427468,-3.914077598321551,0 -73.35476807356538,-3.914068608376668,0 -73.35476816183098,-3.914023392696631,0 -73.35473216397011,-3.91401427864008,0 -73.35472317774519,-3.914005217773894,0 -73.35475022468627,-3.913987184692735,0 -73.35475924621738,-3.913978159286716,0 -73.35477730693165,-3.913951065338067,0 -73.35477734223674,-3.913932979065923,0 -73.35480440682656,-3.913905902845306,0 -73.35483143611117,-3.913896912895722,0 -73.35484947916947,-3.913878862080156,0 -73.35486753987819,-3.913851768127364,0 -73.35485858895457,-3.913824620989785,0 -73.35484066945696,-3.913779369851419,0 -73.3548317891382,-3.913716050168738,0 -73.35483182444001,-3.913697963895995,0 -73.35483187739239,-3.913670834486865,0 -73.35483196564556,-3.913625618804943,0 -73.35483200094653,-3.913607532532159,0 -73.35482308532426,-3.913562299122908,0 -73.35482315592527,-3.91352612657744,0 -73.35482320887563,-3.913498997168319,0 -73.3548232794755,-3.913462824622794,0 -73.35483230099818,-3.91345379921317,0 -73.35483231864791,-3.913444756076741,0 -73.35483235394724,-3.913426669803877,0 -73.35483240689594,-3.913399540394564,0 -73.35483244219486,-3.913381454121679,0 -73.35481445210038,-3.91337237553235,0 -73.3547964796561,-3.913354253806511,0 -73.35478749343426,-3.913345192943566,0 -73.35478754638329,-3.913318063534816,0 -73.35476055241976,-3.9133089672185,0 -73.35475160149849,-3.913281820083336,0 -73.35473362905725,-3.913263698357496,0 -73.35472466048691,-3.913245594358571,0 -73.35472469578674,-3.913227508086604,0 -73.35469770182725,-3.913218411769753,0 -73.35467076081959,-3.913182186045034,0 -73.35463481594527,-3.913145942592998,0 -73.3546078219902,-3.913136846274741,0 -73.35458983190428,-3.913127767683759,0 -73.35458082803603,-3.913127749955858,0 -73.35455385173398,-3.913109610501117,0 -73.35452685778188,-3.9131005141811,0 -73.35448183844395,-3.913100425537855,0 -73.35445482684166,-3.913100372350745,0 -73.35443683675939,-3.913091293757486,0 -73.35443685441173,-3.913082250622785,0 -73.354436872064,-3.91307320748808,0 -73.35442786819704,-3.913073189758779,0 -73.35442788584939,-3.913064146624114,0 -73.35444592888734,-3.913046095813034,0 -73.35445493275411,-3.913046113542017,0 -73.35446395427275,-3.913037088136069,0 -73.35447301109447,-3.913009976460173,0 -73.35445507396841,-3.912973768463601,0 -73.3544281153261,-3.912946585873275,0 -73.35441014289887,-3.912928464146309,0 -73.35439218812441,-3.912901299284735,0 -73.35439222342825,-3.912883213015653,0 -73.35437428630681,-3.912847005019852,0 -73.35434743358229,-3.912765563623513,0 -73.35426641646696,-3.912756360926178,0 -73.35417643080137,-3.912729054224017,0 -73.35411342142162,-3.912719886974834,0 -73.35411338611326,-3.91273797324144,0 -73.35410431163375,-3.912774128043197,0 -73.35410424101551,-3.912810300576188,0 -73.35408610970536,-3.912873567044785,0 -73.3540860567398,-3.912900696444217,0 -73.35408596846305,-3.912945912109898,0 -73.35405883327991,-3.913009160843101,0 -73.35400472180956,-3.913054270106859,0 -73.35394164178415,-3.913081275365073,0 -73.3538785794147,-3.913099237484643,0 -73.35381544640758,-3.913153372125728,0 -73.35378838183377,-3.91318044831154,0 -73.35379726208069,-3.913243767970506,0 -73.35379715612054,-3.913298026760962,0 -73.35381512853361,-3.913316148498723,0 
						</coordinates>
					</LinearRing>
				</outerBoundaryIs>
			</Polygon>
		</Placemark>
		<Placemark>
			<name>Carlos Noriega Reyna (2013)</name>
			<styleUrl>#m_ylw-pushpin</styleUrl>
			<ExtendedData>
				<SchemaData schemaUrl="#Loreto_farmers_kml">
					<SimpleData name="ID">8</SimpleData>
					<SimpleData name="HECTARES">1.166</SimpleData>
					<SimpleData name="Plant_Year">2013</SimpleData>
					<SimpleData name="village">Palo Seco</SimpleData>
				</SchemaData>
			</ExtendedData>
			<Polygon>
				<outerBoundaryIs>
					<LinearRing>
						<coordinates>
							-73.3795879049292,-4.00415194153701,0 -73.37943592344914,-4.003590957690194,0 -73.3787427909668,-4.003462976779883,0 -73.3783728225458,-4.00385110262278,0 -73.37859650468286,-4.00458405066072,0 -73.37898380718427,-4.004539603144155,0 -73.3795879049292,-4.00415194153701,0 
						</coordinates>
					</LinearRing>
				</outerBoundaryIs>
			</Polygon>
		</Placemark>
		<Placemark>
			<name>Humberto Sinti Aspajo (2013)</name>
			<styleUrl>#m_ylw-pushpin</styleUrl>
			<ExtendedData>
				<SchemaData schemaUrl="#Loreto_farmers_kml">
					<SimpleData name="ID">9</SimpleData>
					<SimpleData name="HECTARES">1.039</SimpleData>
					<SimpleData name="Plant_Year">2013</SimpleData>
				</SchemaData>
			</ExtendedData>
			<Polygon>
				<outerBoundaryIs>
					<LinearRing>
						<coordinates>
							-73.33432281010462,-3.894522175173396,0 -73.33371209668316,-3.893743258656856,0 -73.33300889332108,-3.894212103075334,0 -73.33350257729943,-3.894981744593288,0 -73.33432281010462,-3.894522175173396,0 
						</coordinates>
					</LinearRing>
				</outerBoundaryIs>
			</Polygon>
		</Placemark>
		<Placemark>
			<name>Juan Davila Sinti (2013) a</name>
			<styleUrl>#m_ylw-pushpin</styleUrl>
			<ExtendedData>
				<SchemaData schemaUrl="#Loreto_farmers_kml">
					<SimpleData name="ID">10</SimpleData>
					<SimpleData name="HECTARES">0.594</SimpleData>
					<SimpleData name="Plant_Year">2013</SimpleData>
				</SchemaData>
			</ExtendedData>
			<Polygon>
				<outerBoundaryIs>
					<LinearRing>
						<coordinates>
							-73.34490837110816,-3.9142932991674,0 -73.3450534979322,-3.913750999061237,0 -73.34430635770119,-3.91365908767296,0 -73.34416080405732,-3.914418421549689,0 -73.34490837110816,-3.9142932991674,0 
						</coordinates>
					</LinearRing>
				</outerBoundaryIs>
			</Polygon>
		</Placemark>
		<Placemark>
			<name>Luis Chanchari Inuma (2013)</name>
			<styleUrl>#m_ylw-pushpin</styleUrl>
			<ExtendedData>
				<SchemaData schemaUrl="#Loreto_farmers_kml">
					<SimpleData name="ID">11</SimpleData>
					<SimpleData name="HECTARES">1.027</SimpleData>
					<SimpleData name="Plant_Year">2013</SimpleData>
				</SchemaData>
			</ExtendedData>
			<Polygon>
				<outerBoundaryIs>
					<LinearRing>
						<coordinates>
							-73.42891161343339,-4.016863953977535,0 -73.42941463141912,-4.017534141870017,0 -73.43021755825235,-4.016776037846106,0 -73.42958820584539,-4.01624125897998,0 -73.42891161343339,-4.016863953977535,0 
						</coordinates>
					</LinearRing>
				</outerBoundaryIs>
			</Polygon>
		</Placemark>
		<Placemark>
			<name>Narita Rengifo Pérez y Gilberto Chota Mori (2013)</name>
			<styleUrl>#m_ylw-pushpin</styleUrl>
			<ExtendedData>
				<SchemaData schemaUrl="#Loreto_farmers_kml">
					<SimpleData name="ID">12</SimpleData>
					<SimpleData name="HECTARES">0.982</SimpleData>
					<SimpleData name="Plant_Year">2013</SimpleData>
				</SchemaData>
			</ExtendedData>
			<Polygon>
				<outerBoundaryIs>
					<LinearRing>
						<coordinates>
							-73.38311806965658,-3.994862444488973,0 -73.38349427376379,-3.995885078372606,0 -73.3842065984205,-3.995407190695128,0 -73.38373938868418,-3.994872714586153,0 -73.38393785007041,-3.994692240649858,0 -73.38377629322112,-3.994420623210778,0 -73.38311806965658,-3.994862444488973,0 
						</coordinates>
					</LinearRing>
				</outerBoundaryIs>
			</Polygon>
		</Placemark>
		<Placemark>
			<name>Segundo Ramirez Moncada (2013)</name>
			<styleUrl>#m_ylw-pushpin</styleUrl>
			<ExtendedData>
				<SchemaData schemaUrl="#Loreto_farmers_kml">
					<SimpleData name="ID">13</SimpleData>
					<SimpleData name="HECTARES">1.254</SimpleData>
					<SimpleData name="Plant_Year">2013</SimpleData>
				</SchemaData>
			</ExtendedData>
			<Polygon>
				<outerBoundaryIs>
					<LinearRing>
						<coordinates>
							-73.39009453972754,-4.000681998942476,0 -73.39006545854164,-4.001740009076987,0 -73.39117349557323,-4.001525151334516,0 -73.3909502947438,-4.000538990629454,0 -73.39009453972754,-4.000681998942476,0 
						</coordinates>
					</LinearRing>
				</outerBoundaryIs>
			</Polygon>
		</Placemark>
		<Placemark>
			<name>Santiago Icahuate Estrella (2013)</name>
			<styleUrl>#m_ylw-pushpin</styleUrl>
			<ExtendedData>
				<SchemaData schemaUrl="#Loreto_farmers_kml">
					<SimpleData name="ID">14</SimpleData>
					<SimpleData name="HECTARES">0.980</SimpleData>
					<SimpleData name="Plant_Year">2013</SimpleData>
				</SchemaData>
			</ExtendedData>
			<Polygon>
				<outerBoundaryIs>
					<LinearRing>
						<coordinates>
							-73.38874849365354,-3.998273827856834,0 -73.38856943693493,-3.997739920144967,0 -73.38747876201424,-3.998289412484839,0 -73.38748746645682,-3.998443165748597,0 -73.38724405029464,-3.99858737864759,0 -73.38727032253719,-3.998967249016617,0 -73.38874849365354,-3.998273827856834,0 
						</coordinates>
					</LinearRing>
				</outerBoundaryIs>
			</Polygon>
		</Placemark>
		<Placemark>
			<name>Humberto Pisco Nunez (2013)</name>
			<styleUrl>#m_ylw-pushpin</styleUrl>
			<ExtendedData>
				<SchemaData schemaUrl="#Loreto_farmers_kml">
					<SimpleData name="ID">15</SimpleData>
					<SimpleData name="HECTARES">1.108</SimpleData>
					<SimpleData name="Plant_Year">2013</SimpleData>
				</SchemaData>
			</ExtendedData>
			<Polygon>
				<outerBoundaryIs>
					<LinearRing>
						<coordinates>
							-73.33586831626165,-3.896107780159808,0 -73.33472532164407,-3.895870392977844,0 -73.33452578392141,-3.896611529817989,0 -73.33465140738369,-3.896828813102385,0 -73.33500240565765,-3.896901854272679,0 -73.33584979359668,-3.896369992993581,0 -73.33586831626165,-3.896107780159808,0 
						</coordinates>
					</LinearRing>
				</outerBoundaryIs>
			</Polygon>
		</Placemark>
		<Placemark>
			<name>Vicente Lavajos Rivas (2013)</name>
			<styleUrl>#m_ylw-pushpin</styleUrl>
			<ExtendedData>
				<SchemaData schemaUrl="#Loreto_farmers_kml">
					<SimpleData name="ID">16</SimpleData>
					<SimpleData name="HECTARES">1.175</SimpleData>
					<SimpleData name="Plant_Year">2013</SimpleData>
				</SchemaData>
			</ExtendedData>
			<Polygon>
				<outerBoundaryIs>
					<LinearRing>
						<coordinates>
							-73.33352056666286,-3.894990823379334,0 -73.33269122278556,-3.895504631975713,0 -73.33301392745413,-3.896228718898769,0 -73.33352739910993,-3.896094092428006,0 -73.33405028353536,-3.895751493412802,0 -73.33352056666286,-3.894990823379334,0 
						</coordinates>
					</LinearRing>
				</outerBoundaryIs>
			</Polygon>
		</Placemark>
		<Placemark>
			<name>Asuncion Aspejo Juaya (2013)</name>
			<styleUrl>#m_ylw-pushpin</styleUrl>
			<ExtendedData>
				<SchemaData schemaUrl="#Loreto_farmers_kml">
					<SimpleData name="ID">17</SimpleData>
					<SimpleData name="HECTARES">0.925</SimpleData>
					<SimpleData name="Plant_Year">2013</SimpleData>
				</SchemaData>
			</ExtendedData>
			<Polygon>
				<outerBoundaryIs>
					<LinearRing>
						<coordinates>
							-73.34918211141947,-3.920469179674559,0 -73.34988592476688,-3.919701904740598,0 -73.34937388982173,-3.919095001124836,0 -73.34881481376651,-3.919518922709406,0 -73.34918211141947,-3.920469179674559,0 
						</coordinates>
					</LinearRing>
				</outerBoundaryIs>
			</Polygon>
		</Placemark>
		<Placemark>
			<name>Jorge Noriega Reyna (2013)</name>
			<styleUrl>#m_ylw-pushpin</styleUrl>
			<ExtendedData>
				<SchemaData schemaUrl="#Loreto_farmers_kml">
					<SimpleData name="ID">18</SimpleData>
					<SimpleData name="HECTARES">1.020</SimpleData>
					<SimpleData name="Plant_Year">2013</SimpleData>
				</SchemaData>
			</ExtendedData>
			<Polygon>
				<outerBoundaryIs>
					<LinearRing>
						<coordinates>
							-73.37548168106343,-4.004125698819606,0 -73.37586775261791,-4.004705234386782,0 -73.37698434937349,-4.004716497368336,0 -73.3767517351869,-4.003947358702792,0 -73.37548168106343,-4.004125698819606,0 
						</coordinates>
					</LinearRing>
				</outerBoundaryIs>
			</Polygon>
		</Placemark>
		<Placemark>
			<name>Juan Davila Sinti (2013) b</name>
			<styleUrl>#m_ylw-pushpin</styleUrl>
			<ExtendedData>
				<SchemaData schemaUrl="#Loreto_farmers_kml">
					<SimpleData name="ID">19</SimpleData>
					<SimpleData name="HECTARES">0.448</SimpleData>
					<SimpleData name="Plant_Year">2013</SimpleData>
				</SchemaData>
			</ExtendedData>
			<Polygon>
				<outerBoundaryIs>
					<LinearRing>
						<coordinates>
							-73.3445458724869,-3.915486273345102,0 -73.34559008823649,-3.91560590313589,0 -73.34576226230882,-3.915045570143485,0 -73.34546586335077,-3.914674214822472,0 -73.3452319055062,-3.914601406389652,0 -73.34543746672381,-3.915379522584071,0 -73.3445458724869,-3.915486273345102,0 
						</coordinates>
					</LinearRing>
				</outerBoundaryIs>
			</Polygon>
		</Placemark>
		<Placemark>
			<name>Luis Chanchari Inuma (2014)</name>
			<styleUrl>#m_ylw-pushpin</styleUrl>
			<ExtendedData>
				<SchemaData schemaUrl="#Loreto_farmers_kml">
					<SimpleData name="ID">22</SimpleData>
					<SimpleData name="HECTARES">0.485</SimpleData>
					<SimpleData name="Plant_Year">2014</SimpleData>
				</SchemaData>
			</ExtendedData>
			<Polygon>
				<outerBoundaryIs>
					<LinearRing>
						<coordinates>
							-73.42937206095401,-4.016249885635282,0 -73.42996670579328,-4.016097293042116,0 -73.43003987185804,-4.015509607708754,0 -73.42921993909835,-4.01574315740758,0 -73.42937206095401,-4.016249885635282,0 
						</coordinates>
					</LinearRing>
				</outerBoundaryIs>
			</Polygon>
		</Placemark>
		<Placemark>
			<name>Marlo Aquituari Silvano (2014)</name>
			<styleUrl>#m_ylw-pushpin</styleUrl>
			<ExtendedData>
				<SchemaData schemaUrl="#Loreto_farmers_kml">
					<SimpleData name="ID">23</SimpleData>
					<SimpleData name="HECTARES">0.613</SimpleData>
					<SimpleData name="Plant_Year">2014</SimpleData>
				</SchemaData>
			</ExtendedData>
			<Polygon>
				<outerBoundaryIs>
					<LinearRing>
						<coordinates>
							-73.33127141271466,-3.907791337731741,0 -73.33232464991954,-3.907892911127064,0 -73.33240629069459,-3.907585609439125,0 -73.3318219968175,-3.90710516234829,0 -73.33127141271466,-3.907791337731741,0 
						</coordinates>
					</LinearRing>
				</outerBoundaryIs>
			</Polygon>
		</Placemark>
	</Folder>
</Document>
</kml>
