<?xml version="1.0" encoding="UTF-8"?>
<kml xmlns="http://www.opengis.net/kml/2.2" xmlns:gx="http://www.google.com/kml/ext/2.2" xmlns:kml="http://www.opengis.net/kml/2.2" xmlns:atom="http://www.w3.org/2005/Atom">
<Document id="Project Area All" xsi:schemaLocation="http://www.opengis.net/kml/2.2 http://schemas.opengis.net/kml/2.2.0/ogckml22.xsd http://www.google.com/kml/ext/2.2 http://code.google.com/apis/kml/schema/kml22gx.xsd">
	<name>Project Area All</name>
	<Snippet maxLines="0"></Snippet>
	<Style id="PolyStyle00">
		<LabelStyle>
			<color>00000000</color>
			<scale>0</scale>
		</LabelStyle>
		<LineStyle>
			<color>ff6e6e6e</color>
			<width>0.4</width>
		</LineStyle>
		<PolyStyle>
			<color>fff7c3c7</color>
		</PolyStyle>
	</Style>
	<Folder id="FeatureLayer0">
		<name>Project Area All</name>
		<open>1</open>
		<Snippet maxLines="0"></Snippet>
		<Placemark id="ID_00000">
			<name>0</name>
			<Snippet maxLines="0"></Snippet>
			<description><![CDATA[<html xmlns:fo="http://www.w3.org/1999/XSL/Format" xmlns:msxsl="urn:schemas-microsoft-com:xslt">

<head>

<META http-equiv="Content-Type" content="text/html">

<meta http-equiv="content-type" content="text/html; charset=UTF-8">

</head>

<body style="margin:0px 0px 0px 0px;overflow:auto;background:#FFFFFF;">

<table style="font-family:Arial,Verdana,Times;font-size:12px;text-align:left;width:100%;border-collapse:collapse;padding:3px 3px 3px 3px">

<tr style="text-align:center;font-weight:bold;background:#9CBCE2">

<td>0</td>

</tr>

<tr>

<td>

<table style="font-family:Arial,Verdana,Times;font-size:12px;text-align:left;width:100%;border-spacing:0px; padding:3px 3px 3px 3px">

<tr>

<td>FID</td>

<td>0</td>

</tr>

<tr bgcolor="#D4E4F3">

<td>Id</td>

<td>0</td>

</tr>

<tr>

<td>Acres</td>

<td>1359.656618</td>

</tr>

</table>

</td>

</tr>

</table>

</body>

</html>]]></description>
			<styleUrl>#PolyStyle00</styleUrl>
			<MultiGeometry>
				<Polygon>
					<tessellate>1</tessellate>
					<outerBoundaryIs>
						<LinearRing>
							<coordinates>
								-123.8125136076955,45.54777186477273,0 -123.8148192710805,45.54779765605372,0 -123.8151201862039,45.54780101869164,0 -123.8160156554222,45.54781102061214,0 -123.8160688978382,45.54774978847183,0 -123.8161614921597,45.54756697753606,0 -123.816188255999,45.54750263653141,0 -123.8161964339842,45.5474301293316,0 -123.8162029858135,45.5473698914162,0 -123.8162040330094,45.54727858871188,0 -123.8161995911618,45.54719447118276,0 -123.8161823019409,45.54710151458202,0 -123.8161652661037,45.54702570771946,0 -123.8162117602415,45.54697473184292,0 -123.8162721365041,45.54696665309194,0 -123.816321190961,45.54698760358549,0 -123.8164127615498,45.54700640857077,0 -123.8164892009332,45.54700586221167,0 -123.8165628349546,45.54699143369194,0 -123.8166286458623,45.54696410490291,0 -123.8166821462516,45.54692574056075,0 -123.8167196935283,45.54687895273656,0 -123.8167357965626,45.54684023827851,0 -123.8167408422511,45.54680005919526,0 -123.8167266738406,45.54672291505213,0 -123.8167052378593,45.5465600335946,0 -123.816708641497,45.54651456281608,0 -123.8168717453155,45.54651744611328,0 -123.8169866826558,45.54652953705073,0 -123.8170615867098,45.54655277493679,0 -123.8171387170132,45.54657670343256,0 -123.8173459245152,45.54660585162578,0 -123.8176015406213,45.54659273043895,0 -123.8176538204796,45.54658458469329,0 -123.8178220315698,45.54655837459489,0 -123.8180909151455,45.54652592651846,0 -123.8182463943938,45.54656951222805,0 -123.8183852707926,45.54635694518161,0 -123.8183844263542,45.54635613393374,0 -123.8184741936825,45.54626721808005,0 -123.8185681615046,45.54614002016893,0 -123.8186953197602,45.54601183180748,0 -123.8188153811771,45.54591262094205,0 -123.8189475890689,45.54581678558058,0 -123.8189627085564,45.54580582637967,0 -123.8191019885826,45.54568901172308,0 -123.8192492128015,45.54553824365193,0 -123.8194165839353,45.54536358871444,0 -123.8195119044006,45.54523381139456,0 -123.8196824713695,45.54500575672221,0 -123.8198121142953,45.54479381400677,0 -123.8199149760394,45.5445747364934,0 -123.8199649183071,45.54445336026113,0 -123.8200652304065,45.54436339441454,0 -123.8201776644094,45.54424438316048,0 -123.8202858315151,45.54413712004324,0 -123.8203683264854,45.54406686012585,0 -123.8204919766753,45.54398130603383,0 -123.8206840395786,45.54388900095005,0 -123.8208892903876,45.54376419957105,0 -123.8210201725729,45.54366613903149,0 -123.8210965978857,45.54356551295021,0 -123.821136524814,45.54351294314637,0 -123.8212523460947,45.54333731305584,0 -123.8213655922561,45.54321773490372,0 -123.8214914244462,45.54312338977002,0 -123.8215983668175,45.54304395744554,0 -123.821735651268,45.54287778652764,0 -123.8218506100161,45.54270427456984,0 -123.8219662848342,45.54254953450048,0 -123.822049738184,45.54244883108462,0 -123.8221841690946,45.54230176784627,0 -123.8223756408177,45.54211845237318,0 -123.8224583280318,45.54202450858115,0 -123.8225142328506,45.5419402762314,0 -123.8227146277933,45.54175898417583,0 -123.8227606576807,45.54126345248624,0 -123.8214740795956,45.54127268531742,0 -123.8173256198169,45.54130200129094,0 -123.8167357340265,45.54130615757129,0 -123.816189020615,45.54131000683181,0 -123.8161480805014,45.54131029485545,0 -123.8161479652315,45.54131029567905,0 -123.8159524849977,45.54131167151382,0 -123.8158365206596,45.54131248721913,0 -123.8157570021881,45.54131304703238,0 -123.8157568843566,45.54131304787389,0 -123.8157227374938,45.54131328813048,0 -123.8151745919667,45.54131714276217,0 -123.814307274632,45.54132323634078,0 -123.8127393455846,45.54133423572762,0 -123.8127065760904,45.54226733145454,0 -123.8126919837477,45.54268285421324,0 -123.8126523581041,45.54381114825092,0 -123.8126323339374,45.5443812860052,0 -123.812622669453,45.54465648180192,0 -123.8125844366831,45.54574503926011,0 -123.8125807905959,45.54584886024013,0 -123.8125786824499,45.54590890073175,0 -123.812568967389,45.54618701676101,0 -123.8125136076955,45.54777186477273,0 
							</coordinates>
						</LinearRing>
					</outerBoundaryIs>
				</Polygon>
				<Polygon>
					<tessellate>1</tessellate>
					<outerBoundaryIs>
						<LinearRing>
							<coordinates>
								-123.8016796017523,45.58609944946088,0 -123.8016856374035,45.58632811751524,0 -123.8016856524075,45.58632899140857,0 -123.8016965836367,45.58675359609855,0 -123.8016990649342,45.58685000205719,0 -123.8017083932099,45.58721232913876,0 -123.8017084216853,45.58721342886285,0 -123.8017144064801,45.58744588755577,0 -123.8026184388181,45.58748763067584,0 -123.8026202001195,45.58748771281108,0 -123.80353546722,45.58752996650091,0 -123.8038301766629,45.58754367182391,0 -123.804054337926,45.58755409526022,0 -123.8041503436628,45.58755855992978,0 -123.8042784209493,45.58756459981657,0 -123.8050540240354,45.58760116564893,0 -123.8172395466067,45.58817496399745,0 -123.817659765186,45.58819578884698,0 -123.8188760637804,45.58825605722374,0 -123.8195182333654,45.58828787185789,0 -123.8195341836558,45.58820039448891,0 -123.8196521954458,45.58815191710413,0 -123.8200298639205,45.58799917045793,0 -123.8204690440636,45.58773422147087,0 -123.820547258104,45.58764949928263,0 -123.820647428268,45.58750690660057,0 -123.8206701963488,45.58748969690807,0 -123.8207824870691,45.5874145831431,0 -123.8209175514988,45.58731819102508,0 -123.8210785899008,45.58698427957897,0 -123.8210839615994,45.58642220133017,0 -123.8211487794658,45.58584717079669,0 -123.821521833634,45.58584448848022,0 -123.821697214311,45.58577654390827,0 -123.8218365253541,45.58556120498298,0 -123.8220716286755,45.58540233210524,0 -123.82238043611,45.58518100923902,0 -123.8226360235299,45.58503151439316,0 -123.8229408968374,45.58500550353202,0 -123.8232919517425,45.58504999973921,0 -123.82343652239,45.58503527253659,0 -123.8239390454337,45.58497498755352,0 -123.8245850001188,45.58493944578957,0 -123.8248509228232,45.58488114350523,0 -123.8248654550152,45.5848783814674,0 -123.8248561442257,45.5848666294629,0 -123.8247923677002,45.58474499925202,0 -123.8246443808281,45.58463384747751,0 -123.824493516359,45.58455874916032,0 -123.8244775675594,45.58455685794741,0 -123.824381257177,45.58450489347938,0 -123.8242272718093,45.58442181092505,0 -123.8240541525413,45.58431220877483,0 -123.8239565156925,45.58425039469869,0 -123.8239333851755,45.58423575036116,0 -123.8239290051036,45.58423251728421,0 -123.823850821902,45.58417469966744,0 -123.8236325719149,45.58401331185002,0 -123.8235356495098,45.58394164154321,0 -123.823418780275,45.58389541320789,0 -123.8233171640321,45.58385521801397,0 -123.8232138021686,45.58381433142963,0 -123.8232072394833,45.58381173602454,0 -123.8232011986244,45.58380976152934,0 -123.8231363190806,45.58379046912508,0 -123.8229363080942,45.58373099310877,0 -123.8228241040187,45.58369762811735,0 -123.8227903402043,45.58368758765375,0 -123.8227317201673,45.58367504120264,0 -123.8226609767424,45.58365989882766,0 -123.8225789162403,45.58364233562054,0 -123.8224822531846,45.5836216452302,0 -123.8223952670794,45.58360113261783,0 -123.8222635744045,45.5835700766266,0 -123.8221034302507,45.58353231066493,0 -123.8219331361551,45.58349215123214,0 -123.8218489494708,45.58345930016309,0 -123.8217913282964,45.58343681521599,0 -123.8217714087452,45.58342904212069,0 -123.8217518450325,45.58342140867818,0 -123.8215942434613,45.58335990782043,0 -123.8215634895021,45.58334790742561,0 -123.8215116467592,45.58332767693795,0 -123.821453443137,45.5833049646825,0 -123.8213760665584,45.58327476999791,0 -123.8213732191865,45.58327307577742,0 -123.8213195404202,45.58324111747205,0 -123.8212629018416,45.58320739731867,0 -123.8212028327792,45.58317163516431,0 -123.8211728900861,45.58315380877134,0 -123.8211215998757,45.58312327246492,0 -123.8210588103504,45.58308589070381,0 -123.8210365783852,45.58307265427904,0 -123.8210284883806,45.58306683745931,0 -123.8209295300561,45.58299568362091,0 -123.8208709713404,45.58291435356505,0 -123.8208200534776,45.58284363568486,0 -123.8207853708233,45.58279546479984,0 -123.8207636809951,45.58271183823352,0 -123.8207459013845,45.58264328908254,0 -123.820733709226,45.58259628063391,0 -123.8207101887945,45.58250559690421,0 -123.8206472806756,45.5822644344126,0 -123.8206600249759,45.58224368820786,0 -123.8206524898126,45.58216781691382,0 -123.8206472588054,45.58211513010197,0 -123.8206422638508,45.58206483136522,0 -123.8206327442467,45.58196897405033,0 -123.8206313379244,45.58185326969745,0 -123.8206288337432,45.58164725425721,0 -123.82062873014,45.58163873553246,0 -123.8206287211152,45.58163802811684,0 -123.820628282428,45.58160184715266,0 -123.820662589167,45.58147110924389,0 -123.8206883962381,45.58137276226692,0 -123.8206986668417,45.58133559435625,0 -123.8207425608626,45.58117676734693,0 -123.8207623557355,45.58104673673383,0 -123.8207689734449,45.58100326104018,0 -123.8207758533094,45.58095807236732,0 -123.8207603167415,45.58082798597537,0 -123.8207451845941,45.58070128195827,0 -123.8207085448938,45.58051095479752,0 -123.8206923808561,45.5804269896497,0 -123.8206786780139,45.58031778144134,0 -123.8206631304104,45.58019385900381,0 -123.8206793474049,45.58012310694275,0 -123.8207282659457,45.57990970028727,0 -123.8207996562091,45.57967411742311,0 -123.8208163598401,45.57962077342599,0 -123.8208623591782,45.57948690454499,0 -123.82093494277,45.57927566978389,0 -123.8209518036686,45.57922319503231,0 -123.8209691499928,45.57916234223294,0 -123.821006432576,45.57903155037425,0 -123.8210156024357,45.57898301213194,0 -123.821034980883,45.57885967847973,0 -123.8210447175285,45.57879770572564,0 -123.8210455046833,45.5787927035971,0 -123.8210473344412,45.57879002434085,0 -123.8211138772017,45.57869260045864,0 -123.8211450759292,45.5786469245969,0 -123.8211794559407,45.57859658942684,0 -123.821206483,45.57855701833105,0 -123.8212326993482,45.57851863669232,0 -123.8212532254066,45.57847072246355,0 -123.8212947225099,45.57837386107665,0 -123.8213047704528,45.57835040776046,0 -123.8213270739845,45.57829834836463,0 -123.8215518887281,45.57804317810539,0 -123.8215845919877,45.57800605937749,0 -123.8216081960793,45.57797544182301,0 -123.8216518391904,45.57791883186853,0 -123.8216621820076,45.57790541704652,0 -123.8217572092975,45.57778215744725,0 -123.8218011719357,45.5776661113344,0 -123.8218343894546,45.577578431847,0 -123.8218518485361,45.57753234697506,0 -123.8218625581202,45.57745622471793,0 -123.8218774506093,45.5773503644621,0 -123.8218942395805,45.57723103401616,0 -123.8218892842336,45.57711698790621,0 -123.8218839768954,45.57699568139447,0 -123.821880863246,45.57692449574016,0 -123.8218716470943,45.57671377859914,0 -123.8219416919427,45.57634335200893,0 -123.821886556673,45.57638349367942,0 -123.82183477993,45.57636006117385,0 -123.8218263356983,45.57628078682957,0 -123.8218263537665,45.5762807074905,0 -123.8218263313525,45.5762804889267,0 -123.8218365874329,45.57623707786918,0 -123.8218100059374,45.57616062081909,0 -123.8218100604883,45.57616049441216,0 -123.8218100015917,45.57616032291618,0 -123.8218102205065,45.57616012961923,0 -123.8218693282162,45.57610799343036,0 -123.8218551509735,45.57609338504587,0 -123.821844336233,45.57608224396801,0 -123.8218401735094,45.57607795522196,0 -123.8216060664242,45.57583675093133,0 -123.8214026710704,45.57557579757191,0 -123.8212475318263,45.5749556814999,0 -123.8211101854736,45.5745344816402,0 -123.82116978252,45.5741847419568,0 -123.8211803786717,45.57412059821318,0 -123.8211804905122,45.57411991783099,0 -123.8210760337404,45.57412744288832,0 -123.8210757965672,45.57412743829237,0 -123.8210756953532,45.57412744082013,0 -123.8210000115815,45.5741258965659,0 -123.8209996731811,45.57412589359746,0 -123.8209982882984,45.5741239989319,0 -123.8209058611216,45.57412211230027,0 -123.8207704536744,45.57411934899069,0 -123.8206412020732,45.57411746840294,0 -123.8204900493221,45.57411671619477,0 -123.8203105648143,45.57411582340795,0 -123.8202253913439,45.57411539900901,0 -123.8201504507235,45.57409887023256,0 -123.8201227909582,45.57409276989755,0 -123.820096202243,45.57408690489429,0 -123.8199775618241,45.57406073728825,0 -123.8199640457777,45.57405239043876,0 -123.8199535973871,45.57404593788813,0 -123.8199496826379,45.57404352040728,0 -123.8199466343795,45.5740416376688,0 -123.8199451936681,45.57404074790675,0 -123.8199526237186,45.573908670983,0 -123.8198629499375,45.57374631307827,0 -123.8198262296014,45.57360680493768,0 -123.8198087897341,45.57353718377292,0 -123.8198053237792,45.57353548314887,0 -123.8197767209077,45.57352144608347,0 -123.8196969639362,45.57348230586548,0 -123.8192605939988,45.57348684683323,0 -123.8192304730042,45.57348147951598,0 -123.8192010947286,45.57347624458026,0 -123.8191972950782,45.57347556794847,0 -123.8191037608564,45.57345890179531,0 -123.8190918029258,45.573456770586,0 -123.8190590143716,45.57345092819458,0 -123.81889304144,45.57342135350665,0 -123.8186360386057,45.57343126956015,0 -123.8183027477671,45.57344412763914,0 -123.817817553506,45.57349932143693,0 -123.8174686734473,45.573545744642,0 -123.8174682474881,45.57354580169653,0 -123.8172625205588,45.57357317605054,0 -123.8169760686214,45.57348534978424,0 -123.8168082777363,45.57339166078624,0 -123.8166160712324,45.57324962239989,0 -123.8166198670572,45.57319866289794,0 -123.8166412126326,45.57291216661091,0 -123.8166500814071,45.57279314279817,0 -123.8166591876614,45.57258431033214,0 -123.8166602946018,45.57255890689059,0 -123.8166640201648,45.57247348380979,0 -123.8166390670703,45.57211332904742,0 -123.8166000027195,45.57175813389725,0 -123.8165428873956,45.57167928623912,0 -123.816356589459,45.57142209354776,0 -123.8163419559268,45.57138854774148,0 -123.8162002581969,45.57106369565754,0 -123.816200040803,45.57106319765315,0 -123.8159610208783,45.57094016255284,0 -123.8159602711584,45.57093343693041,0 -123.8159573260545,45.57090697330708,0 -123.8159520457327,45.57085952243682,0 -123.8159410301514,45.57076054917303,0 -123.8159398751652,45.57075017472293,0 -123.8159255534258,45.57062148203293,0 -123.8159192743981,45.57056506335474,0 -123.8158904518693,45.57045443310879,0 -123.8158623798955,45.57034668502677,0 -123.8158453632547,45.57028136449431,0 -123.8158031368106,45.57011928278952,0 -123.8157864134217,45.57009235499407,0 -123.8156812867363,45.5699230814497,0 -123.815585372697,45.56973274709628,0 -123.815436955504,45.56945686891769,0 -123.8153299322693,45.56922279116165,0 -123.815327547441,45.56921757407739,0 -123.8149369443719,45.56880170668002,0 -123.814862089814,45.56874967639158,0 -123.8146745261628,45.56861930196615,0 -123.8146871381691,45.56859743939273,0 -123.8146972622645,45.56857988895999,0 -123.8147792062473,45.56843783958873,0 -123.8148079019248,45.56838127576587,0 -123.8149722762937,45.56805727889218,0 -123.8151431876693,45.56787356860757,0 -123.8152179092984,45.56779325010384,0 -123.8152755649956,45.56773127777045,0 -123.8153718397755,45.56751605608336,0 -123.8155558983261,45.5671594492385,0 -123.8157112846085,45.56689267024753,0 -123.8157271640568,45.56674830787915,0 -123.8157346089775,45.56668063344997,0 -123.8156413638179,45.56648191980699,0 -123.8156185401836,45.56643327819737,0 -123.8157221652928,45.56637781817877,0 -123.8158470288904,45.56631099107266,0 -123.8162681640103,45.56603781241533,0 -123.8164170158886,45.5658530192467,0 -123.8166288373254,45.56557152481057,0 -123.8168586018422,45.56532166005741,0 -123.8168747814948,45.5653040661175,0 -123.8172031464249,45.56497299641809,0 -123.8172876500175,45.5647555142491,0 -123.8174296158052,45.56438637437157,0 -123.8175945405095,45.56419515035697,0 -123.8176465162376,45.5641348862359,0 -123.8177408354246,45.56390602811894,0 -123.8176543433482,45.56354733699506,0 -123.8176486858997,45.56315736190788,0 -123.8173692215934,45.56322302371581,0 -123.8172525011272,45.5632504470645,0 -123.8168681145103,45.56318104319203,0 -123.8165309269097,45.56301187142072,0 -123.8164008768354,45.56277767007515,0 -123.8163148555041,45.56256755399178,0 -123.8162789545892,45.56247986215497,0 -123.8161380765491,45.56232512895859,0 -123.8159338670115,45.56225077733579,0 -123.8155845333216,45.56208430971112,0 -123.815512891919,45.56205016984681,0 -123.8152182994986,45.5617900305431,0 -123.8151358400116,45.56158399529874,0 -123.8150992081994,45.56149246304195,0 -123.8150058112305,45.561339908999,0 -123.814981644141,45.56130043447853,0 -123.8148663651098,45.56113735848393,0 -123.8144305696468,45.56112523038212,0 -123.8095536843716,45.56098947620686,0 -123.8086899236414,45.56096541039818,0 -123.8068746334236,45.56091481252921,0 -123.8068774647816,45.55881576224381,0 -123.8068787432295,45.55786865724875,0 -123.8023932291207,45.55798074565391,0 -123.8019079609745,45.5579928609982,0 -123.8018696095422,45.55889749722681,0 -123.8018141966385,45.56020455078605,0 -123.8017523540561,45.56166320260053,0 -123.8017531420937,45.56190264400269,0 -123.8017548808642,45.56243097471937,0 -123.8017566420049,45.56296609562453,0 -123.8017569935988,45.5630729662461,0 -123.8017573491803,45.56318110778626,0 -123.8017580913786,45.56340641779699,0 -123.8017590122968,45.5636071770782,0 -123.801759012935,45.56360740209998,0 -123.8017592621291,45.56366149216645,0 -123.801759564214,45.56374389196611,0 -123.8017600867438,45.5638866476621,0 -123.8017600878824,45.56388681777395,0 -123.8017602354583,45.56392718824986,0 -123.8017605139556,45.5640031551606,0 -123.8017616237088,45.56430618302539,0 -123.8017684290658,45.56616398496158,0 -123.8017718581624,45.56710002290012,0 -123.801786287634,45.56893933089094,0 -123.8017992776143,45.57059503348605,0 -123.8018025307934,45.57100954543862,0 -123.8018025311128,45.57100965794936,0 -123.8018036375349,45.57115063616319,0 -123.8018037389062,45.57116352403973,0 -123.8018047030046,45.57128630404797,0 -123.8018047042205,45.57128647955967,0 -123.8018079893475,45.57170511731447,0 -123.8018269516908,45.57412135387269,0 -123.8084052557461,45.5741234429394,0 -123.8087685912338,45.57412354703906,0 -123.8136263743444,45.57412482969805,0 -123.8147935847645,45.57412510690178,0 -123.8148007830117,45.57602436277997,0 -123.8148015546105,45.57622792101726,0 -123.8148016829138,45.5762618710943,0 -123.8148019804603,45.57634022295379,0 -123.8148031942478,45.57666048899867,0 -123.8148125679566,45.57913332172987,0 -123.8148197289593,45.58102230696535,0 -123.8145391007604,45.58101532715709,0 -123.8138856593593,45.58099907178766,0 -123.8136289508711,45.58099268440088,0 -123.8082770396189,45.580859394124,0 -123.8057141264304,45.58079547562719,0 -123.8055083818193,45.58079042700379,0 -123.8054049126279,45.58078788740936,0 -123.8045611081433,45.5807671762753,0 -123.801967459852,45.58070347569002,0 -123.8018883409406,45.58070153154112,0 -123.801542040136,45.58069302217392,0 -123.8015437407276,45.58080532322281,0 -123.8015489239964,45.58114749858417,0 -123.8016796017523,45.58609944946088,0 
							</coordinates>
						</LinearRing>
					</outerBoundaryIs>
				</Polygon>
				<Polygon>
					<tessellate>1</tessellate>
					<outerBoundaryIs>
						<LinearRing>
							<coordinates>
								-123.8240154195285,45.60298267402825,0 -123.8241214086542,45.60299980879538,0 -123.8243367727236,45.60303462516423,0 -123.8243546249941,45.60303750716642,0 -123.8250848637904,45.60315538032982,0 -123.8261256175559,45.60332336776651,0 -123.8264513989489,45.60337594969978,0 -123.8277452359237,45.6035847683721,0 -123.8279166642241,45.60361243452524,0 -123.8294453356881,45.60385913064451,0 -123.8297534631503,45.60390885291332,0 -123.830104181412,45.60396544764871,0 -123.831162820042,45.60413627003432,0 -123.831496662421,45.60419013626864,0 -123.8322267737011,45.60430793858082,0 -123.8325403934135,45.60435853951718,0 -123.8328991895644,45.60441642774364,0 -123.8329140990867,45.60441883300933,0 -123.8336041329348,45.60453015988562,0 -123.8343705018446,45.60465379646711,0 -123.8345648274081,45.60468514591502,0 -123.8354073893155,45.60482106596674,0 -123.8361092087178,45.60493427713057,0 -123.8373541107696,45.60513508127417,0 -123.8388124086005,45.60537028741641,0 -123.8389473148123,45.60539204400973,0 -123.8397122579309,45.60551540678143,0 -123.8400415979,45.60556851784471,0 -123.840370977039,45.60562163397053,0 -123.8439728356948,45.60620240660707,0 -123.8438285064399,45.60388911888092,0 -123.8437940988054,45.60333759971018,0 -123.8437939991125,45.60333599646994,0 -123.8437929221815,45.603318733323,0 -123.8437895410544,45.60324784938921,0 -123.8437884473748,45.6032249355433,0 -123.8437789952628,45.60302674142253,0 -123.8437697286645,45.60283244875408,0 -123.8437681722819,45.60279979655046,0 -123.8441080105108,45.60279334881022,0 -123.8445175899427,45.60279042952781,0 -123.8447292430842,45.60278891948199,0 -123.8447412557537,45.60278883424958,0 -123.8452898883776,45.60278487211653,0 -123.845309986383,45.60278472699432,0 -123.8455838026116,45.60278274904307,0 -123.8467191567814,45.60277453892797,0 -123.8473504390259,45.60276989573723,0 -123.8495464738088,45.6027540123767,0 -123.8504341490659,45.60274758006133,0 -123.8535773120192,45.60272474769145,0 -123.852699909475,45.60212722953213,0 -123.852405876633,45.60191476561412,0 -123.8522839886117,45.6018266903634,0 -123.8521295767637,45.60171174300867,0 -123.8516326395853,45.60131337089814,0 -123.8511315842552,45.60132278495654,0 -123.8510179413201,45.60135925218234,0 -123.8508608864552,45.60129373915551,0 -123.8506885256865,45.60108578934128,0 -123.8504733535886,45.60096556667034,0 -123.8501629771199,45.60077880304945,0 -123.8497050431663,45.60052095548914,0 -123.8495402858974,45.60044661124851,0 -123.8492327962919,45.60026109995648,0 -123.8489682457075,45.60012139072215,0 -123.8487889431481,45.60005501586333,0 -123.8484594269683,45.59997849449336,0 -123.8483105255313,45.59989284876346,0 -123.8481968378008,45.59968307415384,0 -123.848028218121,45.59949581008847,0 -123.8480249596962,45.59949468575102,0 -123.847710868482,45.59938626968169,0 -123.8473289881581,45.59934692430272,0 -123.846986958556,45.59937820913436,0 -123.8465637285037,45.59946686043303,0 -123.8463086971356,45.59945088679507,0 -123.8462328499748,45.59936896986133,0 -123.8457359688029,45.59935684215376,0 -123.8456387083447,45.59935466027886,0 -123.8452390435955,45.59934569551933,0 -123.8447655625657,45.59940270982273,0 -123.8443304481221,45.59952438888141,0 -123.843892507496,45.59957442572087,0 -123.8436532986498,45.59956175324227,0 -123.8433970226423,45.5995481765607,0 -123.8429925904429,45.59948969855173,0 -123.842603318342,45.59943563658801,0 -123.8425382571125,45.59942744671887,0 -123.8423081824007,45.59939848425503,0 -123.8422354596016,45.59938932999413,0 -123.8421378392946,45.59934920498748,0 -123.8417315228039,45.59918219607555,0 -123.841164299652,45.59887332053452,0 -123.840743186152,45.59860465266779,0 -123.8405739781445,45.59850971864462,0 -123.8403332698764,45.59837803994194,0 -123.8402447258745,45.59832960162683,0 -123.8401423896335,45.59822834690944,0 -123.8401559480784,45.59820208578637,0 -123.8401052768681,45.59807468567278,0 -123.8399726157502,45.59799987642802,0 -123.8399104992332,45.59799890651141,0 -123.8398617080414,45.59795063014905,0 -123.8395386672258,45.59778392910678,0 -123.8391489367469,45.59759127033367,0 -123.8387808178107,45.59740946696131,0 -123.8386199930481,45.59725203303005,0 -123.838353610243,45.59700972459493,0 -123.8383181482483,45.5969774669327,0 -123.8381782664223,45.59689305590867,0 -123.8380842099417,45.5968362971258,0 -123.837985146896,45.59681029720938,0 -123.8378242314333,45.5967680639215,0 -123.8375936322148,45.59671200188461,0 -123.8373901428701,45.59666769758187,0 -123.8371191855557,45.59656083894674,0 -123.8368483157606,45.59644703295307,0 -123.8365699567013,45.59643478275775,0 -123.8360104137664,45.59644840584535,0 -123.8356480316838,45.59648916133036,0 -123.8350034756486,45.59660835573326,0 -123.8346937737041,45.59665093734409,0 -123.8342495568959,45.59666370815241,0 -123.8335245751832,45.5967309201926,0 -123.8329402169183,45.59690188838356,0 -123.8323141293216,45.59700409475908,0 -123.8318990350481,45.59713590298127,0 -123.8317605046666,45.59717956389458,0 -123.8315917800563,45.59724032943002,0 -123.8312879864462,45.59734375595265,0 -123.8311204034174,45.59748191207893,0 -123.8309437249714,45.59757845859041,0 -123.8308083038473,45.59759730517484,0 -123.8305419420327,45.59759985058701,0 -123.8305194783554,45.59760178260763,0 -123.8304964538353,45.59759385810637,0 -123.8302826779112,45.59760636183535,0 -123.8301298795884,45.59763968421205,0 -123.829925754325,45.59766539811481,0 -123.8298253573842,45.59766661263782,0 -123.8297985335871,45.59766693710826,0 -123.8300146760784,45.59724462047684,0 -123.8298111501795,45.59724609912998,0 -123.8287100926197,45.59712527171553,0 -123.8284115846708,45.59707517709042,0 -123.8282551198514,45.59684114433622,0 -123.8277595267312,45.59660666647634,0 -123.8274476774477,45.59649279400038,0 -123.827078832601,45.59644030253598,0 -123.8267738773729,45.59644665778059,0 -123.8263039290111,45.59633558522921,0 -123.8260389235368,45.59632863677702,0 -123.825945807718,45.59625128490512,0 -123.8257241028758,45.59616953484377,0 -123.8255833561545,45.59612736354161,0 -123.8253748500926,45.59606489026456,0 -123.8251067670318,45.59596858734044,0 -123.8251043529301,45.59596667586306,0 -123.8248407503976,45.59598578229852,0 -123.8244844322353,45.59597763804625,0 -123.8242591755407,45.59598015565042,0 -123.8241261649078,45.59584202915649,0 -123.8240727143437,45.59576887027781,0 -123.8240378448189,45.59563973961865,0 -123.824010913542,45.59552280834858,0 -123.8239954757285,45.59543664149948,0 -123.8240681952317,45.5952546450072,0 -123.8241657806574,45.59504563347016,0 -123.8244743942402,45.5948646177147,0 -123.8244807056358,45.59476118573497,0 -123.8244016197625,45.59473260587048,0 -123.8241524431241,45.5946993566851,0 -123.8239635602665,45.59465290324225,0 -123.8238619929083,45.59462792354641,0 -123.8235789018182,45.59445238680566,0 -123.8232168050451,45.59433851216241,0 -123.8229159364659,45.59428968300845,0 -123.8226946020762,45.59420428706764,0 -123.8226216849725,45.59417615389565,0 -123.8224533244207,45.5939710433703,0 -123.8223520064648,45.59374997094104,0 -123.8221932169016,45.5935030102488,0 -123.8219222096462,45.59326947172448,0 -123.8215398076574,45.59302931781348,0 -123.8213728877715,45.59307967715751,0 -123.821025265307,45.59311476432873,0 -123.8207134244374,45.59319692155761,0 -123.8207136153053,45.59322232912568,0 -123.8207162689111,45.59349610714956,0 -123.8207163334637,45.59350282233589,0 -123.8207202176921,45.59390349937273,0 -123.8207207185122,45.59395518224393,0 -123.8207208269726,45.59396631660756,0 -123.8207209791666,45.59398212217835,0 -123.8207312461487,45.59497938304421,0 -123.8207345114557,45.59529659632876,0 -123.8207391144861,45.59574373484925,0 -123.8207444324038,45.59626021641222,0 -123.8207488586388,45.59669010931143,0 -123.8207576609472,45.59754502403366,0 -123.8207610902571,45.59797783852359,0 -123.8207622183802,45.59812011369927,0 -123.8207631654015,45.59823967795433,0 -123.8207667390435,45.5985318264669,0 -123.8207704327205,45.59883387429892,0 -123.8207709496509,45.59887609876259,0 -123.8207714188578,45.59891452244779,0 -123.8207727948363,45.59905198208646,0 -123.820788663233,45.60063770757122,0 -123.8207891399934,45.60068535180897,0 -123.8207899023629,45.60076163965804,0 -123.8207921727261,45.60098891374409,0 -123.8208011950123,45.60189226059001,0 -123.8208073534366,45.60246457321509,0 -123.821450446224,45.60256839805189,0 -123.8217410072885,45.60261530603685,0 -123.8225151476256,45.60274028043136,0 -123.8231583057104,45.60284410507989,0 -123.8232379009576,45.60285697356792,0 -123.8240154195285,45.60298267402825,0 
							</coordinates>
						</LinearRing>
					</outerBoundaryIs>
				</Polygon>
			</MultiGeometry>
		</Placemark>
		<Placemark id="ID_00001">
			<name>0</name>
			<Snippet maxLines="0"></Snippet>
			<description><![CDATA[<html xmlns:fo="http://www.w3.org/1999/XSL/Format" xmlns:msxsl="urn:schemas-microsoft-com:xslt">

<head>

<META http-equiv="Content-Type" content="text/html">

<meta http-equiv="content-type" content="text/html; charset=UTF-8">

</head>

<body style="margin:0px 0px 0px 0px;overflow:auto;background:#FFFFFF;">

<table style="font-family:Arial,Verdana,Times;font-size:12px;text-align:left;width:100%;border-collapse:collapse;padding:3px 3px 3px 3px">

<tr style="text-align:center;font-weight:bold;background:#9CBCE2">

<td>0</td>

</tr>

<tr>

<td>

<table style="font-family:Arial,Verdana,Times;font-size:12px;text-align:left;width:100%;border-spacing:0px; padding:3px 3px 3px 3px">

<tr>

<td>FID</td>

<td>1</td>

</tr>

<tr bgcolor="#D4E4F3">

<td>Id</td>

<td>0</td>

</tr>

<tr>

<td>Acres</td>

<td>25645.860512</td>

</tr>

</table>

</td>

</tr>

</table>

</body>

</html>]]></description>
			<styleUrl>#PolyStyle00</styleUrl>
			<MultiGeometry>
				<Polygon>
					<tessellate>1</tessellate>
					<outerBoundaryIs>
						<LinearRing>
							<coordinates>
								-121.2727202589968,43.37108163693353,0 -121.2727207664438,43.37134155810706,0 -121.272721417161,43.37167491300998,0 -121.2727218740679,43.37190926308705,0 -121.2727231727172,43.37257459692123,0 -121.2727273709142,43.37472616286183,0 -121.2727341985683,43.37822618154426,0 -121.2727343480173,43.37830282496977,0 -121.2727344803455,43.37837068933463,0 -121.2727345837543,43.37839886215838,0 -121.2727478585042,43.38201617640127,0 -121.272753394262,43.38372653932135,0 -121.2727543801386,43.38403118158571,0 -121.2727554066983,43.38434840790842,0 -121.2727596488026,43.38565943582201,0 -121.2727731710107,43.38643729349931,0 -121.2728225476178,43.38927764106614,0 -121.2728239977462,43.38936293293907,0 -121.2728307551969,43.38976038413943,0 -121.2728376043981,43.39016323144303,0 -121.2728791554118,43.39260711655086,0 -121.2728840263892,43.39289360950717,0 -121.2728913272885,43.39508246737556,0 -121.2728926842642,43.39548936320301,0 -121.2728940287329,43.39589252898399,0 -121.2728960765798,43.39650665554471,0 -121.2729022086037,43.39833761551636,0 -121.2729081751157,43.4001197632595,0 -121.2778632226436,43.40009205940251,0 -121.2804830216523,43.40007743902615,0 -121.280522598362,43.4000772176955,0 -121.2816295909948,43.4000710213446,0 -121.2828182688508,43.40006435582395,0 -121.2877982158903,43.40004530305006,0 -121.2883792403734,43.40004308509977,0 -121.2890113622569,43.40004066873998,0 -121.292092092321,43.4000288430446,0 -121.2927782212898,43.40002619796176,0 -121.2962355076309,43.40002207352746,0 -121.2977260968873,43.40002026303979,0 -121.3026739812338,43.40001427155203,0 -121.3040914084831,43.4000140659369,0 -121.3076277579778,43.40001347631981,0 -121.3119471219822,43.40001279606217,0 -121.3125815340454,43.40001268240194,0 -121.3175745406354,43.40000870964368,0 -121.3185325389608,43.40000797572727,0 -121.3198029623573,43.40000698990966,0 -121.3225675950727,43.4000047958265,0 -121.3275446230277,43.40000740135957,0 -121.3276586302178,43.40000746555438,0 -121.3325390574772,43.40001010699589,0 -121.332504867258,43.39639770343103,0 -121.332504646158,43.39637433419151,0 -121.3324706883718,43.39278528712595,0 -121.3324601783267,43.39064563276499,0 -121.3324528997535,43.38916403508548,0 -121.3324485987228,43.38828784476807,0 -121.3324397228024,43.3864799097944,0 -121.3324351211802,43.38554283511051,0 -121.3324321794088,43.38491716626204,0 -121.3324250364023,43.38339808174666,0 -121.3324222720822,43.382810199865,0 -121.3324217275388,43.3826944358016,0 -121.3324181821462,43.38194033272645,0 -121.3324150009586,43.38126538327538,0 -121.3324052117676,43.37918870952888,0 -121.3324012005459,43.37833786365388,0 -121.3323911150671,43.37474793608642,0 -121.3323903305625,43.37447153928922,0 -121.3323889075796,43.37397029367229,0 -121.3323874600949,43.37346038194066,0 -121.3323845795857,43.37244576483742,0 -121.3323834627156,43.37205227593878,0 -121.3323809328218,43.37116110238231,0 -121.3323809241711,43.37115805533548,0 -121.3323867649782,43.37116309467946,0 -121.3363038539006,43.37115202837271,0 -121.3371660709691,43.3711495744672,0 -121.3394103775028,43.37114315743916,0 -121.3422074974946,43.37113509809692,0 -121.3441564247268,43.37112944224938,0 -121.3485987314357,43.37111642634354,0 -121.3520090061305,43.37110631713885,0 -121.3520204437889,43.36842572006417,0 -121.352022187356,43.36801699252346,0 -121.3520239244807,43.36760975024884,0 -121.3520449638028,43.36267542296522,0 -121.3520466096828,43.36228926223469,0 -121.3520482369763,43.36190744027778,0 -121.3520489231214,43.36174643924689,0 -121.3520695800751,43.35689754586566,0 -121.3520700945958,43.3567767250882,0 -121.3519181068874,43.35677578232823,0 -121.3484577129681,43.35675426328618,0 -121.3484672478973,43.35675126841026,0 -121.3484662922603,43.35666067488707,0 -121.3484646970937,43.3565094938519,0 -121.3484444578873,43.35459136295531,0 -121.3484390572278,43.35407953510073,0 -121.3484044848818,43.35078053184642,0 -121.3484012104021,43.35046807893475,0 -121.3450662441596,43.35040745336019,0 -121.344720191332,43.35040115697144,0 -121.3443785065363,43.35039493903,0 -121.3437095727108,43.35038276288886,0 -121.3430512396725,43.35037078864407,0 -121.3387889814302,43.35029317177114,0 -121.3387555872998,43.35029256324247,0 -121.33716767326,43.35026652128419,0 -121.3368747214117,43.35026171443178,0 -121.3365840003573,43.35025694344048,0 -121.3337164521403,43.35020984479193,0 -121.3336083124126,43.34664845008288,0 -121.333601969378,43.34483766578325,0 -121.3335955228287,43.3429977045441,0 -121.3292266295992,43.34292949261377,0 -121.3285130656901,43.34291833580679,0 -121.328526655622,43.33925649947602,0 -121.3236365904757,43.33917134087199,0 -121.3219731769675,43.33914232507934,0 -121.3214829173037,43.33913376860274,0 -121.3209908165613,43.33912517787832,0 -121.3187466244442,43.33908597358821,0 -121.3161939938408,43.33904154664565,0 -121.314143549581,43.33900581792118,0 -121.313856595527,43.33900081484892,0 -121.3136388828835,43.3389970206788,0 -121.3131323842559,43.33898819210825,0 -121.3089666903086,43.33891549642629,0 -121.3089669330231,43.33874789087435,0 -121.3089675700394,43.3383079500265,0 -121.3089719408597,43.33528492979747,0 -121.3089741325266,43.33378772440304,0 -121.3089752564051,43.33301991214835,0 -121.3089764509896,43.33220354679067,0 -121.308977254085,43.33165441420659,0 -121.3089825637523,43.32802384692523,0 -121.3089836348437,43.32729192897423,0 -121.3089843591451,43.32679686944922,0 -121.3089862681278,43.32549197795105,0 -121.3089878749679,43.32439322172579,0 -121.3090027141493,43.32156409878575,0 -121.309006934351,43.32075931664313,0 -121.3090259356019,43.31712540047299,0 -121.3090275469278,43.31681753395509,0 -121.3090326797433,43.31583642431436,0 -121.3090395283507,43.31452715390322,0 -121.3090449452327,43.31349143187838,0 -121.309062635634,43.31010874442285,0 -121.3090639491532,43.30985751870322,0 -121.3070548276301,43.30983503112265,0 -121.3066016667645,43.30982995412921,0 -121.3061455087961,43.30982484174344,0 -121.3041270505348,43.30980219804616,0 -121.2992389974227,43.30974720664383,0 -121.2991901653417,43.30974665622043,0 -121.2987600832012,43.30974184565217,0 -121.2982779286857,43.30973645071855,0 -121.2942532688418,43.30969133857361,0 -121.2914193244342,43.30965950984711,0 -121.2909185202909,43.30965387788798,0 -121.2904152094307,43.30964821552828,0 -121.2893164227276,43.30963584623255,0 -121.2893179130354,43.30599642028763,0 -121.2893181410932,43.30545923146448,0 -121.2893187215939,43.30408695239919,0 -121.2893194519733,43.30235698484783,0 -121.2893209430037,43.29871759699732,0 -121.2893210891523,43.29835885771755,0 -121.2893216594537,43.29695737203431,0 -121.2893221119785,43.29584348253776,0 -121.2893224229048,43.29507822036841,0 -121.2893195354816,43.29263069912785,0 -121.2893181256626,43.29143655272488,0 -121.2893180622927,43.29138288564631,0 -121.2893143509533,43.28823916139977,0 -121.2893138262115,43.28779499818454,0 -121.2893127868629,43.28690245757769,0 -121.2893127127605,43.28683883470153,0 -121.2893095832722,43.28415344056899,0 -121.2893085852551,43.28330762762793,0 -121.2893072228144,43.28215343791497,0 -121.2893066757547,43.28168966541657,0 -121.2893060675158,43.28117421122044,0 -121.2893056114449,43.28078778330158,0 -121.289305284984,43.280511825079,0 -121.2893146736029,43.2785157516205,0 -121.2893224253916,43.27686724697137,0 -121.2893290939472,43.27544640459175,0 -121.2893393901763,43.27325205900408,0 -121.2893395272898,43.27322271027874,0 -121.2893424066602,43.27260875787503,0 -121.2893436076585,43.27235278672225,0 -121.2893559589829,43.26971865012435,0 -121.2893566172539,43.26957823430794,0 -121.2893737676149,43.26593365626068,0 -121.2893815093043,43.26500799595414,0 -121.289390013152,43.26399099793154,0 -121.2893999889263,43.26279784297267,0 -121.289415555908,43.2609347240349,0 -121.2894175938426,43.26069078060486,0 -121.2894280977534,43.25943335911366,0 -121.2894299294051,43.25921404578622,0 -121.2894460553271,43.25826366935901,0 -121.2894611994189,43.25737110456996,0 -121.2894866952058,43.25586825681343,0 -121.2894913504682,43.25559382801977,0 -121.2895432137636,43.25253695045687,0 -121.2895527694571,43.25197366300635,0 -121.2846987125285,43.25188223754212,0 -121.2846452859461,43.25188123011277,0 -121.2832956388863,43.25185578364175,0 -121.2799701382163,43.25179301580754,0 -121.2797378573342,43.25178862786549,0 -121.2768664628703,43.25172838853985,0 -121.2747473400795,43.25168388491983,0 -121.2697568823358,43.25157902223359,0 -121.269749446752,43.24980646821716,0 -121.2697417080592,43.24796226347775,0 -121.2691367815342,43.24795501573649,0 -121.2647375532439,43.24790221145308,0 -121.2623366727475,43.24787332596254,0 -121.2613033795559,43.24786087867842,0 -121.2597334040165,43.24784194852189,0 -121.2583685395006,43.24782554456471,0 -121.2547434177201,43.24778189603904,0 -121.2534700092074,43.24776655089637,0 -121.2497534417213,43.24772168348337,0 -121.2497754004691,43.24620707352174,0 -121.2498067005298,43.24404786841304,0 -121.2457420141979,43.24400219005531,0 -121.2448527753824,43.2439921776523,0 -121.2398988466587,43.24393622619055,0 -121.2399012565261,43.24352183941331,0 -121.2399050491702,43.24286960992083,0 -121.2399077581462,43.24240359261527,0 -121.2399198271918,43.24032764226958,0 -121.23857547159,43.24031209533839,0 -121.2380130130157,43.24030558604095,0 -121.2374509408101,43.2402990784506,0 -121.2371615884367,43.24029572729345,0 -121.2349923413103,43.24027058002589,0 -121.2307403157141,43.24022120719469,0 -121.2301805537817,43.24021469568192,0 -121.2300648543161,43.24021334944913,0 -121.2300631070263,43.24057882328252,0 -121.2300475863431,43.24382437315998,0 -121.2300419222629,43.24500219159795,0 -121.2300395654986,43.24549221039396,0 -121.2300375882367,43.24590329621788,0 -121.2300356154284,43.24631343177058,0 -121.2300334849363,43.24675632155676,0 -121.2300302185199,43.24743534012186,0 -121.2300234629208,43.24884921904604,0 -121.2300129617135,43.25104636975557,0 -121.2300120276566,43.25123461802281,0 -121.2300100606094,43.25163103705356,0 -121.2300081167468,43.25202276189923,0 -121.2299950221428,43.25466100652096,0 -121.2299927442296,43.25512139963671,0 -121.2299900733281,43.25566121821093,0 -121.229988292104,43.25602119987536,0 -121.2299834187209,43.25700597480736,0 -121.2299816727211,43.25735875934744,0 -121.2299799671301,43.25770336217963,0 -121.2299771338666,43.2582757662593,0 -121.2299611749404,43.26150930798004,0 -121.2299592940833,43.2618904058079,0 -121.229954808063,43.26279433127154,0 -121.229954675783,43.26282098511806,0 -121.2299533581465,43.26308647754846,0 -121.2299520921684,43.26334155187313,0 -121.2299466754724,43.264432825778,0 -121.2299413522569,43.26550510292515,0 -121.2299272293769,43.26827457837865,0 -121.2299244770518,43.26881418175297,0 -121.2299227230973,43.26915802990362,0 -121.2299166142834,43.27035534781147,0 -121.2299040827492,43.27281088885031,0 -121.2299065358378,43.27454205006848,0 -121.2299077198226,43.27537796757909,0 -121.2299092353913,43.27644804923639,0 -121.2299143845471,43.28008514623888,0 -121.2295281263505,43.28008076490245,0 -121.2290252748213,43.2800750590895,0 -121.2285196076941,43.28006931909769,0 -121.2274266214676,43.28005690461374,0 -121.2259607500521,43.28004023827022,0 -121.2217111055083,43.27999200176443,0 -121.2211876738148,43.27998604951291,0 -121.2210186128792,43.27998412650894,0 -121.2210184687403,43.2801322652364,0 -121.2210180836889,43.28052793862097,0 -121.2210167055768,43.28194331380481,0 -121.2210162018726,43.28245991051857,0 -121.2210151068747,43.28358332720045,0 -121.2210142836816,43.28444072898418,0 -121.2210133173553,43.28544936267343,0 -121.2210129234757,43.28586031300752,0 -121.2210128030738,43.28598591303774,0 -121.2210125291749,43.28627160194021,0 -121.2210116555894,43.28718246635804,0 -121.2210081549234,43.29080401365611,0 -121.2210077871715,43.29119092433716,0 -121.2210074093306,43.2915883560554,0 -121.2210070366496,43.29198026729251,0 -121.2210047093111,43.29442561195449,0 -121.2207668009737,43.2944231770019,0 -121.2181271097878,43.29439612697571,0 -121.217318812131,43.29438783182009,0 -121.2159375528068,43.29437364341734,0 -121.2129271215084,43.29434267126006,0 -121.2108703983685,43.29432146553716,0 -121.2109001615967,43.29715878842796,0 -121.2109084100135,43.29794513523007,0 -121.2109463731514,43.30156885430517,0 -121.210951483972,43.30205609205818,0 -121.2109602084296,43.30288784457147,0 -121.2109843826765,43.30519258192656,0 -121.2109918650157,43.30590697246138,0 -121.2110202471209,43.30861689537802,0 -121.2110223355201,43.30881630117427,0 -121.2120070442969,43.30882716119606,0 -121.2125025314209,43.3088326225489,0 -121.2130011139323,43.30883811585185,0 -121.2159497681636,43.3088705591961,0 -121.21982407656,43.30891306718341,0 -121.2203439091475,43.30891876067152,0 -121.2208662347769,43.30892447908385,0 -121.2208771501736,43.30892459855999,0 -121.2208866238557,43.30960305631166,0 -121.2209278400467,43.31255468870536,0 -121.2209550120549,43.31450000411893,0 -121.2209663068263,43.31530863278862,0 -121.220978543872,43.31618472654251,0 -121.221029182529,43.31981163406306,0 -121.221035015848,43.32022935164528,0 -121.2210798317806,43.32343860448215,0 -121.2230388497171,43.32344824286768,0 -121.2260437867293,43.32346296195,0 -121.2275596203891,43.32347113064408,0 -121.2277647894639,43.32347223473796,0 -121.2300614398523,43.32348456877051,0 -121.2300633716291,43.32372132317278,0 -121.2300670497824,43.32417214082935,0 -121.230082760803,43.32609785772142,0 -121.2300912694856,43.32714082706885,0 -121.2301043477936,43.3287405857073,0 -121.230113375469,43.32984499907192,0 -121.2301211590851,43.3307971454006,0 -121.2301295595542,43.33182667606393,0 -121.230138197441,43.33288534006989,0 -121.2301509909404,43.33445341479259,0 -121.2301604883532,43.33561514411877,0 -121.2301763498134,43.33755548906047,0 -121.2301808798518,43.33810967483979,0 -121.2301886302124,43.34173048144498,0 -121.2301920037762,43.34328381490092,0 -121.2301929048086,43.34369877636548,0 -121.2301964913236,43.34535133990836,0 -121.2302123851352,43.34757619035312,0 -121.2302222922777,43.34896311942209,0 -121.2302226439182,43.34901236749738,0 -121.2302348440777,43.35072109209105,0 -121.2302481431534,43.35258386860031,0 -121.2302544688428,43.35346830148374,0 -121.2302635716239,43.3547410741188,0 -121.230276492487,43.356547817163,0 -121.2326578000735,43.35655278465049,0 -121.232845769077,43.35655317421175,0 -121.2346520718691,43.35655394270631,0 -121.2352320021286,43.35655418338588,0 -121.2378368996798,43.35655747211067,0 -121.2401875120903,43.3565603878133,0 -121.2419795552622,43.35656257742575,0 -121.2425018518738,43.35656321064598,0 -121.2428463375295,43.35656362698641,0 -121.2451429742894,43.35656638468696,0 -121.2478458572774,43.35656956151764,0 -121.2489668576704,43.35657086111264,0 -121.2500984235718,43.35657216194159,0 -121.2503516287494,43.35657273812762,0 -121.252842197581,43.35657837570344,0 -121.2528397740147,43.3577182183245,0 -121.2528374142202,43.35882747778545,0 -121.2528349841878,43.35996961084722,0 -121.2528344451525,43.36022291152199,0 -121.2528331839043,43.36081625594069,0 -121.2528328983036,43.36095060074919,0 -121.2528302603376,43.36219133591378,0 -121.2528284465428,43.36304418006093,0 -121.252826694989,43.36386738943104,0 -121.2578038815831,43.3638593793496,0 -121.257789582247,43.3649113462175,0 -121.2577755491094,43.36594365213423,0 -121.2577717387026,43.36622394011214,0 -121.2577715261193,43.36623957726628,0 -121.2577663597244,43.36661960030212,0 -121.2577609463247,43.36701778105339,0 -121.2577547823353,43.36747115728061,0 -121.2578897739865,43.36747126657366,0 -121.2612959517506,43.36747397155509,0 -121.2618572501295,43.3674744075643,0 -121.2627486872778,43.36747509435676,0 -121.265741330614,43.36746795930928,0 -121.2677355327176,43.36746316123941,0 -121.272722331353,43.36745100886012,0 -121.272721898053,43.36821101310163,0 -121.2727212833307,43.36928807819204,0 -121.2727210879284,43.36963120806012,0 -121.2727202589968,43.37108163693353,0 
							</coordinates>
						</LinearRing>
					</outerBoundaryIs>
				</Polygon>
			</MultiGeometry>
		</Placemark>
		<Placemark id="ID_00002">
			<name>0</name>
			<Snippet maxLines="0"></Snippet>
			<description><![CDATA[<html xmlns:fo="http://www.w3.org/1999/XSL/Format" xmlns:msxsl="urn:schemas-microsoft-com:xslt">

<head>

<META http-equiv="Content-Type" content="text/html">

<meta http-equiv="content-type" content="text/html; charset=UTF-8">

</head>

<body style="margin:0px 0px 0px 0px;overflow:auto;background:#FFFFFF;">

<table style="font-family:Arial,Verdana,Times;font-size:12px;text-align:left;width:100%;border-collapse:collapse;padding:3px 3px 3px 3px">

<tr style="text-align:center;font-weight:bold;background:#9CBCE2">

<td>0</td>

</tr>

<tr>

<td>

<table style="font-family:Arial,Verdana,Times;font-size:12px;text-align:left;width:100%;border-spacing:0px; padding:3px 3px 3px 3px">

<tr>

<td>FID</td>

<td>2</td>

</tr>

<tr bgcolor="#D4E4F3">

<td>Id</td>

<td>0</td>

</tr>

<tr>

<td>Acres</td>

<td>0</td>

</tr>

</table>

</td>

</tr>

</table>

</body>

</html>]]></description>
			<styleUrl>#PolyStyle00</styleUrl>
			<MultiGeometry>
				<Polygon>
					<tessellate>1</tessellate>
					<outerBoundaryIs>
						<LinearRing>
							<coordinates>
								-123.8309039320229,45.55455985309306,0 -123.831047177829,45.55477228299866,0 -123.8311561445999,45.55505599045519,0 -123.8312166838242,45.55518200860332,0 -123.8313327511908,45.55523039886599,0 -123.8313516151598,45.55520862390775,0 -123.8315144288682,45.55502068473149,0 -123.8317398760791,45.55482934051648,0 -123.832053088375,45.55462660301345,0 -123.8322942734351,45.55444890568239,0 -123.8324061759788,45.55437943283864,0 -123.8324050811708,45.55383416608306,0 -123.8323087616885,45.55389071326978,0 -123.8319191888042,45.55413194175753,0 -123.8316708939165,45.55431194483909,0 -123.8314980487243,45.55442198735441,0 -123.8314829976759,45.55443418894738,0 -123.8314429810383,45.55441503072465,0 -123.8312587165568,45.55429477099887,0 -123.8312464824744,45.55428678607164,0 -123.8312219806938,45.55427079485522,0 -123.8311907281816,45.55424715054355,0 -123.8311905094459,45.55424517550093,0 -123.8311871029563,45.55421434013151,0 -123.8311552190898,45.55401663507218,0 -123.8312063374687,45.55395388031165,0 -123.8314272527423,45.55364213717233,0 -123.8316483528966,45.55331738209842,0 -123.8317794534313,45.55302417453909,0 -123.8317334731412,45.55277030296433,0 -123.8315960163672,45.55259509702876,0 -123.831562988505,45.55246839809237,0 -123.8314937102144,45.55216177061114,0 -123.8314273447306,45.55201822036341,0 -123.8314593743124,45.55155789660663,0 -123.8315632330243,45.5514652288369,0 -123.8317015489111,45.5513418153606,0 -123.8323992534835,45.55093164803683,0 -123.8323958942299,45.54925808948401,0 -123.8323949122735,45.54876891972669,0 -123.8311585000783,45.54866373268025,0 -123.828933208382,45.54847438331127,0 -123.8282847733682,45.54841920023949,0 -123.8276948909937,45.5483689961716,0 -123.8276854632154,45.5485547908769,0 -123.8277759389571,45.54884844791043,0 -123.8279055771963,45.54909323861939,0 -123.8280599603533,45.54931923737071,0 -123.8281908232539,45.54945116789483,0 -123.8284115238889,45.54966254912471,0 -123.8284702496706,45.54980033109543,0 -123.8285585629785,45.55004047645028,0 -123.8286445984546,45.55033339803875,0 -123.8288064688112,45.5504699049642,0 -123.8288626962664,45.55061147449075,0 -123.8288936435686,45.55081038784264,0 -123.8289099770319,45.55086392741493,0 -123.82899688787,45.5511488124812,0 -123.8290699598444,45.55128290486488,0 -123.8292285767697,45.55128556635474,0 -123.8293382842534,45.55124410034435,0 -123.8297417628777,45.55113242646176,0 -123.8299689306071,45.55096739044772,0 -123.830256081363,45.55077430361932,0 -123.8304314878304,45.55060650061318,0 -123.8305446002769,45.55051193656148,0 -123.8306533480135,45.55036409168306,0 -123.8307876113075,45.55021739148091,0 -123.8308699025077,45.55004751965804,0 -123.8309722932443,45.54983640715274,0 -123.8311876589059,45.54943744011114,0 -123.8312986048996,45.54924169827903,0 -123.8314329189456,45.54904581864776,0 -123.8315742402901,45.54899141444017,0 -123.8317062610512,45.54901850690047,0 -123.8317842426641,45.54912676837027,0 -123.8316913444238,45.5492989107724,0 -123.8315522024489,45.54953572222549,0 -123.8314078893404,45.54980306857514,0 -123.8313385674211,45.54993148827254,0 -123.8312241440628,45.55016769274511,0 -123.831128948027,45.55035165988631,0 -123.8309697929857,45.5505255573884,0 -123.8307670666302,45.55074706319596,0 -123.830539159113,45.55096359321416,0 -123.8302325673865,45.55117009413144,0 -123.8301383492766,45.55131917865599,0 -123.8299960339493,45.55136137653255,0 -123.8298892118698,45.55140145134775,0 -123.8298844225194,45.55140324855316,0 -123.8295775584753,45.55146713130729,0 -123.8292969761097,45.55160808582351,0 -123.82923843363,45.55171798005087,0 -123.8292221009876,45.55183963827087,0 -123.8293031220881,45.5519520009071,0 -123.8294930831153,45.55208651706575,0 -123.8295868425021,45.55212591883201,0 -123.8298150646716,45.55222182731459,0 -123.8300199333697,45.55229850323193,0 -123.8301686325063,45.55237099107156,0 -123.8303084575594,45.552464281686,0 -123.8304244587629,45.55268832923892,0 -123.8305050144441,45.55292610358161,0 -123.8305558762584,45.55317113800423,0 -123.8305959574889,45.55338643834753,0 -123.8305868151788,45.5536175280311,0 -123.8306254083117,45.55391510892248,0 -123.8306597141431,45.55412628281867,0 -123.8306982420522,45.55434164659283,0 -123.8309039320229,45.55455985309306,0 
							</coordinates>
						</LinearRing>
					</outerBoundaryIs>
				</Polygon>
				<Polygon>
					<tessellate>1</tessellate>
					<outerBoundaryIs>
						<LinearRing>
							<coordinates>
								-123.827806783902,45.55887506391969,0 -123.8282783251245,45.55891258161774,0 -123.8285288611676,45.55894982297742,0 -123.8287701149732,45.55900923683544,0 -123.8290593374555,45.55905006949437,0 -123.8294215453953,45.5590955254951,0 -123.829559809647,45.55912079015027,0 -123.8297780188832,45.55916066231418,0 -123.8298309638993,45.55905106514694,0 -123.8298244278929,45.55904470927533,0 -123.8298402684244,45.5590318045935,0 -123.8299717165369,45.55882787478798,0 -123.8301296866383,45.55853249573746,0 -123.8303013606171,45.55823499520467,0 -123.8304125354222,45.5580283813905,0 -123.8305378904992,45.55775713845116,0 -123.8306215530886,45.55756921443172,0 -123.830710018564,45.55724738352287,0 -123.8307189414912,45.55707810406401,0 -123.8307286775405,45.55689340526651,0 -123.8307403030826,45.55667286308977,0 -123.8307926833665,45.55639107379626,0 -123.830854094038,45.55605290812591,0 -123.8308633838555,45.55578806885444,0 -123.8308376665553,45.55556470457635,0 -123.8307797410122,45.55546160914034,0 -123.8307151356883,45.55533663208518,0 -123.8306986927648,45.55530482395882,0 -123.8306014449974,45.55509097814389,0 -123.8305048164078,45.55483205219984,0 -123.8303769426479,45.55469639607628,0 -123.8301637984715,45.55443413578212,0 -123.8301264472518,45.55422528815345,0 -123.8300992536051,45.55406333965776,0 -123.8300708056368,45.55388815069514,0 -123.8300405055632,45.55365685172262,0 -123.8300645661216,45.5534923650927,0 -123.8300195648755,45.55325567867611,0 -123.8299983922517,45.55312766901186,0 -123.8299668603033,45.55299383891153,0 -123.8299123404843,45.55282963519242,0 -123.8298554616796,45.55269019341954,0 -123.8297281550907,45.55262345628776,0 -123.8295503356679,45.55255432523472,0 -123.829310118211,45.55246093360563,0 -123.8289919156427,45.55229449671799,0 -123.8287513434078,45.55204451577247,0 -123.8286748953505,45.55189028709761,0 -123.828679363442,45.55172505983938,0 -123.8286197947324,45.55151780307067,0 -123.8285313454938,45.55136867944064,0 -123.8283867659899,45.55101268524177,0 -123.8283389131663,45.55080678350776,0 -123.8283349872727,45.55077432171988,0 -123.8283113917741,45.55057923165474,0 -123.8282430947142,45.55032381829611,0 -123.8281458951324,45.55001440546976,0 -123.8280135839358,45.54974117845371,0 -123.8277229258204,45.54945784566706,0 -123.8275389743958,45.54918773579193,0 -123.8274096529911,45.54889066863443,0 -123.8273432747447,45.54979209664112,0 -123.8274579127884,45.54990723969333,0 -123.8275567539807,45.5500575625552,0 -123.8276518823679,45.55034705351134,0 -123.827717874272,45.55056535270251,0 -123.8278332659013,45.55084414469209,0 -123.8278930799722,45.55110151718155,0 -123.8280000097166,45.55139108068126,0 -123.8281725210255,45.55170540850685,0 -123.8281667242279,45.55186244000311,0 -123.8281754856031,45.55204191902649,0 -123.8277984062018,45.55210509720493,0 -123.8275285909102,45.55217657648399,0 -123.8272361081482,45.55221003404726,0 -123.8271663544715,45.55220323751538,0 -123.8271261913873,45.55275299771734,0 -123.8270798203173,45.55338774048003,0 -123.8270793882075,45.55339365551014,0 -123.8269609692682,45.5550053005453,0 -123.8250702579744,45.5548037204908,0 -123.8215213522807,45.55442526209033,0 -123.820764626922,45.55823997609443,0 -123.8206825615277,45.55865364146399,0 -123.8207187638663,45.55866370017355,0 -123.821002086575,45.55868248992405,0 -123.821589002922,45.55867796668107,0 -123.8219805191474,45.55866264664491,0 -123.8224643154574,45.5585718566635,0 -123.8230693378489,45.55837690133907,0 -123.8235312391504,45.55819358967953,0 -123.8238918770972,45.55817666748893,0 -123.8242745815927,45.55822268506114,0 -123.8243667851755,45.55823313686125,0 -123.8247250834304,45.55827375112692,0 -123.8252458169636,45.55844720671766,0 -123.8255923938511,45.55858741683282,0 -123.8260244909779,45.55870281624944,0 -123.8264747412069,45.55881509163552,0 -123.8268293101489,45.55886656982959,0 -123.8273224077092,45.55891903741568,0 -123.82761043869,45.55886921740378,0 -123.827806783902,45.55887506391969,0 
							</coordinates>
						</LinearRing>
					</outerBoundaryIs>
				</Polygon>
				<Polygon>
					<tessellate>1</tessellate>
					<outerBoundaryIs>
						<LinearRing>
							<coordinates>
								-123.8422074536367,45.55666270833532,0 -123.8422103545052,45.5568659732595,0 -123.8422164274419,45.55720428743475,0 -123.8422070847797,45.5574631431622,0 -123.8422460600259,45.557675228645,0 -123.8423122792896,45.55782383935094,0 -123.8423883277738,45.55801747194528,0 -123.8424487446502,45.55822788523402,0 -123.8425150110623,45.55846864291933,0 -123.8426282444979,45.558775759159,0 -123.8427059318395,45.55898646163265,0 -123.8427625005922,45.55916559022427,0 -123.8428810699248,45.55938694522271,0 -123.8430308106762,45.55966113938341,0 -123.8431261863894,45.55990358194124,0 -123.8432259477176,45.56017583504297,0 -123.8432920735327,45.5604039854547,0 -123.8433640205668,45.56056281980303,0 -123.8434373938294,45.5606331739797,0 -123.8436852074812,45.5609366156499,0 -123.843654331422,45.55965524248105,0 -123.8435774417272,45.55951184020415,0 -123.8433545825649,45.55911386848284,0 -123.8431908765368,45.55866054419776,0 -123.8429900667161,45.55803164424102,0 -123.8427946854904,45.55749352812908,0 -123.8428037129036,45.55725713143102,0 -123.842795172299,45.55679770098917,0 -123.8428068343334,45.55664772113637,0 -123.8422065182616,45.5565971811894,0 -123.8422074536367,45.55666270833532,0 
							</coordinates>
						</LinearRing>
					</outerBoundaryIs>
				</Polygon>
				<Polygon>
					<tessellate>1</tessellate>
					<outerBoundaryIs>
						<LinearRing>
							<coordinates>
								-123.8412068285629,45.56388858159721,0 -123.8413691491638,45.56393880911995,0 -123.8414583133978,45.56400473761135,0 -123.8416955592799,45.56401667579961,0 -123.8417118430688,45.5640174955204,0 -123.841901877999,45.56397439588008,0 -123.842181228705,45.56393975461631,0 -123.8425314487179,45.56388577596909,0 -123.8427339281708,45.56381425234108,0 -123.8430795779533,45.5637480651978,0 -123.8434622410464,45.56366126582822,0 -123.8434143409227,45.56355666273885,0 -123.8434157119298,45.56355519984599,0 -123.8433961697103,45.56354025747191,0 -123.843399771508,45.56353946938916,0 -123.8433837997304,45.56339139398041,0 -123.8433847325325,45.56338094227129,0 -123.8433974360995,45.56323851212225,0 -123.8433770050752,45.56312502917419,0 -123.8432645018768,45.56289004025759,0 -123.8432303133764,45.56279175000445,0 -123.8431980349011,45.56267474325007,0 -123.8431997132848,45.56245879376839,0 -123.8432064640388,45.56234464386838,0 -123.8431342402611,45.56224427426285,0 -123.8430633425162,45.56213762018777,0 -123.8430479423472,45.56199957215382,0 -123.8430538339827,45.56187088648956,0 -123.8430214266357,45.56175471141548,0 -123.8430073214031,45.5616780419101,0 -123.8429843456858,45.56155316340272,0 -123.843002390841,45.56144732903091,0 -123.8430426678639,45.5613201789954,0 -123.8430709546677,45.56117724317551,0 -123.8430490712873,45.56103706561327,0 -123.8429825435556,45.56089160986171,0 -123.8429125839066,45.56071054060725,0 -123.8429477714371,45.56061425766682,0 -123.8429132341601,45.56047425985442,0 -123.8428232890139,45.560179651047,0 -123.8427414713271,45.55995251083231,0 -123.8426378173451,45.5597032180104,0 -123.8424596334726,45.55940907614421,0 -123.8423555668758,45.55914350857054,0 -123.8422384472014,45.55881267323807,0 -123.8421015737438,45.55844143271825,0 -123.842040672384,45.55819371072726,0 -123.8419624371447,45.55795002832258,0 -123.8418492348314,45.55768985348877,0 -123.841820503532,45.55754820669738,0 -123.8418167897015,45.55747231190885,0 -123.8418137671021,45.55738504638391,0 -123.8418274287442,45.55726334044964,0 -123.8418232811388,45.55710803067881,0 -123.8418205782131,45.55691861603066,0 -123.8418170957275,45.5566745058595,0 -123.8418155238331,45.55656426251777,0 -123.841781015936,45.55656135745011,0 -123.841228838568,45.55650137913066,0 -123.8374081278399,45.55608628999726,0 -123.833109204588,45.55561908647825,0 -123.8329958779934,45.55560676780546,0 -123.8324158533786,45.55554380947203,0 -123.8324154062304,45.55534310068548,0 -123.8324141087371,45.55476095362995,0 -123.8323269242842,45.5548222030168,0 -123.8321315086761,45.55494386479582,0 -123.8319275494304,45.55509342425678,0 -123.8317592093743,45.55525702578261,0 -123.8316500436269,45.55539042702187,0 -123.8314883153346,45.55552421258059,0 -123.8313980281364,45.55564271710428,0 -123.8314107925768,45.55580844720719,0 -123.8314072332331,45.55597620614378,0 -123.8314053146327,45.55600205676237,0 -123.8314036701426,45.55600244677645,0 -123.8314033211524,45.55602891154445,0 -123.8313611587957,45.55630230258625,0 -123.8313211789066,45.55651230935612,0 -123.8313084631485,45.55657910335125,0 -123.8312800383778,45.55681231262686,0 -123.831295554178,45.55707513244803,0 -123.831263985995,45.55724637606228,0 -123.8312249279375,45.55741583884959,0 -123.831147404662,45.55767474602126,0 -123.8310138918401,45.5579746489535,0 -123.8309296722715,45.55815307487939,0 -123.8308084742574,45.55837855450832,0 -123.8306624899937,45.55863100500203,0 -123.8305416192351,45.55885379063214,0 -123.8303545390243,45.55916239738098,0 -123.8303599456035,45.55931075223631,0 -123.8303599822322,45.55931176008861,0 -123.8303629408958,45.55939292183006,0 -123.8303736364065,45.55966850149508,0 -123.8304360192235,45.55972652246417,0 -123.8305841890157,45.55981623344768,0 -123.8307046526848,45.55990748598686,0 -123.8308600346966,45.56007386647538,0 -123.8309028529727,45.56025666083222,0 -123.8309346904239,45.56037669866655,0 -123.8310171852034,45.56059558751542,0 -123.8310272547503,45.56061979730935,0 -123.8310841993843,45.56077337399145,0 -123.8310891085247,45.56082640490288,0 -123.8311394296654,45.56095204995911,0 -123.8312623906702,45.5610690519455,0 -123.8313378864425,45.56121262022923,0 -123.8314497455778,45.56145923789773,0 -123.8315913214168,45.56161079859177,0 -123.8317876768417,45.56173310104229,0 -123.8319979993471,45.56178165029012,0 -123.832446839604,45.56192178321875,0 -123.8328125210577,45.56203611430973,0 -123.8331153558687,45.56213396622894,0 -123.8333523624742,45.56223472069681,0 -123.833527240088,45.56233778226311,0 -123.8336241866095,45.5624162282696,0 -123.8338190440725,45.56257389968501,0 -123.8340035930541,45.56275845296672,0 -123.8341446469771,45.5628850561542,0 -123.8345467672955,45.56307347597827,0 -123.8348908689776,45.56318392558244,0 -123.8351322340583,45.5632371477288,0 -123.8352282151118,45.56325926633208,0 -123.835505854436,45.56333898887863,0 -123.8355277832897,45.56333933974088,0 -123.8355298199905,45.56334750139964,0 -123.8355371155006,45.56334977840843,0 -123.8358171400468,45.56345764524366,0 -123.8361287839241,45.56355682885933,0 -123.8364023161813,45.56361623870807,0 -123.8364390476309,45.56363710961854,0 -123.8365581299988,45.56362037861859,0 -123.8366475588986,45.56364007251084,0 -123.8367248363505,45.5636570907464,0 -123.8370288165256,45.56366837335799,0 -123.8372520155137,45.56367158647387,0 -123.837684141649,45.56363838811473,0 -123.8377791545675,45.56360267631081,0 -123.8380347742787,45.56356313183874,0 -123.8383036241358,45.56358526572473,0 -123.8385958923665,45.56360474816643,0 -123.8388239472546,45.56356608296871,0 -123.8390356559221,45.56352568406697,0 -123.8393185087912,45.56354305106237,0 -123.8396785568335,45.56357116695347,0 -123.839902285783,45.56363085349913,0 -123.8399810473137,45.56361420920088,0 -123.8400596440694,45.56359759950582,0 -123.8402939134794,45.5637403315856,0 -123.8405649851638,45.5638855484947,0 -123.8409377310006,45.56386942941685,0 -123.8412068285629,45.56388858159721,0 
							</coordinates>
						</LinearRing>
					</outerBoundaryIs>
				</Polygon>
				<Polygon>
					<tessellate>1</tessellate>
					<outerBoundaryIs>
						<LinearRing>
							<coordinates>
								-123.8263803878967,45.57504029167998,0 -123.8265090398713,45.5750130229627,0 -123.8267173333924,45.57492694824347,0 -123.8271467902899,45.57479809485775,0 -123.8274742296956,45.57474237693416,0 -123.8276571228579,45.57473654239708,0 -123.8276575385138,45.57466293522332,0 -123.827725630068,45.57449668688071,0 -123.827952727244,45.57425879359574,0 -123.8280855835087,45.5741326693543,0 -123.8281081459623,45.5740220279761,0 -123.8280943065037,45.57392435365134,0 -123.8280220437782,45.57380675329239,0 -123.8279275108168,45.57374204867276,0 -123.8277559480603,45.5736051630161,0 -123.8274828765599,45.57348330162419,0 -123.8272930697601,45.57348943978527,0 -123.8271902742468,45.57323993649677,0 -123.8270543694001,45.57298768358709,0 -123.8271090354886,45.57301409916526,0 -123.8276510174418,45.57327599033832,0 -123.8283611090213,45.57347550062133,0 -123.8286239548107,45.57357687932517,0 -123.8287477757866,45.57362463615878,0 -123.828908152242,45.57381440067885,0 -123.8288479390968,45.57403559791234,0 -123.8288637852314,45.57439354952974,0 -123.8289511586803,45.57460530932973,0 -123.8289347399813,45.57481825524646,0 -123.8290544827358,45.57481388993478,0 -123.8291102908974,45.57475087128155,0 -123.8297206222686,45.57474643968711,0 -123.8303634577043,45.57464650790197,0 -123.830570915722,45.57464499969647,0 -123.8306665830439,45.57460187312179,0 -123.8309817494638,45.57441892194337,0 -123.8311983868043,45.5743091479232,0 -123.8313500428191,45.57428086617697,0 -123.8315770880928,45.57416137325929,0 -123.831671713808,45.5741250405144,0 -123.8320615870555,45.57388458267649,0 -123.8322004117062,45.57386428755401,0 -123.8325304003746,45.57381604341526,0 -123.8330799533983,45.57377296241771,0 -123.8336740863978,45.57367756614066,0 -123.834198118516,45.57353243854095,0 -123.8343426696098,45.57344509797432,0 -123.8345495145076,45.57335569544135,0 -123.8347508334876,45.57329759891729,0 -123.8347266491062,45.57334336860069,0 -123.8348101678772,45.57347172794051,0 -123.8354668466835,45.57348997754325,0 -123.8361478038353,45.57367551727123,0 -123.8361688963929,45.57368168340156,0 -123.8363248232896,45.57372727032152,0 -123.8366246171496,45.57381491749981,0 -123.8366635092701,45.57381606943717,0 -123.8368123096787,45.57380103752836,0 -123.837031708881,45.57380734916951,0 -123.837041815532,45.57377419360108,0 -123.8371489179396,45.57374824543371,0 -123.8374525298498,45.57368520985094,0 -123.8376757513513,45.57363744100596,0 -123.8378776085491,45.57355837431089,0 -123.8380403417661,45.57345862548094,0 -123.8382382436298,45.57331458347228,0 -123.8384660930456,45.57317661122434,0 -123.8386567314443,45.57303078288613,0 -123.8390192339193,45.57283418089223,0 -123.8392600357633,45.57279345724049,0 -123.8398548490368,45.57284087207027,0 -123.8405760302862,45.57294127468792,0 -123.8410037357266,45.5729790695562,0 -123.8416304090913,45.57312046253108,0 -123.8418043711228,45.57318202410563,0 -123.84181363226,45.57317362089482,0 -123.8421421326474,45.57330204041422,0 -123.8424395044701,45.57328763777475,0 -123.842794281816,45.57318917678863,0 -123.8432712263515,45.57290588297677,0 -123.8436104634108,45.57253270275637,0 -123.8439071533393,45.5723244387497,0 -123.8440619185759,45.57209036726344,0 -123.8440688814408,45.57207136682457,0 -123.8441070200326,45.57205574272946,0 -123.8443403488934,45.57196015633898,0 -123.8443374528697,45.57192109883092,0 -123.844003093181,45.56720970083652,0 -123.8439907549192,45.56703582965978,0 -123.8439889579043,45.56700534378818,0 -123.8439734254046,45.56678075819838,0 -123.8439597511466,45.56658303869847,0 -123.8439226950639,45.56604720912709,0 -123.8437997206117,45.56444939967875,0 -123.8437807122582,45.56420241171969,0 -123.8437730243037,45.5640484713123,0 -123.8435957853913,45.56413085196679,0 -123.8433862090061,45.56424936550229,0 -123.8429750005533,45.5643518498762,0 -123.8425335095976,45.56444100234847,0 -123.8419689521282,45.56453575074224,0 -123.842003398901,45.56462043795114,0 -123.8420966942794,45.56479506187889,0 -123.842170389092,45.56494952476624,0 -123.8421494324968,45.56512156602994,0 -123.8421336685083,45.56531455045046,0 -123.8421200124915,45.56548172591388,0 -123.8421119549975,45.56569854859077,0 -123.8421104568548,45.56593789663337,0 -123.8421126534419,45.56613952643671,0 -123.8421039468978,45.56634585054999,0 -123.8421055163237,45.56661296488682,0 -123.8421656348787,45.5667731678711,0 -123.8422938230658,45.56693175908076,0 -123.8424558366113,45.5671336099411,0 -123.8425677099399,45.5674036812094,0 -123.8425820594568,45.56753690876834,0 -123.842551360841,45.56777723631773,0 -123.8425275649624,45.56796352736306,0 -123.8425012976586,45.56816915646991,0 -123.8424735319291,45.5683865195761,0 -123.8424965818394,45.56858515115521,0 -123.8423782080217,45.56870378663375,0 -123.842285684826,45.56871087675205,0 -123.8422855453023,45.568710887682,0 -123.8422654943428,45.56871242439092,0 -123.8421561106411,45.56866913656236,0 -123.8421065318187,45.56858448180487,0 -123.8420861822406,45.56834889265137,0 -123.8421059790963,45.56819392152672,0 -123.8421297764563,45.56800763056604,0 -123.842159504061,45.56777491798312,0 -123.8421915432587,45.56752411153827,0 -123.8421641686466,45.56739091425251,0 -123.8420959967578,45.56724085002652,0 -123.8419568253056,45.56707046177741,0 -123.8418104030944,45.56688928772751,0 -123.8417199023108,45.56665682120432,0 -123.8416935088037,45.56644695012919,0 -123.8417230027585,45.56622511978682,0 -123.841719764865,45.56592768058644,0 -123.8417236096816,45.56563513255635,0 -123.8417354249575,45.56540065815875,0 -123.841753595506,45.56517823793016,0 -123.8417762796443,45.56497686848919,0 -123.841667420771,45.56477137016521,0 -123.8416036309942,45.5646322122674,0 -123.8415766273982,45.56456357208125,0 -123.8411103201809,45.56451440720682,0 -123.8408756782936,45.56441663531218,0 -123.8407450118695,45.56442549824376,0 -123.8405680202453,45.56444845283327,0 -123.8404662168587,45.56444451867878,0 -123.8403387287792,45.56442754724541,0 -123.8402121438654,45.56441012437444,0 -123.8401175435563,45.56438341197201,0 -123.8400652024436,45.56435764436002,0 -123.8400600680267,45.56435757770763,0 -123.840029610815,45.56433590573518,0 -123.8399402425061,45.56427151231231,0 -123.8398142500059,45.56418072877383,0 -123.839503733947,45.56410777509847,0 -123.839200915753,45.56408935180326,0 -123.8389003066366,45.56411756933325,0 -123.838596641985,45.56415515339563,0 -123.838385005707,45.56414348526437,0 -123.8382503235391,45.5641644110223,0 -123.8383191680953,45.56417869632185,0 -123.8383207271251,45.56417944006841,0 -123.8383951659698,45.56449148674895,0 -123.8384383884789,45.56473273340634,0 -123.8384425901875,45.564968651604,0 -123.8384252084395,45.56511188598349,0 -123.8384012146656,45.56528615500147,0 -123.8383080486353,45.56548987005138,0 -123.8382380455694,45.56562611689918,0 -123.838162861312,45.56580200633439,0 -123.8381354541836,45.56597465672988,0 -123.8381088526307,45.56612841520296,0 -123.83806908968,45.5662489645498,0 -123.8379577494649,45.56631900573664,0 -123.8378652940676,45.56632181088188,0 -123.837864877355,45.56632403629729,0 -123.8378480346516,45.56641409471002,0 -123.8377976919152,45.56663133430373,0 -123.8377340929487,45.56681779029334,0 -123.8376436769651,45.56700294872142,0 -123.8375230170485,45.56714395906358,0 -123.8375123524965,45.56723683174811,0 -123.8374912773489,45.56742035648983,0 -123.8373877585749,45.5675685039476,0 -123.8372013322395,45.56775505527421,0 -123.8370378215073,45.56794735295995,0 -123.8369633260828,45.56817956592791,0 -123.8369475275561,45.56843816649698,0 -123.8368940752766,45.56860437447364,0 -123.8367746653669,45.56864108782492,0 -123.836615581173,45.56866464947415,0 -123.8364981117286,45.56860410373854,0 -123.8365352836455,45.56825127319396,0 -123.8366029847859,45.56801325959004,0 -123.8366593997685,45.5678866382346,0 -123.8367102336871,45.56777254308007,0 -123.8367992191439,45.5676593934643,0 -123.8369853468325,45.56749675625929,0 -123.8371249251328,45.56732391606721,0 -123.8372103445422,45.56707900252695,0 -123.8372829398534,45.5668977771122,0 -123.8373658591061,45.56674299215118,0 -123.8373464901055,45.56658158513267,0 -123.8371745226598,45.56640483277756,0 -123.8371119458817,45.56619531132869,0 -123.8371639114867,45.56590333342067,0 -123.8372061392652,45.5656628030344,0 -123.8372602819776,45.56549302265001,0 -123.8373756730908,45.56528444968459,0 -123.8374395436294,45.56509672540647,0 -123.8374688749789,45.56483665184391,0 -123.8374075828263,45.5644875813899,0 -123.8373412195882,45.56420630527121,0 -123.8369331193379,45.56421377231193,0 -123.8369061649955,45.56421208317877,0 -123.8364654197321,45.5641844639946,0 -123.8359794235002,45.56410213915821,0 -123.835605044677,45.56399759760119,0 -123.8353149963332,45.56388993767238,0 -123.8350230315036,45.56379010842873,0 -123.8350068317346,45.56378456968871,0 -123.8347290608664,45.56372332065552,0 -123.8343581545026,45.5636208630776,0 -123.8339473832929,45.56345942161165,0 -123.8336473448862,45.56329720028428,0 -123.833558344101,45.56324908028072,0 -123.8333844920771,45.56309303649758,0 -123.8331120300581,45.56282875393961,0 -123.8329018554708,45.56268310770668,0 -123.832634511006,45.56258219451047,0 -123.8323110439126,45.56247989662207,0 -123.8318773458406,45.562344299243,0 -123.8315385938614,45.5622125096088,0 -123.8314052030092,45.56235454328823,0 -123.8312171860067,45.5624412443001,0 -123.8310744044604,45.56254161163525,0 -123.830880209431,45.56271172029568,0 -123.8305841482545,45.56283521572075,0 -123.8304746248625,45.56285054514279,0 -123.8304208836019,45.56285806738019,0 -123.8302651110961,45.56287987063363,0 -123.8299008365491,45.5629031454863,0 -123.8295815221428,45.56292737261309,0 -123.829355096063,45.56299773984567,0 -123.8291896683443,45.56314181002708,0 -123.8290993000946,45.56331866608588,0 -123.8290166241435,45.56351028107265,0 -123.8289428585914,45.56368124502572,0 -123.8288962028,45.56386461097981,0 -123.8288465120131,45.56406059230206,0 -123.8287985090751,45.56424990057177,0 -123.828763921042,45.56438630412149,0 -123.8287183601833,45.56456673669482,0 -123.8286718713898,45.56475467205074,0 -123.8286418901469,45.56487586366064,0 -123.8286088061975,45.5650095928268,0 -123.8285437548322,45.56514775554685,0 -123.8285085210873,45.56519629273566,0 -123.8284798009869,45.56523585633023,0 -123.8283863217189,45.56533203181532,0 -123.8282865406509,45.56540985927349,0 -123.8281121806414,45.56547580588799,0 -123.8279115925804,45.56553651920346,0 -123.8276751738375,45.56558297040052,0 -123.8274855232316,45.56567595798548,0 -123.8272929478695,45.56585136473534,0 -123.8271149422628,45.56600708027717,0 -123.8269466106476,45.56614968478524,0 -123.8268156771185,45.56625693406657,0 -123.8266491560713,45.56639534853826,0 -123.8264805322045,45.56653705795995,0 -123.8262629776129,45.56670209264797,0 -123.8260818527012,45.56681568531668,0 -123.8259202815175,45.56684770834555,0 -123.8258925706267,45.56684919855328,0 -123.825802634763,45.56685403605611,0 -123.8257877875844,45.56685483467145,0 -123.8257799510351,45.56685525586593,0 -123.8257800755512,45.56685360867429,0 -123.825626915397,45.56682927343487,0 -123.8252600456362,45.56672576797358,0 -123.8250545577444,45.56665153465384,0 -123.8248788821849,45.56663311360269,0 -123.8247028378325,45.5666480672265,0 -123.8245984348889,45.56666074552932,0 -123.8245871650214,45.56666211403384,0 -123.8243656888162,45.5667224174269,0 -123.8241709898917,45.56683396547514,0 -123.8240500484977,45.56691401302241,0 -123.8240091901367,45.56694105617923,0 -123.823898500186,45.56708254546567,0 -123.823792852133,45.5672703923728,0 -123.8236789175737,45.56747878260854,0 -123.8235919168319,45.56765095094783,0 -123.8235020224873,45.56783429597184,0 -123.8233691007028,45.56809105755896,0 -123.8231979837432,45.5684548844331,0 -123.8230711882199,45.56880996760328,0 -123.822997218154,45.56907295389524,0 -123.8229393370128,45.56926703914854,0 -123.8228872373445,45.56942739181414,0 -123.8228118073484,45.56962368354942,0 -123.8227472899345,45.56982607494487,0 -123.822719342485,45.57000711977199,0 -123.8227179281346,45.57004788127561,0 -123.8227129745307,45.57019066717407,0 -123.8227430013112,45.57040577472159,0 -123.8227629355945,45.57050351206426,0 -123.822769321259,45.57052524858585,0 -123.8228189877746,45.57069431023381,0 -123.8228729455077,45.57083407135552,0 -123.8229703947264,45.57104819895147,0 -123.8230605283047,45.5712467236596,0 -123.8231554067783,45.57143312750149,0 -123.823259193225,45.57160910866238,0 -123.8233789817633,45.57179460459162,0 -123.8234829095364,45.57195122328526,0 -123.8234243250509,45.57163456960208,0 -123.8235918604492,45.57115879367474,0 -123.8236144299368,45.57110834033482,0 -123.8236442044698,45.57117098801526,0 -123.8237791837688,45.57141773949451,0 -123.8239437598827,45.57167147725518,0 -123.8240666305358,45.5718649494537,0 -123.8241708309206,45.57204952818051,0 -123.8242460798177,45.57219306845696,0 -123.8243665895183,45.57244900655514,0 -123.8244770571988,45.57259850771514,0 -123.8246269198199,45.57273266924164,0 -123.8249481092932,45.57286233232235,0 -123.8253471325336,45.57303680277613,0 -123.8256730557215,45.57321000543017,0 -123.8259390370645,45.57337251979583,0 -123.8259513149155,45.57338002159413,0 -123.8259306417709,45.57348736261842,0 -123.8258381437212,45.57383400511925,0 -123.8262137063604,45.57381169856069,0 -123.826313574645,45.57381097617603,0 -123.8265926350379,45.5738231617,0 -123.826817257909,45.5738786926301,0 -123.8268936696236,45.57400197847291,0 -123.8267253931215,45.57408893225003,0 -123.8265710290551,45.57419959914724,0 -123.8262207712573,45.5743640770266,0 -123.8259764751437,45.57444975410858,0 -123.826065416254,45.57485893797066,0 -123.8260660018815,45.57486172855685,0 -123.8260686848632,45.57487880391916,0 -123.8260794961048,45.574975240227,0 -123.8260795804752,45.57497601190559,0 -123.8260806803945,45.57499394751315,0 -123.8260807004664,45.57499688980613,0 -123.8260806821691,45.57502588587025,0 -123.8262085671291,45.57501255393903,0 -123.8263803878967,45.57504029167998,0 
							</coordinates>
						</LinearRing>
					</outerBoundaryIs>
					<innerBoundaryIs>
						<LinearRing>
							<coordinates>
								-123.831159029044,45.56890440533616,0 -123.8309669768156,45.56913975772713,0 -123.8307984600419,45.56929341256246,0 -123.8306701699707,45.56937280945204,0 -123.8305108481075,45.5693592548214,0 -123.8304986683823,45.56935821824412,0 -123.8304258356849,45.56929718511416,0 -123.8304242886226,45.56919220639065,0 -123.8306169551332,45.56901322938621,0 -123.8307336857402,45.56888502834853,0 -123.8308423851378,45.56873192840859,0 -123.830922564458,45.56851040736137,0 -123.8309731033565,45.56828822787509,0 -123.8310011629292,45.56810082091349,0 -123.8310277654545,45.56793428446199,0 -123.8310666654782,45.56771849571835,0 -123.8311577089184,45.56750239596406,0 -123.8312320800129,45.56733177912705,0 -123.8313022812255,45.56717318827785,0 -123.8313483708013,45.56706906808122,0 -123.8314759204295,45.56679850344756,0 -123.8316333760516,45.56647452924245,0 -123.8318122703417,45.56624858302097,0 -123.8319641029693,45.56601833668854,0 -123.8321468044236,45.56572461760159,0 -123.8322676989528,45.5655015981381,0 -123.8323615566946,45.56530636287009,0 -123.8324455937414,45.56510902533385,0 -123.8325580168992,45.56479736372349,0 -123.8327314227302,45.56447158753847,0 -123.8329641197274,45.56415353818289,0 -123.83317619209,45.56383894845897,0 -123.8331776557024,45.56383723028387,0 -123.8331774756881,45.56383710198175,0 -123.8331810137712,45.56383201029296,0 -123.8331935549952,45.56381396000786,0 -123.8332070809116,45.56379449198391,0 -123.8332273898637,45.56376526234512,0 -123.8332476866125,45.56374066923352,0 -123.8332827152898,45.56369913938425,0 -123.8334281642812,45.56352697185442,0 -123.8335132241679,45.56358647014054,0 -123.8337577796051,45.56369013900754,0 -123.8336610118777,45.5637991135335,0 -123.8336606074552,45.56379958093934,0 -123.833481017182,45.56402571165405,0 -123.833282940671,45.56432602138111,0 -123.833086562987,45.56458587663797,0 -123.8329743497447,45.56478345703813,0 -123.8328610916959,45.56507367114446,0 -123.8327326938979,45.56539184654176,0 -123.8325835689677,45.5656898583864,0 -123.832409914758,45.56599357091709,0 -123.8322301567915,45.56625783283875,0 -123.8320381378955,45.56651615217196,0 -123.8318859548642,45.5668040726448,0 -123.8317187385993,45.5671562636222,0 -123.8317096639744,45.56717673236827,0 -123.8316188020794,45.56738168345775,0 -123.8315254212547,45.56759591938091,0 -123.8314572844397,45.5677522360668,0 -123.8314192622266,45.56794672928078,0 -123.8313783789427,45.56820451434524,0 -123.8313603309893,45.56842044125077,0 -123.8312516558207,45.56874706274873,0 -123.831159029044,45.56890440533616,0 
							</coordinates>
						</LinearRing>
						<LinearRing>
							<coordinates>
								-123.8327248890322,45.56355245498062,0 -123.8327198086389,45.5635550852198,0 -123.83268397889,45.56354692592724,0 -123.8323540622072,45.56349271740851,0 -123.8323453929236,45.56350645777709,0 -123.8321526392184,45.56340175584462,0 -123.8320529452482,45.563334477319,0 -123.8318839923043,45.5631858268388,0 -123.8315211753822,45.56293007980103,0 -123.8313998223518,45.56292091266424,0 -123.831603643522,45.56276183662818,0 -123.8316088999803,45.56275898193037,0 -123.831683464041,45.56271848428526,0 -123.8318475513965,45.56263526916383,0 -123.8319713711858,45.56267398103734,0 -123.8324035108374,45.56280937428378,0 -123.832621364443,45.56288426578429,0 -123.8327147527612,45.5629323068304,0 -123.8328146313671,45.56300704621005,0 -123.832966489186,45.56316112430022,0 -123.8330095927046,45.56323418385858,0 -123.8329071547165,45.5633543019029,0 -123.8328094263074,45.56346025296397,0 -123.8327248890322,45.56355245498062,0 
							</coordinates>
						</LinearRing>
						<LinearRing>
							<coordinates>
								-123.8345823403663,45.56721856230868,0 -123.8344751677461,45.56712503682054,0 -123.8343384173852,45.56695742363006,0 -123.834255019606,45.56682085588693,0 -123.834245884462,45.56681344719729,0 -123.8342669869231,45.56672386860885,0 -123.8343582551186,45.56654604157681,0 -123.8345234286158,45.56621749026898,0 -123.8347205029638,45.56588352819001,0 -123.8348978256738,45.56564484040719,0 -123.8350905265962,45.56533114938138,0 -123.8352420118634,45.56506902037118,0 -123.8355347806367,45.56468851290644,0 -123.8357618736183,45.5643412922388,0 -123.8359150624001,45.56444824153659,0 -123.8360572186457,45.56454146016419,0 -123.8362872214149,45.56449500257368,0 -123.8365213002671,45.56446686241195,0 -123.8364522656295,45.56459820002414,0 -123.8362641829718,45.564892556827,0 -123.8360376668104,45.56518081286169,0 -123.8357957968062,45.56557459566535,0 -123.8355847519039,45.56590624323356,0 -123.8354677556899,45.56605185206926,0 -123.8353087524906,45.56631161052763,0 -123.8351637154145,45.56658836323245,0 -123.8351071194036,45.56678004837179,0 -123.8351220710722,45.56683923436112,0 -123.8351360659936,45.56693660336713,0 -123.8350914350911,45.56697764151263,0 -123.8348489443993,45.5670880116658,0 -123.8347623622364,45.56728583485795,0 -123.8346768858693,45.56728962153989,0 -123.8345823403663,45.56721856230868,0 
							</coordinates>
						</LinearRing>
					</innerBoundaryIs>
				</Polygon>
				<Polygon>
					<tessellate>1</tessellate>
					<outerBoundaryIs>
						<LinearRing>
							<coordinates>
								-123.8218085928098,45.57577732435919,0 -123.8218393208071,45.57596952106465,0 -123.8218390421599,45.57607244891911,0 -123.821871755684,45.57610615380327,0 -123.8219961530361,45.57605533358149,0 -123.8221396442561,45.57590522312655,0 -123.8221146139528,45.5758078149757,0 -123.8221685242892,45.57575624259464,0 -123.8222367855835,45.57568921112648,0 -123.8223274690559,45.57566040761026,0 -123.8224771266629,45.57567724399813,0 -123.8225716029041,45.57565864985417,0 -123.8227203637072,45.57561407113121,0 -123.8228045434424,45.57563905744674,0 -123.8228905466164,45.57567717297289,0 -123.8230346628002,45.57567578815371,0 -123.8231251975512,45.57563674730033,0 -123.8232407515638,45.57556425644718,0 -123.8232275102547,45.5754861797006,0 -123.8235300766786,45.57533150595953,0 -123.8237711848118,45.57516692074869,0 -123.8238091512587,45.57513224769414,0 -123.823841099453,45.57500049867352,0 -123.823947738807,45.57484679024945,0 -123.8240733305573,45.57474817354535,0 -123.8242257502324,45.57473132834908,0 -123.8242262715423,45.57473551096875,0 -123.8242834317807,45.57476540589667,0 -123.8243776916945,45.5748889606537,0 -123.8243912474215,45.57502591437152,0 -123.8243475537895,45.5752150290882,0 -123.8242842078603,45.57537313751838,0 -123.8242783370137,45.5753952504169,0 -123.8245376676273,45.57547553213071,0 -123.8248826907991,45.57549003419634,0 -123.8251953149135,45.57536745490766,0 -123.8252883132851,45.57515217769889,0 -123.8252909428306,45.57493183678633,0 -123.8252236630918,45.57462228851636,0 -123.8251612107779,45.57435736485522,0 -123.8253541262366,45.57421509772088,0 -123.8255783238298,45.57401601106136,0 -123.8255723420715,45.57401520459582,0 -123.8254719749562,45.57400666157044,0 -123.825386906007,45.57396008475374,0 -123.8253244033497,45.57390205483131,0 -123.8252083615245,45.5738250585332,0 -123.8250482986633,45.57373760493648,0 -123.8248426759501,45.57362525920418,0 -123.8245509346132,45.57349122750027,0 -123.8242709659997,45.57338475588216,0 -123.8241452310656,45.57332729314455,0 -123.8240693597347,45.57329261860049,0 -123.8240132888639,45.5732669929927,0 -123.8238921022182,45.57318765708892,0 -123.8237763563995,45.57309306556535,0 -123.8237720733692,45.57308203327797,0 -123.8237672411278,45.57308445430084,0 -123.8236331590631,45.57294363231817,0 -123.8235290797784,45.57281556077034,0 -123.8234232819931,45.57264432083418,0 -123.8233473853509,45.57246380753148,0 -123.8232445635635,45.57226766619893,0 -123.823099870415,45.5720232289785,0 -123.8229825297664,45.57184665585987,0 -123.8228545341914,45.57164153066345,0 -123.822758984982,45.57146927024267,0 -123.8226099050586,45.571158713522,0 -123.8225002200903,45.57091620253528,0 -123.8224127479166,45.57066909399742,0 -123.822354892652,45.57043754829387,0 -123.8223381015952,45.5703309474281,0 -123.8223224130482,45.57019749481484,0 -123.822327122094,45.57001917818156,0 -123.8223508237706,45.56984120996977,0 -123.8224026291806,45.56963685718333,0 -123.8224729509344,45.56945267199788,0 -123.8225208442868,45.56932803894585,0 -123.8225803538202,45.56913522482942,0 -123.8226410204424,45.56892197447416,0 -123.8227016325453,45.56871379835985,0 -123.8227532957741,45.56855928427962,0 -123.8228195417685,45.56838620218719,0 -123.8229142460475,45.56817222131565,0 -123.8230075491563,45.56798703759512,0 -123.8231072201176,45.56779698334689,0 -123.8231810413552,45.56764642285834,0 -123.8232121758024,45.56758292293561,0 -123.8232856791778,45.56743301093958,0 -123.8233534782121,45.56727494185608,0 -123.8231561693025,45.56733283103759,0 -123.8228866149856,45.56741966114757,0 -123.8227108940265,45.5674975248788,0 -123.8226002182456,45.5674802379448,0 -123.8225164741082,45.56741453747981,0 -123.8225042054177,45.56733536891107,0 -123.8226003200934,45.56723297037681,0 -123.8228816201159,45.56711945733435,0 -123.8232075857272,45.56702043653829,0 -123.8233751665669,45.56697271220911,0 -123.8235845998585,45.56690020574003,0 -123.8236898601691,45.56676710527727,0 -123.8237212329489,45.56672743465949,0 -123.823787387962,45.56669277250963,0 -123.8239499168779,45.56660761330776,0 -123.8241278546588,45.56650454493271,0 -123.82427507815,45.56644131332745,0 -123.8244235341547,45.56640357710446,0 -123.8246412027567,45.5663771450226,0 -123.8247317039423,45.56637017650443,0 -123.8247493044562,45.56636882168442,0 -123.8248857256549,45.56635831801231,0 -123.8251912349586,45.56639434516303,0 -123.8254344966599,45.56648023797532,0 -123.8256694451857,45.56655146014413,0 -123.8258008269372,45.56657980972234,0 -123.8258880961027,45.56657439473175,0 -123.8261439445027,45.56639213933361,0 -123.8263160221166,45.5662475286866,0 -123.8264800522387,45.56611041626931,0 -123.8266322718001,45.56598572771947,0 -123.8267876735692,45.56585507973961,0 -123.8269247126047,45.56573587879658,0 -123.8270368164995,45.565626903395,0 -123.8271265352438,45.56554541985891,0 -123.8272387646451,45.5654590152775,0 -123.8274393012711,45.5653599428438,0 -123.8277582444814,45.56527899349605,0 -123.8278913653397,45.56524502640891,0 -123.8280642723538,45.56517336599425,0 -123.8281580103635,45.56507524466757,0 -123.8282265326592,45.56495242269183,0 -123.8282720339775,45.56476850915266,0 -123.8283285469574,45.5645400793524,0 -123.8283685638432,45.56438097732393,0 -123.8284226328953,45.56416775175822,0 -123.8284878472644,45.5639105831994,0 -123.8285635107506,45.56361504382312,0 -123.8286508143189,45.56341227479787,0 -123.828738046577,45.56321010118558,0 -123.8288055102353,45.56307382092752,0 -123.8288278224295,45.56303803286745,0 -123.8284648943538,45.56304396274209,0 -123.828177020077,45.56309162977966,0 -123.8279472438844,45.56312967592475,0 -123.827745580783,45.56318120129198,0 -123.8274816309932,45.56324950904034,0 -123.8272945094803,45.56327866686517,0 -123.8271813503596,45.56324048119867,0 -123.827123020956,45.56313493418163,0 -123.8271877385492,45.56304030193191,0 -123.8273555546485,45.56298982110062,0 -123.8276737638263,45.56290324350974,0 -123.828014564842,45.56283667263033,0 -123.8283831809653,45.56277563629269,0 -123.8287582916957,45.56275582057435,0 -123.8289983729198,45.56278142906601,0 -123.8291902249538,45.5627367378939,0 -123.8294996049122,45.56265904033517,0 -123.8298243079504,45.56263180574223,0 -123.8300063803533,45.5626199957835,0 -123.8301247270538,45.56261231929229,0 -123.8303911576717,45.56258913937787,0 -123.8305403505553,45.56254645904139,0 -123.8306335312052,45.56249857367053,0 -123.8307432186404,45.56239574815702,0 -123.8308807931909,45.56226819632024,0 -123.831095001694,45.56216942030769,0 -123.8311848441911,45.56209092548245,0 -123.8310239461407,45.56198828338581,0 -123.830821034832,45.56180748715051,0 -123.8306181721641,45.5614332152111,0 -123.8304932327865,45.56126147890094,0 -123.8303711509538,45.56106290843076,0 -123.8302692631754,45.56075379488703,0 -123.8301331287757,45.56035010758691,0 -123.8300336069809,45.56020566625033,0 -123.8298395803989,45.56010541442902,0 -123.8297094413641,45.55998423703483,0 -123.8296912398361,45.55994923001316,0 -123.8296028557457,45.55977917949225,0 -123.8295900207448,45.55961002041092,0 -123.8295900030675,45.55960037410512,0 -123.8292026145546,45.55980287356335,0 -123.8291561091703,45.55982198375172,0 -123.8287657556258,45.55977056179867,0 -123.828367688337,45.55969396988544,0 -123.8280368825262,45.55963881920475,0 -123.8276540780467,45.55962446989327,0 -123.8272440760306,45.55965881846959,0 -123.8266639650091,45.55959892975019,0 -123.8261397262589,45.55951754632923,0 -123.8256383338202,45.55939251755822,0 -123.8253063526187,45.55930491594635,0 -123.8249549302769,45.55918495545145,0 -123.8245602431851,45.5590196105139,0 -123.8242633059971,45.55894244615155,0 -123.8239647967561,45.55887724306244,0 -123.8239310244227,45.55887358920995,0 -123.8239334124261,45.55887198689864,0 -123.8238821149937,45.55886285358022,0 -123.8236213712103,45.55894344368739,0 -123.8234041300965,45.5590158085899,0 -123.8230051989073,45.55914869395205,0 -123.8224917282332,45.55929400957361,0 -123.8218663050906,45.55935534656214,0 -123.8214440531001,45.55936496904086,0 -123.820843128816,45.5593695948988,0 -123.8205467027495,45.55933709125934,0 -123.8201587214406,45.56128451094723,0 -123.8148663649531,45.56113735813228,0 -123.8149816439842,45.56130043412689,0 -123.8150058110738,45.56133990864737,0 -123.8150992080427,45.5614924626903,0 -123.8151358406186,45.56158399504012,0 -123.8154882843638,45.56200227234343,0 -123.8155845335113,45.56208430918861,0 -123.8159338668548,45.56225077698414,0 -123.8161380763923,45.56232512860695,0 -123.8162789544324,45.56247986180331,0 -123.8163148552434,45.56256755366114,0 -123.8163644591125,45.56259027424419,0 -123.8167458097934,45.56285275160688,0 -123.817343866006,45.56318077113319,0 -123.8173692212629,45.56322302299953,0 -123.8176486857429,45.56315736155626,0 -123.8176543431914,45.56354733664342,0 -123.8177408352678,45.56390602776726,0 -123.8176465160808,45.56413488588425,0 -123.8175945404028,45.56419515002672,0 -123.8173725992986,45.56477787134489,0 -123.8172458669791,45.56501654984402,0 -123.8168586028202,45.56532165963013,0 -123.8166288371687,45.56557152445893,0 -123.8164170157318,45.56585301889508,0 -123.8162681638535,45.56603781206369,0 -123.8158470287336,45.56631099072105,0 -123.8157221651335,45.56637781782484,0 -123.8156441790622,45.56645615275706,0 -123.815641364533,45.56648191954098,0 -123.8157346088208,45.56668063309832,0 -123.8157112844517,45.56689266989589,0 -123.8155558981693,45.56715944888688,0 -123.8153718396187,45.5675160557317,0 -123.8152755648388,45.56773127741878,0 -123.8149722761369,45.56805727854054,0 -123.8148079028468,45.56838127535441,0 -123.8147900188603,45.56853696621619,0 -123.8148620896392,45.56874967571904,0 -123.8149369442152,45.56880170632837,0 -123.8153275472842,45.56921757372574,0 -123.8153299325346,45.56922279071486,0 -123.8155173226843,45.56939072673288,0 -123.8157040441017,45.56970916274726,0 -123.8157474523971,45.56981455919971,0 -123.8157935638838,45.570083644573,0 -123.8158696756209,45.57022993136616,0 -123.8159645175304,45.57048531374506,0 -123.8159573269173,45.57090697296069,0 -123.8159610207215,45.57094016220121,0 -123.8162000406462,45.57106319730151,0 -123.8163565893022,45.57142209319613,0 -123.8166000025626,45.57175813354559,0 -123.8166390669135,45.57211332869579,0 -123.816664020008,45.57247348345814,0 -123.8166602951412,45.57255890651724,0 -123.8167468390575,45.57277547470741,0 -123.8170042922105,45.57289676060195,0 -123.8171525936297,45.57294097412482,0 -123.817402434223,45.57299087864598,0 -123.8179724845403,45.57306886771569,0 -123.8185189954234,45.57318523471718,0 -123.8189716590151,45.57333984050813,0 -123.8190985147453,45.5733769009141,0 -123.8191819560464,45.57340127793091,0 -123.819175427305,45.57339048550354,0 -123.819091297425,45.57330890212983,0 -123.8190868258283,45.57330590714507,0 -123.8188712011221,45.57322357782698,0 -123.8187554699313,45.57319344743903,0 -123.8185699883062,45.57303045112379,0 -123.8184942912787,45.57292907116737,0 -123.8185449360211,45.57289537206101,0 -123.8186540453435,45.57281593278874,0 -123.818730672638,45.57280527182868,0 -123.8189184700255,45.57270488993552,0 -123.8191574932543,45.57255462118503,0 -123.8193940180526,45.57248776986945,0 -123.8195744300144,45.57239004476924,0 -123.8197180014848,45.57231082796253,0 -123.8198800120466,45.57222366032737,0 -123.8199469983525,45.57212882882917,0 -123.8202373105103,45.57204126621394,0 -123.8206053959159,45.57183533677768,0 -123.8207701266107,45.57168038670792,0 -123.820784202081,45.57166972636661,0 -123.8209256689843,45.57156258131175,0 -123.8211417058851,45.57165487156172,0 -123.8212357488422,45.57182566528706,0 -123.8213990762213,45.57186117108429,0 -123.8213855645991,45.57202111049079,0 -123.821410058881,45.57208512346481,0 -123.8214129837087,45.5723530903493,0 -123.8213416542478,45.57257746716763,0 -123.8213712094614,45.57274396197297,0 -123.8214415898673,45.57291968899057,0 -123.8215035932802,45.57297011065933,0 -123.8216840746733,45.57304110257837,0 -123.8218226273797,45.57310169004138,0 -123.821814310227,45.5732985557506,0 -123.8218205895097,45.57355068001449,0 -123.8219185865714,45.57380467545548,0 -123.8220184573978,45.57402505195107,0 -123.8218519075902,45.57408012605455,0 -123.8215281340492,45.57409484858971,0 -123.8211804951535,45.57411989494228,0 -123.8211123591839,45.57453238192268,0 -123.8211407212208,45.57461936027637,0 -123.821380756651,45.57510126279122,0 -123.8217076298532,45.57555754156951,0 -123.8218085928098,45.57577732435919,0 
							</coordinates>
						</LinearRing>
					</outerBoundaryIs>
					<innerBoundaryIs>
						<LinearRing>
							<coordinates>
								-123.8272395702404,45.56381148237954,0 -123.8268656021191,45.5641563542038,0 -123.8265581636999,45.56443627066636,0 -123.8260415521232,45.56468521071998,0 -123.8257286830134,45.56484928107712,0 -123.8253847710162,45.56517212477256,0 -123.8251965479038,45.56509321150672,0 -123.8248436707944,45.56494417079632,0 -123.8246535616861,45.56485711620054,0 -123.8245429448677,45.56478792616177,0 -123.8245497282406,45.56478569624233,0 -123.8247220096016,45.56472905735028,0 -123.8248840774787,45.56466392205337,0 -123.8250818919033,45.56456884376693,0 -123.8253241873002,45.56444509225151,0 -123.8254919954853,45.56434861615963,0 -123.8256538878487,45.56426315036033,0 -123.8258957581522,45.56415122717885,0 -123.8260460130526,45.5640816976126,0 -123.8262521751889,45.56399479288369,0 -123.8264518883839,45.56391137104144,0 -123.8266329247984,45.56381959781625,0 -123.8268143955223,45.56370925288907,0 -123.8269350268034,45.56362067881622,0 -123.8270745593871,45.56366384217354,0 -123.8272749519596,45.56369033571429,0 -123.8274244745006,45.56368581252903,0 -123.8272395702404,45.56381148237954,0 
							</coordinates>
						</LinearRing>
					</innerBoundaryIs>
				</Polygon>
			</MultiGeometry>
		</Placemark>
	</Folder>
</Document>
</kml>
