<?xml version="1.0" encoding="UTF-8"?>
<kml xmlns="http://www.opengis.net/kml/2.2" xmlns:gx="http://www.google.com/kml/ext/2.2" xmlns:kml="http://www.opengis.net/kml/2.2" xmlns:atom="http://www.w3.org/2005/Atom">
<Document>
	<name>New polygon Chinchina.kml</name>
	<Style id="s_ylw-pushpin_hl">
		<IconStyle>
			<scale>1.3</scale>
			<Icon>
				<href>http://maps.google.com/mapfiles/kml/pushpin/ylw-pushpin.png</href>
			</Icon>
			<hotSpot x="20" y="2" xunits="pixels" yunits="pixels"/>
		</IconStyle>
	</Style>
	<Style id="s_ylw-pushpin">
		<IconStyle>
			<scale>1.1</scale>
			<Icon>
				<href>http://maps.google.com/mapfiles/kml/pushpin/ylw-pushpin.png</href>
			</Icon>
			<hotSpot x="20" y="2" xunits="pixels" yunits="pixels"/>
		</IconStyle>
	</Style>
	<StyleMap id="m_ylw-pushpin">
		<Pair>
			<key>normal</key>
			<styleUrl>#s_ylw-pushpin</styleUrl>
		</Pair>
		<Pair>
			<key>highlight</key>
			<styleUrl>#s_ylw-pushpin_hl</styleUrl>
		</Pair>
	</StyleMap>
	<Placemark>
		<name>New polygon Chinchina</name>
		<styleUrl>#m_ylw-pushpin</styleUrl>
		<Polygon>
			<tessellate>1</tessellate>
			<outerBoundaryIs>
				<LinearRing>
					<coordinates>
						-75.44717428412875,5.198490577053316,0 -75.45567352376352,5.196455268894624,0 -75.46969969422996,5.194874244184971,0 -75.49778239896727,5.191706149189713,0 -75.52842596882944,5.191481305095722,0 -75.54826593998877,5.187618605932116,0 -75.5623535664017,5.18602561742146,0 -75.57367743116109,5.184204233026478,0 -75.58500882898885,5.182381464167071,0 -75.62099841108295,5.18257824846181,0 -75.67396476547208,5.178658756721481,0 -75.68565562803761,5.171361965665185,0 -75.68655974457045,5.16043353717435,0 -75.68999116174612,5.152461483246101,0 -75.70236181295923,5.136964309885039,0 -75.70737535730414,5.109863141534992,0 -75.71148677424343,5.093690734702198,0 -75.71744904505056,5.088671311549046,0 -75.72386562914818,5.078185292534335,0 -75.72545499484401,5.059053354356235,0 -75.7263632291987,5.048120422175675,0 -75.69121781014304,5.004017636903592,0 -75.62648542857406,4.979682762906855,0 -75.6280095639531,4.96059832096911,0 -75.617494939248,4.918639245514121,0 -75.53879761852915,4.893622331381493,0 -75.54008127725544,4.877339066492826,0 -75.52159671465041,4.86509287939524,0 -75.51012638242429,4.869717530773231,0 -75.47829258254168,4.886484082089976,0 -75.44397069801593,4.900315121070158,0 -75.39815670611655,4.921347653236516,0 -75.384529744121,4.920242935346722,0 -75.36000568849806,4.918254144505291,0 -75.34388464957564,4.91421677789516,0 -75.34321016059775,4.922350209851673,0 -75.34709624010027,4.941758982158579,0 -75.34664969371187,4.947178568701034,0 -75.33735898031981,4.96006385628133,0 -75.33601852416498,4.97632456954816,0 -75.3333367845302,5.008851581181653,0 -75.33200617338622,5.025110029323374,0 -75.3281942440244,5.038423337003108,0 -75.32710277214108,5.051968003640633,0 -75.32328793757384,5.065292381923454,0 -75.31793942666614,5.097609245891512,0 -75.31770659189326,5.100327379131544,0 -75.32221920214614,5.111648963707624,0 -75.33147270211931,5.131562285725055,0 -75.33551262889031,5.14829750639833,0 -75.34841125079876,5.157558683012004,0 -75.35361601876181,5.160719460630718,0 -75.39541618402178,5.186006643803372,0 -75.44717428412875,5.198490577053316,0 
					</coordinates>
				</LinearRing>
			</outerBoundaryIs>
		</Polygon>
	</Placemark>
</Document>
</kml>
