<?xml version="1.0" encoding="utf-8" ?>
<kml xmlns="http://www.opengis.net/kml/2.2">
<Document id="root_doc">
<Schema name="ChyuluRestoration" id="ChyuluRestoration">
	<SimpleField name="Id" type="int"></SimpleField>
	<SimpleField name="Hectares" type="float"></SimpleField>
	<SimpleField name="Shape_Leng" type="float"></SimpleField>
	<SimpleField name="Shape_Area" type="float"></SimpleField>
</Schema>
<Folder><name>ChyuluRestoration</name>
  <Placemark>
	<Style><LineStyle><color>ff0000ff</color></LineStyle><PolyStyle><fill>0</fill></PolyStyle></Style>
	<ExtendedData><SchemaData schemaUrl="#ChyuluRestoration">
		<SimpleData name="Id">0</SimpleData>
		<SimpleData name="Hectares">410533.83834299998</SimpleData>
		<SimpleData name="Shape_Leng">361980.53209499997</SimpleData>
		<SimpleData name="Shape_Area">4105338383.19999980927</SimpleData>
	</SchemaData></ExtendedData>
      <MultiGeometry><Polygon><outerBoundaryIs><LinearRing><coordinates>37.6725152539407,-2.2950380705769,0 37.69299473558,-2.31211995153288,0 37.7093281837004,-2.3257384520465,0 37.7123263749322,-2.32823759075885,0 37.7452196346682,-2.35566467871794,0 37.7628248198012,-2.37034252496777,0 37.8020835163801,-2.40307553473535,0 37.8046549556176,-2.40521246221229,0 37.8498663359367,-2.41988270967451,0 37.850920935527,-2.42022488860121,0 37.874294570071,-2.42780855963282,0 37.87855531914,-2.43397643988519,0 37.8807458640279,-2.43251107395243,0 37.8841788239359,-2.4299448508514,0 37.8886706822748,-2.42663597368102,0 37.8924554096202,-2.4239204264137,0 37.8972580482,-2.42033089968112,0 37.9025732444352,-2.41625239698681,0 37.9070668350471,-2.41293574916413,0 37.9101810623735,-2.41065269694087,0 37.9139670949393,-2.40787711602667,0 37.9156391402961,-2.40659412788134,0 37.9179367470777,-2.40483112636531,0 37.9218043413774,-2.40187884103725,0 37.9242255847464,-2.40020165789202,0 37.9260521832041,-2.39867101429344,0 37.9263512483164,-2.39767492512718,0 37.9267081522858,-2.39714135192427,0 37.9277723161794,-2.39701683771442,0 37.9290788026609,-2.39706116327687,0 37.9313935216956,-2.39729642623711,0 37.9333450510275,-2.39750357420683,0 37.942705775761,-2.39851699682143,0 37.943931558644,-2.3989015476564,0 37.9446652317097,-2.3996655287647,0 37.9456615800496,-2.40126869183239,0 37.9464436386382,-2.40220187804124,0 37.9473823387201,-2.40267723564068,0 37.9479937410736,-2.40271405270881,0 37.9508598632397,-2.40423852773998,0 37.954922005149,-2.40682433839956,0 37.9597831460817,-2.40993556995235,0 37.9624461352891,-2.41163444432587,0 37.9636482589546,-2.41244663232677,0 37.964281001066,-2.41349472295294,0 37.9643330258871,-2.41492008989241,0 37.9645539630097,-2.41651941334777,0 37.9650570052402,-2.41752011442968,0 37.9659920783517,-2.41846287172048,0 37.9682249390234,-2.41908256407296,0 37.9698623894185,-2.41878211524537,0 37.9696876080133,-2.42019081280521,0 37.9732407438805,-2.42288207716509,0 37.9731686462904,-2.42493724455192,0 37.9731353776748,-2.42735934469455,0 37.9655727582636,-2.43244419407672,0 37.9626317631432,-2.43507150165633,0 37.9607887658372,-2.43695292772687,0 37.9619269566184,-2.44225841300851,0 37.9635704479156,-2.44896483443849,0 37.9639559277514,-2.45068183923426,0 37.9597362093466,-2.45391365193669,0 37.9567012684469,-2.45638889937991,0 37.9526778206132,-2.45944354322986,0 37.9498763196972,-2.46159663468511,0 37.9473089081677,-2.46365282293717,0 37.943870411112,-2.46634838867884,0 37.9421555568415,-2.46765044212009,0 37.9414190760496,-2.49342344289313,0 37.9388387695381,-2.4967025678586,0 37.9368307500811,-2.49925439332699,0 37.9356772765296,-2.50072023927081,0 37.9274047392801,-2.5112328999085,0 37.9125123721967,-2.53015722637289,0 37.952318062821,-2.59908718377455,0 37.9733409432729,-2.63548955733649,0 37.9981484740353,-2.64957786918994,0 38.0067111500973,-2.66365284858946,0 38.0112049049038,-2.68725452969087,0 37.9994573773872,-2.70494339187475,0 37.9989975320947,-2.71538056636456,0 38.0255940146024,-2.75170720723553,0 38.0267681594756,-2.75357577848119,0 38.0307106173051,-2.75984989395859,0 38.0531482166526,-2.74841796256505,0 38.0560892230341,-2.75140087206698,0 38.0585363596973,-2.75368394067593,0 38.0598420790917,-2.75858653174833,0 38.0621283256672,-2.76365241897798,0 38.0608294523987,-2.76807226296215,0 38.0601690900558,-2.77215718301494,0 38.0621206027853,-2.77738652516489,0 38.0650716745625,-2.78163947544987,0 38.0670398763137,-2.783765700939,0 38.0665526558808,-2.78768949455897,0 38.0644257808505,-2.79128569937694,0 38.0639310769835,-2.79439254188143,0 38.0631079259301,-2.79815425065055,0 38.0655555742659,-2.80322717493067,0 38.0655470871398,-2.80748448897017,0 38.066665307314,-2.81175958734317,0 38.0659988417414,-2.81831805657133,0 38.0648442327571,-2.82569440742571,0 38.0640192837409,-2.83104850625986,0 38.0673044956604,-2.83449565417211,0 38.0677886458457,-2.83874575881802,0 38.0685994271067,-2.84414327573012,0 38.067111827999,-2.85019842693586,0 38.066283160663,-2.85543938477186,0 38.0646305412686,-2.86018941019215,0 38.0634621054084,-2.8649399239216,0 38.0631140777641,-2.87002366021502,0 38.062447612765,-2.87511282022438,0 38.0596324172205,-2.88020505978205,0 38.0561578367756,-2.88513740583091,0 38.0535112837557,-2.88957864907948,0 38.0528498613904,-2.89138796227996,0 38.0503579052758,-2.89550672218817,0 38.0488630451164,-2.89649843919982,0 38.0450600447674,-2.89600942990423,0 38.0430724087087,-2.898975459077,0 38.0434044178052,-2.90062044084708,0 38.0443906132185,-2.90243223523136,0 38.0455463261136,-2.90358350829417,0 38.04752923422,-2.90440388084386,0 38.0503381707008,-2.90522266119768,0 38.0520152846339,-2.90520500528059,0 38.0533067531666,-2.90522121998383,0 38.054796691729,-2.90538131328178,0 38.0562858711286,-2.90570603407218,0 38.0576168385956,-2.90586134815785,0 38.0589599290982,-2.9061714193337,0 38.0601456748631,-2.90647442209568,0 38.0611389856113,-2.90811075176736,0 38.0624534378659,-2.90860384814918,0 38.064107739639,-2.90990741288316,0 38.0652713996598,-2.91202713781476,0 38.0647862966969,-2.91595529409315,0 38.0637891526059,-2.91924911305642,0 38.0624567185609,-2.92353709410043,0 38.0611315607095,-2.92551946265502,0 38.0616190836477,-2.92784773457153,0 38.0637605820503,-2.93064482972542,0 38.0652394141701,-2.93491361130228,0 38.0652324293163,-2.93917598473198,0 38.0648956673715,-2.94327488801158,0 38.0640748290857,-2.9483685034067,0 38.0603938721339,-2.95326119864347,0 38.0577217096344,-2.95851097211659,0 38.0575806497277,-2.96378637631258,0 38.0552418385619,-2.9690474600422,0 38.0525653729987,-2.97316217302741,0 38.052226654838,-2.97810661894088,0 38.0518100963717,-2.98405591497815,0 38.0517323898597,-2.98836991269139,0 38.0518791530722,-2.99218023428636,0 38.0522002083752,-2.99549340139746,0 38.0521913046312,-2.99814520559691,0 38.0521807312968,-3.0012954557926,0 38.051989504268,-3.00511850242948,0 38.0519634619383,-3.00894593238855,0 38.0517637486585,-3.01311498574688,0 38.0517348572564,-3.01645592444347,0 38.0517191759188,-3.01978857673219,0 38.0512358343104,-3.02259511957707,0 38.0490970306315,-3.02439935231319,0 38.0471163012482,-3.0243876291658,0 38.0451343454035,-3.02487513918095,0 38.0423032018514,-3.02504809077309,0 38.04113698742,-3.02521703173353,0 38.0391085390138,-3.02606549455232,0 38.0374140290025,-3.02394996291246,0 38.0350835069595,-3.02247083596128,0 38.0321226796655,-3.02118252692519,0 38.0310648169005,-3.02350385826382,0 38.0287388946757,-3.02412725063421,0 38.0255628861068,-3.02455066582255,0 38.02302115632,-3.02349637219223,0 38.021113499913,-3.02096394794532,0 38.0187839187071,-3.01906173772023,0 38.016457645721,-3.01736566482206,0 38.013073177178,-3.01672673315766,0 38.0101258349714,-3.01459352834511,0 38.00547982185,-3.01500579239935,0 38.0033689942275,-3.01584566837935,0 38.0014692821717,-3.01647507156972,0 37.9993593806372,-3.01731458762216,0 37.9957684699899,-3.0173102205935,0 37.990179088605,-3.0145732090957,0 37.9880641772203,-3.01119255193483,0 37.9857352310258,-3.00907523218668,0 37.9838282955946,-3.00737820743673,0 37.9819225027841,-3.0058936851099,0 37.9808618943021,-3.00335230413964,0 37.978534923744,-3.00186890825739,0 37.9759973310951,-2.99996301402238,0 37.9721948278619,-2.99953856725708,0 37.9675485926391,-2.99912244026323,0 37.9648028406085,-2.99679664508429,0 37.963113955597,-2.99468374480253,0 37.9622699894342,-2.99299429338428,0 37.9622713998685,-2.98961763376581,0 37.9603721244453,-2.98856152840474,0 37.9582615841286,-2.98856024883186,0 37.9555191568148,-2.98687171069512,0 37.9531983711602,-2.98687041342255,0 37.9510885984487,-2.98729085340824,0 37.9487690857075,-2.98623554656889,0 37.9462395800327,-2.98433738192388,0 37.9443428427834,-2.98222934862958,0 37.9428678444333,-2.98054316692752,0 37.9399162106264,-2.97969951679681,0 37.9371786548687,-2.97653877369251,0 37.9346500508415,-2.97590625005936,0 37.9325440563724,-2.97464210566919,0 37.9304381453039,-2.97358873886208,0 37.9281215771501,-2.97274603773046,0 37.9241219662335,-2.97106113440844,0 37.9222377014185,-2.96748366808514,0 37.9214021227589,-2.96495927696956,0 37.9195144119683,-2.96180442307197,0 37.9182590121581,-2.95822991218295,0 37.9165787863143,-2.95717934688852,0 37.9157434398039,-2.95423683287233,0 37.9138484505549,-2.95234337501063,0 37.9138474800672,-2.94960827026533,0 37.9130033493607,-2.94603092083024,0 37.9117460394298,-2.94287878534388,0 37.9111225064333,-2.93909757036124,0 37.9092356436466,-2.93678903498083,0 37.9069312446119,-2.93343172063648,0 37.9056739260193,-2.93196359020688,0 37.9042076926998,-2.93007619708338,0 37.9025342603024,-2.92777091710146,0 37.9006529778423,-2.92672878394996,0 37.9001046312827,-2.92604245250361,0 37.8913202231533,-2.9220763120344,0 37.8766171145615,-3.04200885075582,0 37.8759150003703,-3.04198800013658,0 37.8750210000529,-3.04121599991063,0 37.8717889998338,-3.07815200015857,0 37.8719199995925,-3.07923200038231,0 37.8716529997396,-3.08115200010532,0 37.8675270004264,-3.08190000028328,0 37.8644069998846,-3.08174599973425,0 37.8628030002758,-3.08152900010588,0 37.8602169998722,-3.08172000039961,0 37.857844999674,-3.08137399999812,0 37.8564550001494,-3.08171600028698,0 37.8549129999322,-3.08263799969586,0 37.8549719943583,-3.16612276310759,0 37.8549735062843,-3.16830714049571,0 37.852013000251,-3.17177400010965,0 37.8529989999657,-3.17424199998227,0 37.8531869999306,-3.17728999962822,0 37.8506190000046,-3.17856999961253,0 37.8493070002092,-3.17943900005937,0 37.847196000092,-3.18083200021248,0 37.8431939996015,-3.1820600000541,0 37.8396589997596,-3.18455300022887,0 37.8381209998441,-3.18600000039484,0 37.8357760001375,-3.18664499989978,0 37.8330120004265,-3.18378300042703,0 37.8300140001885,-3.18000100021172,0 37.8275960001705,-3.17736899997034,0 37.8230019996893,-3.17492000040856,0 37.8193300000779,-3.17338600019718,0 37.8169669997555,-3.17075299972245,0 37.8140290003064,-3.16719599998699,0 37.8081320002452,-3.16719000013549,0 37.8075970001104,-3.16718900013871,0 37.8042920001402,-3.16656200018786,0 37.8025480003339,-3.16718300034185,0 37.8005199996114,-3.1679050000166,0 37.7965199995731,-3.16919199961231,0 37.7926419996622,-3.17203099962582,0 37.7886830001531,-3.17032700038067,0 37.7850320003742,-3.17066200022104,0 37.7400350002182,-3.17478799995841,0 37.7004019995818,-3.17842000030179,0 37.6968389996503,-3.17874600041935,0 37.6962330509569,-3.17882342689982,0 37.6960070003131,-3.17750500042751,0 37.6828309996807,-3.10071800030831,0 37.6797721493166,-3.08289624586727,0 37.6753200004124,-3.05695699968894,0 37.6647609997717,-3.04801600002537,0 37.6494160826491,-3.03709155199424,0 37.6549139997624,-3.03467800029487,0 37.6630670000507,-3.03164400005096,0 37.6692179996713,-3.02836399984872,0 37.6688490001319,-3.02422599982461,0 37.6706499998242,-3.02090900042096,0 37.6735940002035,-3.01783199982014,0 37.6763109999277,-3.01429299986367,0 37.6785040001729,-3.01207199959185,0 37.6862199999376,-3.00644900005439,0 37.6905939999038,-3.00332699999709,0 37.6943890001101,-3.00123400044165,0 37.6988990003949,-2.99546899971583,0 37.6958690000964,-2.99492700033878,0 37.6909140002601,-2.99155299970122,0 37.6824559999824,-2.99699700031139,0 37.6786200000598,-2.99702199996992,0 37.6750339995776,-2.99429200031344,0 37.6742559996923,-2.99118299973976,0 37.6735459997751,-2.98675399969701,0 37.6704889996306,-2.97472299979198,0 37.6711579998648,-2.96220599955017,0 37.670494071521,-2.9601180851402,0 37.670206675497,-2.96037241934638,0 37.6698520506447,-2.96035501327463,0 37.6694977103392,-2.96009990554532,0 37.669227505842,-2.96009957968661,0 37.6689233831805,-2.96021806376267,0 37.6686866492232,-2.96047245852195,0 37.6686861221616,-2.96091390255652,0 37.6687362591378,-2.96135540864716,0 37.6687186211185,-2.96198359812202,0 37.6684649582569,-2.9622719284294,0 37.6682453760175,-2.96230562126599,0 37.6680598127854,-2.96213561053943,0 37.6679759615827,-2.961643128108,0 37.6680102442354,-2.9612187026344,0 37.6679430584457,-2.96091300549175,0 37.6677069539675,-2.96064106240786,0 37.6673185134102,-2.96065757178518,0 37.6669468803268,-2.96074201556896,0 37.6666596452172,-2.96086051923787,0 37.6666087790147,-2.96103024422955,0 37.6663552786399,-2.96118274566054,0 37.6659837876499,-2.96114833930852,0 37.6657978186728,-2.96131790079017,0 37.6655441759121,-2.96158925162922,0 37.6578893783642,-2.93429322291948,0 37.6561885839418,-2.9309575008305,0 37.6479920368503,-2.92992109870422,0 37.6443196283112,-2.93090144320339,0 37.6434614658249,-2.93105666853182,0 37.6431318787539,-2.93111877582698,0 37.6425597010593,-2.93128060012878,0 37.6420870801911,-2.93137378616359,0 37.6417139124614,-2.93148584614505,0 37.6414128591484,-2.93155945246047,0 37.6413872924233,-2.93156570361186,0 37.6397072051442,-2.93203687917171,0 37.6379263570439,-2.93244043179915,0 37.6367958368111,-2.93276255994946,0 37.6361088102319,-2.9330131777849,0 37.6359408735938,-2.93307274542159,0 37.6353286804198,-2.93322670248053,0 37.6340203376821,-2.93355560864296,0 37.6336320202791,-2.93366413010551,0 37.6333302793104,-2.9337630873095,0 37.6328208715905,-2.93391389020007,0 37.6311112079132,-2.93434138339216,0 37.6309449833044,-2.9343889121376,0 37.6283631836469,-2.93488167925743,0 37.6241559979583,-2.9359803252438,0 37.6225339306983,-2.93641985375887,0 37.6212580804594,-2.93668178303086,0 37.619985502008,-2.93694303899547,0 37.6184249586059,-2.93732943251072,0 37.6171197772735,-2.93762075113499,0 37.6137999041678,-2.93827891726764,0 37.6092416599787,-2.93642642606,0 37.6068319207132,-2.93537787882424,0 37.6060437635701,-2.93499177139477,0 37.6046918994826,-2.93441449759778,0 37.6044297947002,-2.93430257388654,0 37.6027631779482,-2.93367371903906,0 37.6022601525917,-2.93351450885386,0 37.6016221495695,-2.93318144709468,0 37.6009465643179,-2.93287099228274,0 37.6002559303226,-2.9325831726675,0 37.5998054819162,-2.93242402785176,0 37.5983565912824,-2.93187095672467,0 37.5980487723633,-2.93177240183496,0 37.5979436503282,-2.931749615211,0 37.5980006494739,-2.93148854541742,0 37.5980406434372,-2.93100671022796,0 37.5981199409855,-2.93059753713698,0 37.59814639294,-2.93044574357039,0 37.5981732217882,-2.92999029678517,0 37.5984118600316,-2.9281620712409,0 37.5985043780429,-2.92768030185807,0 37.5985115674862,-2.92717862169954,0 37.5985386670223,-2.92650533611686,0 37.5985194866782,-2.92608943758583,0 37.5985855771778,-2.92573965823307,0 37.5986454631919,-2.92509941935465,0 37.5986785870896,-2.92486181927245,0 37.5986526765919,-2.92457793561866,0 37.5986529470107,-2.92436009784896,0 37.5987518085848,-2.92405656719807,0 37.5987850297284,-2.92373975301285,0 37.5988584636033,-2.92276287065472,0 37.598852267034,-2.92246580964984,0 37.5988919883301,-2.92220181272962,0 37.599004315927,-2.92162765148482,0 37.59899806918,-2.92137019749798,0 37.5989592482435,-2.92090806660715,0 37.598879160872,-2.92024826004287,0 37.5987222854611,-2.91968366235232,0 37.5985456089384,-2.91920320588781,0 37.598481900956,-2.91895558174178,0 37.5983839320957,-2.91853958544962,0 37.598236936774,-2.91795024585021,0 37.5981386919043,-2.91775703824185,0 37.5977652928951,-2.91707830012888,0 37.5975295631565,-2.91656806461437,0 37.597396885873,-2.91634510862151,0 37.5971707418395,-2.91604777230126,0 37.5970625567954,-2.91592881647497,0 37.5969691443541,-2.91580987824956,0 37.5969360212356,-2.91578983967308,0 37.5967969264429,-2.91570569395513,0 37.5967084382391,-2.91558676189857,0 37.5966445710071,-2.91546786068901,0 37.596506883245,-2.9153154489902,0 37.5964369247827,-2.91514455588598,0 37.5963409997391,-2.91506645975534,0 37.5962745830225,-2.9150181049847,0 37.5962488327343,-2.91493638316211,0 37.5961824436425,-2.91486575036052,0 37.5959022528831,-2.91447180416988,0 37.5956995035492,-2.91417078451703,0 37.5956222058743,-2.91396275064757,0 37.5955448336685,-2.91381412726406,0 37.5955228175366,-2.91369899214691,0 37.5954269617112,-2.91356519825227,0 37.5953974994804,-2.91349832444469,0 37.5954014692192,-2.91327554069205,0 37.5954164166417,-2.91313445931929,0 37.5954239087569,-2.91304906556055,0 37.5953613827495,-2.91284105114053,0 37.595324580275,-2.91273703654109,0 37.5952805249893,-2.91252533075398,0 37.5951959009297,-2.91226901713253,0 37.5951001142187,-2.91207952642119,0 37.5948386249596,-2.91149623319334,0 37.5946874464768,-2.91130295950706,0 37.5944919174161,-2.911135622828,0 37.5941081922968,-2.91084551563808,0 37.593772353252,-2.91065572414607,0 37.5935398426017,-2.91052918535529,0 37.5932852386565,-2.91035063464219,0 37.5929993545275,-2.91022867677867,0 37.5925563360546,-2.91001469185745,0 37.5922758071583,-2.91001384709399,0 37.5920560029064,-2.91005928328392,0 37.5918513723545,-2.91008950055241,0 37.5915784493524,-2.91019581889622,0 37.5914038823952,-2.91042415843819,0 37.5913203972698,-2.91053071445373,0 37.5910324613261,-2.91052273398299,0 37.5907899338754,-2.91056052236712,0 37.5907140445721,-2.91065185084697,0 37.590706287768,-2.91079659483878,0 37.5907288026587,-2.91097185175381,0 37.5906831101721,-2.91115464103354,0 37.590622281803,-2.91132217429062,0 37.5905083155762,-2.9115658266484,0 37.5903945396157,-2.91165710745094,0 37.590129241416,-2.91172534093164,0 37.5899700276647,-2.91179370860972,0 37.5898410684331,-2.91190782617381,0 37.5897803147835,-2.91201441052901,0 37.5897270830018,-2.91216671530543,0 37.5895375311473,-2.91225790066247,0 37.5893329856502,-2.91221955045341,0 37.5891892972851,-2.91199081127387,0 37.5890151183439,-2.91190678737281,0 37.588840750683,-2.9119751348753,0 37.5886587198053,-2.91211204138309,0 37.588561593126,-2.91218996357517,0 37.5883025479741,-2.9121344490157,0 37.5882126246746,-2.91200814843809,0 37.5877604660839,-2.91172204251839,0 37.5875356798382,-2.91142747246871,0 37.5871082832262,-2.91111001023254,0 37.5869285552601,-2.91079285899869,0 37.5869065198061,-2.91040799436377,0 37.5869890471336,-2.91019240200981,0 37.5870590169918,-2.91012098658477,0 37.5872649379859,-2.91000202172549,0 37.5872900413119,-2.90979726537886,0 37.5870426259411,-2.90959321695429,0 37.5869104022509,-2.90957532181494,0 37.586704952923,-2.90954751685174,0 37.586457679646,-2.90923028157468,0 37.5861209938629,-2.90839227114138,0 37.5857836879725,-2.90805228462558,0 37.5846360310373,-2.90755281538819,0 37.5842459508427,-2.90728160847322,0 37.5839836535713,-2.90709924388054,0 37.5835109195026,-2.90703073598471,0 37.5832405954261,-2.90714358193393,0 37.5830378739847,-2.90721123906403,0 37.582475219577,-2.9070294296196,0 37.5821827198811,-2.90687059884058,0 37.5820480807238,-2.90650822981195,0 37.5818008942807,-2.90612308178673,0 37.58141841894,-2.9058962246529,0 37.5807431054114,-2.90578218533105,0 37.5802927733961,-2.90580425444173,0 37.5798450003058,-2.90571362470833,0 37.5798872172328,-2.9055111617684,0 37.5799117536778,-2.90520997154446,0 37.5799361816949,-2.90499623319997,0 37.5800675491289,-2.90427735483386,0 37.5803404854669,-2.90240721355938,0 37.5804526009961,-2.90162515240462,0 37.5804964963829,-2.9012996943615,0 37.5805941091563,-2.9005224724812,0 37.5806477044302,-2.90016787683027,0 37.5807985855644,-2.8992984121818,0 37.5808958937279,-2.89876411058978,0 37.5810420142657,-2.89783633832374,0 37.5812367571631,-2.89666570795537,0 37.5814267402046,-2.89543676994982,0 37.5814950970837,-2.89486842225753,0 37.5815197170053,-2.89449921403033,0 37.581549296031,-2.89402798593087,0 37.5815598416431,-2.89331867149399,0 37.5815496649949,-2.8930669855297,0 37.5815490686741,-2.892742703919,0 37.5815312363207,-2.89254577612981,0 37.5813938543186,-2.89157016707997,0 37.5813729557774,-2.89141564601095,0 37.5812115157202,-2.89040365507385,0 37.5810350900401,-2.8893280295989,0 37.5808438705293,-2.88803427505982,0 37.5807990711098,-2.88771614244362,0 37.5806766408934,-2.88683143064328,0 37.5805601641716,-2.88600428432078,0 37.5804735982063,-2.88535287471203,0 37.5803182245061,-2.88430756914322,0 37.5801479439992,-2.88313501427786,0 37.5800015895944,-2.88210486762122,0 37.5798072762813,-2.88087472585545,0 37.5796787468809,-2.8800475639728,0 37.5795413111964,-2.87911436648594,0 37.5794126577604,-2.8783871721322,0 37.5793052407905,-2.87754186145725,0 37.5791230121936,-2.87628447132095,0 37.5789404730615,-2.87527851423166,0 37.5788149742083,-2.87443621010297,0 37.5787371876075,-2.87399383489983,0 37.5786864561516,-2.87359996194353,0 37.5785756812436,-2.87303334290929,0 37.5785070781617,-2.872472836322,0 37.5784443369574,-2.87204562559759,0 37.5783336630856,-2.87139721650258,0 37.578270977091,-2.87092456644413,0 37.5781933850164,-2.87032466714538,0 37.5781396137074,-2.86995199577163,0 37.5781007352526,-2.86971869119213,0 37.5780080929205,-2.86910665560551,0 37.577966344205,-2.86875823348125,0 37.5779125316245,-2.86841888490915,0 37.5779096576332,-2.86830679627665,0 37.5778677133463,-2.86811589841198,0 37.5778169515328,-2.86774625980636,0 37.5777840838842,-2.86752507942512,0 37.5777543147638,-2.86723422929081,0 37.5777124565138,-2.86697365702648,0 37.5776376482614,-2.86655854899587,0 37.5776137805763,-2.86636767283398,0 37.5775749917768,-2.86606166498708,0 37.5775211575105,-2.8657404918878,0 37.5774672774502,-2.86545566956705,0 37.5774434742056,-2.86521329620102,0 37.5774165266875,-2.865076943358,0 37.5773985921915,-2.86496180792072,0 37.5773479049632,-2.86453158360104,0 37.5771716471766,-2.86331661292492,0 37.5771329703376,-2.86291972643577,0 37.5770851907404,-2.86257432589983,0 37.5770252445265,-2.86232281889657,0 37.5769772855212,-2.8621228250521,0 37.5769176531993,-2.86161685730056,0 37.5768399517515,-2.86110480826709,0 37.5767441803013,-2.86058667795942,0 37.5767113899417,-2.86030188299029,0 37.5766455299401,-2.85995948983916,0 37.5765169128901,-2.85920200400982,0 37.5764452996426,-2.85863846449561,0 37.5764275172184,-2.85839912769439,0 37.5764216669015,-2.85825674246912,0 37.5764096908758,-2.8581961416535,0 37.5763225542781,-2.85800518770281,0 37.5762895435214,-2.8578991203588,0 37.5762987394636,-2.85777190126471,0 37.5762838396859,-2.85763859337982,0 37.5762449711167,-2.85739620049102,0 37.5762060623784,-2.85718713033976,0 37.576200365051,-2.85692054460685,0 37.5762035985985,-2.85674181989905,0 37.5761615272062,-2.85665391759704,0 37.5761315372505,-2.85654179617005,0 37.5761497368693,-2.8564418523028,0 37.5762012196599,-2.8562268359692,0 37.5762315753013,-2.85604208626127,0 37.5762287344871,-2.85590273463209,0 37.5761389212383,-2.85543914002475,0 37.5760489615922,-2.855093687198,0 37.5759380958519,-2.85459977348897,0 37.5758901077735,-2.85442401396526,0 37.575809452048,-2.85386349234776,0 37.5757198214522,-2.85325146231528,0 37.5756000209495,-2.85267271664897,0 37.5754295143991,-2.85167889361649,0 37.575399796507,-2.85134563343807,0 37.5753764919069,-2.85069733433812,0 37.5753556630532,-2.85048525697375,0 37.5752726194546,-2.84941581053361,0 37.5751295107049,-2.84819179498722,0 37.5750758905912,-2.84769492296144,0 37.5749446904929,-2.84658603623033,0 37.5748877237141,-2.84636179740159,0 37.5748762677227,-2.845877094442,0 37.5748526308541,-2.84549840252578,0 37.5748383222624,-2.84488343750401,0 37.5748002044674,-2.84402912659126,0 37.5747595098999,-2.84282038590917,0 37.5747184273831,-2.84192669071978,0 37.5746773705936,-2.84101179125061,0 37.5746267219127,-2.84054824495831,0 37.5745820728758,-2.84010591225594,0 37.5742262246096,-2.83792740377828,0 37.5741693940353,-2.83759108132353,0 37.5741155721265,-2.83725779153902,0 37.5741037740747,-2.83705178429708,0 37.5740798207202,-2.83693058291729,0 37.5740408324085,-2.83678512785042,0 37.5739899086959,-2.83654575029487,0 37.573927268528,-2.83603372100573,0 37.5738674143463,-2.83570648256839,0 37.5738286746294,-2.83535806506201,0 37.573772464352,-2.83451585055446,0 37.5737400506071,-2.83392206768033,0 37.5737403324549,-2.83369184126703,0 37.5737647605244,-2.83342529304497,0 37.5739225658796,-2.83249246365415,0 37.5740743514744,-2.83155356788971,0 37.5740988051093,-2.83126581529425,0 37.5741141206669,-2.83105984158206,0 37.5740517239425,-2.83034787880035,0 37.5739442796011,-2.82951771759829,0 37.5739026119097,-2.82909962298094,0 37.5738069114155,-2.82852090838584,0 37.5737531858611,-2.82810885676773,0 37.5736362109878,-2.82768158148579,0 37.5734384067433,-2.82683313260228,0 37.5732076330994,-2.82584529603818,0 37.5730158609555,-2.82499079695899,0 37.5728061062127,-2.82406054349294,0 37.5726204492757,-2.82313334881199,0 37.5724436555806,-2.82234854204064,0 37.5722699351575,-2.82151527084995,0 37.5720301853876,-2.82047592581011,0 37.5719645301987,-2.81996389343864,0 37.5718990522864,-2.81930645463288,0 37.5718812682724,-2.8190671183842,0 37.5718968525909,-2.81864000616742,0 37.571924424298,-2.81826440774368,0 37.5720066497924,-2.81754050639943,0 37.572076662328,-2.81694988001584,0 37.572179828689,-2.81634717598342,0 37.5722529158079,-2.81570505514948,0 37.5722954323039,-2.81542641160157,0 37.572368404748,-2.81487819822217,0 37.5724412516582,-2.81443298092015,0 37.5725901121544,-2.81341531966447,0 37.572623483488,-2.81322451549633,0 37.5727268766555,-2.81243399505771,0 37.5728149924452,-2.81181915542747,0 37.5728880298447,-2.81121641474321,0 37.5729577225657,-2.81088630622325,0 37.5730609011175,-2.81027148584115,0 37.5732398740994,-2.8092632850002,0 37.5733207292202,-2.80883793562155,0 37.573345350924,-2.8086929814143,0 37.5736389992355,-2.806964198846,0 37.5737898329749,-2.80624812230571,0 37.5739032783214,-2.80544583308929,0 37.5739249367147,-2.80525198444769,0 37.5740166784746,-2.80468124121776,0 37.5741518203071,-2.80365279063074,0 37.5741841967145,-2.80345357009097,0 37.5742326476366,-2.8032489824399,0 37.5743779397401,-2.80268369131612,0 37.5745339702432,-2.80209687063545,0 37.5747973584291,-2.80131091998402,0 37.5750124257824,-2.80062184857651,0 37.5752059782195,-2.80000814575472,0 37.575512322164,-2.79913069512384,0 37.5756199332288,-2.79872153413575,0 37.5757548754359,-2.79785464474928,0 37.5757872769358,-2.7976338813455,0 37.5757983720396,-2.79731615516236,0 37.5757934975135,-2.79691762673567,0 37.5757628761563,-2.79566278450987,0 37.5757263330588,-2.79487646674844,0 37.5756893167293,-2.79448328592924,0 37.5756845771841,-2.79397166416491,0 37.575642074666,-2.79368618430343,0 37.5755210781943,-2.79187114678749,0 37.5754999209242,-2.79165031898654,0 37.5754846832549,-2.79096096493699,0 37.5754692712343,-2.79041701854909,0 37.5754648355818,-2.7896522816776,0 37.5753905025961,-2.78911364857022,0 37.5753008672306,-2.78793951566254,0 37.5752488963549,-2.78662002255749,0 37.5752277443098,-2.78639380803095,0 37.5751966261628,-2.78554825782354,0 37.5751386192967,-2.78479422765171,0 37.5750857863954,-2.78419099481963,0 37.5750275065892,-2.78366315225973,0 37.5749551443621,-2.78279732355977,0 37.5749116794578,-2.78199663172862,0 37.5748328749587,-2.78072018877525,0 37.5747646780419,-2.77952992646412,0 37.5746594365615,-2.77796802444798,0 37.5745907810478,-2.77716012645598,0 37.5745488454796,-2.77640073016503,0 37.5745279195772,-2.77598602748901,0 37.5745179890326,-2.77533437851117,0 37.574427876784,-2.77455338219429,0 37.5743223555487,-2.77322305297847,0 37.5742588671781,-2.77257133920447,0 37.5742540277025,-2.77214049932891,0 37.5742381664002,-2.77196814652359,0 37.5741903393019,-2.77165573397844,0 37.5741428722207,-2.77104173717129,0 37.5741063299744,-2.77025003502449,0 37.5740852164061,-2.76999150908247,0 37.5740165323143,-2.76920515396438,0 37.5739848167555,-2.76885506254059,0 37.5739479317629,-2.76834878800549,0 37.5738900690355,-2.76747089336195,0 37.57382131357,-2.76674377747625,0 37.5738112200194,-2.76622676360563,0 37.573784860289,-2.76587667960696,0 37.5737639651303,-2.7654350486391,0 37.5736824568701,-2.7642019579395,0 37.5736511694614,-2.76369849489212,0 37.5735410313635,-2.76246705467435,0 37.5735193291769,-2.76194757131564,0 37.5734567582811,-2.760937439121,0 37.5734162481898,-2.76014537790237,0 37.5733626771928,-2.75960982242539,0 37.5733190432608,-2.75876324661988,0 37.5732907761798,-2.75840087466343,0 37.5732027585814,-2.75733620108124,0 37.5731338771006,-2.75626834440337,0 37.573046351347,-2.75479002900255,0 37.5729620438584,-2.7532860661245,0 37.5728835679822,-2.75224064327644,0 37.5727768047835,-2.75084888143159,0 37.5727078143476,-2.74987080756549,0 37.572660961659,-2.74904667338305,0 37.5726113466675,-2.74845488646632,0 37.5725635233533,-2.74785693441755,0 37.572497659519,-2.74693016907544,0 37.5724570019807,-2.74625995545516,0 37.572409992257,-2.74556728900761,0 37.5723566663931,-2.7448233103534,0 37.5723001899669,-2.74404726321785,0 37.5722596526295,-2.743274441429,0 37.5721809795842,-2.74239255132939,0 37.5721876881763,-2.74211359184411,0 37.5721406509237,-2.74144337069021,0 37.5721125567586,-2.74093349949544,0 37.5720748051126,-2.74050057279395,0 37.5720497320215,-2.74013179164618,0 37.5719709441713,-2.73934609842074,0 37.5719051272426,-2.73837764832839,0 37.5718674740087,-2.73786135244035,0 37.5718043296224,-2.73732899323012,0 37.5717921208411,-2.73686723867026,0 37.5717227200386,-2.73623226272783,0 37.571659814501,-2.73549789241683,0 37.571638111376,-2.73497520237789,0 37.5715907587029,-2.73457112374637,0 37.5715563919028,-2.73397146162189,0 37.5715472126144,-2.73364438562238,0 37.5714971027363,-2.73287475887477,0 37.5714911837527,-2.73248676173319,0 37.571462765918,-2.73224944449967,0 37.571408887408,-2.7319704126126,0 37.5713581366525,-2.73174268820256,0 37.5713525034837,-2.73111349018218,0 37.571313588595,-2.73046358710004,0 37.5712856891587,-2.73008732129832,0 37.5712188215353,-2.7291067564078,0 37.5711407368359,-2.72802356980525,0 37.5709957082942,-2.72602252335368,0 37.5708838384059,-2.72474548022026,0 37.5708335448884,-2.72412976651567,0 37.5707607847564,-2.72333731151624,0 37.570766836715,-2.72301239093248,0 37.5706509620907,-2.72032162066382,0 37.5706514991054,-2.71986558208306,0 37.5706350427103,-2.71939812203935,0 37.5706012918531,-2.71917576241362,0 37.5705511917974,-2.71839473577363,0 37.5705518492077,-2.71783608808865,0 37.5705524260064,-2.71734584677354,0 37.5705589867278,-2.71658768910844,0 37.5705430257617,-2.71569839322663,0 37.5705439639496,-2.71490032545838,0 37.570511271221,-2.71377728900439,0 37.5705118270833,-2.71330414948573,0 37.5705191562749,-2.71189043553126,0 37.5705374744575,-2.71077316113911,0 37.5704986160524,-2.71007195383647,0 37.5705276015345,-2.70952474092471,0 37.5704893845471,-2.7082762879928,0 37.5704613543889,-2.70800833126816,0 37.5704276161523,-2.70777457147195,0 37.5704164330464,-2.7076434467789,0 37.5704619825945,-2.70747248593843,0 37.5705536178592,-2.70667452557177,0 37.57062777293,-2.70628127909501,0 37.5706339016748,-2.70588795290949,0 37.5706400446027,-2.70548322460007,0 37.5706406988438,-2.70492457767832,0 37.5706359777439,-2.70411510180665,0 37.5706420869897,-2.70373887652128,0 37.5706421562965,-2.70367966363613,0 37.5705579942943,-2.70367956401822,0 37.5698355307054,-2.70381077421837,0 37.5690142999308,-2.70417297996155,0 37.5681270948279,-2.70479923578888,0 37.5673713735031,-2.70529358202918,0 37.5668451665205,-2.70605232998079,0 37.5664830420097,-2.7068773036896,0 37.5664728514643,-2.70881848469889,0 37.5653278847182,-2.71040191789953,0 37.5644381740387,-2.71198361419813,0 37.5499000003231,-2.71877799960447,0 37.5468599996187,-2.71955699955678,0 37.5412040002611,-2.71813000037902,0 37.5380619997549,-2.71752900018932,0 37.5292090001589,-2.72250899960547,0 37.5230040001239,-2.72550100019604,0 37.5197819997068,-2.7277719999608,0 37.5166720004013,-2.73027299999127,0 37.5120119997381,-2.7333349995803,0 37.5100979996595,-2.73664999998748,0 37.508810000158,-2.74037299977743,0 37.5072430000327,-2.74311700011321,0 37.5055599998744,-2.74614699959386,0 37.503538000051,-2.74859999995534,0 37.5001509996861,-2.74989299958349,0 37.4999839999909,-2.74879500012638,0 37.4974040004488,-2.74703099974347,0 37.4941329998695,-2.74552099956924,0 37.4914419997343,-2.74342499963299,0 37.4881710002447,-2.74252899984879,0 37.4847880001853,-2.74160299994925,0 37.4821590001636,-2.74005400025397,0 37.480569999972,-2.73785800015674,0 37.4776510000703,-2.73706000006643,0 37.4744989998452,-2.73680099985309,0 37.4714610002342,-2.73651500014315,0 37.4670600002325,-2.73392799964337,0 37.4660490001957,-2.73081400000311,0 37.465903999681,-2.72689600022248,0 37.4666700000952,-2.72386000020932,0 37.4675510003837,-2.72074400022297,0 37.4664210003511,-2.71739500027692,0 37.4613169998863,-2.71488199980512,0 37.4599080000057,-2.70939600032272,0 37.4593760000286,-2.70934100031545,0 37.4428179998012,-2.60074200037108,0 37.430597000396,-2.58107799973318,0 37.4358030003955,-2.56344699954072,0 37.4360520002016,-2.55978400032091,0 37.4368790000642,-2.55530699980292,0 37.4375859996496,-2.55187800040633,0 37.4396100000104,-2.54932500005041,0 37.4385909999062,-2.54635300025685,0 37.4363649996492,-2.54349199975412,0 37.4347159997912,-2.54051599959094,0 37.4324910001532,-2.53765400009265,0 37.4307849999208,-2.53473599976522,0 37.4300559996881,-2.5317059996181,0 37.4302469997379,-2.52833200043711,0 37.4321609998871,-2.52502399965763,0 37.4336120001357,-2.52218099994966,0 37.4359799999964,-2.51934200031311,0 37.4364010000932,-2.51608999970616,0 37.4379090003733,-2.512902000103,0 37.4375900002433,-2.50877599957572,0 37.437896000231,-2.50564199961845,0 37.4367800001161,-2.50087499999757,0 37.4365869996234,-2.49501499978512,0 37.4365610000416,-2.49002800029484,0 37.4343449998348,-2.48752199982888,0 37.4313980001836,-2.48269600043756,0 37.4287850003072,-2.4790930002698,0 37.4258189996643,-2.4763580001257,0 37.420145000088,-2.47512099959027,0 37.4172919997181,-2.47146600004354,0 37.4133340000809,-2.46983600019026,0 37.4131099998319,-2.46867900037974,0 37.4157669999227,-2.46567999977018,0 37.418306000343,-2.46262500039177,0 37.4200959998303,-2.45881799993066,0 37.4308530004476,-2.45455000035747,0 37.4358010004439,-2.45326700003558,0 37.4377730004664,-2.45081599964831,0 37.4399510003081,-2.44728300013051,0 37.4413319996706,-2.4444949997005,0 37.4423629995639,-2.44136299983145,0 37.4442349997511,-2.43847899968441,0 37.4472410002857,-2.43687400028347,0 37.4518559995556,-2.43467199956547,0 37.4602390002717,-2.43308899991329,0 37.4636460000197,-2.43158799958977,0 37.4658729998426,-2.42955299999,0 37.4688000000731,-2.42882700035873,0 37.4720150000011,-2.42774699961283,0 37.4761989998676,-2.42550300027327,0 37.4834889996243,-2.4204010002209,0 37.4879179995732,-2.41667899989504,0 37.4920979995943,-2.41306299986273,0 37.4949020004014,-2.41068699983417,0 37.4995239998502,-2.40510400042053,0 37.5000270000465,-2.39985399964386,0 37.5128929999208,-2.39324000034996,0 37.572823999595,-2.39815900014576,0 37.6480137954691,-2.37506464947524,0 37.633848968086,-2.35906392457389,0 37.6335942841141,-2.35877622912872,0 37.6238899995861,-2.34781399970392,0 37.6192589999627,-2.3401380000922,0 37.6072700676353,-2.32630357178311,0 37.6067245603913,-2.32567408786847,0 37.605369999556,-2.32411100034117,0 37.6039619342102,-2.32009623623689,0 37.6031110004783,-2.31767000010894,0 37.6034210003545,-2.31234799953779,0 37.6059800005169,-2.31030199999572,0 37.6077310001625,-2.30890699946257,0 37.6114390003202,-2.30646999919905,0 37.6166379999929,-2.30265499965898,0 37.617759000148,-2.30184099978772,0 37.626900000353,-2.30370599986157,0 37.6273598062811,-2.30359572461943,0 37.6283775330424,-2.30335164232492,0 37.6345720001328,-2.30186600048042,0 37.6358919998273,-2.30155599952463,0 37.6442489998716,-2.30243200043762,0 37.6517289997349,-2.29754500018943,0 37.6658899999055,-2.29427900010199,0 37.6669214781498,-2.29232379959844,0 37.6725152539407,-2.2950380705769,0</coordinates></LinearRing></outerBoundaryIs></Polygon></MultiGeometry>
  </Placemark>
</Folder>
</Document></kml>
