<?xml version="1.0" encoding="UTF-8"?>
<kml xmlns="http://www.opengis.net/kml/2.2" xmlns:gx="http://www.google.com/kml/ext/2.2" xmlns:kml="http://www.opengis.net/kml/2.2" xmlns:atom="http://www.w3.org/2005/Atom">
<Document>
	<name>MFP and UFP bnd.kml</name>
	<open>1</open>
	<Style id="s_ylw-pushpin_hl">
		<IconStyle>
			<scale>1.3</scale>
			<Icon>
				<href>http://maps.google.com/mapfiles/kml/pushpin/ylw-pushpin.png</href>
			</Icon>
			<hotSpot x="20" y="2" xunits="pixels" yunits="pixels"/>
		</IconStyle>
		<PolyStyle>
			<fill>0</fill>
		</PolyStyle>
	</Style>
	<StyleMap id="m_ylw-pushpin">
		<Pair>
			<key>normal</key>
			<styleUrl>#s_ylw-pushpin</styleUrl>
		</Pair>
		<Pair>
			<key>highlight</key>
			<styleUrl>#s_ylw-pushpin_hl</styleUrl>
		</Pair>
	</StyleMap>
	<Style id="s_ylw-pushpin">
		<IconStyle>
			<scale>1.1</scale>
			<Icon>
				<href>http://maps.google.com/mapfiles/kml/pushpin/ylw-pushpin.png</href>
			</Icon>
			<hotSpot x="20" y="2" xunits="pixels" yunits="pixels"/>
		</IconStyle>
		<PolyStyle>
			<fill>0</fill>
		</PolyStyle>
	</Style>
	<Folder>
		<name>UMFP_bnd</name>
		<Placemark>
			<name>Mapanda</name>
			<styleUrl>#m_ylw-pushpin</styleUrl>
			<ExtendedData>
				<SchemaData schemaUrl="#UMFP_bnd">
					<SimpleData name="Name">Mapanda</SimpleData>
					<SimpleData name="OBJECTID">1601</SimpleData>
					<SimpleData name="MU_ID">8.00000000000</SimpleData>
					<SimpleData name="PROJ">36S</SimpleData>
					<SimpleData name="SHAPE_Leng">0.44116760560</SimpleData>
					<SimpleData name="SHAPE_Area">0.00509103001</SimpleData>
					<SimpleData name="area_ha">6208.37907571000</SimpleData>
				</SchemaData>
			</ExtendedData>
			<Polygon>
				<outerBoundaryIs>
					<LinearRing>
						<coordinates>
							35.70073592900008,-8.416411023999956,0 35.70093882100008,-8.416586539999969,0 35.70116929600005,-8.416584955999952,0 35.70135178800007,-8.416588481999952,0 35.70139596300004,-8.416726838999978,0 35.70110992600007,-8.417025251999974,0 35.70095253600005,-8.417179338999972,0 35.70074656600008,-8.417252475999931,0 35.70061675800002,-8.417229461999966,0 35.70054023200004,-8.417273019999925,0 35.70053615900008,-8.417378238999959,0 35.70073978100004,-8.417658940999957,0 35.70094860300003,-8.417996983999956,0 35.70114709200004,-8.418229906999954,0 35.70127796200006,-8.418405918999952,0 35.70136512000005,-8.418510509999976,0 35.70139992500003,-8.418682399999966,0 35.70142512700005,-8.41885435699993,0 35.70150294700005,-8.418997262999937,0 35.70169540900002,-8.419053315999975,0 35.70185892800004,-8.41909044199997,0 35.70195529100005,-8.41913759299996,0 35.70190360200007,-8.419300515999964,0 35.70181883200007,-8.419540168999959,0 35.70167154200004,-8.419765906999942,0 35.70150471400007,-8.419943966999938,0 35.70139557100004,-8.420131191999928,0 35.70129566700007,-8.420265757999971,0 35.70113350700007,-8.420424658999934,0 35.70101452900008,-8.420578481999939,0 35.70085256800007,-8.420766070999946,0 35.70076749900005,-8.420962692999979,0 35.70068286100008,-8.421221469999978,0 35.70062696700006,-8.421470486999965,0 35.70064706900007,-8.421599446999949,0 35.70072992400003,-8.421775787999934,0 35.70075966200005,-8.421909462999963,0 35.70074651800007,-8.42209124599998,0 35.70073297600004,-8.422215654999945,0 35.70075811200007,-8.422378049999963,0 35.70082156200004,-8.422525835999977,0 35.70091388700007,-8.422682986999973,0 35.70085726300005,-8.422826817999976,0 35.70058629100004,-8.423220756999967,0 35.70041045500005,-8.423484942999949,0 35.70029200600004,-8.423715264999942,0 35.70044158700006,-8.423819426999955,0 35.70068213400003,-8.423884710999971,0 35.70088463200005,-8.424002852999934,0 35.70090473500005,-8.424131811999928,0 35.70079542500002,-8.424295130999951,0 35.70047567300003,-8.424579433999952,0 35.70024158600006,-8.424753174999978,0 35.70012290500006,-8.424950027999955,0 35.70004826800005,-8.425266113999953,0 35.69999280500008,-8.425577285999964,0 35.70001933500004,-8.42594049,0 35.69999735100004,-8.426232305999974,0 35.70005162900003,-8.426442313999928,0 35.70000513900004,-8.426662577999935,0 35.69990983500003,-8.426768423999931,0 35.69969899300003,-8.426832032999926,0 35.69965650700004,-8.426937515999953,0 35.69980645500004,-8.42709427099993,0 35.69981284900007,-8.42732373399997,0 35.69985302200007,-8.427576870999928,0 35.69983971200003,-8.427734748999967,0 35.69976821700004,-8.42781174299995,0 35.69960456100006,-8.42775549199996,0 35.69950829500004,-8.427722684999935,0 35.69939368500008,-8.427814319999925,0 35.69932785500004,-8.428015591999952,0 35.69920940500003,-8.428245913999945,0 35.69912042900006,-8.428571660999978,0 35.69902555600004,-8.428739662999931,0 35.69904622300004,-8.428949901999943,0 35.69921511200005,-8.429068274999963,0 35.69932598300005,-8.429129669999952,0 35.69931277300003,-8.429301890999966,0 35.69929062200004,-8.429569801999946,0 35.69920671400007,-8.429933765999977,0 35.69919906800004,-8.430215920999956,0 35.69918185300003,-8.430502922999949,0 35.69914456700008,-8.430665746999978,0 35.69902561900005,-8.430824351999945,0 35.69897392900003,-8.43098727499995,0 35.69908086100003,-8.431173013999967,0 35.69927916000006,-8.431377248999979,0 35.69955756100006,-8.431360987999938,0 35.69975933400008,-8.431373942999926,0 35.69992282500004,-8.431406286999959,0 35.69999574800005,-8.431534882999927,0 35.69994448900008,-8.431759960999955,0 35.69979712900005,-8.431976138999971,0 35.69965987100005,-8.432263966999926,0 35.69956506400007,-8.432441531999928,0 35.69938969000003,-8.432772654999951,0 35.69928601000004,-8.433055471999978,0 35.69915345300007,-8.433328923999966,0 35.69902036500002,-8.433525876999966,0 35.69883492200006,-8.433790130999967,0 35.69859543100006,-8.433877844999927,0 35.69844551400007,-8.433725871999968,0 35.69845392200006,-8.433553682999957,0 35.69837623100005,-8.433429901999944,0 35.69830860800005,-8.433372989999953,0 35.69814054600005,-8.433374146999938,0 35.69804547300004,-8.433513461999951,0 35.69795069900005,-8.433695806999936,0 35.69793901500003,-8.434087962999968,0 35.69784023500006,-8.434385088999932,0 35.69773088900007,-8.434543627999972,0 35.69780391200004,-8.434686567999961,0 35.69795823300007,-8.434781133999934,0 35.698065,-8.434942965999937,0 35.69804314900006,-8.435253907999936,0 35.69800616200007,-8.435459761999937,0 35.69795950500003,-8.435656120999965,0 35.69788370500004,-8.435804865999955,0 35.69796192800004,-8.436005146999946,0 35.69817053100007,-8.436309719999899,0 35.69840337500006,-8.436647595999943,0 35.69850617200007,-8.436928990999945,0 35.69864244900003,-8.437191029999951,0 35.69887456400005,-8.43742372,0 35.69888572800005,-8.437648367999941,0 35.69880032500004,-8.437797179999961,0 35.69871522100004,-8.437989021999954,0 35.69877880700005,-8.438155932999962,0 35.69890945300006,-8.438298474999954,0 35.69894846500006,-8.438384270999961,0 35.69898827500003,-8.438584815999946,0 35.69903722400005,-8.43871835799996,0 35.69915293300005,-8.438784500000001,0 35.69927324400004,-8.438821921999931,0 35.69931229000008,-8.438912499999958,0 35.69928497400008,-8.439127850999967,0 35.69928607100007,-8.439285628999926,0 35.69949371300004,-8.439451547999965,0 35.69959531600006,-8.439560818999951,0 35.69964406500003,-8.439665673999969,0 35.69958720800003,-8.439776037999934,0 35.69944861900007,-8.43987262099995,0 35.69937245400007,-8.439968773999965,0 35.69945458400008,-8.440039928999966,0 35.69953174500006,-8.440087210999934,0 35.69953254300003,-8.440201958999978,0 35.69953827500007,-8.440335797999978,0 35.69968236400007,-8.440339586999926,0 35.69987934000005,-8.440352572999927,0 35.70000422100003,-8.440356493999957,0 35.70013013300007,-8.440508630999943,0 35.70012592900008,-8.440594724999926,0 35.70022763200007,-8.440718339999933,0 35.70049663600003,-8.4407308299999,0 35.70075076800003,-8.440676482999947,0 35.70108246200005,-8.440726790999975,0 35.70135156500004,-8.440753622999978,0 35.70152519600003,-8.440862397999979,0 35.70157908100003,-8.441015030999949,0 35.70169138600005,-8.441282013999967,0 35.70182289900004,-8.441548863999969,0 35.70198329000004,-8.441825077999965,0 35.70207115400007,-8.442030070999977,0 35.70223478300005,-8.442081537999968,0 35.70237930500008,-8.442147479999999,0 35.70246700300004,-8.442328566999947,0 35.70250221300006,-8.442557830999931,0 35.70250344500005,-8.442734732999952,0 35.70265950100003,-8.443077915999936,0 35.70268023900007,-8.443297715999961,0 35.70265736100004,-8.443460440999957,0 35.70266803000004,-8.443613371999959,0 35.70284583300003,-8.443631269999969,0 35.70303294000007,-8.443606071999966,0 35.70325289400006,-8.443470674999958,0 35.70338661400007,-8.443364560999953,0 35.70341649000005,-8.443517358999941,0 35.70331214800007,-8.443704552999975,0 35.70325082200003,-8.443862761999981,0 35.70334755900007,-8.443962502999966,0 35.70331004200006,-8.444091859999958,0 35.70312813700008,-8.444174398999962,0 35.70295053400002,-8.444185187999949,0 35.70278647100002,-8.44407156699998,0 35.70258992600003,-8.444120736999935,0 35.70248094800007,-8.444331869999928,0 35.70235239500005,-8.444490542999972,0 35.70227186100004,-8.444648883999946,0 35.70232558100003,-8.44477761099995,0 35.70248014000003,-8.444905641999981,0 35.70254326400004,-8.445005614999957,0 35.70236672500005,-8.445169399999941,0 35.70217031300007,-8.445237694999946,0 35.70194929300004,-8.445220094999968,0 35.70180973800007,-8.445178025999951,0 35.70166137800004,-8.445250769999973,0 35.70161959200004,-8.445456657999955,0 35.70163076000006,-8.445681305999926,0 35.70171382400002,-8.44588633199993,0 35.70163799200003,-8.446030296999936,0 35.70146568900003,-8.446112769999957,0 35.70133683500006,-8.446228411999925,0 35.70133836600007,-8.446448344999965,0 35.70126266700004,-8.446611434999966,0 35.70103280700005,-8.44670386699994,0 35.70086957500007,-8.446709774999931,0 35.70078794200003,-8.446710337999946,0 35.70076506400005,-8.446873062999941,0 35.70066545500004,-8.447050661999981,0 35.70066151800006,-8.447175004999963,0 35.70084472300005,-8.447278931999961,0 35.70085092300008,-8.447479706999957,0 35.70089183400006,-8.447838028999968,0 35.70090383400003,-8.448182205999956,0 35.70084737600007,-8.448349943999972,0 35.70073819600003,-8.448532389999969,0 35.70067166700005,-8.448633257999973,0 35.70066872900003,-8.448901035999938,0 35.70067556100003,-8.449192653999944,0 35.70073921800002,-8.449369125999965,0 35.70085049500005,-8.449487892999969,0 35.70086113100007,-8.449636041999952,0 35.70084795400004,-8.449847822999971,0 35.70098659400003,-8.450021023999966,0 35.70091293300004,-8.450208130999954,0 35.70073897700007,-8.450346170999978,0 35.70060965300007,-8.450373329999934,0 35.70062962600008,-8.450483163999934,0 35.70089033100004,-8.450682182999969,0 35.70104029100003,-8.450838933999933,0 35.70103138600007,-8.450939403999939,0 35.70085950000004,-8.451082119999967,0 35.70061647500006,-8.451251485999933,0 35.70195927100008,-8.450500913999974,0 35.70503254200003,-8.452798954999935,0 35.70750136000004,-8.45648812,0 35.70795738500004,-8.457169559999954,0 35.71062549400006,-8.461156526999957,0 35.72494755700006,-8.472690648999958,0 35.72034160300007,-8.476781139999957,0 35.71935681400004,-8.477655718999927,0 35.71504432200004,-8.481485589999977,0 35.71417482400005,-8.481664125999942,0 35.71419630000003,-8.481623591999949,0 35.71405382500007,-8.481851696999968,0 35.71386299200003,-8.482032324999977,0 35.71368450100005,-8.482260680999957,0 35.71365033000006,-8.482523891999961,0 35.71355629800007,-8.482811426999945,0 35.71347452400005,-8.483134735999954,0 35.71333196500007,-8.483350887999961,0 35.71301040900005,-8.483723678999979,0 35.71285651600005,-8.484035536999954,0 35.71261908400004,-8.484419696999964,0 35.71250129200007,-8.484743256999934,0 35.71227603300008,-8.485151237999958,0 35.71213716600005,-8.485893310999927,0 35.71202239400003,-8.486647170999959,0 35.71197873500006,-8.487269048999963,0 35.71209207700008,-8.488021319999973,0 35.71227518900003,-8.488450365999938,0 35.71248122200007,-8.488723857999958,0 35.71268767500004,-8.489057113999934,0 35.71273931000008,-8.489570747999949,0 35.71257576100004,-8.490217366999957,0 35.71237510200007,-8.490708850999965,0 35.71212599700004,-8.491140905999941,0 35.71187305500007,-8.491435605999925,0 35.71176321600007,-8.492080832999932,0 35.71169900700005,-8.492458017999979,0 35.71139170300006,-8.494909751999956,0 35.71121012200007,-8.496358446999977,0 35.71108296900007,-8.497372902999928,0 35.71106439200003,-8.497498101999952,0 35.70827164800005,-8.516319166999949,0 35.70808022900008,-8.517864421999946,0 35.71152453500002,-8.518147092999925,0 35.71009617800007,-8.520058019999965,0 35.71002422800007,-8.520080261999965,0 35.70986805300004,-8.520069397999976,0 35.70975999000007,-8.520070152999949,0 35.70959206000003,-8.52009523199996,0 35.70949617300005,-8.520119807999947,0 35.70937660800007,-8.520192361999932,0 35.70926957200004,-8.520272239999899,0 35.70895890400004,-8.52048956799996,0 35.70874614500008,-8.520969186999935,0 35.70870400900003,-8.521806215999959,0 35.70872165700007,-8.522606967999934,0 35.70890917200006,-8.523657554999943,0 35.70905713200006,-8.524206375999938,0 35.70911173000008,-8.525138355999957,0 35.70908050900005,-8.525819915999932,0 35.70897623500008,-8.526358544999937,0 35.70840917000004,-8.52767976399997,0 35.70827961800006,-8.528039269999965,0 35.70821077500006,-8.528493977999972,0 35.70802228000008,-8.52900928899993,0 35.70786250600003,-8.529340317999981,0 35.70771288900005,-8.529919904999929,0 35.70753411800007,-8.530451882999955,0 35.70736827200005,-8.530773390999968,0 35.70736031700005,-8.531007732999967,0 35.70734772800006,-8.531266012999936,0 35.70718621300006,-8.53152055299995,0 35.70705872300005,-8.531832230999953,0 35.70691205500003,-8.532148823999933,0 35.70686117700006,-8.53242649699996,0 35.70671001500006,-8.532787109999958,0 35.70664503100005,-8.53310791399997,0 35.70649957500007,-8.533596627999941,0 35.70641649100003,-8.534075342999927,0 35.70625061000004,-8.534392069999967,0 35.70608033000008,-8.534766204999926,0 35.70601007100004,-8.53502010699998,0 35.70603201200004,-8.535407242999952,0 35.70624140500007,-8.535812194999949,0 35.70629246800007,-8.536242159999972,0 35.70625819000003,-8.536830505999944,0 35.70619979500003,-8.537404675999937,0 35.70597994300005,-8.53824199099995,0 35.70575753700007,-8.538716898999951,0 35.70548253200008,-8.539225642999952,0 35.70524537900008,-8.539652839999974,0 35.70477092200008,-8.540486195999961,0 35.70465780500007,-8.540792992999968,0 35.70476650600006,-8.54122255599998,0 35.70479439700006,-8.541772216999959,0 35.70477006100003,-8.54240830699996,0 35.70473033200005,-8.542904888999942,0 35.70463206200003,-8.543273739999961,0 35.70434099400006,-8.543548309999949,0 35.70414541400004,-8.543740930999945,0 35.70383422200007,-8.543886544999964,0 35.70350334600005,-8.543965356999934,0 35.70330303000003,-8.544167572999982,0 35.70301629100004,-8.544375173999981,0 35.70272414200008,-8.544496747999972,0 35.70243179100004,-8.544589634999966,0 35.70223567100004,-8.544705756999974,0 35.70202608500006,-8.544955850999941,0 35.70184064800003,-8.545224900999926,0 35.70176074600005,-8.545474089999971,0 35.70162807600008,-8.54573321,0 35.70147666600008,-8.546059399999933,0 35.70128158900008,-8.546323735999977,0 35.70115341900004,-8.546539791999976,0 35.70104990400006,-8.546846521999953,0 35.70098827100003,-8.546961704999944,0 35.70088906800004,-8.547198596999976,0 35.70078007700005,-8.547409737999942,0 35.70064236800005,-8.547635423999964,0 35.70058134100003,-8.547836666999956,0 35.70053445400004,-8.547999560999926,0 35.70046345000003,-8.548148278999975,0 35.70025842800004,-8.548364870999933,0 35.70002898600006,-8.54852425699994,0 35.69981432400005,-8.548736135999945,0 35.69948539400008,-8.54909225199998,0 35.69923758000005,-8.549371300999951,0 35.69896622100004,-8.549717452999971,0 35.69881003800003,-8.550048456999946,0 35.69861519300008,-8.550346261999948,0 35.69841564500007,-8.550658442999975,0 35.69814922200004,-8.551023685999951,0 35.69791131600005,-8.551345697999977,0 35.69769759300004,-8.551691447999929,0 35.69746072900006,-8.552161674999979,0 35.69721896000004,-8.55261759299998,0 35.69701464100007,-8.55293458899996,0 35.69681451900004,-8.553165490999959,0 35.69650946500008,-8.553502314999946,0 35.69626611400003,-8.553733517999945,0 35.69607529500007,-8.553921321999951,0 35.69585632900004,-8.554204950999974,0 35.69565667700005,-8.554502787999979,0 35.69523614000008,-8.554811728999937,0 35.69484311100007,-8.554934002999971,0 35.69456492300003,-8.554993317999958,0 35.69431041600006,-8.555004654999948,0 35.69394549900005,-8.555026322999936,0 35.69341649800003,-8.554939161999926,0 35.69304113400006,-8.554841366999938,0 35.69264138500006,-8.554691145999925,0 35.69221731700003,-8.554498061999937,0 35.69195256400008,-8.554418620999968,0 35.69163988000003,-8.554353857999956,0 35.69124614300006,-8.554375724999943,0 35.69074270300007,-8.554508325999962,0 35.69046485000007,-8.554615449999972,0 35.69017252000003,-8.554713111999945,0 35.68964543100003,-8.55489847299998,0 35.68928558500005,-8.554958352999961,0 35.68894565700003,-8.55511850299996,0 35.68844402600007,-8.55550928599996,0 35.68822481800004,-8.555759443999932,0 35.68801622200004,-8.556152969999971,0 35.68781683000003,-8.556489055999975,0 35.68764048200006,-8.556686319999926,0 35.68748748000007,-8.556787792999955,0 35.68730555600007,-8.55687512399993,0 35.68717163300005,-8.556957338999951,0 35.68707600200003,-8.557020161999958,0 35.68712981200008,-8.557158448999928,0 35.68724633300008,-8.55733455099994,0 35.68719108100004,-8.557377959999901,0 35.68700344800004,-8.557336231999955,0 35.68679193300005,-8.557313794999971,0 35.68646523700005,-8.55730650199996,0 35.68625382300007,-8.557298408999941,0 35.68608973700003,-8.557189575999928,0 35.68592558500006,-8.557071180999969,0 35.68574729100004,-8.556991135999965,0 35.68545841900004,-8.556897513999957,0 35.68523279500005,-8.556918206999967,0 35.68492571500008,-8.556968154999936,0 35.68471964000003,-8.557036525999934,0 35.68449441800004,-8.557114592999938,0 35.68417006800007,-8.557441981999943,0 35.68394118100008,-8.557682642999964,0 35.68370638600004,-8.557765557999971,0 35.68327865100008,-8.557735056999945,0 35.68303337700007,-8.557693726999958,0 35.68272092300003,-8.557662425999979,0 35.68234256200003,-8.557822838999925,0 35.68200749700003,-8.557992513999977,0 35.68170088400007,-8.558109395999964,0 35.68139766800005,-8.558025433999944,0 35.68132961700007,-8.557911150999928,0 35.68128021100006,-8.557715454999936,0 35.68132052900006,-8.557299189999981,0 35.68149823700003,-8.55660943,0 35.68185756900004,-8.555789310999955,0 35.68199455600006,-8.555458441999974,0 35.68201666500005,-8.555185746999939,0 35.68194300800008,-8.554956748999928,0 35.68180240600003,-8.554771247999952,0 35.68165229700003,-8.554600156999982,0 35.68154941900008,-8.554313983999975,0 35.68154200600003,-8.553941082999927,0 35.68157268400006,-8.553520103999972,0 35.68164612500004,-8.553031887999964,0 35.68168210900006,-8.552682592999929,0 35.68180351500007,-8.552184480999927,0 35.68194957400004,-8.551777045999927,0 35.68196637800003,-8.551432665999926,0 35.68192067200005,-8.551079156999947,0 35.68187977000008,-8.55072561399993,0 35.68177155600006,-8.550362974999928,0 35.68177314800005,-8.549903944999926,0 35.68182347500004,-8.54954498799998,0 35.68191326600004,-8.54933398299994,0 35.68224168100005,-8.548901376999936,0 35.68248917600005,-8.548574522999957,0 35.68248333600008,-8.548426338999946,0 35.68228026100007,-8.548236488999976,0 35.68206757900003,-8.54804670599998,0 35.68194569200006,-8.547789352999928,0 35.68185695900007,-8.547464829999967,0 35.68188213400003,-8.546943478999936,0 35.68189877200007,-8.546575191999978,0 35.68189239700007,-8.546350508999979,0 35.68171290500004,-8.546098335999943,0 35.68139368600004,-8.545784972999968,0 35.68128214200004,-8.545632738999927,0 35.68111696000005,-8.545366122999951,0 35.68106625400003,-8.544983958999978,0 35.68110767800005,-8.544725473999961,0 35.68119740200007,-8.544504905999929,0 35.68129209600005,-8.54430821099993,0 35.68133839000006,-8.544059254999979,0 35.68135566500007,-8.543781811999963,0 35.68129605500008,-8.543500119999976,0 35.68123204200003,-8.543275834999974,0 35.68121519300007,-8.542926905999934,0 35.68118493700007,-8.542721513999936,0 35.68108313500005,-8.542588337999973,0 35.68097226000003,-8.542531728999961,0 35.68070284700008,-8.542471434999982,0 35.68043273300003,-8.542310735999934,0 35.68024413900002,-8.542130346999954,0 35.68014673900007,-8.541939762999959,0 35.68010677700005,-8.541720092999981,0 35.68011474700006,-8.541485746999967,0 35.68011351200005,-8.541308841999978,0 35.68009776600007,-8.541117692999933,0 35.67998182200006,-8.541022865999935,0 35.67978939400007,-8.540981164999948,0 35.67963599300003,-8.54102525899998,0 35.67942488700004,-8.541060189999939,0 35.67925614100005,-8.540970509999966,0 35.67903399300008,-8.540799913999933,0 35.67886451300007,-8.540605046999929,0 35.67868032400003,-8.540367248999928,0 35.67856398000004,-8.540215046999947,0 35.67849580100005,-8.540081637999947,0 35.67845617400008,-8.53990977899997,0 35.67846481300006,-8.539771056999939,0 35.67860790700007,-8.539626623999936,0 35.67882765100006,-8.539452971999936,0 35.67917701400006,-8.539268860999925,0 35.67950262800008,-8.539123164999978,0 35.67966039700008,-8.539016881999942,0 35.67970749400007,-8.538882674999968,0 35.67961036300005,-8.538730340999962,0 35.67947013700007,-8.538597429999982,0 35.67927264100007,-8.538517510999952,0 35.67910366300004,-8.538394361999963,0 35.67898691900007,-8.538184785999931,0 35.67887474500003,-8.537941706999959,0 35.67881610600006,-8.537798668999926,0 35.67856257300008,-8.537260117999949,0 35.67833349000006,-8.536783555999932,0 35.67818646100005,-8.536363803999961,0 35.67816451400006,-8.535971876999952,0 35.67818119200007,-8.535608370999967,0 35.67823282500007,-8.535435880999955,0 35.67840003400005,-8.535305625999968,0 35.67865443200003,-8.535279960999958,0 35.67896663500005,-8.535277802999929,0 35.67920132000006,-8.535180550999939,0 35.67951712400003,-8.535006234999969,0 35.67977589100008,-8.534918379999965,0 35.67999173100003,-8.534873853999955,0 35.68022651500007,-8.53479094599993,0 35.68039355600007,-8.534636784999975,0 35.68044011900003,-8.534426078999957,0 35.68038595000007,-8.534235194999951,0 35.68028908700006,-8.534121110999934,0 35.68003395600005,-8.534041589999958,0 35.67974963900008,-8.533909675999951,0 35.67943156800004,-8.53375886799995,0 35.67912270200003,-8.533550618999925,0 35.67889058700007,-8.53332749499998,0 35.67876890900004,-8.533098825999957,0 35.67867595000007,-8.53285561499996,0 35.67867008000007,-8.53270264899993,0 35.67878452000008,-8.53258232099995,0 35.67890943400005,-8.532586239999944,0 35.67918891200003,-8.53271340699996,0 35.67952702900004,-8.532983612999942,0 35.67989329700004,-8.533157994999954,0 35.68030212600007,-8.533236451999926,0 35.68060962400006,-8.533248669999978,0 35.68099413700003,-8.533284262999928,0 35.68127291600007,-8.533311022999953,0 35.68148925500003,-8.533338214999958,0 35.68154649100006,-8.533280441999978,0 35.68149272300008,-8.533146932999955,0 35.68138085000004,-8.532946885999934,0 35.68119212800008,-8.532747370999971,0 35.68103702800005,-8.532547622999971,0 35.68097802300008,-8.532351991999974,0 35.68088469600008,-8.532056187999956,0 35.68084910600004,-8.531774328999973,0 35.68083753200006,-8.531492302999936,0 35.68087959100006,-8.531324661999975,0 35.68097485200008,-8.531209247999925,0 35.68107034600007,-8.531127302999948,0 35.68120956700005,-8.531116777999955,0 35.68143134200005,-8.531234779999977,0 35.68182199100005,-8.531461586999967,0 35.68197142000003,-8.53153705699998,0 35.68208662600006,-8.531526696999947,0 35.68215823800006,-8.531464042999971,0 35.68219099100003,-8.531339498999955,0 35.68211777700003,-8.531172654999978,0 35.68208789100004,-8.531019854999954,0 35.68205773800003,-8.530828805999931,0 35.68210013100003,-8.530708976999961,0 35.68223801700003,-8.530507201999967,0 35.68235268900003,-8.530420342999946,0 35.68254014100006,-8.530438171999947,0 35.68268433200007,-8.530451518999939,0 35.68280404100005,-8.530398094999953,0 35.68288956100003,-8.530263622999939,0 35.68278229200007,-8.530034855999929,0 35.68259297100008,-8.52974927899993,0 35.68239404400003,-8.52946376899996,0 35.68203711800004,-8.529251072999955,0 35.68171895100005,-8.529085921999979,0 35.68160241000004,-8.528905032999944,0 35.68152886400003,-8.528690376999975,0 35.68162298900006,-8.528412401999958,0 35.68174686700007,-8.52826810199997,0 35.68179279500004,-8.527966553999931,0 35.68174729900005,-8.527641729999971,0 35.68163479500004,-8.527350839999899,0 35.68153666700005,-8.527055068999971,0 35.68143850600006,-8.526754515999926,0 35.68142676500003,-8.526448584999969,0 35.68139057600007,-8.526080663999949,0 35.68137289900005,-8.52561220399997,0 35.68125969600004,-8.525220907999938,0 35.68122007200003,-8.52504905,0 35.68122887800007,-8.524934233999943,0 35.68128094400004,-8.524823900999934,0 35.68124648900005,-8.524704602999975,0 35.68115890200005,-8.524542638999947,0 35.68104199700008,-8.524309155999958,0 35.68097365600005,-8.524151840999934,0 35.68101588200005,-8.52400810499995,0 35.68114996500003,-8.523949801999947,0 35.68131323200004,-8.523943891999977,0 35.68142790300004,-8.523857033999946,0 35.68145525400007,-8.523646460999942,0 35.68146829600005,-8.523450331999982,0 35.68140355700007,-8.52312085899996,0 35.68119052700007,-8.522878476999949,0 35.68102586000003,-8.522683575999963,0 35.68091912900007,-8.522531305999962,0 35.68083134300008,-8.522340654999937,0 35.68065730400008,-8.522179287999961,0 35.68047385900007,-8.522046673999967,0 35.68023791500008,-8.521962237999958,0 35.68000647400004,-8.521834736999949,0 35.67988540100004,-8.521692128999973,0 35.67983173600004,-8.521572962999926,0 35.67979728300003,-8.521453664999967,0 35.67981072600003,-8.521314909999944,0 35.67990114900005,-8.52119474899996,0 35.68009286600005,-8.52113604799996,0 35.68032324000006,-8.521110549999946,0 35.68058279800005,-8.521137445999955,0 35.68094832100007,-8.52120664399996,0 35.68128582500003,-8.521390788999952,0 35.68147904300002,-8.52154724199994,0 35.68170551400004,-8.521650868999927,0 35.68186791300008,-8.521520647999978,0 35.68191961200006,-8.521357720999959,0 35.68183682900008,-8.521195723999938,0 35.68168270200005,-8.521134629999949,0 35.68147624300008,-8.52114562,0 35.68132655200003,-8.521031898999979,0 35.68123403000004,-8.520850842999948,0 35.68128032600004,-8.520601887999931,0 35.68133612800006,-8.520338522999964,0 35.68134907100006,-8.520128049999926,0 35.68122266200004,-8.519908975999954,0 35.68103888500008,-8.519728550999957,0 35.68092681900004,-8.519499814999961,0 35.68086791800005,-8.519318526999939,0 35.68076112100005,-8.519156694999936,0 35.68065459100006,-8.519033112999978,0 35.68053902200006,-8.518990877999954,0 35.68039523500005,-8.519034902999977,0 35.68026655600005,-8.519179234999967,0 35.68008507800005,-8.519328712999936,0 35.67994672600003,-8.519463548999966,0 35.67975043900003,-8.519555751999974,0 35.67952013300004,-8.519590810999944,0 35.67913603300008,-8.519612587999973,0 35.67878035000007,-8.519576790999963,0 35.67852529600003,-8.519506828999965,0 35.67828932100008,-8.519417608999959,0 35.67805298000008,-8.519275795999931,0 35.67786930400007,-8.519109711999931,0 35.67775720700007,-8.518876192999926,0 35.67766425400004,-8.5186329799999,0 35.67762870400003,-8.518355899999961,0 35.67754539100002,-8.518117401999973,0 35.67737422900007,-8.517678687999933,0 35.67721387000006,-8.517412030999935,0 35.67693847600003,-8.517179637999959,0 35.67655337900004,-8.517057974999943,0 35.67632754400006,-8.517045186999951,0 35.67624986600004,-8.516926184999932,0 35.67624730600005,-8.516558029999942,0 35.67618784300004,-8.516295458999935,0 35.67614278800005,-8.516032788999951,0 35.67611704500007,-8.515784329999974,0 35.67624889900003,-8.515405684999962,0 35.67629443500005,-8.51504676199994,0 35.67630581800006,-8.514611569999943,0 35.67636132500007,-8.514305172999968,0 35.67643670800004,-8.514094268999941,0 35.67636300400005,-8.51385570399998,0 35.67635620600004,-8.513568862999932,0 35.67632496300007,-8.513220030999946,0 35.67622240800006,-8.512976881999975,0 35.67605731700007,-8.512719819999973,0 35.67592627800008,-8.512524682999981,0 35.67584817000005,-8.512343524999949,0 35.67584607700007,-8.512042306999945,0 35.67585842500006,-8.511745770999937,0 35.67584676000007,-8.511449399999947,0 35.67577302300003,-8.511206052999967,0 35.67569951900003,-8.510996173999956,0 35.67563151600007,-8.510886667999955,0 35.67557725600005,-8.510681438999939,0 35.67549871700004,-8.510438124999951,0 35.67552150200004,-8.510261052999965,0 35.67567416300005,-8.510111776999963,0 35.67582221900005,-8.50999122099995,0 35.67604758600004,-8.509937072999946,0 35.67624873900007,-8.509854402999963,0 35.67635360300005,-8.509738924999965,0 35.67640527100008,-8.509571217999962,0 35.67640854600006,-8.509351247999973,0 35.67635438600007,-8.509160361999932,0 35.67632871100005,-8.508921465999947,0 35.67631681400007,-8.508591625999941,0 35.67632538900006,-8.508443341999964,0 35.67625251700008,-8.508324306999953,0 35.67621313200004,-8.508185914999956,0 35.67621647300007,-8.507975507999959,0 35.67620510700004,-8.50772216799993,0 35.67612643600006,-8.507459728999947,0 35.67604799800006,-8.507230757999935,0 35.67594124100003,-8.507073704999925,0 35.67580089800003,-8.506921662999957,0 35.67567546100003,-8.50684124199995,0 35.67553071400005,-8.506746607999958,0 35.67540487900004,-8.506608811999968,0 35.67532710600005,-8.506475465999927,0 35.67523028700003,-8.506366157999935,0 35.67513817100007,-8.506242473999976,0 35.67508898200003,-8.506075459999977,0 35.67506393900004,-8.505927406999945,0 35.67495261300007,-8.505803854999954,0 35.67474970200004,-8.505633116999945,0 35.67460955900003,-8.505509762999964,0 35.67442072500006,-8.505291113999931,0 35.67426050900008,-8.50504357899996,0 35.67409095300008,-8.504834359999961,0 35.67388297500003,-8.504625404999956,0 35.67371418200003,-8.504526154999951,0 35.67357920800004,-8.504455360999941,0 35.67348258900006,-8.504374739999946,0 35.67344807400008,-8.50424587699996,0 35.67346552800007,-8.503992338999979,0 35.67350696100004,-8.503733853999961,0 35.67351510800006,-8.503523412999925,0 35.67352378500004,-8.503389471999981,0 35.67361420800006,-8.503269312999976,0 35.67371407000007,-8.503125181999963,0 35.67376583900006,-8.502971818999981,0 35.67372595800003,-8.50276170799998,0 35.67369054800003,-8.502503751999939,0 35.67364132700004,-8.502331956999967,0 35.67352990300003,-8.502194059999965,0 35.67336614600004,-8.502128243999948,0 35.67312127400004,-8.502139489999934,0 35.67289564500004,-8.502155384999981,0 35.67267491900003,-8.502185590999943,0 35.67246836900006,-8.502182227999981,0 35.67220382100004,-8.50212666799996,0 35.67195851700006,-8.502075756999943,0 35.67189035100006,-8.501942342999939,0 35.67197063900005,-8.50174575099993,0 35.67217609600004,-8.501591331999975,0 35.67243842200003,-8.501326547999952,0 35.67289229400006,-8.500979162999954,0 35.67298165600005,-8.500706004999927,0 35.67306220800003,-8.500547662999963,0 35.67339670600006,-8.500301508999939,0 35.67359616500005,-8.499974997999971,0 35.67367592200003,-8.499701904999938,0 35.67359271800007,-8.499477746999958,0 35.67352405500003,-8.499272614999939,0 35.67361398000003,-8.499080737999975,0 35.67378127900003,-8.498964832999945,0 35.67400644100007,-8.49888200099997,0 35.67425051500004,-8.498756004999962,0 35.67437896100006,-8.498578207999969,0 35.67439671300008,-8.49836770099995,0 35.67435236200004,-8.498205434999932,0 35.67419764900006,-8.49805827299997,0 35.67408139000003,-8.497915626999941,0 35.67406121800008,-8.497777102999976,0 35.67414683700008,-8.497656977999952,0 35.67430906700002,-8.497502855999926,0 35.67433659000005,-8.497316188999946,0 35.67433556300006,-8.497167969999964,0 35.67426736400006,-8.497029775999977,0 35.67421867500008,-8.496934480999926,0 35.67422271500004,-8.49682447899994,0 35.67427978400008,-8.496742801999972,0 35.67441405900007,-8.49671319,0 35.67459699000006,-8.496774092999942,0 35.67481877400007,-8.496896886999934,0 35.67504012700005,-8.496957524999971,0 35.67522259500004,-8.496951488999969,0 35.67533762600004,-8.496917227999973,0 35.67556242200004,-8.49678180199993,0 35.67573385800006,-8.496570238999937,0 35.67579456800007,-8.496321184999943,0 35.67578817300006,-8.496091717999946,0 35.67575342700008,-8.495929386999933,0 35.67576348400007,-8.495844530999932,0 35.67578518900007,-8.495661405999954,0 35.67578376300003,-8.495455811999932,0 35.67580111700005,-8.495187930999975,0 35.67577104100008,-8.49500644099993,0 35.67564537700008,-8.494892549999975,0 35.67553392200006,-8.494749870999954,0 35.67553306000008,-8.494625558999928,0 35.67564279100003,-8.494519612999966,0 35.67577203100007,-8.49445656499995,0 35.67581435900007,-8.494327173999977,0 35.67577404800005,-8.494054907999953,0 35.67576755500005,-8.493811096999934,0 35.67572807300007,-8.493658360999973,0 35.67565010400006,-8.493496326999946,0 35.67554838800004,-8.493372707999981,0 35.67546101300007,-8.493239426999935,0 35.67538880800004,-8.493216014999973,0 35.67532677200006,-8.493273818999967,0 35.67528460900007,-8.493427115999964,0 35.67517530900005,-8.493595218999928,0 35.67506531300006,-8.493662914999959,0 35.67491169600004,-8.493673532999935,0 35.67478152900003,-8.493602705999933,0 35.67469398800006,-8.49344551799993,0 35.67470680500003,-8.493215918999965,0 35.67470057800006,-8.493010357999935,0 35.67471326300006,-8.492761634999965,0 35.67473568500003,-8.492531969999959,0 35.67473445900004,-8.492355062999934,0 35.67458872500004,-8.492116989999943,0 35.67447680800007,-8.491907373999936,0 35.67448995700005,-8.491725587999952,0 35.67450817300005,-8.491582017999974,0 35.67445869000005,-8.491371972999957,0 35.67451072300003,-8.491256859999965,0 35.67453871000004,-8.49113713099996,0 35.67448495400004,-8.491003618999969,0 35.67443636500008,-8.49092266699995,0 35.67447399100007,-8.490807652999934,0 35.67454980500003,-8.490658906999954,0 35.67458233000008,-8.490500894999968,0 35.67458564200007,-8.490285704999963,0 35.67455520400006,-8.490051621999953,0 35.67445829100006,-8.48992796899995,0 35.67434233400007,-8.48982835399994,0 35.67434614300004,-8.489684883999928,0 35.67455642900006,-8.489535213999943,0 35.67467033300005,-8.489338390999933,0 35.67469795600005,-8.489166067999975,0 35.67470176500007,-8.489022597999963,0 35.67459127300003,-8.489018574999932,0 35.67437996100006,-8.489020025999935,0 35.67425466400005,-8.488958726999954,0 35.67421041400007,-8.488810804999957,0 35.67425218000005,-8.488600132999977,0 35.67441497000004,-8.488527292999947,0 35.67456845300006,-8.488497550999966,0 35.67468788700006,-8.488405882999928,0 35.67471067500003,-8.488228810999942,0 35.67467116200004,-8.488071293999951,0 35.67481961000004,-8.488008115999946,0 35.67495418000004,-8.488021535999963,0 35.67511713500005,-8.487972602999946,0 35.67523627100007,-8.487837902999956,0 35.67528310400007,-8.487665447999973,0 35.67512392500004,-8.487566129999948,0 35.67501750800005,-8.487456886999951,0 35.67496295800004,-8.487208624999937,0 35.67500912900005,-8.486940544999982,0 35.67521964500003,-8.486824343999956,0 35.67527124700007,-8.486647074999951,0 35.67516969900004,-8.486547361999953,0 35.67493848200007,-8.486448537999934,0 35.67479818300006,-8.48630127499996,0 35.67469686700008,-8.486235029999932,0 35.67450032700003,-8.48628897499998,0 35.67437602500007,-8.486371112999962,0 35.67432260100003,-8.486285412999962,0 35.67435920100007,-8.486022180999953,0 35.67442001100005,-8.485787470999981,0 35.67439908000006,-8.485538976999976,0 35.67436900700005,-8.485357487999977,0 35.67424867900007,-8.485320060999982,0 35.67411977300003,-8.485430919999942,0 35.67400626700004,-8.485685116999946,0 35.67391120900004,-8.485829213999978,0 35.67374358500007,-8.48589730499998,0 35.67352286800008,-8.485927507999975,0 35.67326856600005,-8.485962722999943,0 35.67322935100003,-8.485848235999981,0 35.67323809600003,-8.485723857999972,0 35.67323273100004,-8.485642608999967,0 35.67315542800003,-8.485576198999979,0 35.67304450700004,-8.485510018999946,0 35.67300045700006,-8.485390783999947,0 35.67301400400004,-8.485266371999956,0 35.67314261300004,-8.485112482999966,0 35.67336740500008,-8.484977058999959,0 35.67358259100007,-8.484841701999926,0 35.67377813700006,-8.484644318999926,0 35.67381566300003,-8.484514961999935,0 35.67379029400007,-8.484319094999933,0 35.67368444100003,-8.484291131999953,0 35.67356947900004,-8.484334953999962,0 35.67352688500006,-8.484426094999947,0 35.67342185800004,-8.484517662999963,0 35.67333077600006,-8.48454219499996,0 35.67324380200006,-8.484466287999965,0 35.67317570700004,-8.484342436999953,0 35.67309840400003,-8.484276025999975,0 35.67297840700007,-8.48428641199996,0 35.67285824500004,-8.484272890999932,0 35.67280008600005,-8.484196785999927,0 35.67280366500006,-8.484019846999956,0 35.67291319600003,-8.48388521399994,0 35.67315183200003,-8.48366841099994,0 35.67335741300008,-8.483533118999958,0 35.67359618100005,-8.483335440999952,0 35.67380616700007,-8.483142741999927,0 35.67391987100007,-8.482917231999977,0 35.67392775600007,-8.482668540999953,0 35.67382153900007,-8.482587983999963,0 35.67370541900004,-8.482464461999939,0 35.67355591400008,-8.482374638999943,0 35.67335864900008,-8.48232339499998,0 35.67321388000005,-8.482223976999933,0 35.67300641500003,-8.482086735999928,0 35.67283687300005,-8.481877512999972,0 35.67272049000007,-8.48171574099996,0 35.67261311600004,-8.481467838999947,0 35.67255883400003,-8.481257825999933,0 35.67246073500007,-8.480962045999945,0 35.67239638500007,-8.48068516099994,0 35.67231762900008,-8.480408373999978,0 35.67215279200008,-8.480184773999952,0 35.67203045000008,-8.479855688999976,0 35.67193748500006,-8.479607688999977,0 35.67189751200004,-8.479383231999975,0 35.67192898100007,-8.479072219999978,0 35.67187443600005,-8.478823955999928,0 35.67176706400005,-8.478576053999973,0 35.67168897000005,-8.478394891999926,0 35.67159600500003,-8.478146891999927,0 35.67159971700005,-8.477989076999961,0 35.67166579500002,-8.477821271999972,0 35.67170829000003,-8.477715787999955,0 35.67168779200006,-8.477529450999953,0 35.67165858100003,-8.477472272999933,0 35.67148970300008,-8.477358672999969,0 35.67130681500004,-8.477302547999955,0 35.67115254300006,-8.477217537999934,0 35.67102718500007,-8.477146672999936,0 35.67078170000008,-8.477067068999929,0 35.67067985800003,-8.476924320999956,0 35.67068860500007,-8.476799941999957,0 35.67075988100004,-8.476689479999948,0 35.67088362100003,-8.476526061999948,0 35.67088700400007,-8.476320434999934,0 35.67088041800002,-8.476062278999962,0 35.67082653500006,-8.475909639999941,0 35.67069180400006,-8.475872309999943,0 35.67052411600002,-8.475930835999975,0 35.67044306900004,-8.476017457999944,0 35.67035235100008,-8.476094582999963,0 35.67026140300004,-8.476138238999965,0 35.67022748900007,-8.47609543699997,0 35.67024590600005,-8.475980554999978,0 35.67029780800004,-8.475846317999981,0 35.67041210900004,-8.475706871999932,0 35.67048799000003,-8.475567689999934,0 35.67050611000008,-8.475409775999935,0 35.67043748900005,-8.475209422999967,0 35.67044610400006,-8.475065918999974,0 35.67050254400004,-8.474893398999939,0 35.67065059300006,-8.47477284799993,0 35.67076058600003,-8.474705154999981,0 35.67083669800007,-8.474599440999953,0 35.67084978400004,-8.47440809099993,0 35.67078646200002,-8.474279423999974,0 35.67072310700007,-8.474145975999932,0 35.67061185900008,-8.474031981999929,0 35.67052419500004,-8.473855665999963,0 35.67047518100003,-8.473712556999942,0 35.67034936200002,-8.473574753999969,0 35.67021874100004,-8.473436983999932,0 35.67007858100004,-8.473308842999927,0 35.66999601700007,-8.473175525999977,0 35.67001390600007,-8.472984143999952,0 35.67002192700005,-8.472754576999932,0 35.67002547500005,-8.472572855999943,0 35.66989067900005,-8.472525962999953,0 35.66971776100007,-8.472522363999929,0 35.66956385400005,-8.472489945999939,0 35.66944820200007,-8.472433358999979,0 35.66942293600005,-8.472251834999952,0 35.66942625400003,-8.472036644999946,0 35.66941973600007,-8.471788050999976,0 35.66944643900007,-8.471481851999954,0 35.66950212200004,-8.471199362999926,0 35.66958178200008,-8.470911927999964,0 35.66975864500006,-8.470791180999981,0 35.67002280700007,-8.470794155999954,0 35.67016161300006,-8.470726265999929,0 35.67012638000006,-8.470492212999943,0 35.67014854400003,-8.470224297999948,0 35.67015186200007,-8.470009107999942,0 35.67004035200006,-8.469856861999972,0 35.66991483200008,-8.46976209099995,0 35.66966945100006,-8.46969682799994,0 35.66953982100006,-8.469702495999968,0 35.66952916100007,-8.469549559999962,0 35.66955172200005,-8.4693390199999,0 35.66952655600005,-8.469171839999945,0 35.66957793100005,-8.46896110199998,0 35.66963884400008,-8.468740736999962,0 35.66962782100006,-8.468535207999935,0 35.66959341400008,-8.468420686999934,0 35.66947703700004,-8.468258910999964,0 35.66939931000007,-8.468130341999938,0 35.66929253800004,-8.467968500999973,0 35.66921918400004,-8.467777741999953,0 35.66927519700005,-8.467543065999962,0 35.66931587900007,-8.467174611999951,0 35.66925601000003,-8.466849878999938,0 35.66912940300006,-8.466597324999952,0 35.66906042400007,-8.466344375999938,0 35.66905942200003,-8.466300005999926,0 35.66905351200006,-8.466038406999928,0 35.66917662400005,-8.465784145999976,0 35.66923316400005,-8.465625969999962,0 35.66915543800008,-8.465497400999936,0 35.66893341200006,-8.465336346999948,0 35.66861550600004,-8.46519985499998,0 35.66831690800007,-8.465077575999942,0 35.66827417700006,-8.46503370399995,0 35.66810409200008,-8.464859079999901,0 35.66792714800005,-8.464709662999951,0 35.66786256200004,-8.464655124999979,0 35.66769786800006,-8.464450643999953,0 35.66749390000007,-8.464122112999974,0 35.66733456900005,-8.463998881999942,0 35.66721375500003,-8.463889731999927,0 35.66707833700008,-8.46375199199997,0 35.66695318100005,-8.46370981299998,0 35.66679010200005,-8.463739614999952,0 35.66662172600007,-8.463697730999968,0 35.66648620900003,-8.463545646999933,0 35.66635954000003,-8.463283527999977,0 35.66627536700003,-8.462915925999937,0 35.66629335800008,-8.462738886999944,0 35.66633052600002,-8.462556935999942,0 35.66626260300006,-8.462456987999929,0 35.66614198700006,-8.462376524999968,0 35.66595029200005,-8.462435210999956,0 35.66576843100006,-8.462527300999966,0 35.66559607600004,-8.46260498099997,0 35.66540842600006,-8.462553663999927,0 35.66518686400008,-8.462459544999945,0 35.66498372200005,-8.462250543999971,0 35.66484853500003,-8.462146271999927,0 35.66474272100004,-8.462123085999963,0 35.66452711300008,-8.462196278999954,0 35.66431216200004,-8.462365097999964,0 35.66419292800003,-8.462485448999928,0 35.66405432000005,-8.462582023999971,0 35.66386262400005,-8.462640710000001,0 35.66366109300003,-8.462665990999938,0 35.66347821200003,-8.46260985899994,0 35.66341019100003,-8.462495565999973,0 35.66350011900005,-8.462303691999978,0 35.66356136500008,-8.462131139999901,0 35.66355034700007,-8.46192561,0 35.66354008500008,-8.461830048999957,0 35.66362106600008,-8.461733866999964,0 35.66361077100004,-8.461633524999968,0 35.66354278300003,-8.461524012999973,0 35.66344127800005,-8.461429073999966,0 35.66334904900003,-8.461286256999927,0 35.66323741400004,-8.461114882999937,0 35.66311137300005,-8.460943606999933,0 35.66301950500008,-8.460853383999961,0 35.66289931800003,-8.460835076999956,0 35.66279334000006,-8.460787982999932,0 35.66269657200007,-8.46068344899993,0 35.66265266200003,-8.460583335999957,0 35.66263680900005,-8.46037305699997,0 35.66267851800006,-8.460152821999941,0 35.66277347800008,-8.459994384999959,0 35.66286903000002,-8.459922010999947,0 35.66292577000007,-8.459792522999976,0 35.66288623500003,-8.459630220999941,0 35.66282791800006,-8.459530205999954,0 35.66268819300007,-8.459464215999958,0 35.66253902800003,-8.45942219899996,0 35.66251455700007,-8.459355423999966,0 35.66254268100005,-8.459254819999956,0 35.66257060700008,-8.459125528999948,0 35.66255064200004,-8.459015689999944,0 35.66248278700004,-8.458925302999944,0 35.66236243600002,-8.458883088999926,0 35.66214653300006,-8.458913247999931,0 35.66192602400002,-8.458972127999971,0 35.66169117500004,-8.459040668999933,0 35.66153309500004,-8.45909912299993,0 35.66134590700005,-8.45911474199994,0 35.66123012800006,-8.459039025999971,0 35.66110872600007,-8.458843809999962,0 35.66090512800002,-8.458567865999953,0 35.66066311300006,-8.458292184999948,0 35.66045902300004,-8.457944520999945,0 35.66032791900005,-8.457735025999966,0 35.66018217900006,-8.457492158999969,0 35.66007883800006,-8.45712946499998,0 35.66009065300005,-8.456751642999961,0 35.66007904700007,-8.45646004799994,0 35.66008197900004,-8.456187479999926,0 35.66003274300005,-8.456010897999931,0 35.65991644000008,-8.455858679999949,0 35.65977596300007,-8.455682718999981,0 35.65964561400006,-8.455583192999939,0 35.65954424300003,-8.455507377999936,0 35.65937600300003,-8.455484613999943,0 35.65919773100006,-8.455399758999931,0 35.65913925200005,-8.455275835999942,0 35.65911837100003,-8.455032118999952,0 35.65919797500004,-8.454735122999978,0 35.65929169000003,-8.454394995999962,0 35.65935211800007,-8.45410291099995,0 35.65939813900008,-8.453810923999981,0 35.65951178500006,-8.453575855999929,0 35.65956339500008,-8.453398587999971,0 35.65952856700005,-8.453221906999943,0 35.65947933200005,-8.453045324999948,0 35.65940644700004,-8.452921500999935,0 35.65936724300008,-8.452807009999958,0 35.65929396400003,-8.452625809999972,0 35.65927818100005,-8.452425091999942,0 35.65929624200004,-8.452257614999951,0 35.65931446700006,-8.452114044999973,0 35.65927075600007,-8.45204261899994,0 35.65916935300004,-8.451962021999975,0 35.65904867700004,-8.451871992999941,0 35.65890415300004,-8.451806033999958,0 35.65882689300003,-8.451744398999949,0 35.65876371100006,-8.451634851999927,0 35.65871924600003,-8.451453455999967,0 35.65861676200007,-8.451215074999936,0 35.65847168200003,-8.451067832999968,0 35.65832183300006,-8.450925404999964,0 35.65825358700005,-8.450777639999956,0 35.65828092500004,-8.450562284999933,0 35.65824162300004,-8.450433449999935,0 35.65814972700008,-8.450338443999954,0 35.65806773100007,-8.45028640299995,0 35.65791324300005,-8.450167913999962,0 35.65776859000005,-8.450082828999939,0 35.65761433200004,-8.449997808999967,0 35.65745461700004,-8.449817193999934,0 35.65731910900007,-8.449665104999951,0 35.65712597600003,-8.449513406999927,0 35.65695727900004,-8.44942370299998,0 35.65678923700006,-8.449429624999937,0 35.65653488800007,-8.449455258999933,0 35.65634270400005,-8.449442218999934,0 35.65617920200003,-8.449409857999967,0 35.65617358200007,-8.449290356999939,0 35.65616730700003,-8.449075229999949,0 35.65622858900008,-8.4489074599999,0 35.65614172500006,-8.448845888999927,0 35.65597848500005,-8.448851777999948,0 35.65577183000005,-8.448829272999944,0 35.65561273800006,-8.448739502999956,0 35.65546308700004,-8.44862576099996,0 35.65546716900008,-8.448520538999958,0 35.65562469000003,-8.448380804999943,0 35.65580628700008,-8.448250470999938,0 35.65598732800004,-8.448038853999947,0 35.65601956800003,-8.447837809999953,0 35.65602325700007,-8.447675211999979,0 35.65596504300004,-8.447589538999978,0 35.65584015500008,-8.447585604999972,0 35.65565297100005,-8.447601218999978,0 35.65557587600006,-8.447563489999936,0 35.65554163900004,-8.447472872999981,0 35.65556969900007,-8.447362705999979,0 35.65573228400007,-8.447261190999939,0 35.65589480300002,-8.447150111999974,0 35.65599002700003,-8.44702992699996,0 35.65595053000004,-8.446872403999976,0 35.65584867200005,-8.446724866999944,0 35.65579039200003,-8.446629630999951,0 35.65575027400007,-8.446381261999932,0 35.65569666600004,-8.446266867999952,0 35.65562901100003,-8.44620516699996,0 35.65542255400004,-8.446211348999952,0 35.65529345300007,-8.446293510999965,0 35.65514004800008,-8.446332803999951,0 35.65495743700006,-8.446314915999949,0 35.65491794100007,-8.446157392999965,0 35.65502740800002,-8.446013203999939,0 35.65519469600002,-8.445897311999943,0 35.65525127500007,-8.445743917999948,0 35.65519283200007,-8.445624774999942,0 35.65503890300005,-8.445587566999961,0 35.65498542600005,-8.445492297999977,0 35.65497480800008,-8.445344141999954,0 35.65509486000008,-8.445343327999979,0 35.65525378700005,-8.445409191999943,0 35.65536423500004,-8.445408442999963,0 35.65541669800007,-8.4453554899999,0 35.65540647300003,-8.445264709999947,0 35.65533378700008,-8.445169570999951,0 35.65523248500006,-8.445103315999972,0 35.65511161600006,-8.444984596999973,0 35.65510122700005,-8.444869909999966,0 35.65521092200004,-8.444759189999957,0 35.65539817100006,-8.444753138999943,0 35.65554644600007,-8.444666064999979,0 35.65561282500005,-8.444541294999965,0 35.65561171300004,-8.444378728999936,0 35.65554879500007,-8.444307432999949,0 35.65537572400007,-8.44427991699996,0 35.65513562100006,-8.444281544999967,0 35.65497712000007,-8.444277837999948,0 35.65487137600007,-8.444264210999961,0 35.65481780100004,-8.444154597999955,0 35.65495150700008,-8.444043714999964,0 35.65508488600005,-8.443885019999925,0 35.65509808200005,-8.443708011999945,0 35.65502030100004,-8.44356987499998,0 35.65488522200008,-8.443479940999964,0 35.65470251400006,-8.443447707999951,0 35.65453499800003,-8.443530129999942,0 35.65435301000008,-8.443603086999929,0 35.65420911100006,-8.443627970999955,0 35.65407932400007,-8.443609723999941,0 35.65403555000006,-8.443528733999926,0 35.65407341100007,-8.443447190999962,0 35.65425066300003,-8.44338382899997,0 35.65439900400003,-8.44330631899993,0 35.65449903000007,-8.44318610199997,0 35.65457527400002,-8.443099516999951,0 35.65464684700004,-8.443032089999974,0 35.65474792000003,-8.443064875999937,0 35.65489730700006,-8.443140367999945,0 35.65501291600003,-8.443192180999972,0 35.65512316700006,-8.443162744999938,0 35.65514165600007,-8.44305742499995,0 35.65511699200005,-8.44296196099998,0 35.65501079000006,-8.442881393999926,0 35.65485712500004,-8.442882435999934,0 35.65465530700004,-8.442864677999978,0 35.65453492900008,-8.442817677999926,0 35.65440471800008,-8.442737273999967,0 35.65427421200008,-8.442613837999943,0 35.65419620300003,-8.442442229999926,0 35.65411845500006,-8.442308872999945,0 35.65398314800007,-8.44218547,0 35.65381478200004,-8.442143575999978,0 35.65372315100007,-8.44208681799995,0 35.65371273000005,-8.441967350000001,0 35.65373585800006,-8.441838090999966,0 35.65378789600004,-8.441722980999941,0 35.65390281800006,-8.441674385999932,0 35.65409,-8.441658772999972,0 35.65420021800003,-8.441624555999965,0 35.65423811200003,-8.441547793999973,0 35.65425196200005,-8.441466412999944,0 35.65416977200005,-8.441385683999954,0 35.65408784300007,-8.441343204999953,0 35.65402509000006,-8.441295813999943,0 35.65411090600003,-8.441204382999956,0 35.65421109500005,-8.441108072999953,0 35.65420080500007,-8.441007729999967,0 35.65411864700008,-8.44093178199995,0 35.65399353300006,-8.44089437699995,0 35.65381589000003,-8.440900361999979,0 35.65370103300006,-8.440958518999935,0 35.65358647100004,-8.441059707999955,0 35.65352969500003,-8.441184412999974,0 35.65350179800004,-8.441318485999943,0 35.65344959600003,-8.441409688999954,0 35.65334427800008,-8.44145821799998,0 35.65324327200005,-8.441434994999952,0 35.65313230200007,-8.44135924099993,0 35.65307399100004,-8.441259222999975,0 35.65302058100008,-8.441173516999982,0 35.65293385000007,-8.441131069999926,0 35.65280916000006,-8.441155821999928,0 35.65277629700006,-8.441266020999933,0 35.65274836700007,-8.441395311999941,0 35.65269685100003,-8.441586923999978,0 35.65260169200008,-8.441716670999938,0 35.65251123600007,-8.441832040999941,0 35.65242058500007,-8.441918722999958,0 35.65233911400003,-8.441943182999978,0 35.65222847000007,-8.441915242999926,0 35.65217012700003,-8.441810442999952,0 35.65210691700003,-8.441696112999978,0 35.65202462900004,-8.441601038999977,0 35.65197125100008,-8.441520113999957,0 35.65195161800006,-8.441458085999955,0 35.65200872100007,-8.441381194999963,0 35.65219596800006,-8.441375144999938,0 35.65240193300008,-8.441297245999976,0 35.65251120500005,-8.441124368999965,0 35.65261093700008,-8.4409611199999,0 35.65266709200006,-8.440745568999944,0 35.65268022500004,-8.440558998999961,0 35.65268391700005,-8.44039640099993,0 35.65266356500007,-8.440229183999975,0 35.65277322800006,-8.440113683999925,0 35.65279625900007,-8.439970080999956,0 35.65268042200006,-8.439884796999934,0 35.65257847000004,-8.439722913999958,0 35.65258232500003,-8.439584221999951,0 35.65278342200003,-8.439496791999943,0 35.65300395600008,-8.439442701999951,0 35.65322050400005,-8.439508176999937,0 35.65337919900003,-8.439540572999931,0 35.65357049600004,-8.439424519999932,0 35.65382810700004,-8.439174133999927,0 35.65402319300006,-8.438909825999929,0 35.65416575000006,-8.43868890899995,0 35.65421246400007,-8.438497329999962,0 35.65444658600006,-8.438323607999962,0 35.65474218600008,-8.438010802999941,0 35.65484126400003,-8.437751927999955,0 35.65488297900004,-8.437531692999926,0 35.65484315800006,-8.437326355999971,0 35.65478105800003,-8.436671702999945,0 35.65480176900007,-8.436188624999943,0 35.65476599900006,-8.435873283999968,0 35.65479840400008,-8.435696145999941,0 35.65492632600007,-8.435441856999944,0 35.65515943400004,-8.435119913999927,0 35.65533116100005,-8.434951395999974,0 35.65543500700005,-8.434687705999977,0 35.65552931500002,-8.434433644999956,0 35.65553682800004,-8.434127573999945,0 35.65549635500003,-8.433826609999926,0 35.65547858400004,-8.433334229999957,0 35.65544284800006,-8.433023669999955,0 35.65545555500006,-8.43277494299997,0 35.65544866300007,-8.432468969999945,0 35.65548544500007,-8.432229642999971,0 35.65555538400002,-8.431923148999942,0 35.65560170500004,-8.431674193999982,0 35.65557135900008,-8.431449665999935,0 35.65555074700006,-8.431244198999934,0 35.65552017200002,-8.430986201999929,0 35.65556969500005,-8.430502928999943,0 35.65568699900007,-8.430100482999933,0 35.65580894300007,-8.429674098999954,0 35.65593163700004,-8.429357684999957,0 35.65601189700004,-8.429156315999933,0 35.65608275000005,-8.428983699999947,0 35.65611002600008,-8.428758781999932,0 35.65611776900005,-8.428486180999926,0 35.65620756800007,-8.428275183999972,0 35.65627339000002,-8.428069131999962,0 35.65649329600007,-8.427924195999935,0 35.65667495100007,-8.427803426999958,0 35.65697609700004,-8.427600561999952,0 35.65725271000008,-8.427321358999961,0 35.65745651200007,-8.426927890999934,0 35.65759308700007,-8.426534877999927,0 35.65773448400006,-8.42601428699993,0 35.65934727500007,-8.425654002999977,0 35.69720271700004,-8.413767273999952,0 35.69741358800007,-8.413708449999945,0 35.69764823400004,-8.413615991999961,0 35.69806229100004,-8.413775716999965,0 35.69830786400007,-8.413874439999972,0 35.69849260700005,-8.414203088999955,0 35.69866274700007,-8.414503147999938,0 35.69885573600004,-8.414635701999941,0 35.69946298200006,-8.414956665999966,0 35.69974713400006,-8.415079028999969,0 35.70010844300003,-8.415248676999966,0 35.70042703400003,-8.415490337999927,0 35.70027103600006,-8.41584523399996,0 35.70021053900007,-8.416122970999936,0 35.70031229900008,-8.416256149999981,0 35.70042806700008,-8.416331856999932,0 35.70073592900008,-8.416411023999956,0 
						</coordinates>
					</LinearRing>
				</outerBoundaryIs>
				<innerBoundaryIs>
					<LinearRing>
						<coordinates>
							35.68431114800006,-8.460349601999951,0 35.68431103300003,-8.460349693999945,0 35.68431093400005,-8.460349803999975,0 35.68431085400005,-8.46034992899996,0 35.68431079600003,-8.460350064999943,0 35.68431076100006,-8.460350208999955,0 35.68431075000007,-8.460350355999935,0 35.68431076400003,-8.46035051299998,0 35.68431080600004,-8.460350664999965,0 35.68431087500005,-8.460350806999941,0 35.68431096600006,-8.460350934999951,0 35.68431107900005,-8.460351045999971,0 35.68431120900004,-8.460351135999929,0 35.68431135300006,-8.46035120099998,0 35.68431150600003,-8.460351239999966,0 35.68431166400006,-8.460351253999932,0 35.68431182100005,-8.46035123799993,0 35.68431197400003,-8.460351195999976,0 35.68431211600006,-8.460351129999935,0 35.68431224600005,-8.460351037999942,0 35.68431235600008,-8.460350924999943,0 35.68431244600004,-8.460350796999933,0 35.68431251200008,-8.460350652999978,0 35.68431255200005,-8.460350499999947,0 35.68431256500003,-8.460350343999949,0 35.68431256300005,-8.460350278999954,0 35.68431165700008,-8.460350349999942,0 35.68431114800006,-8.460349601999951,0 
						</coordinates>
					</LinearRing>
					<LinearRing>
						<coordinates>
							35.68654087500005,-8.470293315999982,0 35.68654101800007,-8.470293247999962,0 35.68654114600003,-8.470293156999958,0 35.68654125600006,-8.470293044999949,0 35.68654134500008,-8.470292914999959,0 35.68654141100006,-8.470292772999926,0 35.68654145000005,-8.470292619999952,0 35.68654146300003,-8.470292463999954,0 35.68654144900006,-8.47029231199997,0 35.68654141000008,-8.470292165999979,0 35.68654134600007,-8.47029202799996,0 35.68654126100006,-8.470291901999929,0 35.68654115500004,-8.470291791999955,0 35.68654103300003,-8.47029170199994,0 35.68654089700004,-8.470291632999931,0 35.68654075200004,-8.470291587999952,0 35.68654060000006,-8.470291567999936,0 35.68654044700003,-8.47029157299994,0 35.68654029800007,-8.470291603999954,0 35.68654015600004,-8.47029165899994,0 35.68654002500006,-8.470291736999968,0 35.68653990900003,-8.470291835999944,0 35.68654055500008,-8.470292469999947,0 35.68654072400005,-8.470293357999935,0 35.68654087500005,-8.470293315999982,0 
						</coordinates>
					</LinearRing>
					<LinearRing>
						<coordinates>
							35.68061817600005,-8.451937126999951,0 35.68061805800005,-8.45193623199998,0 35.68061845900007,-8.451935419999927,0 35.68061835900005,-8.451935378999963,0 35.68061825400002,-8.451935348999939,0 35.68061814700008,-8.451935331999948,0 35.68061803800003,-8.451935327999934,0 35.68061793000004,-8.451935336999952,0 35.68061782400002,-8.451935358999947,0 35.68061772100003,-8.451935392999928,0 35.68061762200006,-8.451935438999954,0 35.68061753100005,-8.451935495999976,0 35.68061744600004,-8.451935564999928,0 35.68061737000005,-8.451935641999967,0 35.68061730500006,-8.451935726999977,0 35.68061725000007,-8.45193582099995,0 35.68061720600008,-8.451935919999926,0 35.68061717500007,-8.451936023999963,0 35.68061715600004,-8.451936128999932,0 35.68061715000005,-8.451936237999973,0 35.68061715800008,-8.451936346999958,0 35.68061717800003,-8.451936454999952,0 35.68061721200007,-8.451936557999943,0 35.68061725800004,-8.451936656999976,0 35.68061731500006,-8.451936750999948,0 35.68061738400007,-8.451936835999959,0 35.68061746300003,-8.45193691299994,0 35.68061754900003,-8.451936979999971,0 35.68061764400005,-8.451937034999958,0 35.68061774400007,-8.451937079999937,0 35.68061785000003,-8.45193711099995,0 35.68061795800003,-8.451937129999976,0 35.68061806800006,-8.45193713499998,0 35.68061817600005,-8.451937126999951,0 
						</coordinates>
					</LinearRing>
					<LinearRing>
						<coordinates>
							35.68800932100004,-8.468647145999967,0 35.68800934800004,-8.468647017999956,0 35.68800935600007,-8.468646887999967,0 35.68800934200004,-8.468646733999947,0 35.68800930200007,-8.468646584999931,0 35.68800923600003,-8.468646444999934,0 35.68800914800005,-8.468646317999969,0 35.68800904000005,-8.468646208999928,0 35.68800891400008,-8.468646117999981,0 35.68800877400003,-8.468646050999951,0 35.68800862500007,-8.468646007999951,0 35.68800847100005,-8.46864599099996,0 35.68800831700003,-8.468646,0 35.68800816500004,-8.468646035999939,0 35.68800802200008,-8.46864609599993,0 35.68800789200003,-8.468646179999951,0 35.68800777900003,-8.468646284999977,0 35.68800768400007,-8.468646407999927,0 35.68800761200004,-8.468646544999956,0 35.68800756400003,-8.468646690999947,0 35.68800754300003,-8.468646843999977,0 35.68800844900005,-8.46864689399996,0 35.68800927600006,-8.468647266999938,0 35.68800932100004,-8.468647145999967,0 
						</coordinates>
					</LinearRing>
					<LinearRing>
						<coordinates>
							35.68649427700007,-8.470140069999957,0 35.68649443000004,-8.470140027999946,0 35.68649457300006,-8.470139960999973,0 35.68649470200006,-8.470139869999969,0 35.68649481300002,-8.47013975699997,0 35.68649490200005,-8.47013962799997,0 35.68649496900008,-8.470139484999947,0 35.68649500800007,-8.470139331999974,0 35.68649502100004,-8.470139175999975,0 35.68649500700008,-8.470139021999955,0 35.68649496700004,-8.470138873999929,0 35.68649490300004,-8.470138734999978,0 35.68649481500006,-8.470138607999957,0 35.68649470700007,-8.470138496999937,0 35.68649458200008,-8.470138407999968,0 35.68649444300007,-8.470138338999959,0 35.68649429500005,-8.470138295999959,0 35.68649414200007,-8.470138277999979,0 35.68649398700006,-8.470138285999951,0 35.68649383700006,-8.470138320999979,0 35.68649411300004,-8.470139181999969,0 35.68649412000008,-8.470140084999969,0 35.68649427700007,-8.470140069999957,0 
						</coordinates>
					</LinearRing>
					<LinearRing>
						<coordinates>
							35.68699392400004,-8.46628739099998,0 35.68699407600008,-8.466287349999959,0 35.68699421900004,-8.466287281999939,0 35.68699434800004,-8.466287190999935,0 35.68699445900006,-8.466287078999926,0 35.68699454900008,-8.466286948999937,0 35.68699461500006,-8.466286805999971,0 35.68699465500004,-8.46628665399993,0 35.68699466700008,-8.466286495999952,0 35.68699465300006,-8.466286345999947,0 35.68699461400007,-8.466286199999956,0 35.68699455200004,-8.466286061999938,0 35.68699446700003,-8.466285936999952,0 35.68699436200006,-8.466285827999968,0 35.68699424100004,-8.466285736999964,0 35.68699410600004,-8.466285667999955,0 35.68699396100004,-8.46628562199993,0 35.68699381200003,-8.466285599999935,0 35.68699366000004,-8.466285604999939,0 35.68699351000004,-8.466285633999974,0 35.68699376000006,-8.466286501999946,0 35.68699376600006,-8.466287405999935,0 35.68699392400004,-8.46628739099998,0 
						</coordinates>
					</LinearRing>
					<LinearRing>
						<coordinates>
							35.68066128500004,-8.451611543999945,0 35.68066139200005,-8.451611525999965,0 35.68066149600003,-8.451611494999952,0 35.68066159600005,-8.451611451999952,0 35.68066118400003,-8.451610645999949,0 35.68066094000005,-8.451609776999931,0 35.68066083800005,-8.451609811999958,0 35.68066074100005,-8.451609856999937,0 35.68066065000005,-8.451609915999939,0 35.68066056700008,-8.451609982999969,0 35.68066049300006,-8.45161006099994,0 35.68066042800007,-8.45161014699994,0 35.68066037400007,-8.451610238999933,0 35.68066033200006,-8.451610336999977,0 35.68066030100005,-8.451610439999968,0 35.68066028200008,-8.451610544999937,0 35.68066027700007,-8.451610651999943,0 35.68066028400006,-8.451610760999927,0 35.68066030400007,-8.451610865999953,0 35.68066033700006,-8.451610969999933,0 35.68066038100005,-8.451611067999977,0 35.68066043800008,-8.45161116099996,0 35.68066050500005,-8.451611244999981,0 35.68066058200003,-8.451611320999973,0 35.68066066700004,-8.451611388999936,0 35.68066076000008,-8.451611444999969,0 35.68066085900006,-8.451611488999959,0 35.68066096200005,-8.451611521999951,0 35.68066106900005,-8.451611541999966,0 35.68066117700005,-8.451611549999939,0 35.68066128500004,-8.451611543999945,0 
						</coordinates>
					</LinearRing>
					<LinearRing>
						<coordinates>
							35.68443883600003,-8.460341325999934,0 35.68443898300006,-8.460341279999966,0 35.68443912200007,-8.460341210999957,0 35.68443924500008,-8.460341118999963,0 35.68443935200003,-8.460341006999954,0 35.68443943800003,-8.460340879999933,0 35.68443950200003,-8.460340737999957,0 35.68443953900004,-8.4603405899999,0 35.68443955100003,-8.460340435999967,0 35.68443954400004,-8.460340325999937,0 35.68443952200005,-8.460340216999953,0 35.68443864400007,-8.460340441999961,0 35.68443773900003,-8.460340512999949,0 35.68443776400005,-8.460340663999943,0 35.68443781500002,-8.460340809999934,0 35.68443788900004,-8.460340943999938,0 35.68443798600003,-8.460341064999966,0 35.68443810200006,-8.460341166999967,0 35.68443823400003,-8.460341247999963,0 35.68443837600006,-8.460341305999975,0 35.68443852800004,-8.460341337999978,0 35.68443868300005,-8.460341344999961,0 35.68443883600003,-8.460341325999934,0 
						</coordinates>
					</LinearRing>
					<LinearRing>
						<coordinates>
							35.68579412400004,-8.452922668999975,0 35.68579426500003,-8.452922626999964,0 35.68579439600006,-8.452922562999959,0 35.68579393300007,-8.452921785999934,0 35.68579359100005,-8.452920949999964,0 35.68579345300003,-8.452921018999973,0 35.68579333000002,-8.452921110999967,0 35.68579322400007,-8.45292122199993,0 35.68579313900005,-8.452921349999899,0 35.68579307600004,-8.452921490999927,0 35.68579303800004,-8.452921638999953,0 35.68579302600006,-8.452921791999927,0 35.68579303900003,-8.452921936999928,0 35.68579307500005,-8.452922078999961,0 35.68579313300006,-8.452922211999976,0 35.68579321300007,-8.452922334999926,0 35.68579331100005,-8.452922442999977,0 35.68579342500004,-8.452922534999971,0 35.68579355200006,-8.452922605999959,0 35.68579369000003,-8.452922656999931,0 35.68579383300005,-8.45292268399993,0 35.68579397900004,-8.452922687999944,0 35.68579412400004,-8.452922668999975,0 
						</coordinates>
					</LinearRing>
					<LinearRing>
						<coordinates>
							35.68065385700004,-8.451863699999933,0 35.68065431900004,-8.451862920999929,0 35.68065421900008,-8.451862870999946,0 35.68065411300006,-8.45186283299995,0 35.68065400300003,-8.45186280799993,0 35.68065389100008,-8.451862796999933,0 35.68065377800008,-8.451862799999958,0 35.68065366700006,-8.451862816999949,0 35.68065355800007,-8.451862845999926,0 35.68065345500003,-8.451862889999973,0 35.68065335700004,-8.451862945999949,0 35.68065326700003,-8.451863013999969,0 35.68065318600003,-8.45186309199994,0 35.68065311600003,-8.451863178999929,0 35.68065305700003,-8.451863273999948,0 35.68065301000007,-8.451863376999938,0 35.68065297600003,-8.451863483999944,0 35.68065295600007,-8.451863593999974,0 35.68065295000002,-8.451863705999926,0 35.68065295800005,-8.451863815999957,0 35.68065297900006,-8.45186392599993,0 35.68065301400003,-8.451864030999957,0 35.68065306100004,-8.451864131999969,0 35.68065312000005,-8.451864225999941,0 35.68065319100003,-8.451864312999931,0 35.68065327100004,-8.451864388999979,0 35.68065336100005,-8.451864455999953,0 35.68065345700006,-8.45186451,0 35.68065385700004,-8.451863699999933,0 
						</coordinates>
					</LinearRing>
					<LinearRing>
						<coordinates>
							35.68585829500006,-8.453030673999933,0 35.68585844300003,-8.453030646999935,0 35.68585858500006,-8.453030595999962,0 35.68585871600004,-8.453030522999939,0 35.68585820700002,-8.453029774999948,0 35.68585774500008,-8.453028996999933,0 35.68585761700007,-8.453029087999937,0 35.68585750600005,-8.453029199999946,0 35.68585741700008,-8.453029329999936,0 35.68585735200003,-8.453029471999969,0 35.68585731200005,-8.453029623999953,0 35.68585730000007,-8.453029780999941,0 35.68585731400003,-8.453029929999957,0 35.68585735200003,-8.453030074999958,0 35.68585741400005,-8.453030210999941,0 35.68585749700003,-8.453030335999927,0 35.68585760000008,-8.453030445999957,0 35.68585772000006,-8.453030535999972,0 35.68585785300007,-8.45303060599997,0 35.68585799600004,-8.453030652999928,0 35.68585814500005,-8.453030675999969,0 35.68585829500006,-8.453030673999933,0 
						</coordinates>
					</LinearRing>
					<LinearRing>
						<coordinates>
							35.68589497000005,-8.453084636999961,0 35.68589511700003,-8.453084609999962,0 35.68589526000005,-8.453084558999933,0 35.68589539100003,-8.453084485999966,0 35.68589488200007,-8.453083736999929,0 35.68589437400004,-8.453082988999938,0 35.68589425700003,-8.453083080999932,0 35.68589415800005,-8.453083190999962,0 35.68589407900004,-8.453083316999937,0 35.68589402000004,-8.45308345199993,0 35.68589398600005,-8.453083595999942,0 35.68589397400007,-8.453083743999969,0 35.68589398800003,-8.453083892999928,0 35.68589402600003,-8.453084037999929,0 35.68589408800006,-8.453084174999958,0 35.68589417100003,-8.453084298999954,0 35.68589427500007,-8.453084408999928,0 35.68589439400006,-8.453084498999942,0 35.68589452700007,-8.453084568999941,0 35.68589467000004,-8.453084615999956,0 35.68589481900006,-8.45308463899994,0 35.68589497000005,-8.453084636999961,0 
						</coordinates>
					</LinearRing>
					<LinearRing>
						<coordinates>
							35.68699486300005,-8.466422920999946,0 35.68699501700007,-8.466422879999925,0 35.68699515900005,-8.466422812999952,0 35.68699528800005,-8.466422720999958,0 35.68699539900007,-8.466422608999949,0 35.68699548900003,-8.466422479999949,0 35.68699555500007,-8.466422336999926,0 35.68699559400005,-8.466422183999953,0 35.68699560800008,-8.466422026999965,0 35.68699559200007,-8.466421869999977,0 35.68699555000006,-8.466421718999925,0 35.68699548300003,-8.466421575999959,0 35.68699539100004,-8.466421447999949,0 35.68699527800004,-8.466421336999929,0 35.68699514900004,-8.466421247999961,0 35.68699500500003,-8.466421181999976,0 35.68699485100007,-8.466421141999945,0 35.68699469400008,-8.466421129999958,0 35.68699470000007,-8.466422032999958,0 35.68699470700005,-8.466422936999948,0 35.68699486300005,-8.466422920999946,0 
						</coordinates>
					</LinearRing>
					<LinearRing>
						<coordinates>
							35.68070762000008,-8.451763937999942,0 35.68070751300007,-8.451763039999946,0 35.68070740400003,-8.451763059999962,0 35.68070729900006,-8.451763091999965,0 35.68070719800005,-8.451763136999944,0 35.68070710400008,-8.451763193999966,0 35.68070701700003,-8.45176326099994,0 35.68070693900006,-8.451763339999957,0 35.68070687100004,-8.451763425999957,0 35.68070681500007,-8.451763519999929,0 35.68070677000003,-8.451763620999941,0 35.68070673700004,-8.451763725999967,0 35.68070671800007,-8.451763833999962,0 35.68070671200007,-8.451763943999936,0 35.68070671900006,-8.45176405199993,0 35.68070674000006,-8.451764159999925,0 35.68070677300005,-8.451764262999973,0 35.68070681900008,-8.451764361999949,0 35.68070687600005,-8.451764455999978,0 35.68070694400007,-8.451764540999932,0 35.68070702300003,-8.45176461799997,0 35.68070710900003,-8.451764684999944,0 35.68070720300005,-8.451764739999931,0 35.68070730300008,-8.451764784999966,0 35.68070740800005,-8.451764815999979,0 35.68070751600004,-8.451764834999949,0 35.68070762600007,-8.451764840999942,0 35.68070762000008,-8.451763937999942,0 
						</coordinates>
					</LinearRing>
					<LinearRing>
						<coordinates>
							35.68062763200004,-8.452008452999962,0 35.68062751300005,-8.452007556999945,0 35.68062740600004,-8.45200757799995,0 35.68062730200006,-8.452007610999942,0 35.68062720300003,-8.452007656999967,0 35.68062711000005,-8.452007713999933,0 35.68062702500004,-8.452007781999953,0 35.68062694800005,-8.452007858999934,0 35.68062688100008,-8.452007945999981,0 35.68062682500005,-8.452008038999963,0 35.68062678100006,-8.452008138999929,0 35.68062674900006,-8.452008242999966,0 35.68062673000003,-8.452008349999971,0 35.68062672500003,-8.452008458999956,0 35.68062673200006,-8.45200856699995,0 35.68062675200008,-8.452008674999945,0 35.68062678600006,-8.452008777999936,0 35.68062683200003,-8.452008877999958,0 35.68062688900005,-8.452008970999941,0 35.68062695700007,-8.452009055999952,0 35.68062703500004,-8.452009132999933,0 35.68062712200003,-8.452009199999964,0 35.68062721600006,-8.45200925499995,0 35.68062731700007,-8.452009299999929,0 35.68062742100005,-8.452009331999932,0 35.68062752900005,-8.452009350999958,0 35.68062763800003,-8.452009355999962,0 35.68062763200004,-8.452008452999962,0 
						</coordinates>
					</LinearRing>
					<LinearRing>
						<coordinates>
							35.68649485800006,-8.470194219999939,0 35.68649499000003,-8.470194147999962,0 35.68649510800003,-8.470194054999979,0 35.68649520900004,-8.470193944999949,0 35.68649529000004,-8.470193818999974,0 35.68649535000003,-8.470193681999945,0 35.68649538600005,-8.470193536999943,0 35.68649539700004,-8.470193387999927,0 35.68649538300008,-8.4701932299999,0 35.68649534100007,-8.470193078999955,0 35.68649527200006,-8.470192936999979,0 35.68649518100006,-8.470192807999979,0 35.68649506800006,-8.470192697999949,0 35.68649493800007,-8.470192607999934,0 35.68649479400006,-8.47019254199995,0 35.68649464100002,-8.470192502999964,0 35.68649448300005,-8.470192489999931,0 35.68649449000003,-8.470193393999978,0 35.68649471600003,-8.470194268999933,0 35.68649485800006,-8.470194219999939,0 
						</coordinates>
					</LinearRing>
					<LinearRing>
						<coordinates>
							35.68694764300005,-8.466124995999962,0 35.68694777000007,-8.466124922999939,0 35.68694788500005,-8.466124829999956,0 35.68694798200005,-8.466124719999925,0 35.68694806100007,-8.466124596999975,0 35.68694811800003,-8.466124460999936,0 35.68694815300006,-8.46612431899996,0 35.68694816300007,-8.466124171999979,0 35.68694814900005,-8.466124014999934,0 35.68694810700004,-8.46612386399994,0 35.68694803900007,-8.466123720999974,0 35.68694794700008,-8.466123592999963,0 35.68694783500007,-8.466123481999944,0 35.68694770400003,-8.466123392999975,0 35.68694756000008,-8.466123326999934,0 35.68694740800004,-8.466123286999959,0 35.68694725000006,-8.466123274999973,0 35.68694725600005,-8.466124178999962,0 35.68694750500004,-8.466125047999981,0 35.68694764300005,-8.466124995999962,0 
						</coordinates>
					</LinearRing>
					<LinearRing>
						<coordinates>
							35.68069808900003,-8.451683577999972,0 35.68069798300007,-8.451682680999966,0 35.68069757200004,-8.451681874999963,0 35.68069747500005,-8.451681931999929,0 35.68069738600008,-8.451682,0 35.68069730700006,-8.451682077999976,0 35.68069723800005,-8.451682164999966,0 35.68069718000004,-8.451682258999938,0 35.68069713400007,-8.451682360999939,0 35.68069710100008,-8.451682466999955,0 35.68069708100006,-8.451682575999939,0 35.68069707500007,-8.451682686999959,0 35.68069708200005,-8.451682794999954,0 35.68069710300006,-8.45168290099997,0 35.68069713600005,-8.45168300499995,0 35.68069718100003,-8.451683103999926,0 35.68069723800005,-8.451683196999966,0 35.68069730500002,-8.45168328099993,0 35.68069738200006,-8.451683358999958,0 35.68069746800006,-8.451683424999942,0 35.68069756100005,-8.451683480999975,0 35.68069766000008,-8.451683525999954,0 35.68069776500005,-8.451683557999957,0 35.68069787200005,-8.451683576999926,0 35.68069798000005,-8.451683584999955,0 35.68069808900003,-8.451683577999972,0 
						</coordinates>
					</LinearRing>
					<LinearRing>
						<coordinates>
							35.68070768200005,-8.451772972999947,0 35.68070767600005,-8.451772068999958,0 35.68070756600002,-8.451772075999941,0 35.68070745800003,-8.451772096999946,0 35.68070735400005,-8.451772129999938,0 35.68070725500007,-8.451772174999974,0 35.68070716200003,-8.451772232999929,0 35.68070707600003,-8.451772299999959,0 35.68070699800006,-8.451772378999976,0 35.68070693200008,-8.451772464999976,0 35.68070687500006,-8.451772557999959,0 35.68070683100007,-8.451772657999982,0 35.68070679900006,-8.451772761999962,0 35.68070678000004,-8.451772869999957,0 35.68070677500003,-8.451772978999941,0 35.68070678100003,-8.451773081999932,0 35.68070680000005,-8.451773183999933,0 35.68070682900003,-8.451773281999977,0 35.68070687100004,-8.451773377999928,0 35.68070692200007,-8.451773466999953,0 35.68070698500003,-8.451773550999974,0 35.68070705500003,-8.451773625999977,0 35.68070713400005,-8.45177369299995,0 35.68070722000005,-8.451773749999973,0 35.68070768200005,-8.451772972999947,0 
						</coordinates>
					</LinearRing>
					<LinearRing>
						<coordinates>
							35.68651388000006,-8.470266077999952,0 35.68651395300003,-8.470265955999935,0 35.68651400700003,-8.470265824999956,0 35.68651403900003,-8.470265685999948,0 35.68651404900004,-8.470265544999961,0 35.68651403600006,-8.470265396999935,0 35.68651399800007,-8.47026525299998,0 35.68651393700003,-8.47026511699994,0 35.68651385500004,-8.470264992999944,0 35.68651375200005,-8.47026488299997,0 35.68651363400005,-8.470264792999956,0 35.68651350300007,-8.470264721999968,0 35.68651336100004,-8.470264674999953,0 35.68651321300007,-8.47026465099998,0 35.68651306300006,-8.47026465099998,0 35.68651291600003,-8.470264676999932,0 35.68651314200002,-8.470265551999944,0 35.68651378800007,-8.470266185999947,0 35.68651388000006,-8.470266077999952,0 
						</coordinates>
					</LinearRing>
					<LinearRing>
						<coordinates>
							35.68429340800003,-8.460324267999965,0 35.68429355500007,-8.460324240999967,0 35.68429369700004,-8.460324189999938,0 35.68429382800008,-8.460324116999971,0 35.68429332000005,-8.46032336899998,0 35.68429241400003,-8.460323321999965,0 35.68429241200005,-8.460323374999973,0 35.68429242600007,-8.460323523999932,0 35.68429246400007,-8.460323668999934,0 35.68429252600004,-8.460323804999973,0 35.68429260900007,-8.460323929999959,0 35.68429271200006,-8.460324039999932,0 35.68429283200004,-8.460324129999947,0 35.68429296500005,-8.460324199999945,0 35.68429310800008,-8.46032424699996,0 35.68429325700004,-8.460324269999944,0 35.68429340800003,-8.460324267999965,0 
						</coordinates>
					</LinearRing>
				</innerBoundaryIs>
			</Polygon>
		</Placemark>
		<Schema name="UMFP_bnd" id="UMFP_bnd">
	<SimpleField name="Name" type="string"></SimpleField>
	<SimpleField name="Description" type="string"></SimpleField>
	<SimpleField name="OBJECTID" type="int"></SimpleField>
	<SimpleField name="MU_ID" type="float"></SimpleField>
	<SimpleField name="NAME" type="string"></SimpleField>
	<SimpleField name="PROJ" type="string"></SimpleField>
	<SimpleField name="SHAPE_Leng" type="float"></SimpleField>
	<SimpleField name="SHAPE_Area" type="float"></SimpleField>
	<SimpleField name="area_ha" type="float"></SimpleField>
</Schema>
	</Folder>
	<Folder>
		<name>UFP_bnd</name>
		<Placemark>
			<name>Uchindile</name>
			<styleUrl>#m_ylw-pushpin</styleUrl>
			<ExtendedData>
				<SchemaData schemaUrl="#UFP_bnd">
					<SimpleData name="Name">Uchindile</SimpleData>
					<SimpleData name="OBJECTID_1">0</SimpleData>
					<SimpleData name="Area">7076.39045793000</SimpleData>
					<SimpleData name="OBJECTID">1</SimpleData>
					<SimpleData name="MU_ID">9.00000000000</SimpleData>
					<SimpleData name="PROJ">36S</SimpleData>
					<SimpleData name="Shape_Leng">0.39877594696</SimpleData>
					<SimpleData name="Shape_Area">0.00580884445</SimpleData>
				</SchemaData>
			</ExtendedData>
			<Polygon>
				<outerBoundaryIs>
					<LinearRing>
						<coordinates>
							35.43134257100543,-8.696244236999807,0 35.5405196320064,-8.718806909999726,0 35.53842039600639,-8.726554356999705,0 35.53135543800632,-8.746788189999732,0 35.52923914200631,-8.747840153999738,0 35.52546337900625,-8.747778016999751,0 35.52068266500622,-8.748421327999731,0 35.52077016600622,-8.748377070999712,0 35.51989309500621,-8.748513933999748,0 35.51883449800621,-8.748468321999736,0 35.51782444100623,-8.748294848999718,0 35.51708529400617,-8.747830212999704,0 35.51657170500619,-8.74748995799974,0 35.5162924590062,-8.74729707099972,0 35.51602568000618,-8.746796577999719,0 35.5158209090062,-8.746020680999724,0 35.51558931100617,-8.745212881999748,0 35.51548813200616,-8.744510489999708,0 35.51522732000619,-8.743883349999752,0 35.51511491200618,-8.743375412999743,0 35.51505882800619,-8.743002968999749,0 35.51505943800616,-8.742991941999724,0 35.51433629200617,-8.743415736999749,0 35.51358030700616,-8.743580887999727,0 35.51214703500615,-8.744960293999743,0 35.51151924000614,-8.745563511999718,0 35.51077150900613,-8.74606658299974,0 35.51005944700614,-8.747447165999761,0 35.50921043500613,-8.747950997999755,0 35.50824279300614,-8.748550410999719,0 35.5076177140061,-8.748679080999773,0 35.50645818500609,-8.749095950999747,0 35.50520104600606,-8.749193288999731,0 35.50435562800607,-8.749293726999738,0 35.5042028600061,-8.749328941999771,0 35.50407874000609,-8.749472455999758,0 35.50383304100608,-8.749935956999725,0 35.50382807200605,-8.750388376999764,0 35.50407488700608,-8.750635258999758,0 35.50430958900609,-8.751162544999726,0 35.50441932400605,-8.751503051999768,0 35.50453772100611,-8.751875400999731,0 35.50462701700611,-8.752011989999764,0 35.50469203900611,-8.752416863999722,0 35.50471866400608,-8.752825877999735,0 35.5045780130061,-8.753120625999728,0 35.50455906500606,-8.753114460999724,0 35.50455889000609,-8.753114248999747,0 35.497307419006,-8.751939280999775,0 35.497295691006,-8.751939155999724,0 35.49703919900599,-8.751326267999749,0 35.49697786000603,-8.750982002999729,0 35.49680388500603,-8.750869195999725,0 35.496684304006,-8.750468110999762,0 35.49616509000599,-8.750359388999721,0 35.495992425006,-8.75036152199973,0 35.49575964300599,-8.750134331999757,0 35.49552808300602,-8.750022173999772,0 35.495298489006,-8.750082427999722,0 35.49495250400597,-8.750029131999744,0 35.49483489300602,-8.749800548999726,0 35.494603423006,-8.749688389999756,0 35.49437064300596,-8.749461198999731,0 35.49436745600601,-8.749173754999761,0 35.49414194000601,-8.749123368999756,0 35.49414082700596,-8.748833379999752,0 35.494140818006,-8.748832769999776,0 35.49413200100596,-8.748394602999746,0 35.49421723300596,-8.747771303999764,0 35.49415366000599,-8.74717275299977,0 35.49390167200598,-8.746925354999766,0 35.49351789300597,-8.74658393599978,0 35.49289158100596,-8.746528688999748,0 35.49242134400595,-8.746626673999762,0 35.49192205200598,-8.746849377999775,0 35.49125897800597,-8.746634324999747,0 35.49071806400598,-8.745979628999773,0 35.49043317200595,-8.745263875999756,0 35.48983587900594,-8.745078026999767,0 35.48914353600591,-8.745269645999745,0 35.48877326000596,-8.745743358999761,0 35.48827219500591,-8.746588720999768,0 35.48786827200595,-8.746810884999743,0 35.48707983600595,-8.746566914999759,0 35.48651306900593,-8.746505389999786,0 35.48598450200592,-8.74679352799976,0 35.48545083100589,-8.747229995999739,0 35.4849172900059,-8.747672336999724,0 35.4843223130059,-8.747836378999773,0 35.48360160600587,-8.747930121999751,0 35.4832279930059,-8.748217240999759,0 35.48284069200585,-8.747932945999741,0 35.48228450400589,-8.747974277999768,0 35.48184570300585,-8.748321194999754,0 35.48147050400589,-8.748382938999757,0 35.48068163300588,-8.748073800999773,0 35.47989788300583,-8.747645970999745,0 35.47923636600586,-8.747679946999744,0 35.47870673000584,-8.747807945999773,0 35.47800708200582,-8.748106050999782,0 35.47728801900585,-8.747817233999777,0 35.47668844800582,-8.747287426999746,0 35.47646781600579,-8.747288870999778,0 35.47509151500579,-8.747392760999761,0 35.4744592930058,-8.747337610999788,0 35.47376899900582,-8.747525937999779,0 35.47323916300582,-8.747624289999779,0 35.47308090700579,-8.748034522999744,0 35.47248453800579,-8.748002902999739,0 35.47219056200577,-8.747888515999742,0 35.47157218400575,-8.747949487999767,0 35.47079231200578,-8.74810884399975,0 35.46971992800578,-8.748210732999763,0 35.46852590600572,-8.747939724999789,0 35.46736515600572,-8.748196357999786,0 35.46664456400571,-8.748295944999741,0 35.46573227400573,-8.748266371999753,0 35.46504046000573,-8.748211503999739,0 35.46425187000572,-8.74838635799976,0 35.46322027200571,-8.747909040999772,0 35.46227923800571,-8.748039695999781,0 35.46180999400571,-8.748291903999739,0 35.46086751700568,-8.74820314199977,0 35.46020323600566,-8.747804130999761,0 35.45992485000567,-8.747518285999757,0 35.45934740000568,-8.747352771999765,0 35.45822107800566,-8.747348519999752,0 35.45759605200564,-8.747477110999778,0 35.45734624500565,-8.747573623999751,0 35.45677835500563,-8.747328244999764,0 35.45574030800562,-8.747210446999752,0 35.45501928200566,-8.747244765999755,0 35.45423176700564,-8.747154980999751,0 35.45363590900563,-8.747188485999795,0 35.4529450120056,-8.747287854999792,0 35.45222316900559,-8.747197640999778,0 35.45168560300559,-8.747046946999758,0 35.4510583210056,-8.746831494999796,0 35.45061652100556,-8.746739462999742,0 35.45012139000558,-8.747590814999791,0 35.44974626800561,-8.747652526999778,0 35.44892195400559,-8.747408793999789,0 35.44813861000557,-8.747040169999762,0 35.44716167200556,-8.74714137799981,0 35.44644074400553,-8.747205412999779,0 35.44512770200552,-8.747292881999773,0 35.44409103400554,-8.747247792999746,0 35.44174169100552,-8.746956950999776,0 35.44081169500549,-8.74666183099975,0 35.43923126000548,-8.747122108999809,0 35.43824815100547,-8.746678349999796,0 35.43703494500547,-8.745635945999757,0 35.43559360200545,-8.744294942999773,0 35.43340072400547,-8.743333837999787,0 35.43482208100544,-8.741599344999775,0 35.4302156550054,-8.740982219999808,0 35.42929417900542,-8.740755145999804,0 35.42733677300537,-8.740876502999804,0 35.42730741300538,-8.740890191999769,0 35.42669367300537,-8.741176327999774,0 35.42650976900539,-8.741422873999799,0 35.4261735950054,-8.741873550999802,0 35.42572217700539,-8.742119639999778,0 35.42532287400539,-8.742135262999808,0 35.40184733400514,-8.734837491999787,0 35.40177517600517,-8.734615438999832,0 35.40144765900515,-8.734664961999796,0 35.40140690000515,-8.734700558999817,0 35.40091406000515,-8.735130974999795,0 35.40060753200514,-8.734741407999779,0 35.40034351000513,-8.734464360999779,0 35.40015697000516,-8.734186822999799,0 35.39994711000512,-8.733998362999797,0 35.39940271400516,-8.733699320999799,0 35.39893727700516,-8.733631049999769,0 35.39867798700512,-8.7331700559998,0 35.39834986200511,-8.733124684999799,0 35.39797486900513,-8.733221950999806,0 35.39759905700512,-8.73317688099981,0 35.39750819900515,-8.73294618299982,0 35.39731490900512,-8.732550021999796,0 35.3969597910051,-8.732018506999815,0 35.39661184200509,-8.731670769999782,0 35.39616297800512,-8.731394886999814,0 35.39572179700513,-8.731397673999792,0 35.39550664100511,-8.731304137999773,0 35.39559861100508,-8.730769705999776,0 35.39571494600511,-8.730324230999795,0 35.39561661900512,-8.729862215999802,0 35.39546833500508,-8.729044706999803,0 35.39527767800512,-8.728120640999823,0 35.39497036800508,-8.727606623999826,0 35.3949924420051,-8.727321799999816,0 35.39510215500513,-8.726763575999796,0 35.39516948100509,-8.726110725999801,0 35.39479027300512,-8.725531910999806,0 35.39448107700512,-8.724721288999799,0 35.3942421580051,-8.72372052499983,0 35.3940511710051,-8.722743135999819,0 35.39385226300509,-8.721463307999809,0 35.39358853300511,-8.720302459999825,0 35.39358857400507,-8.71844016699978,0 35.39339909600509,-8.717456078999774,0 35.39337927800509,-8.716454563999804,0 35.39311880200509,-8.715803868999812,0 35.39316414900506,-8.715435841999824,0 35.3933670110051,-8.714527095999772,0 35.39333776300507,-8.713685153999803,0 35.39358861300511,-8.712823552999817,0 35.39362611900507,-8.712758392999795,0 35.39384214200508,-8.712383088999811,0 35.39360555800509,-8.711732152999813,0 35.39359903200509,-8.710706151999792,0 35.39316095600506,-8.710150836999803,0 35.39333352700508,-8.70997767299982,0 35.39335168600511,-8.708376813999816,0 35.39378175200509,-8.706630386999807,0 35.39373329700508,-8.705580970999813,0 35.39360719400506,-8.70449047099978,0 35.3935798750051,-8.703950914999794,0 35.39336106800508,-8.702350913999812,0 35.39305040200506,-8.701303146999827,0 35.39285537000509,-8.700628176999784,0 35.3927632090051,-8.700189888999789,0 35.39234991900505,-8.699200786999782,0 35.39167526000508,-8.698761458999826,0 35.39173800700509,-8.69738508399981,0 35.39172709400505,-8.695665197999825,0 35.39164865200509,-8.694568429999798,0 35.39174422000509,-8.693654484999813,0 35.39289411500508,-8.692638931999824,0 35.39383388200506,-8.692318696999809,0 35.39470558900511,-8.691994581999795,0 35.39904998800514,-8.691585592999811,0 35.40801493100518,-8.689846301999829,0 35.41089823300525,-8.693193504999794,0 35.41286189100523,-8.695122664999767,0 35.42633871000535,-8.707204236999766,0 35.43043963600542,-8.697599629999795,0 35.4307786000054,-8.696649450999761,0 35.43134257100543,-8.696244236999807,0 
						</coordinates>
					</LinearRing>
				</outerBoundaryIs>
			</Polygon>
		</Placemark>
		<Schema name="UFP_bnd" id="UFP_bnd">
	<SimpleField name="Name" type="string"></SimpleField>
	<SimpleField name="Description" type="string"></SimpleField>
	<SimpleField name="OBJECTID_1" type="int"></SimpleField>
	<SimpleField name="Name" type="string"></SimpleField>
	<SimpleField name="Area" type="float"></SimpleField>
	<SimpleField name="Village" type="string"></SimpleField>
	<SimpleField name="Project" type="string"></SimpleField>
	<SimpleField name="status" type="string"></SimpleField>
	<SimpleField name="OBJECTID" type="int"></SimpleField>
	<SimpleField name="MU_ID" type="float"></SimpleField>
	<SimpleField name="PROJ" type="string"></SimpleField>
	<SimpleField name="Shape_Leng" type="float"></SimpleField>
	<SimpleField name="Shape_Area" type="float"></SimpleField>
	<SimpleField name="Name_use" type="string"></SimpleField>
</Schema>
	</Folder>
</Document>
</kml>
