<?xml version="1.0" encoding="UTF-8"?>
<kml xmlns="http://www.opengis.net/kml/2.2" xmlns:gx="http://www.google.com/kml/ext/2.2" xmlns:xsi="http://www.w3.org/2001/XMLSchema-instance"
 xsi:schemaLocation="http://www.opengis.net/kml/2.2 http://schemas.opengis.net/kml/2.2.0/ogckml22.xsd http://www.google.com/kml/ext/2.2 http://code.google.com/apis/kml/schema/kml22gx.xsd">
<Document id="Timber_Concession_Area" xsi:schemaLocation="http://www.opengis.net/kml/2.2 http://schemas.opengis.net/kml/2.2.0/ogckml22.xsd http://www.google.com/kml/ext/2.2 http://code.google.com/apis/kml/schema/kml22gx.xsd">
	<name>Timber_Concession_Area</name>
	<Snippet maxLines="0"></Snippet>
	<Style id="PolyStyle00">
		<LabelStyle>
			<color>00000000</color>
			<scale>0</scale>
		</LabelStyle>
		<LineStyle>
			<color>ff000000</color>
			<width>3</width>
		</LineStyle>
		<PolyStyle>
			<color>00f0f0f0</color>
		</PolyStyle>
	</Style>
	<Folder id="FeatureLayer0">
		<name>Timber_Concession_Area</name>
		<Snippet maxLines="0"></Snippet>
		<Placemark id="ID_00000">
			<name>Mujala Miombo Woodlands</name>
			<Snippet maxLines="0"></Snippet>
			<description><![CDATA[<html xmlns:fo="http://www.w3.org/1999/XSL/Format" xmlns:msxsl="urn:schemas-microsoft-com:xslt">

<head>

<META http-equiv="Content-Type" content="text/html">

</head>

<body style="margin:0px 0px 0px 0px;overflow:auto;background:#FFFFFF;">

<table style="font-family:Arial,Verdana,Times;font-size:12px;text-align:left;width:100;border-collapse:collapse;padding:3px 3px 3px 3px">

<tr style="text-align:center;font-weight:bold;background:#9CBCE2">

<td>Mujala Miombo Woodlands</td>

</tr>

<tr>

<td>

<table style="font-family:Arial,Verdana,Times;font-size:12px;text-align:left;width:100;border-spacing:0px; padding:3px 3px 3px 3px">

<tr>

<td>FID</td>

<td>0</td>

</tr>

<tr bgcolor="#D4E4F3">

<td>Id</td>

<td>0</td>

</tr>

<tr>

<td>Name</td>

<td>Mujala Miombo Woodlands</td>

</tr>

<tr bgcolor="#D4E4F3">

<td>Descriptn</td>

<td>Timber Concession Area (TCA)</td>

</tr>

</table>

</td>

</tr>

</table>

</body>

</html>]]></description>
			<styleUrl>#PolyStyle00</styleUrl>
			<MultiGeometry>
				<Polygon>
					<outerBoundaryIs>
						<LinearRing>
							<coordinates>
								25.745213,-17.614126,0 25.745946,-17.618521,0 25.747722,-17.61902,0 25.750001,-17.620498,0 25.74999,-17.622205,0 25.74894700000001,-17.625857,0 25.754273,-17.628085,0 25.753226,-17.632469,0 25.748122,-17.634875,0 25.746097,-17.633399,0 25.744079,-17.630947,0 25.742039,-17.631666,0 25.740245,-17.633606,0 25.73741,-17.638953,0 25.731488,-17.649159,0 25.731705,-17.654525,0 25.736178,-17.669675,0 25.746814,-17.676816,0 25.755976,-17.676387,0 25.761839,-17.674716,0 25.760862,-17.668857,0 25.760883,-17.665686,0 25.762684,-17.662771,0 25.76092,-17.660321,0 25.761447,-17.657641,0 25.76045,-17.654708,0 25.763775,-17.652047,0 25.770635,-17.653309,0 25.776484,-17.653589,0 25.779541,-17.652876,0 25.780569,-17.651419,0 25.780836,-17.64947,0 25.78136,-17.647278,0 25.774759,-17.645286,0 25.773223,-17.64674,0 25.767626,-17.646949,0 25.764877,-17.639615,0 25.764906,-17.635469,0 25.769208,-17.638666,0 25.775032,-17.642605,0 25.776555,-17.643102,0 25.7786,-17.641652,0 25.778626,-17.637749,0 25.774315,-17.635771,0 25.772031,-17.635026,0 25.772323,-17.629418,0 25.774113,-17.627966,0 25.77717,-17.627253,0 25.776432,-17.62359,0 25.780521,-17.620689,0 25.78281,-17.620703,0 25.784581,-17.622177,0 25.786348,-17.624139,0 25.795543,-17.618342,0 25.79531,-17.61517,0 25.790479,-17.614896,0 25.789222,-17.612694,0 25.791009,-17.611729,0 25.792553,-17.609056,0 25.79485,-17.60785,0 25.795627,-17.60566,0 25.79614400000001,-17.604443,0 25.797169,-17.60323,0 25.795911,-17.601271,0 25.795663,-17.600294,0 25.798209,-17.599822,0 25.804287,-17.603761,0 25.805789,-17.607429,0 25.80678500000001,-17.610605,0 25.806011,-17.612308,0 25.805742,-17.614501,0 25.805982,-17.616698,0 25.806985,-17.618899,0 25.808506,-17.61964,0 25.808232,-17.622565,0 25.806193,-17.623284,0 25.804153,-17.624004,0 25.801861,-17.624478,0 25.801837,-17.628136,0 25.799538,-17.629585,0 25.799527,-17.631293,0 25.800021,-17.633491,0 25.803321,-17.634486,0 25.806354,-17.637431,0 25.807861,-17.640367,0 25.809624,-17.643061,0 25.811403,-17.643315,0 25.813947,-17.643331,0 25.814211,-17.641869,0 25.814483,-17.639188,0 25.81525,-17.638461,0 25.816263,-17.639198,0 25.818039,-17.639941,0 25.819069,-17.637996,0 25.821096,-17.639227,0 25.824142,-17.640221,0 25.82719,-17.640971,0 25.828984,-17.638787,0 25.826453,-17.63682,0 25.821883,-17.635574,0 25.821902,-17.632647,0 25.82064,-17.631176,0 25.818869,-17.629702,0 25.818366,-17.628723,0 25.819649,-17.627024,0 25.821938,-17.627038,0 25.821945,-17.626062,0 25.819916,-17.625074,0 25.819927,-17.623367,0 25.819943,-17.620928,0 25.821728,-17.620207,0 25.823006,-17.619239,0 25.822504,-17.618261,0 25.820469,-17.618248,0 25.819717,-17.616537,0 25.821513,-17.614108,0 25.821788,-17.610939,0 25.821032,-17.609959,0 25.821803,-17.608744,0 25.82359200000001,-17.607292,0 25.82434,-17.609735,0 25.825362,-17.609009,0 25.82639,-17.607308,0 25.827668,-17.60634,0 25.829197,-17.605862,0 25.830735,-17.60392,0 25.829726,-17.602694,0 25.828465,-17.600979,0 25.829742,-17.600255,0 25.832798,-17.599542,0 25.835867,-17.596877,0 25.840193,-17.596414,0 25.843225,-17.599603,0 25.841172,-17.602518,0 25.840402,-17.603489,0 25.849057,-17.60232,0 25.853374,-17.603321,0 25.859476,-17.6036,0 25.863812,-17.601674,0 25.866359,-17.600956,0 25.869684,-17.598049,0 25.873512,-17.595875,0 25.875053,-17.593445,0 25.873029,-17.591726,0 25.870745,-17.590982,0 25.869747,-17.587805,0 25.869764,-17.585122,0 25.872066,-17.58294,0 25.87333,-17.584167,0 25.875354,-17.585886,0 25.876871,-17.587358,0 25.879391,-17.591031,0 25.880933,-17.588357,0 25.880966,-17.582991,0 25.87996,-17.581278,0 25.877691,-17.578094,0 25.876977,-17.570042,0 25.879788,-17.567862,0 25.880066,-17.563961,0 25.877033,-17.561017,0 25.881897,-17.555679,0 25.879882,-17.552497,0 25.882193,-17.548851,0 25.880176,-17.546157,0 25.873275,-17.551972,0 25.87273,-17.557822,0 25.868638,-17.561701,0 25.862801,-17.559961,0 25.857988,-17.557006,0 25.855962,-17.555775,0 25.854133,-17.563569,0 25.849045,-17.564027,0 25.846265,-17.561328,0 25.846288,-17.55767,0 25.845287,-17.555225,0 25.842265,-17.550573,0 25.839983,-17.549584,0 25.83668,-17.549321,0 25.833376,-17.549058,0 25.829289,-17.55196,0 25.826475,-17.554627,0 25.822444,-17.548993,0 25.818114,-17.550187,0 25.814322,-17.54675,0 25.807716,-17.546222,0 25.803909,-17.545224,0 25.799842,-17.544955,0 25.792726,-17.544668,0 25.788658,-17.544643,0 25.787401,-17.54244,0 25.787437,-17.537075,0 25.781342,-17.536062,0 25.77904,-17.538243,0 25.780024,-17.543127,0 25.773421,-17.54211,0 25.768833,-17.543789,0 25.761982,-17.541795,0 25.760439,-17.544469,0 25.756637,-17.542737,0 25.755868,-17.543708,0 25.750016,-17.544403,0 25.74419,-17.541196,0 25.740633,-17.540929,0 25.735262,-17.545529,0 25.734727,-17.549428,0 25.73573,-17.551385,0 25.740806,-17.552637,0 25.744116,-17.551926,0 25.751255,-17.549045,0 25.757858,-17.550062,0 25.760366,-17.555199,0 25.756534,-17.557858,0 25.755989,-17.56322,0 25.756988,-17.56591,0 25.758756,-17.567628,0 25.758734,-17.570798,0 25.756677,-17.5742,0 25.756918,-17.576153,0 25.755881,-17.579073,0 25.752575,-17.579052,0 25.750783,-17.580748,0 25.751754,-17.587583,0 25.754022,-17.590524,0 25.754516,-17.592722,0 25.753729,-17.596132,0 25.751943,-17.597096,0 25.74785,-17.600485,0 25.745518,-17.606811,0 25.745213,-17.614126,0 
							</coordinates>
						</LinearRing>
					</outerBoundaryIs>
				</Polygon>
			</MultiGeometry>
		</Placemark>
		<Placemark id="ID_00001">
			<name>Kabondo Teak Belt</name>
			<Snippet maxLines="0"></Snippet>
			<description><![CDATA[<html xmlns:fo="http://www.w3.org/1999/XSL/Format" xmlns:msxsl="urn:schemas-microsoft-com:xslt">

<head>

<META http-equiv="Content-Type" content="text/html">

</head>

<body style="margin:0px 0px 0px 0px;overflow:auto;background:#FFFFFF;">

<table style="font-family:Arial,Verdana,Times;font-size:12px;text-align:left;width:100;border-collapse:collapse;padding:3px 3px 3px 3px">

<tr style="text-align:center;font-weight:bold;background:#9CBCE2">

<td>Kabondo Teak Belt</td>

</tr>

<tr>

<td>

<table style="font-family:Arial,Verdana,Times;font-size:12px;text-align:left;width:100;border-spacing:0px; padding:3px 3px 3px 3px">

<tr>

<td>FID</td>

<td>1</td>

</tr>

<tr bgcolor="#D4E4F3">

<td>Id</td>

<td>0</td>

</tr>

<tr>

<td>Name</td>

<td>Kabondo Teak Belt</td>

</tr>

<tr bgcolor="#D4E4F3">

<td>Descriptn</td>

<td></td>

</tr>

</table>

</td>

</tr>

</table>

</body>

</html>]]></description>
			<styleUrl>#PolyStyle00</styleUrl>
			<MultiGeometry>
				<Polygon>
					<outerBoundaryIs>
						<LinearRing>
							<coordinates>
								25.849293,-17.643743,0 25.846598,-17.645091,0 25.845009,-17.646596,0 25.842937,-17.649311,0 25.839924,-17.65096,0 25.837701,-17.652613,0 25.836889,-17.656093,0 25.836718,-17.658062,0 25.832282,-17.659854,0 25.830061,-17.661204,0 25.828793,-17.661651,0 25.827998,-17.662404,0 25.826722,-17.664214,0 25.824807,-17.667081,0 25.823988,-17.671621,0 25.825239,-17.673598,0 25.826807,-17.675577,0 25.829488,-17.676502,0 25.832171,-17.676973,0 25.839125,-17.677014,0 25.842786,-17.672945,0 25.845477,-17.672203,0 25.850385,-17.670868,0 25.853721,-17.668161,0 25.855147,-17.667563,0 25.855642,-17.664233,0 25.856444,-17.662419,0 25.859137,-17.661375,0 25.861045,-17.659567,0 25.8617,-17.655935,0 25.86818,-17.655821,0 25.875619,-17.653894,0 25.879101,-17.653005,0 25.881624,-17.653928,0 25.886521,-17.654107,0 25.889693,-17.652307,0 25.892079,-17.649745,0 25.893991,-17.64718,0 25.89638,-17.644163,0 25.899858,-17.64388,0 25.899884,-17.639486,0 25.902741,-17.637381,0 25.905109,-17.637849,0 25.90512,-17.636031,0 25.906077,-17.634521,0 25.908607,-17.634232,0 25.908469,-17.630898,0 25.911634,-17.630158,0 25.913677,-17.631987,0 25.916999,-17.631248,0 25.918904,-17.629744,0 25.919705,-17.62793,0 25.920038,-17.625053,0 25.9191,-17.623381,0 25.916584,-17.621398,0 25.914378,-17.620477,0 25.910904,-17.620155,0 25.911051,-17.621974,0 25.911357,-17.623642,0 25.909931,-17.62424,0 25.907405,-17.623923,0 25.905968,-17.626339,0 25.904071,-17.62648,0 25.903297,-17.6239,0 25.899822,-17.623729,0 25.89776,-17.625081,0 25.893025,-17.624297,0 25.888109,-17.627148,0 25.885893,-17.627742,0 25.883053,-17.62712,0 25.879741,-17.626192,0 25.877212,-17.626329,0 25.875,-17.626317,0 25.872933,-17.628426,0 25.872288,-17.630543,0 25.869278,-17.631738,0 25.867548,-17.630516,0 25.865016,-17.631107,0 25.863435,-17.63125,0 25.86089,-17.633962,0 25.857868,-17.637126,0 25.854229,-17.637863,0 25.851062,-17.638905,0 25.850111,-17.639354,0 25.849624,-17.641472,0 25.849293,-17.643743,0 
							</coordinates>
						</LinearRing>
					</outerBoundaryIs>
				</Polygon>
			</MultiGeometry>
		</Placemark>
	</Folder>
</Document>
</kml>
