<?xml version="1.0" encoding="UTF-8"?>
<kml xmlns="http://www.opengis.net/kml/2.2" xmlns:gx="http://www.google.com/kml/ext/2.2" xmlns:kml="http://www.opengis.net/kml/2.2" xmlns:atom="http://www.w3.org/2005/Atom">
<Folder>
	<name>My Places</name>
	<visibility>0</visibility>
	<open>1</open>
	<Style>
		<ListStyle>
			<listItemType>check</listItemType>
			<ItemIcon>
				<state>open</state>
				<href>:/mysavedplaces_open.png</href>
			</ItemIcon>
			<ItemIcon>
				<state>closed</state>
				<href>:/mysavedplaces_closed.png</href>
			</ItemIcon>
			<bgColor>00ffffff</bgColor>
			<maxSnippetLines>2</maxSnippetLines>
		</ListStyle>
	</Style>
	<Document>
		<name>Zapewadi Watershade Boundary.kml</name>
		<visibility>0</visibility>
		<Style id="sh_ylw-pushpin">
			<IconStyle>
				<scale>1.3</scale>
				<Icon>
					<href>http://maps.google.com/mapfiles/kml/pushpin/ylw-pushpin.png</href>
				</Icon>
				<hotSpot x="20" y="2" xunits="pixels" yunits="pixels"/>
			</IconStyle>
			<LineStyle>
				<color>ff00ffff</color>
				<width>3</width>
			</LineStyle>
			<PolyStyle>
				<color>00ffffff</color>
			</PolyStyle>
		</Style>
		<StyleMap id="msn_ylw-pushpin0">
			<Pair>
				<key>normal</key>
				<styleUrl>#sn_ylw-pushpin0</styleUrl>
			</Pair>
			<Pair>
				<key>highlight</key>
				<styleUrl>#sh_ylw-pushpin</styleUrl>
			</Pair>
		</StyleMap>
		<Style id="sn_ylw-pushpin0">
			<IconStyle>
				<scale>1.1</scale>
				<Icon>
					<href>http://maps.google.com/mapfiles/kml/pushpin/ylw-pushpin.png</href>
				</Icon>
				<hotSpot x="20" y="2" xunits="pixels" yunits="pixels"/>
			</IconStyle>
			<LineStyle>
				<color>ff00ffff</color>
				<width>3</width>
			</LineStyle>
			<PolyStyle>
				<color>00ffffff</color>
			</PolyStyle>
		</Style>
		<Placemark>
			<name>Zapewadi Watershade Boundary</name>
			<visibility>0</visibility>
			<styleUrl>#msn_ylw-pushpin0</styleUrl>
			<Polygon>
				<tessellate>1</tessellate>
				<outerBoundaryIs>
					<LinearRing>
						<coordinates>
							75.4416992515596,19.07995473449562,0 75.43848417002123,19.04422272124594,0 75.43897735879058,19.04410745041182,0 75.4390884833357,19.04350203900034,0 75.44078712956762,19.04240856902369,0 75.44191283067048,19.0414227405315,0 75.44364280329339,19.04161521265327,0 75.44988467363389,19.0403507779458,0 75.45623502929469,19.038299658645,0 75.45877133028972,19.03743154316236,0 75.46022752836812,19.03686164564724,0 75.46092991993794,19.03659379224342,0 75.4623958449813,19.03654112713175,0 75.46262550470955,19.03689282947247,0 75.46287251231496,19.03717301223439,0 75.46295167757323,19.03752026760363,0 75.4632274719269,19.03828663113473,0 75.46380676905413,19.03913517723839,0 75.46417478578131,19.04118646035449,0 75.46425675472591,19.04237566134567,0 75.46464831457742,19.0430445802835,0 75.4670815471073,19.04890828468632,0 75.46815443935083,19.05112553388707,0 75.46882803682847,19.05245549317601,0 75.46912074164879,19.05373260549487,0 75.46899307357957,19.05408261312865,0 75.46836012589007,19.05424888012362,0 75.46836857059697,19.05460831220834,0 75.46839660542059,19.05540532934603,0 75.46849733978576,19.05618717837694,0 75.46826552750841,19.05706542302367,0 75.46807036349971,19.05779127492146,0 75.46791663063149,19.05840411981803,0 75.46776183335658,19.05908822350721,0 75.46756778558118,19.05993818999566,0 75.46807935133772,19.06067534882721,0 75.46842800990872,19.06082320354749,0 75.46875821873719,19.06061511866033,0 75.46907921369382,19.06061316057734,0 75.46918440384964,19.06076204058479,0 75.46928352392587,19.06098151076962,0 75.4691482521811,19.06118369168295,0 75.46913823145427,19.06141545860011,0 75.4692255827827,19.06156936795232,0 75.4693075294212,19.06168954373291,0 75.46952339209328,19.06180128521437,0 75.46975721660867,19.0618384649047,0 75.47022954276028,19.06184069477863,0 75.4705837389391,19.06195484954427,0 75.47072896738291,19.0621121520764,0 75.47071688889612,19.06249755467939,0 75.47101960027906,19.06313012575602,0 75.47150379438041,19.06301284763656,0 75.4716003602822,19.06305492886011,0 75.47163694934727,19.06312637429609,0 75.47190256428334,19.06305068478149,0 75.47227304199278,19.06301115215848,0 75.47250479197481,19.06309622737864,0 75.47237023838085,19.06343498312386,0 75.47266047666379,19.06360475187641,0 75.47273665948114,19.06369159961088,0 75.47285286042667,19.06371673562536,0 75.47288540673679,19.06375971798397,0 75.47283675623351,19.06384561300636,0 75.47274244346151,19.06391997175751,0 75.47269604020828,19.06398436945642,0 75.4727080481472,19.06402953050345,0 75.47282298839676,19.06397074669417,0 75.47286878666473,19.0640588003971,0 75.47287936453142,19.06416769281361,0 75.47295244460591,19.06419743000803,0 75.47303923234823,19.06420174389967,0 75.47303288280129,19.06437244106416,0 75.47293115389709,19.06441477845231,0 75.47280446135865,19.06440529654254,0 75.47271229336887,19.06441812977131,0 75.47269303803611,19.06450431131936,0 75.4726900262574,19.06461284788441,0 75.4725897411014,19.06479897022648,0 75.47260606806354,19.0648501331434,0 75.47258823530471,19.06491185708791,0 75.47254884322989,19.06497662578128,0 75.47256273408016,19.06517059542037,0 75.47228639679811,19.06520927944402,0 75.47212881382288,19.06532853841791,0 75.47212787812774,19.06546511887952,0 75.4722292502782,19.06557241738835,0 75.47230299927,19.06572900795409,0 75.47229580199391,19.0657960086653,0 75.47227319012534,19.06590272572281,0 75.47227676287561,19.06607325149297,0 75.4722804513378,19.06622689113036,0 75.47227567895732,19.06631678590032,0 75.47229983466683,19.06646665775264,0 75.4724074824406,19.06669247278249,0 75.47254897187106,19.06699335427159,0 75.47261467275902,19.0671316634626,0 75.47259447550434,19.06726439803376,0 75.47249657002006,19.06742962673817,0 75.47279253589764,19.06810296620759,0 75.47277563423204,19.06833683101657,0 75.47276437410784,19.06856558308466,0 75.47263309650268,19.06873599249174,0 75.47261960935742,19.06898386468945,0 75.47285302570526,19.06924362944247,0 75.47308052170416,19.06936602855767,0 75.47354805244198,19.06943019162988,0 75.47368576682632,19.06963730937329,0 75.47380742501055,19.06994623464086,0 75.47404648968161,19.07061075495838,0 75.4740667072866,19.07098233703518,0 75.47403580246407,19.07151872201954,0 75.47390365921315,19.07182875779362,0 75.47399805249316,19.07209472676566,0 75.47403879701436,19.07223801220971,0 75.47404227858566,19.07240124424682,0 75.47316759764733,19.07251191827126,0 75.46484980353704,19.07510336845047,0 75.46041771177838,19.07536475087044,0 75.45369402416465,19.07731458891355,0 75.45221923135685,19.07797708183664,0 75.45133059049677,19.0802274550903,0 75.4468197357795,19.08010236346568,0 75.4432977517922,19.0811930936187,0 75.4416992515596,19.07995473449562,0 
						</coordinates>
					</LinearRing>
				</outerBoundaryIs>
			</Polygon>
		</Placemark>
	</Document>
	<Document>
		<name>Jamb Watershade Boundary.kml</name>
		<visibility>0</visibility>
		<StyleMap id="msn_ylw-pushpin">
			<Pair>
				<key>normal</key>
				<styleUrl>#sn_ylw-pushpin</styleUrl>
			</Pair>
			<Pair>
				<key>highlight</key>
				<styleUrl>#sh_ylw-pushpin0</styleUrl>
			</Pair>
		</StyleMap>
		<Style id="sh_ylw-pushpin0">
			<IconStyle>
				<scale>1.3</scale>
				<Icon>
					<href>http://maps.google.com/mapfiles/kml/pushpin/ylw-pushpin.png</href>
				</Icon>
				<hotSpot x="20" y="2" xunits="pixels" yunits="pixels"/>
			</IconStyle>
			<LineStyle>
				<color>ff00ff00</color>
				<width>3</width>
			</LineStyle>
			<PolyStyle>
				<color>00ffffff</color>
			</PolyStyle>
		</Style>
		<Style id="sn_ylw-pushpin">
			<IconStyle>
				<scale>1.1</scale>
				<Icon>
					<href>http://maps.google.com/mapfiles/kml/pushpin/ylw-pushpin.png</href>
				</Icon>
				<hotSpot x="20" y="2" xunits="pixels" yunits="pixels"/>
			</IconStyle>
			<LineStyle>
				<color>ff00ff00</color>
				<width>3</width>
			</LineStyle>
			<PolyStyle>
				<color>00ffffff</color>
			</PolyStyle>
		</Style>
		<Placemark>
			<name>Jamb Watershade Boundary</name>
			<visibility>0</visibility>
			<styleUrl>#msn_ylw-pushpin</styleUrl>
			<Polygon>
				<tessellate>1</tessellate>
				<outerBoundaryIs>
					<LinearRing>
						<coordinates>
							75.54893334037193,19.0810067980316,0 75.54783486660325,19.07790694856325,0 75.54368811143196,19.08653399331104,0 75.54097784859141,19.08662501165505,0 75.53818404367372,19.0862710022183,0 75.53538402658882,19.08614867767368,0 75.5362397255945,19.08890107037086,0 75.53348302072115,19.0886234603583,0 75.53050009714589,19.08875580694216,0 75.5288739297544,19.08722350110817,0 75.5289064375002,19.08653554998587,0 75.52906949734262,19.08536445793608,0 75.5287993264251,19.08395186830163,0 75.52856875905133,19.08156540525533,0 75.5280164799473,19.0801329743287,0 75.52790466777643,19.07969440671295,0 75.52867335708793,19.07935932914054,0 75.52955006881085,19.07887478039858,0 75.52688747873343,19.07477968116002,0 75.52606792970646,19.07386492923618,0 75.52570717562473,19.07307186740213,0 75.52544078055591,19.07287994163919,0 75.52500333171085,19.07317375326888,0 75.52450437809038,19.07275139826355,0 75.52415095481982,19.07261496247614,0 75.52390218619472,19.0726644130745,0 75.52387089112352,19.07220761412395,0 75.52398458075417,19.07170874137555,0 75.52398621719021,19.07065685011634,0 75.52384725674163,19.06993451921189,0 75.52377888159786,19.06915526342677,0 75.52426441872315,19.06720408604121,0 75.52442199104388,19.06708206546159,0 75.5248657563364,19.0667636698739,0 75.52506239883516,19.06661890513362,0 75.5264156394058,19.0665895484495,0 75.52736275839493,19.06665759380002,0 75.52741514134773,19.06683782048396,0 75.52746002532072,19.06715370785571,0 75.52860156088173,19.06687662185467,0 75.52889583933117,19.06676015114625,0 75.52929094157877,19.06599065283654,0 75.52973073382066,19.06590799609349,0 75.52876248120067,19.05966540236624,0 75.5288714144647,19.05766456637975,0 75.52569066802406,19.05769618087927,0 75.52447281193098,19.05857654067117,0 75.52287550456533,19.0590573300566,0 75.52208151535109,19.05906455272901,0 75.52101832836803,19.05940481248555,0 75.5205867888495,19.05822218021579,0 75.52033671046878,19.05732541223955,0 75.51954837634743,19.05722448585512,0 75.51860561443043,19.05638680318603,0 75.51798028101406,19.05633444567975,0 75.51772736444312,19.0558879322013,0 75.51753671648937,19.05548355270924,0 75.51905815157757,19.05254234459599,0 75.5183728397279,19.04888693544062,0 75.51817672269942,19.04840497821853,0 75.51773079565643,19.04769251857597,0 75.51818602930577,19.04764273714977,0 75.5186195136381,19.04755464777372,0 75.5187342045314,19.04702002272782,0 75.51853288550126,19.0464477771291,0 75.51852189308907,19.0462818584979,0 75.51889940816982,19.04573402993504,0 75.52025098977596,19.04427671478205,0 75.52133022400695,19.04356207804971,0 75.52073758380087,19.04054288172827,0 75.52350082747488,19.04029385952554,0 75.52734024987787,19.04210636619017,0 75.53064834201489,19.04430519229526,0 75.53265504503375,19.04476812807872,0 75.54590287294346,19.04969851762689,0 75.54706980433046,19.04597402556044,0 75.54724704518164,19.0455156879234,0 75.5478150668185,19.04530515289956,0 75.54827632927437,19.0453437815942,0 75.55030524635487,19.04504537523043,0 75.55368873062876,19.04467347467733,0 75.55429046909995,19.04610302833563,0 75.55572584644013,19.04816598000755,0 75.55779262726938,19.05092038821575,0 75.55914475485987,19.05394330970234,0 75.55931791074453,19.05736600727497,0 75.55760119181042,19.05996472753038,0 75.5567972348736,19.0626563019609,0 75.55566793870676,19.06193518629451,0 75.55435732218233,19.06043954381791,0 75.5537082324288,19.06001116556244,0 75.55414081579761,19.06880932059574,0 75.5543340310837,19.06918210548167,0 75.55370356048356,19.07006084691357,0 75.55450336515527,19.07097288986349,0 75.5530416434127,19.07275766798147,0 75.55447738413319,19.08121068891741,0 75.55241549112517,19.08149588644481,0 75.54893334037193,19.0810067980316,0 
						</coordinates>
					</LinearRing>
				</outerBoundaryIs>
			</Polygon>
		</Placemark>
	</Document>
	<Document>
		<name>Bavi Watershed Boundary.kml</name>
		<visibility>0</visibility>
		<StyleMap id="m_ylw-pushpin">
			<Pair>
				<key>normal</key>
				<styleUrl>#s_ylw-pushpin</styleUrl>
			</Pair>
			<Pair>
				<key>highlight</key>
				<styleUrl>#s_ylw-pushpin_hl</styleUrl>
			</Pair>
		</StyleMap>
		<Style id="s_ylw-pushpin">
			<IconStyle>
				<scale>1.1</scale>
				<Icon>
					<href>http://maps.google.com/mapfiles/kml/pushpin/ylw-pushpin.png</href>
				</Icon>
				<hotSpot x="20" y="2" xunits="pixels" yunits="pixels"/>
			</IconStyle>
			<LineStyle>
				<color>ffff5500</color>
				<width>3</width>
			</LineStyle>
			<PolyStyle>
				<color>00ffffff</color>
			</PolyStyle>
		</Style>
		<Style id="s_ylw-pushpin_hl">
			<IconStyle>
				<scale>1.3</scale>
				<Icon>
					<href>http://maps.google.com/mapfiles/kml/pushpin/ylw-pushpin.png</href>
				</Icon>
				<hotSpot x="20" y="2" xunits="pixels" yunits="pixels"/>
			</IconStyle>
			<LineStyle>
				<color>ffff5500</color>
				<width>3</width>
			</LineStyle>
			<PolyStyle>
				<color>00ffffff</color>
			</PolyStyle>
		</Style>
		<Placemark>
			<name>Bavi Watershed Boundary</name>
			<visibility>0</visibility>
			<styleUrl>#m_ylw-pushpin</styleUrl>
			<Polygon>
				<tessellate>1</tessellate>
				<outerBoundaryIs>
					<LinearRing>
						<coordinates>
							75.46836010822706,19.05424694332423,0 75.47218918493505,19.05395783311835,0 75.4768673457955,19.05376529266581,0 75.47889318173286,19.05376959306334,0 75.48137046964834,19.05382508747095,0 75.4814988344873,19.05661847561473,0 75.48235940118401,19.0596555588906,0 75.48361314104636,19.06137660808612,0 75.4882425399008,19.06427696277863,0 75.48800272186711,19.06716532834622,0 75.48851791112548,19.06897875658063,0 75.48992163561506,19.0728257789718,0 75.49321121869089,19.08118320433644,0 75.48300819559424,19.08548438020225,0 75.48135324219858,19.08565893178278,0 75.48027710284839,19.0857477980078,0 75.47928751036503,19.08599477052021,0 75.47844954357933,19.08614517345581,0 75.47798372754527,19.0862583608621,0 75.47745402484362,19.08640406319464,0 75.47699207627213,19.08637166218794,0 75.4767156887547,19.08640269620516,0 75.47632744016298,19.08646185769304,0 75.4760858678094,19.0865099480831,0 75.47593613369541,19.08648418614109,0 75.4759689351303,19.0863949987045,0 75.47615801803981,19.08621731515718,0 75.47660063242026,19.08598391254997,0 75.47695822082459,19.08590405179731,0 75.47710403515318,19.0858001567771,0 75.47709480386637,19.08562518921481,0 75.47706446198706,19.08520958372913,0 75.4767942553331,19.08482510325061,0 75.47635973159797,19.08463220707908,0 75.47598498161659,19.084493152938,0 75.47560172374864,19.08419912839347,0 75.47537874519114,19.0835788187032,0 75.47523154058837,19.08291715555179,0 75.47544285972442,19.08265656110185,0 75.47655636238622,19.08065649662545,0 75.47740423832607,19.08046301244301,0 75.47734244238058,19.07994361581515,0 75.47723182972393,19.07942823606753,0 75.47708246511363,19.07928218605033,0 75.47683106254389,19.07920730490812,0 75.47663672284844,19.07918612586215,0 75.47677733485064,19.07891122364635,0 75.47622602744046,19.07903572136836,0 75.47603838231038,19.07907747910175,0 75.47591955314236,19.0790612780088,0 75.47593277525472,19.07895512038444,0 75.47610988835481,19.07875281339447,0 75.47611360158727,19.07875104120101,0 75.47623815458344,19.07853639327557,0 75.47628878837271,19.07818158193334,0 75.47622443659586,19.0780329250507,0 75.47614541201621,19.07796761608233,0 75.47640787729792,19.07754128839331,0 75.47640392383548,19.07738049420824,0 75.47624742490412,19.07701068743589,0 75.47653081697045,19.07679357951256,0 75.47675651920278,19.07657997835736,0 75.47711848470729,19.07645880464184,0 75.47744408337834,19.07625513006169,0 75.47761609852925,19.07596357332821,0 75.47770424867741,19.07584772108967,0 75.47770970307661,19.07543882090821,0 75.4776763604429,19.07511353358593,0 75.47752159770418,19.07481662261766,0 75.47736369119627,19.07401205809935,0 75.47675040200015,19.07304290013254,0 75.47652021796147,19.07287972391908,0 75.47643705593096,19.07262421870902,0 75.47635276980165,19.07258217640902,0 75.47615919506585,19.07260807497093,0 75.47591050105926,19.07259087109143,0 75.47565232768136,19.07257071016399,0 75.47537079530497,19.07260518623303,0 75.47507493236087,19.07292691288412,0 75.47468085185328,19.07292599000086,0 75.47419765276094,19.07286617850628,0 75.47403889490946,19.07241061563992,0 75.47403670897793,19.07223348123057,0 75.4739079460665,19.07183788772299,0 75.47405011183847,19.07149258444228,0 75.47406219817357,19.07061661097148,0 75.47369846631388,19.06966219743591,0 75.47355621940473,19.06945117814745,0 75.47308029729179,19.06936930513984,0 75.4728499557357,19.06924761734892,0 75.47261547953747,19.06899071081214,0 75.47262053199496,19.06875016612844,0 75.47276605749519,19.06854570021566,0 75.47279460311866,19.06810351918109,0 75.47265526773511,19.06778305349932,0 75.4724980132344,19.06743206936281,0 75.47259239564851,19.06726796776152,0 75.4726151995945,19.06712682075241,0 75.47245285891596,19.06679372491561,0 75.47237886854737,19.06662263183297,0 75.47229928881542,19.06647455545388,0 75.47227910262362,19.06634914537732,0 75.47227385779641,19.06590531173395,0 75.47229141408623,19.06583304699195,0 75.47230545029602,19.06573142782963,0 75.47222826146157,19.06557055864059,0 75.47212816142339,19.06546483468663,0 75.47212960675701,19.06532529748704,0 75.47228242083469,19.06521116397981,0 75.47243641865184,19.06518636415279,0 75.472562032231,19.06517240196628,0 75.47254999644835,19.06497238014501,0 75.47258823890887,19.06491311344237,0 75.47260552537711,19.06484791635685,0 75.47258995303771,19.064796833886,0 75.47263258256214,19.064716823591,0 75.47269136137535,19.06461337280573,0 75.47269264965694,19.06451703099828,0 75.47271026104038,19.06441896015979,0 75.47280316078378,19.06440605749915,0 75.47292598799304,19.06441675457692,0 75.4730312552667,19.06437361857472,0 75.47303767068382,19.06428137132112,0 75.47303671022182,19.06420116189041,0 75.47295110861501,19.06419739083436,0 75.47288064730095,19.06416925084042,0 75.4728674412537,19.0640596173877,0 75.47282205278623,19.06397291745187,0 75.47270748338664,19.06402805126677,0 75.47269599791743,19.06398386444772,0 75.47274647206817,19.0639172354138,0 75.47283675519454,19.06384448665507,0 75.47288554364488,19.06375924172974,0 75.47285354696487,19.06371504051366,0 75.47278672268793,19.06370117672567,0 75.47273500950085,19.06369016510918,0 75.47265609951285,19.06359867217969,0 75.47247887001117,19.06350222658302,0 75.47236766477593,19.06343480070753,0 75.47250618685531,19.06309078439755,0 75.47227846661902,19.06300991429408,0 75.47190435213396,19.06304792282016,0 75.47163784288418,19.06313172369332,0 75.47159851285376,19.06305228005634,0 75.47150482466262,19.06301219280103,0 75.47102056728286,19.06313212398423,0 75.47071922287533,19.06249979177425,0 75.47072932807438,19.062111547945,0 75.47057869749148,19.06195326157708,0 75.47023620339358,19.06184190987309,0 75.46975276172283,19.0618365089458,0 75.46952444246864,19.06180306628867,0 75.46930634759566,19.06169038828722,0 75.46922093827307,19.06156112158102,0 75.46913898934233,19.06141523533057,0 75.46915116738526,19.06117882266269,0 75.46928324615296,19.06098028044854,0 75.4691799583175,19.06075340523719,0 75.46907770379826,19.06061251742022,0 75.46875790936521,19.06061312241451,0 75.46842988123802,19.06082582159612,0 75.46807545151671,19.06067404797665,0 75.46756405090518,19.05993624152637,0 75.46801157354018,19.05800496030768,0 75.46849592182792,19.0561860046349,0 75.46839619653419,19.05538931536053,0 75.46836010822706,19.05424694332423,0 
						</coordinates>
					</LinearRing>
				</outerBoundaryIs>
			</Polygon>
		</Placemark>
	</Document>
</Folder>
</kml>
