<?xml version="1.0" encoding="UTF-8"?>
<kml xmlns="http://www.opengis.net/kml/2.2" xmlns:gx="http://www.google.com/kml/ext/2.2" xmlns:kml="http://www.opengis.net/kml/2.2" xmlns:atom="http://www.w3.org/2005/Atom">
<Document>
	<name>唐河方城.kml</name>
	<open>1</open>
	<StyleMap id="m_ylw-pushpin1">
		<Pair>
			<key>normal</key>
			<styleUrl>#s_ylw-pushpin1</styleUrl>
		</Pair>
		<Pair>
			<key>highlight</key>
			<styleUrl>#s_ylw-pushpin_hl1</styleUrl>
		</Pair>
	</StyleMap>
	<Style id="s_ylw-pushpin1">
		<IconStyle>
			<scale>1.1</scale>
			<Icon>
				<href>http://maps.google.com/mapfiles/kml/pushpin/ylw-pushpin.png</href>
			</Icon>
			<hotSpot x="20" y="2" xunits="pixels" yunits="pixels"/>
		</IconStyle>
		<LineStyle>
			<color>ff00aa00</color>
		</LineStyle>
		<PolyStyle>
			<color>ff00ff00</color>
		</PolyStyle>
	</Style>
	<Style id="s_ylw-pushpin">
		<IconStyle>
			<scale>1.1</scale>
			<Icon>
				<href>http://maps.google.com/mapfiles/kml/pushpin/ylw-pushpin.png</href>
			</Icon>
			<hotSpot x="20" y="2" xunits="pixels" yunits="pixels"/>
		</IconStyle>
		<LineStyle>
			<color>ff00aa00</color>
		</LineStyle>
		<PolyStyle>
			<color>ff00ff00</color>
		</PolyStyle>
	</Style>
	<Style id="s_ylw-pushpin_hl1">
		<IconStyle>
			<scale>1.3</scale>
			<Icon>
				<href>http://maps.google.com/mapfiles/kml/pushpin/ylw-pushpin.png</href>
			</Icon>
			<hotSpot x="20" y="2" xunits="pixels" yunits="pixels"/>
		</IconStyle>
		<LineStyle>
			<color>ff00aa00</color>
		</LineStyle>
		<PolyStyle>
			<color>ff00ff00</color>
		</PolyStyle>
	</Style>
	<Style id="s_ylw-pushpin_hl">
		<IconStyle>
			<scale>1.3</scale>
			<Icon>
				<href>http://maps.google.com/mapfiles/kml/pushpin/ylw-pushpin.png</href>
			</Icon>
			<hotSpot x="20" y="2" xunits="pixels" yunits="pixels"/>
		</IconStyle>
		<LineStyle>
			<color>ff00aa00</color>
		</LineStyle>
		<PolyStyle>
			<color>ff00ff00</color>
		</PolyStyle>
	</Style>
	<StyleMap id="m_ylw-pushpin">
		<Pair>
			<key>normal</key>
			<styleUrl>#s_ylw-pushpin</styleUrl>
		</Pair>
		<Pair>
			<key>highlight</key>
			<styleUrl>#s_ylw-pushpin_hl</styleUrl>
		</Pair>
	</StyleMap>
	<Placemark>
		<name>未命名多边形</name>
		<styleUrl>#m_ylw-pushpin1</styleUrl>
		<Polygon>
			<tessellate>1</tessellate>
			<outerBoundaryIs>
				<LinearRing>
					<coordinates>
						112.6674454121357,33.13029930647765,0 112.7547296366404,33.10563386483725,0 112.9254151314893,33.09566787979012,0 113.1934387312047,33.0748651858589,0 113.2938265740893,33.08299508132556,0 113.357026594053,33.0941551124379,0 113.3767958983391,33.11505862093859,0 113.3872513467894,33.13428873685985,0 113.3782309897469,33.16047658088318,0 113.3810384767124,33.19490289594361,0 113.3865837350102,33.2194071726833,0 113.4034567960589,33.27027898836818,0 113.3826916752832,33.29896968584326,0 113.4114972279761,33.32524627468118,0 113.3990325888943,33.34229974297477,0 113.3631532533948,33.36225304367117,0 113.2902326637903,33.3686530402373,0 113.2186736854191,33.40648163848714,0 113.1613837193054,33.4422599307396,0 113.1067383262129,33.45438193514261,0 113.0905712974661,33.45952603711385,0 113.0666087399167,33.45711763846665,0 113.0461334036987,33.44552789401665,0 113.0333332927871,33.44691268360668,0 113.0425490561173,33.46837461294566,0 113.0510137998392,33.4961379043586,0 113.0455894471345,33.51967950329137,0 113.0347690195264,33.55013117645746,0 113.0019876612419,33.58189742414802,0 112.9662886559249,33.59451186214403,0 112.9186647030347,33.61937074543608,0 112.8696585913637,33.62562038527417,0 112.8337745261611,33.61183861196628,0 112.8352402505787,33.53499665433604,0 112.7942727811482,33.47281771517404,0 112.7747421118909,33.42590118330023,0 112.7340135365396,33.39069675351722,0 112.7012156003215,33.38114637277055,0 112.6874496560013,33.36049941666343,0 112.6403943029592,33.34334037029559,0 112.6374755993176,33.27375385606296,0 112.6361795229271,33.22967532734506,0 112.6184593259756,33.18833143626932,0 112.639457631913,33.1527504105641,0 112.6583835622837,33.13419249370171,0 112.6674454121357,33.13029930647765,0 
					</coordinates>
				</LinearRing>
			</outerBoundaryIs>
		</Polygon>
	</Placemark>
	<Placemark>
		<name>未命名多边形</name>
		<styleUrl>#m_ylw-pushpin</styleUrl>
		<Polygon>
			<tessellate>1</tessellate>
			<outerBoundaryIs>
				<LinearRing>
					<coordinates>
						112.5472587563796,32.3932764050183,0 112.608399808752,32.37542725787687,0 112.7393810065461,32.35656637594687,0 112.8222823391658,32.36639925100755,0 112.9644155190975,32.38905613141822,0 113.0329229377599,32.42944766717395,0 113.0473203172479,32.49353511752968,0 113.030535945081,32.54231201044141,0 113.0454188836151,32.5792789129203,0 113.1843886620721,32.59867594036043,0 113.2013845338533,32.65742540143133,0 113.1929016444171,32.70620818234038,0 113.1883268402047,32.74953680664797,0 113.1941431965698,32.80558932261526,0 113.1512617195715,32.85194633411665,0 113.0966700095334,32.8354167831034,0 112.9765029852202,32.81833882178937,0 112.9004323769581,32.85116756076958,0 112.8340747766528,32.87495224172267,0 112.7807975169542,32.91582622323559,0 112.7052454784715,32.91931778127491,0 112.6639158917971,32.85970882391175,0 112.6476822206715,32.81111627833712,0 112.6352527090523,32.77268203549239,0 112.6249551492649,32.71566096794956,0 112.6563529693876,32.68932374127773,0 112.6285120411686,32.65266273112086,0 112.5814585938396,32.62737805277712,0 112.5838010599557,32.55713659693144,0 112.547357377584,32.51292324511098,0 112.5165844396768,32.45241931788914,0 112.5264027226653,32.40855091190842,0 112.5472587563796,32.3932764050183,0 
					</coordinates>
				</LinearRing>
			</outerBoundaryIs>
		</Polygon>
	</Placemark>
</Document>
</kml>
