<?xml version="1.0" encoding="utf-8" ?>
<kml xmlns="http://www.opengis.net/kml/2.2">
<Document id="root_doc">
<Schema name="Fincas_Futuro_Forestal" id="Fincas_Futuro_Forestal">
	<SimpleField name="id" type="float"></SimpleField>
	<SimpleField name="País" type="string"></SimpleField>
	<SimpleField name="Provincia" type="string"></SimpleField>
	<SimpleField name="Finca" type="string"></SimpleField>
	<SimpleField name="Área (Ha)" type="float"></SimpleField>
</Schema>
<Folder><name>Fincas_Futuro_Forestal</name>
  <Placemark>
	<Style><LineStyle><color>ff0000ff</color></LineStyle><PolyStyle><fill>0</fill></PolyStyle></Style>
	<ExtendedData><SchemaData schemaUrl="#Fincas_Futuro_Forestal">
		<SimpleData name="id">1</SimpleData>
		<SimpleData name="País">Panama</SimpleData>
		<SimpleData name="Provincia">Colon</SimpleData>
		<SimpleData name="Finca">Bartholly 1</SimpleData>
		<SimpleData name="Área (Ha)">62.43668</SimpleData>
	</SchemaData></ExtendedData>
      <MultiGeometry><Polygon><outerBoundaryIs><LinearRing><coordinates>-79.7012896927249,9.38800946976846 -79.7011816468493,9.38759631128612 -79.7010423301629,9.38735344729305 -79.7009500525974,9.38732296701442 -79.7007145704129,9.38711729711488 -79.700839981544,9.38690185182782 -79.7009556116304,9.38668434325251 -79.7023059483283,9.38416026333082 -79.702396839406,9.38398206880613 -79.7023498166086,9.38395534545849 -79.7001187060507,9.38312962899055 -79.7006922780811,9.381878636642 -79.7008382782922,9.38079403761853 -79.7020943279828,9.38087975085867 -79.7025998804131,9.38062261859375 -79.7034858594789,9.38106221019023 -79.7037861001653,9.38160751553977 -79.704802250954,9.38141891152901 -79.7055197034519,9.38154407810289 -79.7058006067537,9.38142391898397 -79.7062321107307,9.38162356294388 -79.7062420588207,9.38172517521335 -79.7093417357841,9.38270540029202 -79.7107180967704,9.38265996584198 -79.7129999139947,9.38357992672282 -79.7134521898923,9.38415438006245 -79.7135706609696,9.38431569603181 -79.7143742364048,9.38415834288655 -79.7145900739792,9.38421884383007 -79.7145011237194,9.38461096358104 -79.7144081118013,9.38479559057581 -79.7144575071571,9.38540689928967 -79.7143430546345,9.38573184880016 -79.7140316688147,9.38561492401128 -79.7135018968561,9.38545529078098 -79.7131402128337,9.38539703616205 -79.7127138061978,9.38527002657031 -79.7125880860099,9.38523178632055 -79.712406085041,9.38520537852289 -79.7121272789616,9.38514452370988 -79.7115115606174,9.38503326320782 -79.7110364800147,9.3849440080283 -79.7103211050899,9.38500975260829 -79.7100510046224,9.38506694903735 -79.7091038567254,9.38536870763633 -79.7086182948593,9.38584817451583 -79.708483968421,9.38597935625149 -79.7082448823149,9.38620535603404 -79.7079990326283,9.38643146785576 -79.7078194726531,9.38659942817447 -79.7065367026209,9.38659060715133 -79.7062979286604,9.38648314252274 -79.7055873539393,9.38622564851879 -79.7053107053013,9.38621942825354 -79.7049016602092,9.3862621443175 -79.7043080755458,9.38634502013281 -79.7039027009482,9.38653505174404 -79.7032380987083,9.38695313914307 -79.7030647760839,9.38706077433305 -79.7029211455518,9.38714413312898 -79.7026712072646,9.38729269804053 -79.7022814804533,9.38751557221308 -79.7013649853215,9.38797404195028 -79.7012896927249,9.38800946976846</coordinates></LinearRing></outerBoundaryIs></Polygon></MultiGeometry>
  </Placemark>
  <Placemark>
	<Style><LineStyle><color>ff0000ff</color></LineStyle><PolyStyle><fill>0</fill></PolyStyle></Style>
	<ExtendedData><SchemaData schemaUrl="#Fincas_Futuro_Forestal">
		<SimpleData name="id">2</SimpleData>
		<SimpleData name="País">Panama</SimpleData>
		<SimpleData name="Provincia">Colon</SimpleData>
		<SimpleData name="Finca">Bartholly 2</SimpleData>
		<SimpleData name="Área (Ha)">30.45432</SimpleData>
	</SchemaData></ExtendedData>
      <MultiGeometry><Polygon><outerBoundaryIs><LinearRing><coordinates>-79.7007673346566,9.3881418079994 -79.7003393984993,9.38837825615924 -79.699871273758,9.38850192220974 -79.6992071253337,9.38861238994199 -79.69723837891,9.38942211629371 -79.6962381287108,9.38946974725557 -79.6952511336412,9.38919658436772 -79.6943011362616,9.39073990623865 -79.6937771956811,9.39100981502256 -79.6932373781133,9.39105744598442 -79.6930038195179,9.39098021080349 -79.6923127146224,9.39102823327153 -79.6919304982835,9.39088672418793 -79.6919026735275,9.39061091182854 -79.6921469215843,9.39021321522378 -79.6921137723143,9.39010232519752 -79.6922167836995,9.38985114921502 -79.6924531296671,9.38971440168419 -79.6926524968488,9.38969456620554 -79.6928634590939,9.38946170820081 -79.6932024396904,9.38912998265215 -79.6935407614616,9.38860687220345 -79.6941994742701,9.38837352891251 -79.6943392106564,9.3881923675852 -79.6944082953563,9.38786502991591 -79.6945804635588,9.38710915433674 -79.6955049916182,9.38672589375281 -79.6961984652625,9.3857952850787 -79.6968251549062,9.38543355784452 -79.6973393669119,9.38487541994513 -79.6982840776124,9.38480815076307 -79.6987186801089,9.38509436374176 -79.6990530008339,9.38560776137148 -79.6995848225637,9.38580163239459 -79.7002338845692,9.38678424797132 -79.7009325388056,9.38749794304936 -79.7013257016422,9.38814926962655 -79.7007673346566,9.3881418079994</coordinates></LinearRing></outerBoundaryIs></Polygon></MultiGeometry>
  </Placemark>
  <Placemark>
	<Style><LineStyle><color>ff0000ff</color></LineStyle><PolyStyle><fill>0</fill></PolyStyle></Style>
	<ExtendedData><SchemaData schemaUrl="#Fincas_Futuro_Forestal">
		<SimpleData name="id">3</SimpleData>
		<SimpleData name="País">Panama</SimpleData>
		<SimpleData name="Provincia">Colon</SimpleData>
		<SimpleData name="Finca">Gatun 1</SimpleData>
		<SimpleData name="Área (Ha)">49.01307</SimpleData>
	</SchemaData></ExtendedData>
      <MultiGeometry><Polygon><outerBoundaryIs><LinearRing><coordinates>-79.6775584492272,9.36486315511837 -79.6779550123286,9.36449856950449 -79.678583542177,9.36452088797221 -79.6798133608511,9.36464260290934 -79.6814138589566,9.36468893599587 -79.6818209543901,9.36470071991894 -79.681899838405,9.36486370549415 -79.6824862746058,9.36634616602649 -79.6825183861399,9.3664551456641 -79.6824743013111,9.36666517471405 -79.6824714108826,9.36677437423842 -79.6825972698102,9.36725556313603 -79.682793963937,9.36800756999235 -79.6829879639377,9.3692005699925 -79.6830381135686,9.36939793978092 -79.6832710616274,9.36985340689726 -79.6833446145979,9.36998266160317 -79.683344427109,9.36998280944563 -79.683562849062,9.37036664198585 -79.6836087985383,9.37043599005781 -79.6836087996825,9.37043598840796 -79.6838886331748,9.37085831931048 -79.6840806653222,9.37136266113316 -79.6842769912006,9.37170386320769 -79.6844219714347,9.37195582933634 -79.6844959254248,9.37208435637428 -79.6845509430339,9.37222035696975 -79.6845932241954,9.37231124094522 -79.6842595898108,9.37257136352448 -79.6837003637443,9.37303209406974 -79.6830411272584,9.37331579036748 -79.682853988507,9.37336677316144 -79.6828187447268,9.37333926452693 -79.6825006308397,9.37300237532327 -79.6823044160014,9.37266801871255 -79.681389077683,9.3717015934271 -79.6810537568696,9.37148525921656 -79.6804327301151,9.37095738544428 -79.6800215489346,9.37072223237234 -79.6796046990824,9.37052162842798 -79.678943836833,9.37016786785822 -79.6785940839738,9.3698156714934 -79.6784560905406,9.36938046769418 -79.6781291556139,9.36903406761523 -79.6777070474056,9.36882449686743 -79.6774428451864,9.36843783288837 -79.6766673449231,9.36808261619972 -79.6762025261975,9.36807295355389 -79.675745058974,9.36793661692394 -79.6749379637229,9.36780256996173 -79.6750411624596,9.36695102198893 -79.6756804159557,9.36647448833597 -79.6759084848765,9.36647685439113 -79.6763514311821,9.36648144922972 -79.6768130583308,9.36639778791338 -79.6773567733969,9.3650601797678 -79.6775584492272,9.36486315511837</coordinates></LinearRing></outerBoundaryIs></Polygon></MultiGeometry>
  </Placemark>
  <Placemark>
	<Style><LineStyle><color>ff0000ff</color></LineStyle><PolyStyle><fill>0</fill></PolyStyle></Style>
	<ExtendedData><SchemaData schemaUrl="#Fincas_Futuro_Forestal">
		<SimpleData name="id">4</SimpleData>
		<SimpleData name="País">Panama</SimpleData>
		<SimpleData name="Provincia">Colon</SimpleData>
		<SimpleData name="Finca">Gatun 2</SimpleData>
		<SimpleData name="Área (Ha)">48.98637</SimpleData>
	</SchemaData></ExtendedData>
      <MultiGeometry><Polygon><outerBoundaryIs><LinearRing><coordinates>-79.6960500488643,9.35573229152776 -79.6958244460043,9.35613465539644 -79.6946069855018,9.35605171315568 -79.6791596309988,9.35499843522683 -79.678868901985,9.35462017489706 -79.6789658116563,9.35450763463366 -79.6787188483005,9.35430756305428 -79.6788574718872,9.35407817289796 -79.6788438930376,9.35396994226408 -79.6793690809335,9.35385427588225 -79.6797629718554,9.3534447543682 -79.6794566122495,9.35302898061731 -79.6793503242229,9.35267885535339 -79.6972242970987,9.35389569695142 -79.6969775682492,9.354236077682 -79.6966654187618,9.35478976708857 -79.6962212038483,9.35547360522785 -79.6960500488643,9.35573229152776</coordinates></LinearRing></outerBoundaryIs></Polygon></MultiGeometry>
  </Placemark>
  <Placemark>
	<Style><LineStyle><color>ff0000ff</color></LineStyle><PolyStyle><fill>0</fill></PolyStyle></Style>
	<ExtendedData><SchemaData schemaUrl="#Fincas_Futuro_Forestal">
		<SimpleData name="id">5</SimpleData>
		<SimpleData name="País">Panama</SimpleData>
		<SimpleData name="Provincia">Colon</SimpleData>
		<SimpleData name="Finca">Lauhan 1</SimpleData>
		<SimpleData name="Área (Ha)">69.31851</SimpleData>
	</SchemaData></ExtendedData>
      <MultiGeometry><Polygon><outerBoundaryIs><LinearRing><coordinates>-79.703704191072,9.39214829550737 -79.7042855811734,9.39261663753351 -79.7046408751243,9.39255203863335 -79.7052061155006,9.39247129000816 -79.7054645111013,9.39264893698359 -79.7055452597265,9.3928588834091 -79.7060297514776,9.39313342873477 -79.7065626924039,9.39371481883619 -79.7066434410291,9.3942962089376 -79.7069179863548,9.39487759903902 -79.7071763819554,9.39555588749067 -79.707402478106,9.39649257154295 -79.707806221232,9.39699321301917 -79.7082584135331,9.39755845339555 -79.7091304986852,9.39826904129728 -79.7095180920861,9.39846283799775 -79.7101802308128,9.39834978992248 -79.710293278888,9.39846283799775 -79.7105193750386,9.39862433524815 -79.7109715673397,9.39891503029886 -79.7111492143151,9.39904422809917 -79.7111330645901,9.39944797122515 -79.7107454711891,9.39996476242641 -79.7100671827375,9.40040080500247 -79.7097441882367,9.40054615252783 -79.7094050440109,9.40075609895334 -79.7089851511598,9.4009014464787 -79.7081130660077,9.40125674042956 -79.707822370957,9.4017250824557 -79.7076770234317,9.40193502888121 -79.7066757404792,9.40206422668153 -79.7060782006528,9.40245182008247 -79.7046408751243,9.40253256870767 -79.7027029081195,9.40230647255712 -79.7018308229674,9.40267791623302 -79.7016208765419,9.40199962778137 -79.7012978820411,9.40145053713003 -79.7010394864405,9.40059460170295 -79.7017823737923,9.39960946847555 -79.702492961694,9.3972516086198 -79.702912854545,9.39607267869193 -79.7032358490458,9.39511984491461 -79.7031551004206,9.3947484012387 -79.7031228009706,9.39444155646296 -79.7031066512455,9.39374711828626 -79.7032196993208,9.39321417735997 -79.7033650468461,9.39282658395902 -79.703704191072,9.39214829550737</coordinates></LinearRing></outerBoundaryIs></Polygon></MultiGeometry>
  </Placemark>
  <Placemark>
	<Style><LineStyle><color>ff0000ff</color></LineStyle><PolyStyle><fill>0</fill></PolyStyle></Style>
	<ExtendedData><SchemaData schemaUrl="#Fincas_Futuro_Forestal">
		<SimpleData name="id">6</SimpleData>
		<SimpleData name="País">Panama</SimpleData>
		<SimpleData name="Provincia">Colon</SimpleData>
		<SimpleData name="Finca">Lauhan 2</SimpleData>
		<SimpleData name="Área (Ha)">64.19356</SimpleData>
	</SchemaData></ExtendedData>
      <MultiGeometry><Polygon><outerBoundaryIs><LinearRing><coordinates>-79.6973336408337,9.39975803501853 -79.6959682199269,9.39902769360326 -79.6927134375327,9.39647149864981 -79.6914909095115,9.39432810536586 -79.692618175609,9.39328022420482 -79.693221501126,9.39231172798022 -79.6932373781133,9.39105744598442 -79.6937771956811,9.39100981502256 -79.6943011362616,9.39073990623865 -79.6952511336412,9.38919658436772 -79.6962381287108,9.38946974725557 -79.69723837891,9.38942211629371 -79.6992071253337,9.38861238994199 -79.699871273758,9.38850192220974 -79.7003393984993,9.38837825615924 -79.7007673346566,9.3881418079994 -79.7013257016422,9.38814926962655 -79.7015251654779,9.38858063596742 -79.6995246650795,9.39015245770898 -79.6983497680202,9.39324847023024 -79.6983338910329,9.39364539491245 -79.6976670575667,9.39921821745072 -79.6973336408337,9.39975803501853</coordinates></LinearRing></outerBoundaryIs></Polygon></MultiGeometry>
  </Placemark>
  <Placemark>
	<Style><LineStyle><color>ff0000ff</color></LineStyle><PolyStyle><fill>0</fill></PolyStyle></Style>
	<ExtendedData><SchemaData schemaUrl="#Fincas_Futuro_Forestal">
		<SimpleData name="id">7</SimpleData>
		<SimpleData name="País">Panama</SimpleData>
		<SimpleData name="Provincia">Colon</SimpleData>
		<SimpleData name="Finca">Lauhan 3</SimpleData>
		<SimpleData name="Área (Ha)">111.99712</SimpleData>
	</SchemaData></ExtendedData>
      <MultiGeometry><Polygon><outerBoundaryIs><LinearRing><coordinates>-79.6815202411072,9.35863150692054 -79.6815182729882,9.35842894473452 -79.6816646601155,9.35799905970176 -79.6819021733233,9.35779015332266 -79.6818541830304,9.35747800427507 -79.681830557489,9.35722381859097 -79.6819331841762,9.35705058140615 -79.6818837145886,9.35688943878904 -79.681966275605,9.35648373141619 -79.6818811785696,9.35635410565211 -79.6816911826031,9.35603419488813 -79.6814949610651,9.35591681582654 -79.6813662104075,9.35601580626331 -79.6810664928233,9.35606080962177 -79.6807390108786,9.35598363402011 -79.6804487252926,9.35594186271403 -79.6800679352803,9.35599741484217 -79.6798008989979,9.35606785803608 -79.6795802082077,9.35592054629301 -79.679677164557,9.35580244874614 -79.679311113959,9.35532996579551 -79.6792210843333,9.35506016055709 -79.679173965411,9.35500030386304 -79.6958244460043,9.35613465539644 -79.695375753274,9.3567629787914 -79.6947542093491,9.35692165222755 -79.6945145487231,9.35697593070871 -79.6939467526239,9.35712666200358 -79.693608628842,9.35721584374296 -79.6934436978034,9.35725140702693 -79.6927639530934,9.35739087277592 -79.6922552036333,9.35733383743887 -79.6921605615603,9.35732082881054 -79.6918368144402,9.35794810029146 -79.6915414971424,9.35852031593292 -79.691416681227,9.35878480549137 -79.6912845947993,9.35904565108616 -79.691148937279,9.35928749383569 -79.690971976359,9.35961780213533 -79.690845352108,9.3598786676294 -79.6906536231439,9.36026227285355 -79.6905949055054,9.36038141915773 -79.6904096441079,9.36073972860504 -79.6902601146407,9.36103848833582 -79.6901921293331,9.36120100505618 -79.6899941303708,9.36155655431116 -79.6897960056347,9.36194556075422 -79.6896840624542,9.36217573479485 -79.689366225931,9.36268094869297 -79.6892780904467,9.36287503992322 -79.6889902580817,9.36339121540996 -79.6887271097716,9.36388035388645 -79.6885831283749,9.36415562212146 -79.6884941934324,9.36431986933339 -79.6883684757582,9.3645807367582 -79.6880614657435,9.36511130835052 -79.6877818951477,9.36560852333144 -79.6874841443239,9.36609753226828 -79.6872917042017,9.36642597183688 -79.6866455913176,9.36633315174482 -79.6865378402209,9.36617360195056 -79.6860916225401,9.36619184186414 -79.6859879008074,9.36617156353303 -79.6856038042834,9.36613487303585 -79.6854417871157,9.36612070820631 -79.6850641050667,9.36607318976528 -79.6848447302058,9.36605790760617 -79.6846935574377,9.36606548500711 -79.6845133373066,9.36604944368323 -79.6842757492361,9.36603499784133 -79.683685912217,9.36598940313684 -79.6831124132854,9.36595743211884 -79.6830114540547,9.36592902484516 -79.6828656642537,9.36547454311001 -79.6828239782933,9.36518050274997 -79.6828115448246,9.36509726435687 -79.6826896190247,9.36459223255894 -79.682557971102,9.36400939801248 -79.6825131928055,9.36381119802737 -79.6823709499506,9.36314061059426 -79.6823289202994,9.36293789950632 -79.6822225862131,9.36240308495187 -79.6821752777682,9.36215152404767 -79.6820829862513,9.3615145799766 -79.6819759773053,9.36091736877075 -79.6819188173696,9.36062236663189 -79.6818034406896,9.36007124172541 -79.6817340930858,9.35962789517816 -79.681643569517,9.35924686405516 -79.6815202411072,9.35863150692054</coordinates></LinearRing></outerBoundaryIs></Polygon></MultiGeometry>
  </Placemark>
  <Placemark>
	<Style><LineStyle><color>ff0000ff</color></LineStyle><PolyStyle><fill>0</fill></PolyStyle></Style>
	<ExtendedData><SchemaData schemaUrl="#Fincas_Futuro_Forestal">
		<SimpleData name="id">8</SimpleData>
		<SimpleData name="País">Panama</SimpleData>
		<SimpleData name="Provincia">Colon</SimpleData>
		<SimpleData name="Finca">Santa Rita 1</SimpleData>
		<SimpleData name="Área (Ha)">345.08724</SimpleData>
	</SchemaData></ExtendedData>
      <MultiGeometry><Polygon><outerBoundaryIs><LinearRing><coordinates>-79.7384766700378,9.37597204363668 -79.7384766700378,9.37606894198691 -79.7382505738873,9.3754875518855 -79.7379598788365,9.37519685683479 -79.7373784887351,9.3744216700329 -79.7372815903849,9.37429247223258 -79.7368293980838,9.37400177718188 -79.7367647991836,9.37358188433085 -79.7367647991836,9.37319429092991 -79.7364741041329,9.37306509312959 -79.7363772057827,9.37258060137841 -79.7362157085323,9.37222530742755 -79.7364741041329,9.3718377140266 -79.7360542112819,9.37148242007574 -79.7360219118318,9.37099792832456 -79.7362157085323,9.37061033492361 -79.7361834090822,9.37022274152267 -79.7356343184309,9.36909226076991 -79.7355051206306,9.36889846406944 -79.7356008226648,9.36885782936991 -79.7355434665116,9.36873603020648 -79.7355103665116,9.36866883020648 -79.7354346665116,9.36860573020648 -79.7354336665116,9.36858103020648 -79.7354459665116,9.36850023020648 -79.7354435665116,9.36844813020648 -79.7353902884906,9.36832715430488 -79.7353648665116,9.36829313020648 -79.7353449665116,9.36818173020648 -79.7352746665116,9.36808633020648 -79.7352638665116,9.36793323020648 -79.7352124665116,9.36767343020648 -79.7351274665116,9.36755643020648 -79.7350229665116,9.36748383020648 -79.7349907305116,9.36747460620648 -79.7349722665116,9.36746483020648 -79.7349908665116,9.36734893020648 -79.7349675665116,9.36729843020648 -79.7349530665116,9.36730153020648 -79.7349560299792,9.36689589816456 -79.7348742665116,9.36672993020648 -79.7348479665116,9.36665663020648 -79.7348152545116,9.36660580820648 -79.7347847365116,9.36652951420648 -79.7347618485116,9.36648469220648 -79.7347311665116,9.36644093020648 -79.7347317665116,9.36637873020648 -79.7347094665116,9.36636433020648 -79.7346888665116,9.36631683020648 -79.7346940665116,9.36626343020648 -79.7346125665116,9.36604753020648 -79.7345934665116,9.36603343020648 -79.7345770665116,9.36595193020648 -79.7345961665116,9.36581313020648 -79.7345908665116,9.36578273020648 -79.7345225665116,9.36578483020648 -79.7345101665116,9.36564883020648 -79.7344700665116,9.36551023020648 -79.7344723665116,9.36541103020648 -79.7344110665116,9.36533543020648 -79.7343137665116,9.36504623020648 -79.7341063665116,9.36483013020648 -79.7341087665116,9.36445093020648 -79.7337609503263,9.3635044559063 -79.7335853665116,9.36316173020648 -79.7334355665116,9.36260663020648 -79.7333027795066,9.36237192368423 -79.7332825665116,9.36208053020648 -79.7331871195116,9.36176188420648 -79.7331620575116,9.36166800720648 -79.7331221605116,9.36155434820648 -79.7330944165116,9.36144974220648 -79.7330788255116,9.36135578120648 -79.7330422805116,9.36128931320648 -79.7329807575116,9.36115109520648 -79.7329589645116,9.36102134320648 -79.7329386805116,9.36094783420648 -79.7328874665116,9.36079872020648 -79.7328246865116,9.36070895020648 -79.7327983675116,9.36065362920648 -79.7327381855116,9.36054374220648 -79.7327085975116,9.36050015620648 -79.7320834077949,9.35929759339077 -79.7318267080253,9.35869635907604 -79.7317143246175,9.3582298028952 -79.7316551764389,9.35802166574985 -79.7319143285001,9.35727830993935 -79.7320533832841,9.35708776103284 -79.7322302046496,9.35698314785897 -79.7324978172988,9.35690668242401 -79.7326368655517,9.35671780904343 -79.7328565657241,9.35665697248962 -79.7335774330326,9.35652341833252 -79.7343423404277,9.35633397798883 -79.7350852277795,9.35620478018852 -79.7357312167811,9.35620478018852 -79.7361834090822,9.35623707963859 -79.7369585958841,9.35626937908867 -79.7377660821361,9.35630167853875 -79.7383264558103,9.35631074752767 -79.7387732080598,9.35595370494101 -79.7391549584895,9.35584948623765 -79.7396183659559,9.35554445001153 -79.7397939222352,9.35552496341226 -79.7399252696677,9.35559916713235 -79.7401843849211,9.35580454052255 -79.7405106445985,9.35610735123007 -79.7407126560393,9.35623878433896 -79.7409250690798,9.35629316530076 -79.7411796780012,9.35634434416417 -79.741491584608,9.35641583627203 -79.7416836352407,9.35650198568007 -79.7418681122961,9.3566892719397 -79.7419573872211,9.35686074995212 -79.7420818115735,9.35698352802392 -79.7423091284754,9.35711672593144 -79.7426362825207,9.35717151272096 -79.7429197460795,9.35717586896387 -79.7431600902992,9.3571414642408 -79.7433215875496,9.35701226644048 -79.7435011048317,9.35692487536228 -79.7436428305416,9.35692872898128 -79.7437675383368,9.356972742654 -79.7441382331021,9.35711985393549 -79.7445240182289,9.35729383185857 -79.7449738151828,9.3574982011618 -79.7452264741661,9.35762310778485 -79.7458375442896,9.35755655882181 -79.7464002692746,9.35732560461224 -79.7465205399165,9.35719531325997 -79.7465799815897,9.35708826885268 -79.7468425841429,9.35703912969765 -79.7468927667271,9.35691508534481 -79.7474540247526,9.356622117643 -79.7478506422622,9.3564609084066 -79.7480320474948,9.35635937325773 -79.7482264973375,9.35630813770016 -79.7484572001121,9.35604328293812 -79.7487619239318,9.35557092423331 -79.7491677880138,9.35523579668616 -79.749361237962,9.35507197903136 -79.7496328652302,9.35508299139368 -79.7502334239652,9.35512365171496 -79.7506551657208,9.35515195051525 -79.7510194420118,9.35520686020901 -79.7512826328501,9.35521784163196 -79.7515276185386,9.35512904551855 -79.7517993806053,9.35510234999968 -79.75213349995,9.35509682173874 -79.7525248966818,9.3551174702706 -79.7525960303183,9.3551516048588 -79.7526238291723,9.35542959338663 -79.7526238291723,9.35617248073844 -79.7524300324718,9.35662467303954 -79.7523008346715,9.35701226644048 -79.7520424390709,9.35749675819166 -79.7519132412705,9.35785205214253 -79.7516548456699,9.3582073460934 -79.7514287495194,9.35914403014568 -79.7515256478696,9.35943472519638 -79.7519132412705,9.35982231859733 -79.7517517440202,9.3601776125482 -79.7518163429203,9.36085590099985 -79.7517840434702,9.36130809330095 -79.7518486423704,9.36172798615197 -79.7515902467698,9.36218017845307 -79.7515902467698,9.36279386800457 -79.7518809418205,9.36308456305528 -79.7518809418205,9.36337525810599 -79.7518809418205,9.36366595315669 -79.7517517440202,9.3641181454578 -79.7517840434702,9.36447343940866 -79.7512026533688,9.3645703377589 -79.7507827605178,9.36479643390945 -79.7506535627175,9.36505482951008 -79.750459766017,9.36550702181118 -79.7501367715162,9.36576541741181 -79.7499106753657,9.36624990916299 -79.7499106753657,9.36670210146409 -79.7494584830646,9.36708969486503 -79.749232386914,9.3674449888159 -79.748812494063,9.36802637891732 -79.7483280023118,9.36838167286818 -79.7481179931662,9.36866098813577 -79.7473267193594,9.36964135142125 -79.7468099281581,9.37041653822314 -79.7462931369569,9.37122402447511 -79.7458732441058,9.37193461237684 -79.7456148485052,9.37235450522786 -79.7451626562041,9.3729035958792 -79.7450657578539,9.37348498598062 -79.7450657578539,9.37364648323101 -79.7449688595036,9.37409867553211 -79.7447427633531,9.3744216700329 -79.744710463903,9.37477696398376 -79.7444197688523,9.37477696398376 -79.7437737798507,9.37464776618345 -79.7435194915116,9.37480085720648 -79.7434343315116,9.37481477120648 -79.7433055025116,9.37477571120648 -79.7432193365116,9.37476389220648 -79.7429689685116,9.37477705220648 -79.7428791985116,9.37477545920648 -79.7428238775116,9.37480161120648 -79.7422880051471,9.37497076068424 -79.7418681122961,9.37506765903447 -79.7417066150457,9.37529375518502 -79.7415128183452,9.37568134858597 -79.7416743155956,9.37603664253683 -79.7417712139458,9.3763919364877 -79.7412221232945,9.3763919364877 -79.7407376315433,9.37616584033715 -79.7404469364926,9.3763919364877 -79.739800947491,9.3763919364877 -79.7390903595893,9.37658573318817 -79.7384766700378,9.37597204363668</coordinates></LinearRing></outerBoundaryIs></Polygon></MultiGeometry>
  </Placemark>
  <Placemark>
	<Style><LineStyle><color>ff0000ff</color></LineStyle><PolyStyle><fill>0</fill></PolyStyle></Style>
	<ExtendedData><SchemaData schemaUrl="#Fincas_Futuro_Forestal">
		<SimpleData name="id">9</SimpleData>
		<SimpleData name="País">Panama</SimpleData>
		<SimpleData name="Provincia">Colon</SimpleData>
		<SimpleData name="Finca">Santa Rita 2</SimpleData>
		<SimpleData name="Área (Ha)">91.35194</SimpleData>
	</SchemaData></ExtendedData>
      <MultiGeometry><Polygon><outerBoundaryIs><LinearRing><coordinates>-79.7619457429358,9.37224262673798 -79.7618991738376,9.37219603177776 -79.761736223911,9.37206538328187 -79.7615158986211,9.37195609958533 -79.7613140346761,9.37175423564027 -79.7612616493994,9.37169384507435 -79.7610948445791,9.37108989403642 -79.7609127436231,9.37026751949556 -79.7606892881204,9.37018213389413 -79.7602174964876,9.37004967446425 -79.759811117099,9.36969630491958 -79.7595237129719,9.36930539310861 -79.7591069689117,9.36889446499148 -79.758890608808,9.36846174478414 -79.7582080875413,9.36841843007 -79.7579733993645,9.36836875520591 -79.7579461150804,9.36834476354809 -79.757388176768,9.36851485689044 -79.7570546784997,9.36860004045504 -79.756855586083,9.36875269634969 -79.7557221991784,9.36945094553652 -79.7547194514139,9.36975450546771 -79.7547442792622,9.3695985552138 -79.754288699803,9.36922775970793 -79.7543042981338,9.36901672573278 -79.7542788118654,9.36826931661921 -79.7543062506278,9.3679503630573 -79.7544006165203,9.36772687003049 -79.754288944531,9.36740928551541 -79.754696002877,9.36708652011047 -79.7550283019866,9.36672937620766 -79.7553950568035,9.36613130651669 -79.7565184494981,9.36494354978264 -79.7568045867981,9.36446999423744 -79.7570022644642,9.36341407326261 -79.757295128162,9.36305780597312 -79.7575802615756,9.36295408429921 -79.7582815324846,9.36314396842711 -79.7587420476808,9.36340854081064 -79.7604978599089,9.36301156618381 -79.7614585151411,9.36343766015233 -79.7631109655503,9.36371242955185 -79.7632732098392,9.36377709055568 -79.7638040608628,9.36394177679624 -79.7643053376881,9.36419963131377 -79.7644697101476,9.36441403396709 -79.7645846902752,9.36486337741693 -79.7651160098253,9.36489029141257 -79.766183427548,9.36596581939816 -79.7658701082319,9.36636533605618 -79.7658266895256,9.36648436599886 -79.7655769452872,9.3669154626899 -79.7651387440422,9.36733698970919 -79.765052673796,9.36736449341492 -79.7650913782359,9.36745220968747 -79.7653160544141,9.36782452178621 -79.7654840152534,9.36828153652309 -79.7658332611971,9.36879475788291 -79.7660877373054,9.36889336782925 -79.7665369975317,9.36890228532443 -79.7675733223611,9.36924845545728 -79.7678692297111,9.3697248592605 -79.7683034416528,9.37011084438564 -79.7685276254564,9.37023517921745 -79.768593181128,9.37049257125762 -79.7684935528203,9.37081692263686 -79.7682544541955,9.37111333942909 -79.7678639526048,9.3714389746877 -79.7672551234078,9.37159410714065 -79.7668702012489,9.37170446009061 -79.7664202600568,9.37185659655757 -79.7658926944887,9.37189309791693 -79.7654713767991,9.3716484464118 -79.7650759777798,9.37148573447229 -79.7649524145738,9.37147337815169 -79.7648865141973,9.37144454673696 -79.7646023188234,9.37148985324583 -79.7644499242027,9.37148985324583 -79.7643304797702,9.37149809079289 -79.7641945602436,9.37153927852823 -79.7639268399639,9.37149809079289 -79.7633486384803,9.37156630614736 -79.762873506993,9.37179527606235 -79.7626563117587,9.37193796306764 -79.7619457429358,9.37224262673798</coordinates></LinearRing></outerBoundaryIs></Polygon></MultiGeometry>
  </Placemark>
  <Placemark>
	<Style><LineStyle><color>ff0000ff</color></LineStyle><PolyStyle><fill>0</fill></PolyStyle></Style>
	<ExtendedData><SchemaData schemaUrl="#Fincas_Futuro_Forestal">
		<SimpleData name="id">10</SimpleData>
		<SimpleData name="País">Panama</SimpleData>
		<SimpleData name="Provincia">Colon</SimpleData>
		<SimpleData name="Finca">La Conexión</SimpleData>
		<SimpleData name="Área (Ha)">46.55929</SimpleData>
	</SchemaData></ExtendedData>
      <MultiGeometry><Polygon><outerBoundaryIs><LinearRing><coordinates>-79.7557221991784,9.36945094553652 -79.756855586083,9.36875269634969 -79.7570546784997,9.36860004045504 -79.757388176768,9.36851485689044 -79.7579461150804,9.36834476354809 -79.7579733993645,9.36836875520591 -79.7582080875413,9.36841843007 -79.758890608808,9.36846174478414 -79.7591069689117,9.36889446499148 -79.7595237129719,9.36930539310861 -79.759811117099,9.36969630491958 -79.7602174964876,9.37004967446425 -79.7606892881204,9.37018213389413 -79.7609127436231,9.37026751949556 -79.7610948445791,9.37108989403642 -79.7612616493994,9.37169384507435 -79.7610506044333,9.37174343095304 -79.7603653139274,9.37204778279288 -79.7600723575779,9.37204899387071 -79.759932722748,9.37202340162292 -79.7597273536489,9.37210979337508 -79.7584995893267,9.37229237020558 -79.7582791853453,9.37244079029031 -79.7576286018987,9.37269730320875 -79.7573002242026,9.37276286843194 -79.7561461501264,9.37285243214782 -79.7559536499522,9.3728253067528 -79.7556485477503,9.37283509315797 -79.7549332724855,9.37293953470391 -79.7544603463279,9.37273113340153 -79.7541288670673,9.37249858731071 -79.7537382865396,9.37232356535943 -79.7535543085556,9.37224904961612 -79.7529607053579,9.37230828160867 -79.7523435277122,9.37226394709553 -79.7518143402338,9.37218559433786 -79.7514723598701,9.37207419131257 -79.7506258519179,9.37181477746254 -79.7500669304296,9.37156548359933 -79.7495412379455,9.37130705623546 -79.749021453758,9.37104842075626 -79.7487693017422,9.37098664049577 -79.7480928056516,9.37078315396338 -79.7470321424323,9.37008321739011 -79.7473267193594,9.36964135142125 -79.7481179931662,9.36866098813577 -79.7492874994766,9.36888359293445 -79.749592727337,9.36896766805448 -79.7499515930173,9.36899879084133 -79.7502313074229,9.36900048977062 -79.7504587643233,9.36914476604871 -79.7514607798697,9.36966945667928 -79.7520650293091,9.36980432690029 -79.7525778137955,9.36996913243414 -79.7528337873989,9.36996618074556 -79.7547194514139,9.36975450546771 -79.7557221991784,9.36945094553652</coordinates></LinearRing></outerBoundaryIs></Polygon></MultiGeometry>
  </Placemark>
  <Placemark>
	<Style><LineStyle><color>ff0000ff</color></LineStyle><PolyStyle><fill>0</fill></PolyStyle></Style>
	<ExtendedData><SchemaData schemaUrl="#Fincas_Futuro_Forestal">
		<SimpleData name="id">11</SimpleData>
		<SimpleData name="País">Panama</SimpleData>
		<SimpleData name="Provincia">Darien</SimpleData>
		<SimpleData name="Finca">Brainforest</SimpleData>
		<SimpleData name="Área (Ha)">569.82220</SimpleData>
	</SchemaData></ExtendedData>
      <MultiGeometry><Polygon><outerBoundaryIs><LinearRing><coordinates>-78.263418865578,8.80908030290451 -78.2635944002975,8.80826325503922 -78.2636210083971,8.8081393942542 -78.2636463088821,8.80802164986718 -78.263686376051,8.80783514600464 -78.2637674410907,8.80745783516849 -78.2638344262159,8.80714603604944 -78.2640670947149,8.80606306085089 -78.2647247275969,8.80403899726334 -78.2646348197332,8.80365499371563 -78.2645872192188,8.80345171472234 -78.2645698083841,8.80337734505101 -78.2643200059671,8.80231043840768 -78.2641905728547,8.80172317865088 -78.2639588082421,8.80097043416355 -78.2638484890006,8.79996020891849 -78.2637248366886,8.79971478749185 -78.2637634236375,8.79941177146169 -78.2640345842755,8.79920259766001 -78.2643047251812,8.79923846241364 -78.2646636964398,8.79962825297874 -78.2649993937834,8.79975891346912 -78.2653346712383,8.79987505997957 -78.2659149191298,8.80030441561034 -78.2714080846855,8.80474758373299 -78.2727614202314,8.80574205683443 -78.271567571855,8.80628175914518 -78.2709628780275,8.80638665258718 -78.2706375087536,8.80680560839828 -78.2701579195315,8.80787949947161 -78.2698784483082,8.80835259269213 -78.2695570428546,8.80888567359978 -78.2692031859706,8.80974959964816 -78.2686799723488,8.8109972438396 -78.2681931510477,8.81216461901105 -78.2678344537639,8.81269113690909 -78.2676458298702,8.81325165325547 -78.2670516166323,8.81402974350407 -78.266849813794,8.81418835376638 -78.2667770399299,8.81466960492911 -78.2664442519637,8.81693994527338 -78.2660394376097,8.81968646402298 -78.2656784042607,8.8221359239347 -78.2668159330037,8.82245119354968 -78.2667929797346,8.82248433955028 -78.2671601312189,8.82258471215469 -78.2673452539933,8.82265551463114 -78.2675901189179,8.82270925063676 -78.2677072305595,8.82276544461013 -78.2677260892388,8.82269373311787 -78.267958931221,8.82275436566596 -78.2688705458056,8.82326943682432 -78.2697127041184,8.82392596415574 -78.2702728060144,8.82451070379072 -78.2708783005509,8.82385383050796 -78.271743773623,8.82203197675029 -78.2721172973621,8.81988515642384 -78.2721953620249,8.81795067796864 -78.2721571148661,8.81702353626273 -78.27215576519,8.81699085464733 -78.2721862774156,8.81692028436229 -78.2722526341935,8.81651309154652 -78.2725611873262,8.81649435259737 -78.2731046087096,8.81632056460714 -78.273379065795,8.81636814983449 -78.273591318004,8.81676611712526 -78.2739147803985,8.81678540674923 -78.2742858042498,8.81658932208245 -78.2745518782177,8.81661826899713 -78.2747900943001,8.81718818674965 -78.2748167485961,8.81773389034924 -78.2746914996935,8.81801420698404 -78.2749635311559,8.81869234300132 -78.275223904261,8.81896000810002 -78.275447800082,8.81993689265014 -78.2756445664308,8.82043413664389 -78.2753728293626,8.82172139381239 -78.2750601608758,8.8223967762074 -78.2738827923302,8.82299981072182 -78.2735994779214,8.8237742236637 -78.2736663832941,8.82423019102975 -78.2739257840066,8.82488155523322 -78.2743377660293,8.82552433316326 -78.2748279989331,8.82641187823393 -78.2748489105163,8.82781702887288 -78.2747672045333,8.8279649494242 -78.2740476353426,8.82863998464946 -78.2732162491879,8.82826137551809 -78.2727203327733,8.82792759095607 -78.2724304187156,8.82794761929173 -78.2723999010568,8.82794952065933 -78.2723388682527,8.82865237885994 -78.2723298362235,8.82874787998892 -78.2723464924349,8.82873725811171 -78.2723388653501,8.82879734187989 -78.2723388638723,8.82891368997871 -78.2723846434425,8.829050059076 -78.272445678398,8.8292131391862 -78.2724685700979,8.82928847974435 -78.272467098255,8.82956528485903 -78.2724685652134,8.82984638506365 -78.2724609356082,8.83006000640083 -78.272460939287,8.83016205159413 -78.2724609364577,8.83027362902672 -78.2724685682679,8.83055019314923 -78.2724685655103,8.83073711630714 -78.2724761978439,8.83115195732162 -78.2724761931697,8.83143424850616 -78.2724782561608,8.83156753482156 -78.2722167947023,8.83164500802445 -78.2721633888359,8.83166122639927 -78.2720947289547,8.83167648445093 -78.2719863215772,8.8317121984034 -78.2712891754482,8.83190561312477 -78.2711089191617,8.83220479816284 -78.2710876481158,8.83224010700346 -78.270637511528,8.83231639511013 -78.2706863966705,8.83229853579962 -78.2705917398071,8.83232593747249 -78.2705468445266,8.83232994755341 -78.2704606711317,8.8324216611725 -78.2704260332767,8.83245754123988 -78.2703857433904,8.83253192485345 -78.2703399629946,8.83261299076071 -78.2703094511037,8.83268070520271 -78.270290942459,8.83273439386582 -78.2702331566868,8.83295440792115 -78.2701034579939,8.83335017741735 -78.2700729347362,8.83345890306367 -78.2700347895431,8.83364295490091 -78.2699813845354,8.83390331634508 -78.2699308916671,8.83418145337945 -78.2698745753222,8.83449173178116 -78.2698516812388,8.83459567903392 -78.2698364303583,8.8347349197179 -78.2697982827555,8.83501052635044 -78.2697677598847,8.83515738999425 -78.2696609540125,8.83562183151677 -78.269462589731,8.83649444492553 -78.2692767616382,8.83708199466482 -78.2689191995513,8.83823146347053 -78.2686996451847,8.83897972154942 -78.2682848353434,8.8398277326851 -78.2682274396575,8.83994507127919 -78.2672373743071,8.84093323226464 -78.2669143636233,8.84119129062229 -78.2666168228854,8.84125995586351 -78.2664566064427,8.84145927065576 -78.2659912127182,8.84172058034327 -78.2658772878814,8.84197785977402 -78.2658844015954,8.84227561552617 -78.2658309979976,8.84250545385067 -78.2658386200537,8.84266662681042 -78.2657394375063,8.8427295652425 -78.2655029287782,8.8427076352549 -78.2653121970322,8.84259319283752 -78.2651172269636,8.84276737870677 -78.2650070180377,8.84288788148109 -78.2647399934103,8.84285640368684 -78.2643356296616,8.84208869451008 -78.2643661490157,8.84198952034324 -78.2644157073927,8.84192866834513 -78.264495847897,8.841830254184 -78.2644805913527,8.84165858985257 -78.2643010398048,8.84153106442944 -78.2642285587341,8.84149765556723 -78.2641220093978,8.84141540608414 -78.2639236465103,8.84114742526775 -78.2638686179655,8.84099692018319 -78.263839718026,8.840846063874 -78.2637939414614,8.84069251825537 -78.2637710541076,8.84046554753317 -78.2637481647496,8.84040737383795 -78.2636566197137,8.84039688369417 -78.2635574369116,8.84042548757486 -78.2633852347357,8.8403349428348 -78.2632064824325,8.84018421140393 -78.2629547105495,8.84016037078047 -78.2628173822586,8.84022236113269 -78.262796596309,8.84025699501887 -78.2627792380297,8.84045600550531 -78.2628173856457,8.84066582123414 -78.2627933726476,8.84069090835385 -78.2626876861152,8.84054851714285 -78.2622375534062,8.84002304293035 -78.2622299211432,8.83989047593671 -78.2622070279806,8.8394004259954 -78.262080277272,8.83874818060608 -78.2620162991918,8.838581087046 -78.26147714283,8.83647480346825 -78.2614695356663,8.83622845028077 -78.2614400686225,8.83560479284322 -78.2614212055127,8.8352546705002 -78.2613920089787,8.83485630027313 -78.2613693211557,8.83448752487678 -78.2615849027346,8.8335998475442 -78.2615814195013,8.83348846247451 -78.2616959927229,8.83274822712204 -78.2619552624376,8.83191203675555 -78.2620315522468,8.83180332141202 -78.2625427270843,8.83112811693004 -78.2632827766403,8.83017349430296 -78.2636489842302,8.82971286489656 -78.2637329099007,8.82961558908765 -78.2641032360066,8.8293390918785 -78.2643585185598,8.82914829488784 -78.2634493205143,8.82876095075492 -78.2631355627415,8.82862453244081 -78.2626827820213,8.82838773834597 -78.2625296971745,8.82831222507498 -78.2625296971745,8.82831222507498 -78.2621697957463,8.82801922694064 -78.2619079482424,8.82786484022097 -78.2618481597116,8.82783068167892 -78.2616207963078,8.82772531815031 -78.2609276151985,8.82729277313814 -78.2607002517947,8.82711531877417 -78.2606453302761,8.82714307964024 -78.2603209534706,8.8260857018991 -78.260313176081,8.82598625727162 -78.260087690073,8.82527504471263 -78.2588130204738,8.82416130093616 -78.2567291232851,8.82386875237295 -78.2549972520606,8.82357120608482 -78.2549315145019,8.82392980284719 -78.2549307715537,8.82404747210109 -78.2549210199971,8.82412059506486 -78.2549147913069,8.82427132018751 -78.2546646140261,8.82478280751171 -78.2535242557103,8.8244480645212 -78.2510426314218,8.82100894141402 -78.2506755693783,8.81935186903297 -78.2505642637046,8.81906174263571 -78.2505763041414,8.81865692735767 -78.250655412251,8.81804457422298 -78.2507818087952,8.81659164186311 -78.2513756795853,8.81466810422016 -78.2497336208853,8.81331887676633 -78.2489743817521,8.81241405502112 -78.2491840491607,8.81221809023459 -78.2492250421068,8.81209412952207 -78.249218166784,8.81189639844268 -78.249183131711,8.81173814371281 -78.2491991890965,8.81165313554649 -78.249076840385,8.81169986949038 -78.2490081836484,8.81154098008845 -78.2487258889214,8.81149483045257 -78.2481832562356,8.81139489405797 -78.2480543001445,8.81117653620128 -78.248286948127,8.81103819482917 -78.2488664271102,8.81105768945274 -78.2492454316941,8.81078093376879 -78.249593538102,8.81076767035355 -78.2500688769347,8.81112860848786 -78.2502710692097,8.81119276530934 -78.2506196356146,8.81111738746433 -78.2509685352654,8.81099570631701 -78.2513730546539,8.81110708797573 -78.2518095020063,8.81089287537839 -78.2519707474198,8.81066082898292 -78.2518463137607,8.81030463677109 -78.251859770323,8.81000666388107 -78.2518041628665,8.80969567217909 -78.2516448713306,8.80966344425569 -78.2514124587216,8.80977016688013 -78.2511783265184,8.81003330310241 -78.2510784323194,8.80979934687211 -78.2513132621423,8.80944304482892 -78.2512711536685,8.80922533192305 -78.2509262671045,8.80888060129102 -78.250942763512,8.80856956789278 -78.2512469191817,8.80858760402641 -78.252024336125,8.80932401086112 -78.2523964569743,8.80990216578234 -78.2526285190329,8.80991910480714 -78.2528037212826,8.80971822284486 -78.2529067998318,8.80954837353 -78.2528839114277,8.80907726400423 -78.2529776127964,8.80866434408195 -78.2549183657234,8.80454208028059 -78.2556432327135,8.80408006923682 -78.2558080682867,8.80375573275695 -78.2571043256092,8.80480707065733 -78.2575665048885,8.80502784793314 -78.2585011716423,8.80599861688496 -78.2591552762722,8.80751705341796 -78.2592163051694,8.8077058744544 -78.2592250857689,8.80803537294132 -78.259217450842,8.80803727792 -78.2591957427467,8.80811849114114 -78.2582988061091,8.80906681290361 -78.2572681140485,8.81015655935478 -78.2572451463405,8.81022619799041 -78.2571427873747,8.81136862554914 -78.2570208256294,8.81182527065837 -78.2569666515875,8.81200879645428 -78.2569274900028,8.81229972528021 -78.2574028767654,8.81312844769647 -78.2574154574136,8.81342387445736 -78.2579599151714,8.81426756662465 -78.2579727185766,8.81446265873454 -78.258092003029,8.81487500361537 -78.2581135806629,8.81506153113846 -78.258313382749,8.81545150530322 -78.2587280271858,8.81593513500104 -78.2590745772563,8.81638995106924 -78.2592906277898,8.81657844020162 -78.259638744728,8.816487239956 -78.2599455452886,8.81614783750002 -78.2603667725113,8.81607298153639 -78.2606121168987,8.81621481784557 -78.2610698522767,8.81696412618123 -78.2612762494372,8.8171377172768 -78.2613029012717,8.81674082972424 -78.2613038736001,8.81671736319028 -78.2623985652466,8.81285311504778 -78.263141835766,8.81030036195158 -78.2633455118113,8.80942172721815 -78.263418865578,8.80908030290451</coordinates></LinearRing></outerBoundaryIs></Polygon></MultiGeometry>
  </Placemark>
  <Placemark>
	<Style><LineStyle><color>ff0000ff</color></LineStyle><PolyStyle><fill>0</fill></PolyStyle></Style>
	<ExtendedData><SchemaData schemaUrl="#Fincas_Futuro_Forestal">
		<SimpleData name="id">13</SimpleData>
		<SimpleData name="País">Panama</SimpleData>
		<SimpleData name="Provincia">Darien</SimpleData>
		<SimpleData name="Finca">Kapok</SimpleData>
		<SimpleData name="Área (Ha)">48.30352</SimpleData>
	</SchemaData></ExtendedData>
      <MultiGeometry><Polygon><outerBoundaryIs><LinearRing><coordinates>-78.2231572391045,8.81890988819268 -78.2231741663961,8.81882798053971 -78.2231865660893,8.81867449481964 -78.2231608591332,8.81860595536001 -78.2232180036349,8.81850649104623 -78.2231829796634,8.81833808237255 -78.2231808698609,8.81814649552324 -78.2232042573349,8.81805696964623 -78.223177904565,8.81793318122226 -78.2231968485085,8.81784459025201 -78.2232009899,8.8175339811 -78.2232075278,8.8171623275 -78.2232263871,8.8171265367 -78.2232263871,8.8171265367 -78.2231793858775,8.81686649395325 -78.2231685519,8.8167387899 -78.223220171486,8.8167007132743 -78.2232632460424,8.81621262409913 -78.2231871460947,8.81608102262178 -78.223234708562,8.81594472104225 -78.2233393459901,8.81585071992362 -78.2234725208986,8.81575671878106 -78.2236627707678,8.81573321849169 -78.2239529018184,8.81567211773231 -78.2242477891157,8.81563451725998 -78.2243430843607,8.81566199066765 -78.2243715383306,8.81561660772873 -78.2246345753447,8.81552955394715 -78.2247394044,8.8155535888 -78.2247898635,8.8155138586 -78.224852141,8.8155063987 -78.2249510475,8.8155090809 -78.2249772828,8.8155098353 -78.225046685,8.8154977653 -78.225059174,8.8155221567 -78.225158751,8.8155716099 -78.2251729422849,8.8154472773734 -78.2252798946564,8.81542301453183 -78.2253369696171,8.81557811654432 -78.2255460788,8.81632732229999 -78.2255265950386,8.81632427543481 -78.2255460788,8.8163273223 -78.2255465817,8.8163718302 -78.225557059,8.8163873367 -78.2255148143,8.816519184 -78.225560328,8.8165418152 -78.2255769242,8.8165843952 -78.2255977951,8.8166770991 -78.2255960349,8.8168102037 -78.225660827,8.816885557 -78.2256751601,8.8169192523 -78.2256188337,8.8170101959 -78.225650182,8.8171130419 -78.2256858889,8.8171891496 -78.2256402075,8.8172013033 -78.2256309036,8.8172147144 -78.2256804407,8.8172260299 -78.2257383596,8.8172869664 -78.2257666904,8.8173476513 -78.2257813588,8.8174772356 -78.2257771678,8.8175221626 -78.2258118689,8.8179470412 -78.2258097734,8.8180131745 -78.2257939316,8.8180780504 -78.2258161437,8.8181058783 -78.2258049957,8.8181716762 -78.22576317,8.8182535674 -78.2257671934,8.8182979077 -78.2257971168,8.8183286693 -78.2258557063,8.8183661364 -78.2258795947,8.8184113149 -78.2259086799,8.8184511289 -78.2259036507,8.8185026776 -78.2259316463,8.8185684755 -78.2259497512,8.8185871672 -78.2259246055,8.8186503667 -78.2259241864,8.8187204394 -78.2259360887,8.8187839743 -78.2259435486,8.8188206032 -78.2259241864,8.8188563939 -78.2258733921,8.8188834675 -78.225866938,8.8189329207 -78.2258904073,8.8189293165 -78.2260022602873,8.81894311598923 -78.22625787,8.82042825219998 -78.2262600493,8.82056135679998 -78.2262600493,8.8205613568 -78.2262738794,8.8207082916 -78.2262576185,8.8210739102 -78.2263146155,8.8211604953 -78.2263363246,8.8212334178 -78.2263372466,8.8216624875 -78.2263560221,8.8217914011 -78.2265182957,8.8218533434 -78.2266437728,8.8231698889 -78.2265545182048,8.82375214992398 -78.2265264645278,8.82393020529958 -78.2264257595,8.8245829102 -78.2263892982,8.8247187808 -78.226325931,8.8248126581 -78.2259244379,8.8253140636 -78.225895980642,8.82548537504831 -78.225807762581,8.82561333092099 -78.2257523305525,8.82575701991398 -78.2256539598942,8.82590825815378 -78.2255314104,8.8260121923 -78.22551044647,8.82611529143835 -78.2253936958,8.8261553552 -78.2253381361761,8.82625638573494 -78.2251917757,8.8263512403 -78.2249981535448,8.82651105584076 -78.2249082279074,8.82662111404176 -78.2248030763213,8.82663052808365 -78.2247323499392,8.82677257150359 -78.2246385015481,8.82673216904265 -78.2244781621339,8.82679764939951 -78.2242469995172,8.82693609948361 -78.2239427206206,8.82706284834076 -78.2234775904692,8.82729846847562 -78.2232430343924,8.82740801732744 -78.2229486546828,8.82751967243202 -78.2223831454672,8.82773435507493 -78.2223831454672,8.82773435507495 -78.2214189973,8.8279987033 -78.2214430533,8.8278339151 -78.2214371022,8.8277614955 -78.2214645948,8.8277131319 -78.2214472443,8.8276460767 -78.2214811072,8.8275599107 -78.221511282,8.8274910953 -78.2215246093,8.8273636065 -78.2216546126,8.8266581856 -78.2216558699,8.8265961595 -78.2217026409,8.8264400885 -78.2217159681,8.8263054751 -78.2217254397,8.8262543455 -78.2217369229,8.82612672171011 -78.2218004577,8.8257358409 -78.2218188141,8.8255879842 -78.2218473125,8.825373156 -78.2219097043787,8.82514978979417 -78.221969353,8.8249351177 -78.2219222467,8.8248694874 -78.2219222467,8.82486948740002 -78.221931383,8.82462398149999 -78.221931383,8.82462398149999 -78.2220456284,8.8242174592 -78.2221239153,8.8239767309 -78.2221020386,8.8239358272 -78.2221263461,8.8238846976 -78.2221584488,8.8238267787 -78.2221586222792,8.82382675448326 -78.222148273267,8.82379956607066 -78.2221667559309,8.82372241702038 -78.2222056515914,8.8235883181996 -78.2222391665,8.8234247826 -78.2222526614,8.8233931828 -78.2222697604,8.823366696 -78.2222728617,8.8233009819 -78.2222942356,8.8232608326 -78.2223310322,8.8231551368 -78.222355172,8.8230895903 -78.2223350555,8.823019769 -78.2223653141,8.8229460083 -78.2223626319,8.8228997402 -78.2223902084,8.8228718285 -78.2224521507,8.8229009975 -78.2224798948,8.8229118939 -78.2225333713,8.8228485268 -78.222512668,8.8228313439 -78.2224734407,8.8227847405 -78.2224875223,8.8226503786 -78.2224831637,8.8225541543 -78.2225449383,8.8223536592 -78.2225400768,8.8222936448 -78.2225663122,8.8221905474 -78.2225833274,8.8221444469 -78.2226347085,8.8219939917 -78.2226471975,8.8219247572 -78.2226612791,8.8218326401 -78.2226637099,8.8217716198 -78.2227043621,8.8217111863 -78.2227159292,8.8216485735 -78.2227516361,8.8215855416 -78.2228081992618,8.82143654146884 -78.222851319027,8.8213030310366 -78.2228663706034,8.82106882529729 -78.2228663706034,8.82106882529729 -78.2228301077489,8.82099751499214 -78.22285817,8.8209140673 -78.2229039027769,8.82083403204504 -78.2229341299123,8.820709871412 -78.2229786384949,8.8205749355 -78.2230583299,8.8201916311 -78.2230689749,8.8201342989 -78.2230683044,8.8200890366 -78.2231250498,8.8199180458 -78.2231290732,8.8198680896 -78.2231719047,8.8198153675 -78.2232002355,8.8197671715 -78.2232019957,8.8197089173 -78.2232151553,8.8197174668 -78.2232274767,8.8196866214 -78.2231655344,8.8196449634 -78.2231787778,8.8196082506 -78.2231718209,8.8195854519 -78.2231947035,8.8195256051 -78.2232178375,8.8194913231 -78.2232193463,8.8194204122 -78.2232474256,8.8193764072 -78.2232438214,8.8193378504 -78.2232341822,8.8192995451 -78.2232646085,8.8192723878 -78.2232693862,8.8192194141 -78.223303389138,8.81908886339821 -78.223303389138,8.8190888633982 -78.2231572391045,8.81890988819268 -78.2231572391045,8.81890988819268</coordinates></LinearRing></outerBoundaryIs></Polygon></MultiGeometry>
  </Placemark>
  <Placemark>
	<Style><LineStyle><color>ff0000ff</color></LineStyle><PolyStyle><fill>0</fill></PolyStyle></Style>
	<ExtendedData><SchemaData schemaUrl="#Fincas_Futuro_Forestal">
		<SimpleData name="id">12</SimpleData>
		<SimpleData name="País">Panama</SimpleData>
		<SimpleData name="Provincia">Darien</SimpleData>
		<SimpleData name="Finca">Garden Eden</SimpleData>
		<SimpleData name="Área (Ha)">64.99513</SimpleData>
	</SchemaData></ExtendedData>
      <MultiGeometry><Polygon><outerBoundaryIs><LinearRing><coordinates>-78.2625427270843,8.83112811693004 -78.2621232883918,8.83168214857142 -78.262077151197,8.83174309048717 -78.2620315522468,8.83180332141202 -78.2619552624376,8.83191203675555 -78.2616959927229,8.83274822712204 -78.2615814195013,8.83348846247451 -78.2615849027346,8.8335998475442 -78.2613693211557,8.83448752487678 -78.2614059490276,8.83504867250588 -78.2614212055127,8.8352546705002 -78.2614489436893,8.83579262935565 -78.26147714283,8.83647480346825 -78.2619064822946,8.83813050844203 -78.2620162991918,8.838581087046 -78.262080277272,8.83874818060608 -78.2622070279806,8.8394004259954 -78.2622266978,8.83982147702877 -78.2619394760702,8.83978887073771 -78.2618356113774,8.8397851612844 -78.2618319019241,8.83968500604493 -78.261724327778,8.83969242495156 -78.2615611118322,8.83962565479191 -78.2614294262395,8.83952735427911 -78.2613515277199,8.8395792866255 -78.2612068590407,8.8395792866255 -78.2611354520645,8.83950602492255 -78.2610566261815,8.83946243884611 -78.260967599302,8.8394030875931 -78.2609342142222,8.83933631743345 -78.2608099475361,8.83928994926704 -78.2607839813629,8.83922688856071 -78.2606949544834,8.83916011840106 -78.2606652788569,8.83918608457426 -78.2605986197062,8.8391465771147 -78.2605651236175,8.83912302386792 -78.2605317385376,8.83908592933479 -78.2605057723644,8.83911189550798 -78.2603277186054,8.8390080308152 -78.2603138081555,8.83900339399855 -78.2602312728192,8.83896722682875 -78.260221999186,8.83894682483552 -78.2600995872266,8.83892085866232 -78.260021688707,8.83887634522256 -78.2598881483877,8.83891714920901 -78.2598362160413,8.83889860194244 -78.2597842836949,8.83891714920901 -78.2596396150157,8.83890231139576 -78.259310846561,8.83882304900469 -78.2589265838861,8.83867424315102 -78.2587871158073,8.83867658818136 -78.2586515440578,8.83869456701608 -78.258518832781,8.83855438430643 -78.2582017792032,8.83841247961253 -78.258018020398,8.83834383274566 -78.2577933419704,8.83818494071225 -78.2576151286142,8.83815741746758 -78.2571733463108,8.83797469403179 -78.2570679827822,8.83783605780994 -78.2570374828134,8.83759760350835 -78.2570513464356,8.83744787638876 -78.257034710089,8.83736746738008 -78.2570014373957,8.83711702499486 -78.2569960499602,8.83707203673642 -78.2569570738047,8.83680093440904 -78.2569099374893,8.83630828664514 -78.2568489375517,8.83553746925165 -78.2567990285118,8.83519365142146 -78.2567879376141,8.83475556096041 -78.2567491194719,8.83450601576108 -78.2566992104321,8.83415110703314 -78.2567103013298,8.83385165279394 -78.2566215741479,8.83359656214574 -78.256571665108,8.83332483515091 -78.2565605742102,8.83312519899144 -78.2565772105569,8.83289229013873 -78.2565744378324,8.83263997221496 -78.2566021650768,8.83253460868636 -78.2565966196279,8.83242924515775 -78.2566132559745,8.83232665435358 -78.2566077105257,8.83221297265166 -78.2566853468099,8.83182756395492 -78.2567629830941,8.83160297327552 -78.2570069828446,8.83140333711605 -78.2572593007684,8.8312425190987 -78.2574533914789,8.83101515569487 -78.2575504368343,8.83085711040196 -78.2578803910422,8.83046892898078 -78.2582547088412,8.83023324740363 -78.2586512084357,8.8299837022043 -78.2587648901377,8.82990052047119 -78.2590630333945,8.82883579428737 -78.2590560262036,8.82883579428737 -78.2591780260788,8.82854188549705 -78.2594053894826,8.82817588587136 -78.2595772983977,8.82786534073442 -78.2598157526993,8.82764629550389 -78.2603397976179,8.82728584132708 -78.2606453302761,8.82714307964024 -78.2607002517947,8.82711531877417 -78.2609276151985,8.82729277313814 -78.2616207963078,8.82772531815031 -78.2616207963078,8.82772531815031 -78.2616207963078,8.82772531815031 -78.2618481597116,8.82783068167892 -78.2619079482424,8.82786484022097 -78.2621697957463,8.82801922694064 -78.2625296971745,8.82831222507498 -78.2626827820213,8.82838773834597 -78.2631355627415,8.82862453244081 -78.2634493205143,8.82876095075492 -78.2643585185598,8.82914829488784 -78.2637329099007,8.82961558908765 -78.2636576247087,8.82970284997271 -78.2632827766403,8.83017349430296 -78.2625427270843,8.83112811693004</coordinates></LinearRing></outerBoundaryIs></Polygon></MultiGeometry>
  </Placemark>
  <Placemark>
	<Style><LineStyle><color>ff0000ff</color></LineStyle><PolyStyle><fill>0</fill></PolyStyle></Style>
	<ExtendedData><SchemaData schemaUrl="#Fincas_Futuro_Forestal">
		<SimpleData name="id">14</SimpleData>
		<SimpleData name="País">Panama</SimpleData>
		<SimpleData name="Provincia">Darien</SimpleData>
		<SimpleData name="Finca">Reina</SimpleData>
		<SimpleData name="Área (Ha)">25.47994</SimpleData>
	</SchemaData></ExtendedData>
      <MultiGeometry><Polygon><outerBoundaryIs><LinearRing><coordinates>-78.258407593,8.842085838 -78.258422852,8.842119217 -78.25844318,8.842172217 -78.258467093,8.842239525 -78.258554852,8.842405906 -78.258582177,8.842484612 -78.2585821774152,8.84248556713714 -78.258640662,8.842645754 -78.25873914,8.842918097 -78.258789063,8.843047142 -78.258929426,8.843443534 -78.258957261,8.843518278 -78.258992722,8.843614524 -78.259010315,8.843642235 -78.259010315,8.843836784 -78.259010315,8.844004631 -78.259010315,8.844043732 -78.259010315,8.844058037 -78.259002686,8.844078064 -78.259010315,8.844109535 -78.259002686,8.844142914 -78.259002686,8.84422493 -78.25899859,8.844299577 -78.259002686,8.844439507 -78.258956909,8.84454155 -78.258956909,8.844542503 -78.258932289,8.844969124 -78.258944945,8.845013296 -78.258918762,8.845153809 -78.258852242,8.845553594 -78.258813161,8.845881068 -78.258804321,8.845961571 -78.258754905,8.846387744 -78.258750916,8.846448898 -78.258676521,8.84708231800001 -78.258666992,8.847167015 -78.258610927,8.847661978 -78.258613586,8.847717285 -78.258621216,8.847772598 -78.258621216,8.847829819 -78.258590698,8.847978592 -78.258483887,8.848469734 -78.258122924,8.848388937 -78.258050713,8.84840309 -78.257939086,8.848372907 -78.257780872,8.848346901 -78.257545471,8.848301888 -78.257452548,8.84828316 -78.256946113,8.848253153 -78.256770344,8.848257048 -78.256612178,8.848259356 -78.256212194,8.848248459 -78.256146815,8.848223062 -78.256187439,8.847758293 -78.256198231,8.847694365 -78.256217957,8.847511292 -78.256202698,8.847272873 -78.256201258,8.846979475 -78.256203193,8.846871631 -78.256196522,8.846392716 -78.256195068,8.846278191 -78.255957519,8.845699769 -78.255947744,8.845678736 -78.255934472,8.845668542 -78.255867293,8.845616662 -78.255720343,8.845499195 -78.25549026,8.845342118 -78.254899168,8.845021594 -78.254856285,8.844980172 -78.254644861,8.844790421 -78.254474612,8.844539166 -78.254386902,8.844409943 -78.254173279,8.844086647 -78.254211426,8.843913078 -78.254342685,8.843341598 -78.254386902,8.843150139 -78.254524129,8.842454654 -78.25453949,8.842359543 -78.254562378,8.842238426 -78.254669189,8.842220306 -78.255107543,8.842715146 -78.255380541,8.842860488 -78.255438209,8.842863757 -78.255504342,8.842845317 -78.25576426,8.842740059 -78.256326271,8.842513446 -78.256351165,8.842496347 -78.256387878,8.842502633 -78.2566698597807,8.84240712111694 -78.256973784,8.842254067 -78.257699448,8.841861267 -78.257902349,8.841756025 -78.258171082,8.841610909 -78.258388638,8.842019448 -78.258407593,8.842085838</coordinates></LinearRing></outerBoundaryIs></Polygon></MultiGeometry>
  </Placemark>
  <Placemark>
	<Style><LineStyle><color>ff0000ff</color></LineStyle><PolyStyle><fill>0</fill></PolyStyle></Style>
	<ExtendedData><SchemaData schemaUrl="#Fincas_Futuro_Forestal">
		<SimpleData name="id">15</SimpleData>
		<SimpleData name="País">Panama</SimpleData>
		<SimpleData name="Provincia">Darien</SimpleData>
		<SimpleData name="Finca">Red Lotus</SimpleData>
		<SimpleData name="Área (Ha)">31.19555</SimpleData>
	</SchemaData></ExtendedData>
      <MultiGeometry><Polygon><outerBoundaryIs><LinearRing><coordinates>-78.2036207375351,8.84728219324956 -78.204225102236,8.84706098119269 -78.2053015687766,8.84669418518626 -78.2063161883126,8.84644590343608 -78.2078410883285,8.84612166275496 -78.2078908798548,8.84611106080054 -78.2080291354194,8.84608168432862 -78.2085708375296,8.84600046230454 -78.21013370747,8.84584098578 -78.2105518208591,8.84580749449925 -78.2102200089264,8.84651514503661 -78.2098096779668,8.84728613282949 -78.2095981536636,8.84764495500969 -78.2082334180786,8.84788024796232 -78.2080173671565,8.84791667440311 -78.2075741092512,8.84799391886121 -78.206441825927,8.84831287191028 -78.2056922862617,8.84846437460859 -78.2054610453011,8.84853613904463 -78.2040098089279,8.84917404514277 -78.2035556932288,8.84932183674732 -78.2034473027013,8.84935711236104 -78.2020783153612,8.84980264823662 -78.2011987062777,8.85008741317103 -78.2011137354395,8.85011393672141 -78.2007564878274,8.8502305771178 -78.199404924282,8.85058142547178 -78.1987635116019,8.85080039320658 -78.1986713269357,8.85083148387034 -78.196876410754,8.85144330978308 -78.1965423206666,8.85155821918455 -78.1965103892286,8.85148779226312 -78.1964873018709,8.851436871552 -78.1962746910532,8.85148768552635 -78.1961650862518,8.85142034381983 -78.196011339906,8.85137924088436 -78.1958691154566,8.85094126052161 -78.1962615701544,8.850849202375 -78.1962397783249,8.84997604040802 -78.1977321595915,8.84945560938274 -78.1977922152611,8.84943469401452 -78.1985397641364,8.84917404514277 -78.2001664246866,8.84857600817576 -78.2010765778004,8.84822383078369 -78.201114430521,8.84820918393773 -78.201430717044,8.84808679907621 -78.2015698181025,8.84803378799235 -78.2028539847077,8.84756068657705 -78.2035506421934,8.84730784983525 -78.2036207375351,8.84728219324956</coordinates></LinearRing></outerBoundaryIs><innerBoundaryIs><LinearRing><coordinates>-78.1987635116019,8.85080039320658 -78.1987633624309,8.85080011209855 -78.198763355702,8.85080011439221 -78.1987635116019,8.85080039320658</coordinates></LinearRing></innerBoundaryIs></Polygon></MultiGeometry>
  </Placemark>
  <Placemark>
	<Style><LineStyle><color>ff0000ff</color></LineStyle><PolyStyle><fill>0</fill></PolyStyle></Style>
	<ExtendedData><SchemaData schemaUrl="#Fincas_Futuro_Forestal">
		<SimpleData name="id">16</SimpleData>
		<SimpleData name="País">Panama</SimpleData>
		<SimpleData name="Provincia">Panamá</SimpleData>
		<SimpleData name="Finca">Los Llanos</SimpleData>
		<SimpleData name="Área (Ha)">85.45174</SimpleData>
	</SchemaData></ExtendedData>
      <MultiGeometry><Polygon><outerBoundaryIs><LinearRing><coordinates>-78.2693523057848,8.88047762010617 -78.2692856198071,8.88045584624252 -78.2690228849522,8.88037100425781 -78.2689852318684,8.88035773788827 -78.2686429743765,8.88023469839098 -78.2682737333694,8.88011809596769 -78.2676615706471,8.87986545738389 -78.2673020465086,8.87975857182921 -78.2669133717643,8.87957395132566 -78.2667447983414,8.87951859885843 -78.2659213524892,8.87925054294268 -78.2655726114908,8.87915433852933 -78.2653080493541,8.87913028742599 -78.2648631039424,8.87901003190931 -78.264225749704,8.87880559753095 -78.2633478844322,8.87842077987756 -78.262337738092,8.87775937453579 -78.2612915150969,8.87721822471071 -78.2603414965151,8.87682138150565 -78.2598725,8.87662897267895 -78.2596079378633,8.87655681936895 -78.2593433757266,8.87654479381728 -78.2591269157965,8.8764606149556 -78.2588864047632,8.87642453830059 -78.2581287950081,8.87625618057723 -78.257731951803,8.87619605281889 -78.2574313130113,8.87601566954386 -78.2569262398412,8.87594351623385 -78.2572028275296,8.87511375316873 -78.2573832108046,8.87475298661868 -78.2572629552879,8.87436816896528 -78.2570344698062,8.87403145351857 -78.2567338310145,8.87357448255517 -78.2566135754978,8.87334599707347 -78.2564091411195,8.87316561379844 -78.2563971155678,8.87299725607508 -78.2564692688778,8.87267256618003 -78.2565293966362,8.87228774852664 -78.2565534477395,8.87190293087325 -78.2566376266012,8.87140988325484 -78.2571787764263,8.87139785770317 -78.2573351085979,8.87136178104817 -78.2584775360065,8.87136178104817 -78.2586699448331,8.87136178104817 -78.2589705836249,8.87149406211652 -78.2590307113832,8.87166241983988 -78.2592351457616,8.87196305863159 -78.2593794523816,8.87223964631997 -78.2595959123116,8.87223964631997 -78.2598243977933,8.8722276207683 -78.260125036585,8.87215546745829 -78.2603535220667,8.87217951856162 -78.2601009854817,8.87238395293999 -78.2603174454117,8.872492182905 -78.2605699819968,8.87255231066335 -78.2608225185818,8.87254028511168 -78.2611351829252,8.87261243842169 -78.2613756939586,8.87263648952503 -78.2619649459903,8.87273269393837 -78.2623497636437,8.87276877059338 -78.2625782491254,8.87285294945506 -78.2628307857104,8.87285294945506 -78.2633839610872,8.87302130717842 -78.2642377752556,8.87327384376345 -78.2645624651507,8.87343017593514 -78.2648991805974,8.87363461031351 -78.2651998193891,8.87376689138186 -78.2655004581808,8.87388714689855 -78.2656470345374,8.87393321375347 -78.2659028174291,8.87396731813903 -78.2661748897501,8.87404505308789 -78.2665635644944,8.87422967359144 -78.2665635644944,8.87422967359144 -78.2671368597423,8.87439486035777 -78.2676778963464,8.87451115794557 -78.26811651567,8.87460544060391 -78.2692162696243,8.87484183631372 -78.270355805126,8.87524995585768 -78.2717329385937,8.87612446296993 -78.2716476372293,8.87631354766096 -78.2711499264772,8.87741680649475 -78.2709555891051,8.87775689689602 -78.2707126673899,8.87831075840666 -78.2702656914339,8.87891320426034 -78.2698478660838,8.87937961395351 -78.2697021130547,8.87947678263958 -78.2695369262884,8.87982658990946 -78.2695077756826,8.88003064415022 -78.2693523057848,8.88047762010617</coordinates></LinearRing></outerBoundaryIs></Polygon></MultiGeometry>
  </Placemark>
  <Placemark>
	<Style><LineStyle><color>ff0000ff</color></LineStyle><PolyStyle><fill>0</fill></PolyStyle></Style>
	<ExtendedData><SchemaData schemaUrl="#Fincas_Futuro_Forestal">
		<SimpleData name="id">17</SimpleData>
		<SimpleData name="País">Panama</SimpleData>
		<SimpleData name="Provincia">Panamá</SimpleData>
		<SimpleData name="Finca">La Ponderosa</SimpleData>
		<SimpleData name="Área (Ha)">50.97773</SimpleData>
	</SchemaData></ExtendedData>
      <MultiGeometry><Polygon><outerBoundaryIs><LinearRing><coordinates>-78.2488633411201,8.8853474549651 -78.2479133411201,8.8857914549651 -78.2475243411201,8.8859114549651 -78.2471683411201,8.8861104549651 -78.2469353411201,8.8862934549651 -78.2465413411201,8.8866944549651 -78.2462833411201,8.8869164549651 -78.2461303411201,8.8871404549651 -78.2459493411201,8.8873674549651 -78.2457303411201,8.8876194549651 -78.2456113411201,8.8876844549651 -78.2453403411201,8.8877854549651 -78.2450013411201,8.8879004549651 -78.2445133411201,8.8881204549651 -78.2444453411201,8.8881654549651 -78.2443463411201,8.8880264549651 -78.2442483411201,8.8878904549651 -78.2440563411201,8.8876804549651 -78.2439253411201,8.8874694549651 -78.2437483411201,8.8872564549651 -78.2434733411201,8.8868404549651 -78.2433843411201,8.8864974549651 -78.2435533411201,8.8862694549651 -78.2435053411201,8.8862144549651 -78.2433823411201,8.8856454549651 -78.2432153411201,8.8853884549651 -78.2431073411201,8.8850674549651 -78.2429303411201,8.8845834549651 -78.2425253411201,8.8839334549651 -78.2424203411201,8.8838384549651 -78.2423243411201,8.8836634549651 -78.2422993411201,8.8834934549651 -78.2422963411201,8.8833194549651 -78.2422973411201,8.8830004549651 -78.2422973411201,8.8828174549651 -78.2423083411201,8.8827294549651 -78.2422833411201,8.8823604549651 -78.2422103411201,8.8821844549651 -78.2421133411201,8.8820994549651 -78.2419823411201,8.8819584549651 -78.2417663411201,8.8817084549651 -78.2418023411201,8.8815074549651 -78.2427103411201,8.8811684549651 -78.2429033411201,8.8811024549651 -78.2431203411201,8.8810814549651 -78.2434783411201,8.8810414549651 -78.2437143411201,8.8809924549651 -78.2438343411201,8.8810544549651 -78.2442263411201,8.8811414549651 -78.2444523411201,8.8809374549651 -78.2446533411201,8.8808024549651 -78.2448683411201,8.8807014549651 -78.2450733411201,8.8805234549651 -78.2453063411201,8.8803904549651 -78.2455323411201,8.8802724549651 -78.2459433411201,8.8799964549651 -78.2461883411201,8.8797164549651 -78.2463320520297,8.8796697505586 -78.2467502705282,8.87941735135173 -78.2469789347364,8.87935009879689 -78.247025,8.879316 -78.2472002478256,8.87900878140613 -78.2472864187752,8.87868868981316 -78.2475014840865,8.878054086287 -78.2476173441869,8.87813192722956 -78.2483912896574,8.8783288189517 -78.2484151439008,8.87835927895673 -78.2487458215644,8.87879815344455 -78.2487593526734,8.87895818702753 -78.2488176548267,8.8791163847834 -78.248814613499,8.87931427760349 -78.2487805795946,8.87974826777443 -78.2487898484026,8.88055414595138 -78.2488063411201,8.8808954549651 -78.2488083978972,8.88124663347919 -78.248725626742,8.88169014953451 -78.2486907069925,8.88211031078676 -78.2487097478613,8.88254035335215 -78.2486786605544,8.8828728238612 -78.2485871928366,8.88325700594092 -78.2484992192696,8.88375856747803 -78.2484935285867,8.88409517663614 -78.2485971958278,8.88447210607426 -78.2488633411201,8.8853474549651</coordinates></LinearRing></outerBoundaryIs></Polygon></MultiGeometry>
  </Placemark>
  <Placemark>
	<Style><LineStyle><color>ff0000ff</color></LineStyle><PolyStyle><fill>0</fill></PolyStyle></Style>
	<ExtendedData><SchemaData schemaUrl="#Fincas_Futuro_Forestal">
		<SimpleData name="id">18</SimpleData>
		<SimpleData name="País">Panama</SimpleData>
		<SimpleData name="Provincia">Panamá</SimpleData>
		<SimpleData name="Finca">Clarita</SimpleData>
		<SimpleData name="Área (Ha)">75.37649</SimpleData>
	</SchemaData></ExtendedData>
      <MultiGeometry><Polygon><outerBoundaryIs><LinearRing><coordinates>-78.1765533116811,8.9011743398974 -78.1770820351189,8.90192750338525 -78.177315657103,8.90240126672019 -78.1773648406786,8.90244985779678 -78.177192698164,8.90271710860258 -78.1767254541957,8.90281429066538 -78.1764057609543,8.90294791595956 -78.1761229553945,8.90298435921314 -78.1757909662592,8.90306939345736 -78.1755450483812,8.90330020059203 -78.17494254958,8.9033366438105 -78.1745244891873,8.90354315531327 -78.1740203575374,8.90388329165188 -78.1738928573322,8.90444466266664 -78.1726050601092,8.90505297367214 -78.1704831441079,8.90555234999557 -78.1705464988842,8.90485854305763 -78.1704256788028,8.90415892613733 -78.1703807729425,8.90366463261337 -78.1701102632767,8.90316657542656 -78.1697536823535,8.90274140412071 -78.1697413864596,8.90269281308285 -78.1693110301731,8.90195179895581 -78.1688683779926,8.90133226140236 -78.168573276539,8.90095567923952 -78.1682535832976,8.9003604356754 -78.1680445531012,8.89982593042523 -78.1680445531012,8.89948579031404 -78.1685978683268,8.89794300798319 -78.1689913369316,8.89716554040694 -78.1692987342792,8.89640021914856 -78.1696553152023,8.89502749605705 -78.1697403343678,8.89497188938466 -78.1705430949897,8.89491150265092 -78.1708880831628,8.89487880231996 -78.1710407698379,8.89485710710293 -78.1712263089748,8.89491046106397 -78.1720564678912,8.89509130031331 -78.1726017844044,8.89534769055411 -78.173071242823,8.89544599482352 -78.17362856507,8.89524244927621 -78.1739834698557,8.89472379556264 -78.1743646425666,8.89554986031806 -78.1746474481264,8.89599933594601 -78.17494254958,8.89703191300095 -78.1751269879885,8.89819811417177 -78.1754835689117,8.89941290310622 -78.1760491800311,8.90010533099431 -78.1765533116811,8.9011743398974</coordinates></LinearRing></outerBoundaryIs></Polygon></MultiGeometry>
  </Placemark>
</Folder>
</Document></kml>
