<?xml version="1.0" encoding="utf-8" ?>
<kml xmlns="http://www.opengis.net/kml/2.2">
<Document id="root_doc">
<Schema name="Tavolo_ProjectBoundary" id="Tavolo_ProjectBoundary">
	<SimpleField name="id" type="float"></SimpleField>
	<SimpleField name="Community" type="string"></SimpleField>
	<SimpleField name="Area" type="float"></SimpleField>
</Schema>
<Folder><name>Tavolo_ProjectBoundary</name>
  <Placemark>
	<Style><LineStyle><color>ff0000ff</color></LineStyle><PolyStyle><fill>0</fill></PolyStyle></Style>
	<ExtendedData><SchemaData schemaUrl="#Tavolo_ProjectBoundary">
		<SimpleData name="id">1</SimpleData>
		<SimpleData name="Community">Tavolo</SimpleData>
		<SimpleData name="Area">22077</SimpleData>
	</SchemaData></ExtendedData>
      <MultiGeometry><Polygon><outerBoundaryIs><LinearRing><coordinates>150.851585000021,-6.0273089999996 150.848003204281,-6.02465195260381 150.84792020483,-6.02792010991014 150.845805048333,-6.03079174446477 150.837607466055,-6.03497537352537 150.836416166167,-6.0365119125734 150.836309317633,-6.04086975842285 150.830334073564,-6.04663394112546 150.825937273978,-6.04642739469268 150.820807221236,-6.04287354735879 150.819867896311,-6.04146813053915 150.819165421364,-6.03777371088742 150.816366953794,-6.03481018767084 150.8161220423,-6.03278144968801 150.81632440878,-6.02972547261065 150.814278121501,-6.02622013396305 150.811362455421,-6.02416047633126 150.805559279548,-6.02432233941843 150.801570007157,-6.02434469940329 150.799205042498,-6.02356066248339 150.795318037818,-6.01801420628353 150.795762536247,-6.01752107376279 150.80155895694,-6.01481666802217 150.802188936986,-6.01328109437125 150.801350605665,-6.01244826420605 150.799941048073,-6.01276153554659 150.797476648817,-6.01317295184487 150.795830506275,-6.01176298187862 150.796786176945,-6.00973683784521 150.79766052585,-6.00818080598641 150.798616837233,-6.00492916215143 150.802178823665,-6.00470545750562 150.803533351777,-6.00114539681894 150.803057015613,-5.9964856351113 150.801861625378,-5.99275902367077 150.806081645866,-5.98999793459735 150.807112408336,-5.98505439875174 150.804762725307,-5.98136227289965 150.807208225936,-5.97973314180737 150.805557902436,-5.97807678325126 150.802006915912,-5.96956376539282 150.802892888182,-5.96436192372723 150.808849303702,-5.96253013783944 150.812449342578,-5.96005388614051 150.814964167102,-5.95600229354936 150.813490335291,-5.95341262932543 150.812140428051,-5.94791876927436 150.812871096162,-5.94275217018392 150.815382962751,-5.94151971113389 150.81218558465,-5.93688591776606 150.811861394134,-5.92745104538413 150.809357517007,-5.92669544983778 150.80724879329,-5.92254277568997 150.804653617044,-5.91988456787487 150.805526000024,-5.91742099999956 150.809063000024,-5.91215299999955 150.809575000024,-5.91105399999956 150.810043000024,-5.90920299999955 150.811547000023,-5.90854199999955 150.814018000023,-5.90485399999956 150.816884000023,-5.90348499999957 150.818648000023,-5.90385299999957 150.820221000023,-5.90287899999956 150.820387000023,-5.90060299999958 150.820062000023,-5.89851099999958 150.818163703311,-5.89312213905383 150.819681538295,-5.88884887933957 150.823247711267,-5.88865571306465 150.82622418261,-5.88370752073162 150.827983484305,-5.88574631176285 150.826639766791,-5.88893853045253 150.828918736595,-5.88698028353122 150.831448356551,-5.88592783406088 150.834889197391,-5.8873901858107 150.839454207034,-5.88832577470984 150.8366104336,-5.89195177392323 150.838112678134,-5.89272910594369 150.838076796954,-5.8943179570846 150.841947937718,-5.89394279743935 150.841982855972,-5.89653826421928 150.843947337281,-5.89691439578456 150.845181495133,-5.89533668020008 150.852155667647,-5.90346484266681 150.852424943361,-5.90470351305204 150.847034410306,-5.90446864646589 150.851020574871,-5.906750882748 150.851020574871,-5.906750882748 150.850928156949,-5.91132087110608 150.853814841104,-5.91244074142602 150.857330138109,-5.90860036732551 150.857330138109,-5.90860036732551 150.852809389844,-5.90647196833498 150.857745654588,-5.90563907831059 150.859499074453,-5.90350445821404 150.860811209765,-5.90043751501494 150.863326652077,-5.90314672130198 150.864177785076,-5.90707828804089 150.870848141919,-5.90976548959027 150.872839114046,-5.90778675684017 150.87324294283,-5.90186204220634 150.878087152685,-5.89482101432025 150.893522560445,-5.88772072674985 150.901094616237,-5.88951618247518 150.901435387693,-5.89162035305027 150.903881329183,-5.89398148442032 150.90451248652,-5.8911524044015 150.907905886822,-5.89328984144301 150.907543029725,-5.88882941997692 150.910810217137,-5.88586847781847 150.912417225574,-5.88888162497818 150.910717023812,-5.89093091215863 150.91239598601,-5.89200028106143 150.912727404573,-5.89496520153909 150.915312257962,-5.89628554537409 150.918414764784,-5.89852739848926 150.919043897344,-5.90086486110347 150.924393375888,-5.9024695557561 150.92995012276,-5.91025642208218 150.930337518518,-5.91717207538361 150.934183854499,-5.92004669669463 150.937984453498,-5.9204907066809 150.94189881192,-5.92420160941982 150.942906992694,-5.93862899713685 150.953151654555,-5.94265148178521 150.956035359172,-5.94804951890944 150.959395314347,-5.95166072044682 150.959261751003,-5.9565117094624 150.969347211449,-5.9609334009927 150.97093967143,-5.96625110598327 150.965136605624,-5.96696827772699 150.960972922255,-5.96972979097109 150.960869516512,-5.97733443882451 150.954955483333,-5.97824939327305 150.955495722604,-5.98187671409707 150.955264191488,-5.9853496808435 150.953643473673,-5.98928570982276 150.954338067022,-5.99160102098702 150.953403146428,-5.99579397655935 150.950375653051,-6.00097635790973 150.949471403252,-6.00280216056975 150.947481707272,-6.00345190567311 150.945712015992,-6.00530384385561 150.94458475555,-6.00796204376001 150.944715345073,-6.00907623182357 150.943876671792,-6.01145991775361 150.942851693685,-6.01439831791988 150.940569290065,-6.01456690969446 150.938988129036,-6.01532032296842 150.93589643023,-6.01487441919936 150.932305000017,-6.01452599999969 150.928934002331,-6.01535788739936 150.923399000018,-6.01549999999968 150.919072000018,-6.01497699999968 150.914183000018,-6.01532699999966 150.911271000018,-6.01249099999967 150.908388000018,-6.01252199999966 150.905044991519,-6.01003001439966 150.902918000033,-6.0120189999993 150.901205000019,-6.01319299999966 150.897192000033,-6.01467799999928 150.888747118999,-6.01507143289406 150.88280600002,-6.01514399999964 150.87626500002,-6.01499999999963 150.87363600002,-6.01812899999962 150.871692764821,-6.01891116047349 150.868933795169,-6.0198118715197 150.865071817388,-6.02211114178122 150.863087284415,-6.02287482378135 150.862206179055,-6.02298157762463 150.858471680307,-6.02509715272572 150.856277847615,-6.02590053741344 150.851585000021,-6.0273089999996</coordinates></LinearRing></outerBoundaryIs></Polygon></MultiGeometry>
  </Placemark>
</Folder>
</Document></kml>
