<?xml version="1.0" encoding="utf-8" ?>
<kml xmlns="http://www.opengis.net/kml/2.2">
<Document id="root_doc">
<Schema name="project_boundaries" id="project_boundaries">
	<SimpleField name="timestamp" type="string"></SimpleField>
	<SimpleField name="begin" type="string"></SimpleField>
	<SimpleField name="end" type="string"></SimpleField>
	<SimpleField name="altitudeMode" type="string"></SimpleField>
	<SimpleField name="tessellate" type="int"></SimpleField>
	<SimpleField name="extrude" type="int"></SimpleField>
	<SimpleField name="visibility" type="int"></SimpleField>
	<SimpleField name="drawOrder" type="int"></SimpleField>
	<SimpleField name="icon" type="string"></SimpleField>
	<SimpleField name="snippet" type="string"></SimpleField>
</Schema>
<Folder><name>project_boundaries</name>
  <Placemark>
	<name>AP-0003</name>
	<description>&lt;html xmlns:fo=&quot;http://www.w3.org/1999/XSL/Format&quot; xmlns:msxsl=&quot;urn:schemas-microsoft-com:xslt&quot;&gt;

&lt;head&gt;

&lt;META http-equiv=&quot;Content-Type&quot; content=&quot;text/html&quot;&gt;

&lt;meta http-equiv=&quot;content-type&quot; content=&quot;text/html; charset=UTF-8&quot;&gt;

&lt;/head&gt;

&lt;body style=&quot;margin:0px 0px 0px 0px;overflow:auto;background:#FFFFFF;&quot;&gt;

&lt;table style=&quot;font-family:Arial,Verdana,Times;font-size:12px;text-align:left;width:100%;border-collapse:collapse;padding:3px 3px 3px 3px&quot;&gt;

&lt;tr style=&quot;text-align:center;font-weight:bold;background:#9CBCE2&quot;&gt;

&lt;td&gt;AP-0003&lt;/td&gt;

&lt;/tr&gt;

&lt;tr&gt;

&lt;td&gt;

&lt;table style=&quot;font-family:Arial,Verdana,Times;font-size:12px;text-align:left;width:100%;border-spacing:0px; padding:3px 3px 3px 3px&quot;&gt;

&lt;tr&gt;

&lt;td&gt;FID&lt;/td&gt;

&lt;td&gt;0&lt;/td&gt;

&lt;/tr&gt;

&lt;tr bgcolor=&quot;#D4E4F3&quot;&gt;

&lt;td&gt;ProjectID&lt;/td&gt;

&lt;td&gt;AP-0003&lt;/td&gt;

&lt;/tr&gt;

&lt;tr&gt;

&lt;td&gt;Hectares&lt;/td&gt;

&lt;td&gt;27.4186&lt;/td&gt;

&lt;/tr&gt;

&lt;tr bgcolor=&quot;#D4E4F3&quot;&gt;

&lt;td&gt;Property&lt;/td&gt;

&lt;td&gt;Eirete&lt;/td&gt;

&lt;/tr&gt;

&lt;tr&gt;

&lt;td&gt;Orig_Owner&lt;/td&gt;

&lt;td&gt;Nelson Cintra Ribeiro&lt;/td&gt;

&lt;/tr&gt;

&lt;/table&gt;

&lt;/td&gt;

&lt;/tr&gt;

&lt;/table&gt;

&lt;/body&gt;

&lt;/html&gt;

</description>
	<Style><LineStyle><color>ff0000ff</color></LineStyle><PolyStyle><fill>0</fill></PolyStyle></Style>
	<ExtendedData><SchemaData schemaUrl="#project_boundaries">
		<SimpleData name="altitudeMode">absolute</SimpleData>
		<SimpleData name="tessellate">-1</SimpleData>
		<SimpleData name="extrude">0</SimpleData>
		<SimpleData name="visibility">-1</SimpleData>
		<SimpleData name="snippet"></SimpleData>
	</SchemaData></ExtendedData>
      <MultiGeometry><Polygon><outerBoundaryIs><LinearRing><coordinates>-58.1879666113374,-21.4202270207518,0 -58.1987469654414,-21.420187604236,0 -58.1987263396692,-21.4224061231662,0 -58.1879652928866,-21.4224456940505,0 -58.1879666113374,-21.4202270207518,0</coordinates></LinearRing></outerBoundaryIs></Polygon></MultiGeometry>
  </Placemark>
</Folder>
</Document></kml>
