<?xml version="1.0" encoding="UTF-8"?>
<kml xmlns="http://www.opengis.net/kml/2.2" xmlns:gx="http://www.google.com/kml/ext/2.2" xmlns:kml="http://www.opengis.net/kml/2.2" xmlns:atom="http://www.w3.org/2005/Atom">
<Document>
	<name>AREA_DE_PROYECTO_SISAL_GEO.shp</name>
	<Schema name="AREA_DE_PROYECTO_SISAL_GEO" id="S_AREA_DE_PROYECTO_SISAL_GEO_SSSSSSS">
		<SimpleField type="string" name="Name"><displayName>&lt;b&gt;Name&lt;/b&gt;</displayName>
</SimpleField>
		<SimpleField type="string" name="descriptio"><displayName>&lt;b&gt;descriptio&lt;/b&gt;</displayName>
</SimpleField>
		<SimpleField type="string" name="timestamp"><displayName>&lt;b&gt;timestamp&lt;/b&gt;</displayName>
</SimpleField>
		<SimpleField type="string" name="begin"><displayName>&lt;b&gt;begin&lt;/b&gt;</displayName>
</SimpleField>
		<SimpleField type="string" name="end"><displayName>&lt;b&gt;end&lt;/b&gt;</displayName>
</SimpleField>
		<SimpleField type="string" name="altitudeMo"><displayName>&lt;b&gt;altitudeMo&lt;/b&gt;</displayName>
</SimpleField>
		<SimpleField type="long" name="tessellate"><displayName>&lt;b&gt;tessellate&lt;/b&gt;</displayName>
</SimpleField>
		<SimpleField type="long" name="extrude"><displayName>&lt;b&gt;extrude&lt;/b&gt;</displayName>
</SimpleField>
		<SimpleField type="long" name="visibility"><displayName>&lt;b&gt;visibility&lt;/b&gt;</displayName>
</SimpleField>
		<SimpleField type="long" name="drawOrder"><displayName>&lt;b&gt;drawOrder&lt;/b&gt;</displayName>
</SimpleField>
		<SimpleField type="string" name="icon"><displayName>&lt;b&gt;icon&lt;/b&gt;</displayName>
</SimpleField>
	</Schema>
	<Style id="style1">
		<BalloonStyle>
			<text><![CDATA[<table border="0">
  <tr><td><b>Name</b></td><td>$[AREA_DE_PROYECTO_SISAL_GEO/Name]</td></tr>
  <tr><td><b>descriptio</b></td><td>$[AREA_DE_PROYECTO_SISAL_GEO/descriptio]</td></tr>
  <tr><td><b>timestamp</b></td><td>$[AREA_DE_PROYECTO_SISAL_GEO/timestamp]</td></tr>
  <tr><td><b>begin</b></td><td>$[AREA_DE_PROYECTO_SISAL_GEO/begin]</td></tr>
  <tr><td><b>end</b></td><td>$[AREA_DE_PROYECTO_SISAL_GEO/end]</td></tr>
  <tr><td><b>altitudeMo</b></td><td>$[AREA_DE_PROYECTO_SISAL_GEO/altitudeMo]</td></tr>
  <tr><td><b>tessellate</b></td><td>$[AREA_DE_PROYECTO_SISAL_GEO/tessellate]</td></tr>
  <tr><td><b>extrude</b></td><td>$[AREA_DE_PROYECTO_SISAL_GEO/extrude]</td></tr>
  <tr><td><b>visibility</b></td><td>$[AREA_DE_PROYECTO_SISAL_GEO/visibility]</td></tr>
  <tr><td><b>drawOrder</b></td><td>$[AREA_DE_PROYECTO_SISAL_GEO/drawOrder]</td></tr>
  <tr><td><b>icon</b></td><td>$[AREA_DE_PROYECTO_SISAL_GEO/icon]</td></tr>
</table>
]]></text>
		</BalloonStyle>
		<PolyStyle>
			<color>ff00ff00</color>
		</PolyStyle>
	</Style>
	<Folder id="layer 0">
		<name>AREA_DE_PROYECTO_SISAL_GEO</name>
		<Placemark>
			<styleUrl>#style1</styleUrl>
			<Style id="inline">
				<IconStyle>
					<color>ffe7ebef</color>
					<colorMode>normal</colorMode>
				</IconStyle>
				<LineStyle>
					<color>ffe7ebef</color>
					<colorMode>normal</colorMode>
				</LineStyle>
				<PolyStyle>
					<color>ffe7ebef</color>
					<colorMode>normal</colorMode>
				</PolyStyle>
			</Style>
			<ExtendedData>
				<SchemaData schemaUrl="#S_AREA_DE_PROYECTO_SISAL_GEO_SSSSSSS">
					<SimpleData name="Name"></SimpleData>
					<SimpleData name="descriptio"></SimpleData>
					<SimpleData name="timestamp"></SimpleData>
					<SimpleData name="begin"></SimpleData>
					<SimpleData name="end"></SimpleData>
					<SimpleData name="altitudeMo"></SimpleData>
					<SimpleData name="tessellate">-1</SimpleData>
					<SimpleData name="extrude">0</SimpleData>
					<SimpleData name="visibility">-1</SimpleData>
					<SimpleData name="drawOrder">0</SimpleData>
					<SimpleData name="icon"></SimpleData>
				</SchemaData>
			</ExtendedData>
			<LineString>
				<coordinates>
					-90.05108683543901,21.13294742470544,0 -90.01477555093092,21.13723797442451,0 -90.01474523037038,21.13724159188816,0 -89.9742593520251,21.14201608874823,0 -89.97380870472279,21.13592174000093,0 -89.97354850066932,21.13240253971419,0 -89.97125783077973,21.10684303316993,0 -89.95594626025149,21.10520433422504,0 -89.95695328562205,21.09704699073762,0 -89.96077694309361,21.09729294760458,0 -89.96115392104254,21.09405182570946,0 -89.96189521632455,21.0875952047531,0 -89.96492488121852,21.08794475418078,0 -89.96501764785917,21.08795650144419,0 -89.96829907718136,21.08830357895512,0 -89.96800654683179,21.09083830754949,0 -89.96799508794945,21.09093729922155,0 -89.96811711654331,21.09094914508888,0 -89.97368484060985,21.09149248264543,0 -89.98019718528556,21.09210207234726,0 -90.0142096709164,21.09548195228599,0 -90.01793483736508,21.06140245071312,0 -90.04484592591696,21.06106367583549,0 -90.04353843836645,21.10807835640871,0 -90.05108683543901,21.13294742470544,0 
				</coordinates>
			</LineString>
		</Placemark>
	</Folder>
</Document>
</kml>
