<?xml version="1.0" encoding="UTF-8"?>
<kml xmlns="http://www.opengis.net/kml/2.2" xmlns:gx="http://www.google.com/kml/ext/2.2" xmlns:xsi="http://www.w3.org/2001/XMLSchema-instance"
 xsi:schemaLocation="http://www.opengis.net/kml/2.2 http://schemas.opengis.net/kml/2.2.0/ogckml22.xsd http://www.google.com/kml/ext/2.2 http://code.google.com/apis/kml/schema/kml22gx.xsd">
<Document id="Project_areas">
  <name>Project_areas</name>
  <Snippet></Snippet>
  <Style id="PolyStyle00">
    <LabelStyle>
      <color>00000000</color>
      <scale>0.000000</scale>
    </LabelStyle>
    <LineStyle>
      <color>ff6e6e6e</color>
      <width>0.400000</width>
    </LineStyle>
    <PolyStyle>
      <color>fffac5e0</color>
      <outline>1</outline>
    </PolyStyle>
  </Style>
  <Folder id="FeatureLayer0">
    <name>Project_areas</name>
    <Snippet></Snippet>
    <Placemark id="ID_00000">
      <name>Populus alba</name>
      <Snippet></Snippet>
      <description><![CDATA[<html xmlns:fo="http://www.w3.org/1999/XSL/Format" xmlns:msxsl="urn:schemas-microsoft-com:xslt">
<head>
<META http-equiv="Content-Type" content="text/html">
<meta http-equiv="content-type" content="text/html; charset=UTF-8">
</head>
<body style="margin:0px 0px 0px 0px;overflow:auto;background:#FFFFFF;">
<table style="font-family:Arial,Verdana,Times;font-size:12px;text-align:left;width:100%;border-collapse:collapse;padding:3px 3px 3px 3px">
<tr style="text-align:center;font-weight:bold;background:#9CBCE2">
<td>Populus alba</td>
</tr>
<tr>
<td>
<table style="font-family:Arial,Verdana,Times;font-size:12px;text-align:left;width:100%;border-spacing:0px; padding:3px 3px 3px 3px">
<tr>
<td>FID</td>
<td>0</td>
</tr>
<tr bgcolor="#D4E4F3">
<td>Species</td>
<td>Populus alba</td>
</tr>
<tr>
<td>Date</td>
<td>19/01/2021</td>
</tr>
<tr bgcolor="#D4E4F3">
<td>TreesNum</td>
<td>102</td>
</tr>
<tr>
<td>Code</td>
<td>A2</td>
</tr>
<tr bgcolor="#D4E4F3">
<td>Area_mq</td>
<td>1279.965</td>
</tr>
<tr>
<td>Area_ha</td>
<td>0.128</td>
</tr>
<tr bgcolor="#D4E4F3">
<td>Eligible</td>
<td>yes</td>
</tr>
</table>
</td>
</tr>
</table>
</body>
</html>
]]></description>
      <styleUrl>#PolyStyle00</styleUrl>
      <MultiGeometry>
        <Polygon>
          <extrude>0</extrude><altitudeMode>clampToGround</altitudeMode>
          <outerBoundaryIs><LinearRing><coordinates> 19.38394910000015,40.56364820000001,0 19.38619400000015,40.56416399999999,0 19.38619600000015,40.564236,0 19.38374700000015,40.56364499999999,0 19.38394910000015,40.56364820000001,0</coordinates></LinearRing></outerBoundaryIs>
        </Polygon>
      </MultiGeometry>
    </Placemark>
    <Placemark id="ID_00001">
      <name>Pinus pinea; Pinus halepensis</name>
      <Snippet></Snippet>
      <description><![CDATA[<html xmlns:fo="http://www.w3.org/1999/XSL/Format" xmlns:msxsl="urn:schemas-microsoft-com:xslt">
<head>
<META http-equiv="Content-Type" content="text/html">
<meta http-equiv="content-type" content="text/html; charset=UTF-8">
</head>
<body style="margin:0px 0px 0px 0px;overflow:auto;background:#FFFFFF;">
<table style="font-family:Arial,Verdana,Times;font-size:12px;text-align:left;width:100%;border-collapse:collapse;padding:3px 3px 3px 3px">
<tr style="text-align:center;font-weight:bold;background:#9CBCE2">
<td>Pinus pinea; Pinus halepensis</td>
</tr>
<tr>
<td>
<table style="font-family:Arial,Verdana,Times;font-size:12px;text-align:left;width:100%;border-spacing:0px; padding:3px 3px 3px 3px">
<tr>
<td>FID</td>
<td>1</td>
</tr>
<tr bgcolor="#D4E4F3">
<td>Species</td>
<td>Pinus pinea; Pinus halepensis</td>
</tr>
<tr>
<td>Date</td>
<td>19/01/2021</td>
</tr>
<tr bgcolor="#D4E4F3">
<td>TreesNum</td>
<td>800</td>
</tr>
<tr>
<td>Code</td>
<td>A1</td>
</tr>
<tr bgcolor="#D4E4F3">
<td>Area_mq</td>
<td>4334.308</td>
</tr>
<tr>
<td>Area_ha</td>
<td>0.433</td>
</tr>
<tr bgcolor="#D4E4F3">
<td>Eligible</td>
<td>no</td>
</tr>
</table>
</td>
</tr>
</table>
</body>
</html>
]]></description>
      <styleUrl>#PolyStyle00</styleUrl>
      <MultiGeometry>
        <Polygon>
          <extrude>0</extrude><altitudeMode>clampToGround</altitudeMode>
          <outerBoundaryIs><LinearRing><coordinates> 19.38490270000015,40.5631575,0 19.38571380000015,40.5631846,0 19.38577790000015,40.5636798,0 19.38502440000014,40.56382640000001,0 19.38490270000015,40.5631575,0</coordinates></LinearRing></outerBoundaryIs>
        </Polygon>
      </MultiGeometry>
    </Placemark>
    <Placemark id="ID_00002">
      <name>Populus alba</name>
      <Snippet></Snippet>
      <description><![CDATA[<html xmlns:fo="http://www.w3.org/1999/XSL/Format" xmlns:msxsl="urn:schemas-microsoft-com:xslt">
<head>
<META http-equiv="Content-Type" content="text/html">
<meta http-equiv="content-type" content="text/html; charset=UTF-8">
</head>
<body style="margin:0px 0px 0px 0px;overflow:auto;background:#FFFFFF;">
<table style="font-family:Arial,Verdana,Times;font-size:12px;text-align:left;width:100%;border-collapse:collapse;padding:3px 3px 3px 3px">
<tr style="text-align:center;font-weight:bold;background:#9CBCE2">
<td>Populus alba</td>
</tr>
<tr>
<td>
<table style="font-family:Arial,Verdana,Times;font-size:12px;text-align:left;width:100%;border-spacing:0px; padding:3px 3px 3px 3px">
<tr>
<td>FID</td>
<td>2</td>
</tr>
<tr bgcolor="#D4E4F3">
<td>Species</td>
<td>Populus alba</td>
</tr>
<tr>
<td>Date</td>
<td>20/01/2021</td>
</tr>
<tr bgcolor="#D4E4F3">
<td>TreesNum</td>
<td>591</td>
</tr>
<tr>
<td>Code</td>
<td>A3</td>
</tr>
<tr bgcolor="#D4E4F3">
<td>Area_mq</td>
<td>4182.361</td>
</tr>
<tr>
<td>Area_ha</td>
<td>0.418</td>
</tr>
<tr bgcolor="#D4E4F3">
<td>Eligible</td>
<td>yes</td>
</tr>
</table>
</td>
</tr>
</table>
</body>
</html>
]]></description>
      <styleUrl>#PolyStyle00</styleUrl>
      <MultiGeometry>
        <Polygon>
          <extrude>0</extrude><altitudeMode>clampToGround</altitudeMode>
          <outerBoundaryIs><LinearRing><coordinates> 19.42811300000012,40.502499,0 19.42873000000013,40.50226599999999,0 19.42948200000012,40.501769,0 19.42961300000012,40.50169900000001,0 19.43005900000012,40.50167,0 19.43006000000013,40.501733,0 19.43016600000012,40.501794,0 19.43000500000013,40.50181600000001,0 19.42967400000012,40.50188999999999,0 19.42955000000012,40.502016,0 19.42942600000012,40.502015,0 19.42926000000012,40.50207099999999,0 19.42893360000012,40.50226489999999,0 19.42809300000012,40.502724,0 19.42774200000012,40.502941,0 19.42759000000013,40.50272399999999,0 19.42811300000012,40.502499,0</coordinates></LinearRing></outerBoundaryIs>
        </Polygon>
      </MultiGeometry>
    </Placemark>
    <Placemark id="ID_00003">
      <name>Populus alba</name>
      <Snippet></Snippet>
      <description><![CDATA[<html xmlns:fo="http://www.w3.org/1999/XSL/Format" xmlns:msxsl="urn:schemas-microsoft-com:xslt">
<head>
<META http-equiv="Content-Type" content="text/html">
<meta http-equiv="content-type" content="text/html; charset=UTF-8">
</head>
<body style="margin:0px 0px 0px 0px;overflow:auto;background:#FFFFFF;">
<table style="font-family:Arial,Verdana,Times;font-size:12px;text-align:left;width:100%;border-collapse:collapse;padding:3px 3px 3px 3px">
<tr style="text-align:center;font-weight:bold;background:#9CBCE2">
<td>Populus alba</td>
</tr>
<tr>
<td>
<table style="font-family:Arial,Verdana,Times;font-size:12px;text-align:left;width:100%;border-spacing:0px; padding:3px 3px 3px 3px">
<tr>
<td>FID</td>
<td>3</td>
</tr>
<tr bgcolor="#D4E4F3">
<td>Species</td>
<td>Populus alba</td>
</tr>
<tr>
<td>Date</td>
<td>25/01/2021</td>
</tr>
<tr bgcolor="#D4E4F3">
<td>TreesNum</td>
<td>200</td>
</tr>
<tr>
<td>Code</td>
<td>A6</td>
</tr>
<tr bgcolor="#D4E4F3">
<td>Area_mq</td>
<td>2387.922</td>
</tr>
<tr>
<td>Area_ha</td>
<td>0.239</td>
</tr>
<tr bgcolor="#D4E4F3">
<td>Eligible</td>
<td>no</td>
</tr>
</table>
</td>
</tr>
</table>
</body>
</html>
]]></description>
      <styleUrl>#PolyStyle00</styleUrl>
      <MultiGeometry>
        <Polygon>
          <extrude>0</extrude><altitudeMode>clampToGround</altitudeMode>
          <outerBoundaryIs><LinearRing><coordinates> 19.38548100000015,40.561927,0 19.38524200000015,40.56230999999998,0 19.38526680000015,40.5625084,0 19.38518700000014,40.56268039999999,0 19.38523530000015,40.5629239,0 19.38525170000015,40.56313810000002,0 19.38540220000015,40.56335439999999,0 19.38522720000014,40.563145,0 19.38517150000015,40.5626838,0 19.38516400000015,40.56226299999999,0 19.38519200000015,40.561848,0 19.38545500000015,40.561376,0 19.38554000000015,40.56126199999999,0 19.38554400000015,40.56139,0 19.38558400000015,40.56161899999999,0 19.38558130000015,40.5616432,0 19.38548100000015,40.561927,0</coordinates></LinearRing></outerBoundaryIs>
        </Polygon>
      </MultiGeometry>
    </Placemark>
    <Placemark id="ID_00004">
      <name>Pinus pinea</name>
      <Snippet></Snippet>
      <description><![CDATA[<html xmlns:fo="http://www.w3.org/1999/XSL/Format" xmlns:msxsl="urn:schemas-microsoft-com:xslt">
<head>
<META http-equiv="Content-Type" content="text/html">
<meta http-equiv="content-type" content="text/html; charset=UTF-8">
</head>
<body style="margin:0px 0px 0px 0px;overflow:auto;background:#FFFFFF;">
<table style="font-family:Arial,Verdana,Times;font-size:12px;text-align:left;width:100%;border-collapse:collapse;padding:3px 3px 3px 3px">
<tr style="text-align:center;font-weight:bold;background:#9CBCE2">
<td>Pinus pinea</td>
</tr>
<tr>
<td>
<table style="font-family:Arial,Verdana,Times;font-size:12px;text-align:left;width:100%;border-spacing:0px; padding:3px 3px 3px 3px">
<tr>
<td>FID</td>
<td>4</td>
</tr>
<tr bgcolor="#D4E4F3">
<td>Species</td>
<td>Pinus pinea</td>
</tr>
<tr>
<td>Date</td>
<td>25/01/2021</td>
</tr>
<tr bgcolor="#D4E4F3">
<td>TreesNum</td>
<td>200</td>
</tr>
<tr>
<td>Code</td>
<td>A4</td>
</tr>
<tr bgcolor="#D4E4F3">
<td>Area_mq</td>
<td>918.079</td>
</tr>
<tr>
<td>Area_ha</td>
<td>0.092</td>
</tr>
<tr bgcolor="#D4E4F3">
<td>Eligible</td>
<td>yes</td>
</tr>
</table>
</td>
</tr>
</table>
</body>
</html>
]]></description>
      <styleUrl>#PolyStyle00</styleUrl>
      <MultiGeometry>
        <Polygon>
          <extrude>0</extrude><altitudeMode>clampToGround</altitudeMode>
          <outerBoundaryIs><LinearRing><coordinates> 19.38547180000015,40.564354,0 19.38554800000015,40.56422999999999,0 19.38560600000015,40.56410899999999,0 19.38600200000015,40.564296,0 19.38589700000015,40.564445,0 19.38550780000014,40.56436699999999,0 19.38547180000015,40.564354,0</coordinates></LinearRing></outerBoundaryIs>
        </Polygon>
      </MultiGeometry>
    </Placemark>
    <Placemark id="ID_00005">
      <name>Populus alba</name>
      <Snippet></Snippet>
      <description><![CDATA[<html xmlns:fo="http://www.w3.org/1999/XSL/Format" xmlns:msxsl="urn:schemas-microsoft-com:xslt">
<head>
<META http-equiv="Content-Type" content="text/html">
<meta http-equiv="content-type" content="text/html; charset=UTF-8">
</head>
<body style="margin:0px 0px 0px 0px;overflow:auto;background:#FFFFFF;">
<table style="font-family:Arial,Verdana,Times;font-size:12px;text-align:left;width:100%;border-collapse:collapse;padding:3px 3px 3px 3px">
<tr style="text-align:center;font-weight:bold;background:#9CBCE2">
<td>Populus alba</td>
</tr>
<tr>
<td>
<table style="font-family:Arial,Verdana,Times;font-size:12px;text-align:left;width:100%;border-spacing:0px; padding:3px 3px 3px 3px">
<tr>
<td>FID</td>
<td>5</td>
</tr>
<tr bgcolor="#D4E4F3">
<td>Species</td>
<td>Populus alba</td>
</tr>
<tr>
<td>Date</td>
<td>25/01/2021</td>
</tr>
<tr bgcolor="#D4E4F3">
<td>TreesNum</td>
<td>200</td>
</tr>
<tr>
<td>Code</td>
<td>A5</td>
</tr>
<tr bgcolor="#D4E4F3">
<td>Area_mq</td>
<td>1121.746</td>
</tr>
<tr>
<td>Area_ha</td>
<td>0.112</td>
</tr>
<tr bgcolor="#D4E4F3">
<td>Eligible</td>
<td>yes</td>
</tr>
</table>
</td>
</tr>
</table>
</body>
</html>
]]></description>
      <styleUrl>#PolyStyle00</styleUrl>
      <MultiGeometry>
        <Polygon>
          <extrude>0</extrude><altitudeMode>clampToGround</altitudeMode>
          <outerBoundaryIs><LinearRing><coordinates> 19.42755560000013,40.50275,0 19.42760420000013,40.50286059999998,0 19.42682100000012,40.5032369,0 19.42680560000013,40.50324999999999,0 19.42673720000013,40.5032024,0 19.42703960000012,40.50297630000001,0 19.42742180000013,40.5027749,0 19.42755560000013,40.50275,0</coordinates></LinearRing></outerBoundaryIs>
        </Polygon>
      </MultiGeometry>
    </Placemark>
    <Placemark id="ID_00006">
      <name>Pinus halepensis</name>
      <Snippet></Snippet>
      <description><![CDATA[<html xmlns:fo="http://www.w3.org/1999/XSL/Format" xmlns:msxsl="urn:schemas-microsoft-com:xslt">
<head>
<META http-equiv="Content-Type" content="text/html">
<meta http-equiv="content-type" content="text/html; charset=UTF-8">
</head>
<body style="margin:0px 0px 0px 0px;overflow:auto;background:#FFFFFF;">
<table style="font-family:Arial,Verdana,Times;font-size:12px;text-align:left;width:100%;border-collapse:collapse;padding:3px 3px 3px 3px">
<tr style="text-align:center;font-weight:bold;background:#9CBCE2">
<td>Pinus halepensis</td>
</tr>
<tr>
<td>
<table style="font-family:Arial,Verdana,Times;font-size:12px;text-align:left;width:100%;border-spacing:0px; padding:3px 3px 3px 3px">
<tr>
<td>FID</td>
<td>6</td>
</tr>
<tr bgcolor="#D4E4F3">
<td>Species</td>
<td>Pinus halepensis</td>
</tr>
<tr>
<td>Date</td>
<td>28/01/2021</td>
</tr>
<tr bgcolor="#D4E4F3">
<td>TreesNum</td>
<td>500</td>
</tr>
<tr>
<td>Code</td>
<td>A7</td>
</tr>
<tr bgcolor="#D4E4F3">
<td>Area_mq</td>
<td>1448.402</td>
</tr>
<tr>
<td>Area_ha</td>
<td>0.145</td>
</tr>
<tr bgcolor="#D4E4F3">
<td>Eligible</td>
<td>yes</td>
</tr>
</table>
</td>
</tr>
</table>
</body>
</html>
]]></description>
      <styleUrl>#PolyStyle00</styleUrl>
      <MultiGeometry>
        <Polygon>
          <extrude>0</extrude><altitudeMode>clampToGround</altitudeMode>
          <outerBoundaryIs><LinearRing><coordinates> 19.38535930000015,40.564303,0 19.38526030000015,40.564345,0 19.38512830000015,40.56432199999999,0 19.38500530000015,40.564237,0 19.38499830000015,40.564173,0 19.38496730000015,40.56415799999998,0 19.38497330000015,40.563948,0 19.38546830000015,40.56405199999999,0 19.38559130000015,40.56409799999999,0 19.38535930000015,40.564303,0</coordinates></LinearRing></outerBoundaryIs>
        </Polygon>
      </MultiGeometry>
    </Placemark>
    <Placemark id="ID_00007">
      <name>Pinus pinea</name>
      <Snippet></Snippet>
      <description><![CDATA[<html xmlns:fo="http://www.w3.org/1999/XSL/Format" xmlns:msxsl="urn:schemas-microsoft-com:xslt">
<head>
<META http-equiv="Content-Type" content="text/html">
<meta http-equiv="content-type" content="text/html; charset=UTF-8">
</head>
<body style="margin:0px 0px 0px 0px;overflow:auto;background:#FFFFFF;">
<table style="font-family:Arial,Verdana,Times;font-size:12px;text-align:left;width:100%;border-collapse:collapse;padding:3px 3px 3px 3px">
<tr style="text-align:center;font-weight:bold;background:#9CBCE2">
<td>Pinus pinea</td>
</tr>
<tr>
<td>
<table style="font-family:Arial,Verdana,Times;font-size:12px;text-align:left;width:100%;border-spacing:0px; padding:3px 3px 3px 3px">
<tr>
<td>FID</td>
<td>7</td>
</tr>
<tr bgcolor="#D4E4F3">
<td>Species</td>
<td>Pinus pinea</td>
</tr>
<tr>
<td>Date</td>
<td>29/01/2021</td>
</tr>
<tr bgcolor="#D4E4F3">
<td>TreesNum</td>
<td>360</td>
</tr>
<tr>
<td>Code</td>
<td>A8</td>
</tr>
<tr bgcolor="#D4E4F3">
<td>Area_mq</td>
<td>2332.228</td>
</tr>
<tr>
<td>Area_ha</td>
<td>0.233</td>
</tr>
<tr bgcolor="#D4E4F3">
<td>Eligible</td>
<td>no</td>
</tr>
</table>
</td>
</tr>
</table>
</body>
</html>
]]></description>
      <styleUrl>#PolyStyle00</styleUrl>
      <MultiGeometry>
        <Polygon>
          <extrude>0</extrude><altitudeMode>clampToGround</altitudeMode>
          <outerBoundaryIs><LinearRing><coordinates> 19.38574640000015,40.56205120000001,0 19.38577600000015,40.562043,0 19.38579300000015,40.56205900000001,0 19.38581480000014,40.5620736,0 19.38584500000015,40.56237,0 19.38587600000015,40.562418,0 19.38584600000015,40.562516,0 19.38583400000014,40.562575,0 19.38586000000015,40.56262899999999,0 19.38585230000015,40.5626757,0 19.38583490000015,40.5627022,0 19.38577180000015,40.5627154,0 19.38572100000015,40.56267299999999,0 19.38569000000015,40.56267800000001,0 19.38567700000015,40.562674,0 19.38565110000015,40.56267669999998,0 19.38560500000015,40.562659,0 19.38554500000015,40.56264299999999,0 19.38540000000015,40.562618,0 19.38536300000015,40.562614,0 19.38532100000015,40.56260200000001,0 19.38531600000015,40.562511,0 19.38530900000015,40.562418,0 19.38531600000015,40.562363,0 19.38536200000015,40.562276,0 19.38539770000015,40.56227019999999,0 19.38542400000015,40.56226999999998,0 19.38548480000015,40.56231709999999,0 19.38551500000015,40.562259,0 19.38556530000015,40.56226610000001,0 19.38560820000015,40.5622967,0 19.38563500000015,40.56231499999999,0 19.38563700000015,40.56229299999999,0 19.38565920000015,40.5623232,0 19.38568870000014,40.5623191,0 19.38560800000015,40.562229,0 19.38547200000015,40.562128,0 19.38551300000015,40.56211700000001,0 19.38554100000015,40.56211499999999,0 19.38564200000015,40.56213999999999,0 19.38565800000015,40.562143,0 19.38565300000015,40.562105,0 19.38566400000015,40.562082,0 19.38574640000015,40.56205120000001,0</coordinates></LinearRing></outerBoundaryIs>
        </Polygon>
      </MultiGeometry>
    </Placemark>
    <Placemark id="ID_00008">
      <name>Laurus nobilis</name>
      <Snippet></Snippet>
      <description><![CDATA[<html xmlns:fo="http://www.w3.org/1999/XSL/Format" xmlns:msxsl="urn:schemas-microsoft-com:xslt">
<head>
<META http-equiv="Content-Type" content="text/html">
<meta http-equiv="content-type" content="text/html; charset=UTF-8">
</head>
<body style="margin:0px 0px 0px 0px;overflow:auto;background:#FFFFFF;">
<table style="font-family:Arial,Verdana,Times;font-size:12px;text-align:left;width:100%;border-collapse:collapse;padding:3px 3px 3px 3px">
<tr style="text-align:center;font-weight:bold;background:#9CBCE2">
<td>Laurus nobilis</td>
</tr>
<tr>
<td>
<table style="font-family:Arial,Verdana,Times;font-size:12px;text-align:left;width:100%;border-spacing:0px; padding:3px 3px 3px 3px">
<tr>
<td>FID</td>
<td>8</td>
</tr>
<tr bgcolor="#D4E4F3">
<td>Species</td>
<td>Laurus nobilis</td>
</tr>
<tr>
<td>Date</td>
<td>03/02/2021</td>
</tr>
<tr bgcolor="#D4E4F3">
<td>TreesNum</td>
<td>120</td>
</tr>
<tr>
<td>Code</td>
<td>A9</td>
</tr>
<tr bgcolor="#D4E4F3">
<td>Area_mq</td>
<td>1694.091</td>
</tr>
<tr>
<td>Area_ha</td>
<td>0.169</td>
</tr>
<tr bgcolor="#D4E4F3">
<td>Eligible</td>
<td>yes</td>
</tr>
</table>
</td>
</tr>
</table>
</body>
</html>
]]></description>
      <styleUrl>#PolyStyle00</styleUrl>
      <MultiGeometry>
        <Polygon>
          <extrude>0</extrude><altitudeMode>clampToGround</altitudeMode>
          <outerBoundaryIs><LinearRing><coordinates> 19.43846370000012,40.4917083,0 19.43828300000012,40.491715,0 19.43823700000012,40.49171700000001,0 19.43832700000012,40.49158600000001,0 19.43838300000012,40.491606,0 19.43841600000012,40.49162999999999,0 19.43852900000012,40.49163499999999,0 19.43856800000012,40.491602,0 19.43860100000012,40.491608,0 19.43871200000012,40.491732,0 19.43877800000012,40.491733,0 19.43877750000012,40.4917644,0 19.43884800000012,40.491865,0 19.43877700000012,40.49191700000001,0 19.43875100000012,40.491947,0 19.43866100000012,40.49197400000001,0 19.43861800000012,40.492012,0 19.43853500000012,40.49213799999999,0 19.43862800000012,40.492184,0 19.43865800000012,40.49221000000001,0 19.43873500000012,40.492196,0 19.43877800000012,40.49216499999999,0 19.43881300000012,40.492193,0 19.43874200000012,40.492238,0 19.43870700000012,40.492273,0 19.43858700000012,40.49236199999999,0 19.43848400000012,40.492349,0 19.43846370000012,40.4917083,0</coordinates></LinearRing></outerBoundaryIs>
        </Polygon>
      </MultiGeometry>
    </Placemark>
    <Placemark id="ID_00009">
      <name>Pinus halepensis</name>
      <Snippet></Snippet>
      <description><![CDATA[<html xmlns:fo="http://www.w3.org/1999/XSL/Format" xmlns:msxsl="urn:schemas-microsoft-com:xslt">
<head>
<META http-equiv="Content-Type" content="text/html">
<meta http-equiv="content-type" content="text/html; charset=UTF-8">
</head>
<body style="margin:0px 0px 0px 0px;overflow:auto;background:#FFFFFF;">
<table style="font-family:Arial,Verdana,Times;font-size:12px;text-align:left;width:100%;border-collapse:collapse;padding:3px 3px 3px 3px">
<tr style="text-align:center;font-weight:bold;background:#9CBCE2">
<td>Pinus halepensis</td>
</tr>
<tr>
<td>
<table style="font-family:Arial,Verdana,Times;font-size:12px;text-align:left;width:100%;border-spacing:0px; padding:3px 3px 3px 3px">
<tr>
<td>FID</td>
<td>9</td>
</tr>
<tr bgcolor="#D4E4F3">
<td>Species</td>
<td>Pinus halepensis</td>
</tr>
<tr>
<td>Date</td>
<td>04/02/2021</td>
</tr>
<tr bgcolor="#D4E4F3">
<td>TreesNum</td>
<td>500</td>
</tr>
<tr>
<td>Code</td>
<td>A12</td>
</tr>
<tr bgcolor="#D4E4F3">
<td>Area_mq</td>
<td>1765.778</td>
</tr>
<tr>
<td>Area_ha</td>
<td>0.177</td>
</tr>
<tr bgcolor="#D4E4F3">
<td>Eligible</td>
<td>yes</td>
</tr>
</table>
</td>
</tr>
</table>
</body>
</html>
]]></description>
      <styleUrl>#PolyStyle00</styleUrl>
      <MultiGeometry>
        <Polygon>
          <extrude>0</extrude><altitudeMode>clampToGround</altitudeMode>
          <outerBoundaryIs><LinearRing><coordinates> 19.42757870000013,40.50215000000001,0 19.42760290000012,40.50213779999999,0 19.42762970000013,40.50211740000001,0 19.42765110000012,40.502098,0 19.42769270000013,40.5020756,0 19.42773970000012,40.502099,0 19.42774100000013,40.5020287,0 19.42780130000012,40.5020062,0 19.42783890000013,40.50197559999999,0 19.42790460000013,40.5019236,0 19.42795830000012,40.5016422,0 19.42798370000012,40.501633,0 19.42803800000012,40.501656,0 19.42802800000013,40.5017319,0 19.42806420000013,40.50177679999999,0 19.42808000000013,40.501783,0 19.42812190000013,40.50178899999999,0 19.42820230000012,40.50179099999999,0 19.42822240000012,40.50178289999999,0 19.42824790000012,40.5017666,0 19.42830560000013,40.50174409999999,0 19.42835390000013,40.5017288,0 19.42838100000013,40.50170299999999,0 19.42845710000012,40.5017064,0 19.42850100000013,40.50170500000001,0 19.42838800000013,40.501769,0 19.42840220000013,40.50180529999999,0 19.42843970000012,40.5018329,0 19.42848000000012,40.501855,0 19.42842630000013,40.50188489999999,0 19.42840620000012,40.50189509999999,0 19.42844800000012,40.501926,0 19.42835520000012,40.50194399999999,0 19.42833510000013,40.50196640000001,0 19.42832600000012,40.50201899999999,0 19.42830830000013,40.5020603,0 19.42827610000012,40.5020358,0 19.42823850000012,40.5020266,0 19.42818200000012,40.502021,0 19.42814470000013,40.50202760000001,0 19.42812500000013,40.50199700000001,0 19.42809600000012,40.50199400000001,0 19.42806290000012,40.50202760000001,0 19.42794100000012,40.501921,0 19.42791940000012,40.50197869999999,0 19.42793010000013,40.50201640000001,0 19.42793000000012,40.502026,0 19.42792610000012,40.5020603,0 19.42794480000012,40.5020847,0 19.42791100000013,40.502081,0 19.42792740000013,40.5021194,0 19.42790700000013,40.50213199999998,0 19.42789520000012,40.50216530000001,0 19.42769800000012,40.50221100000001,0 19.42771400000013,40.50223199999999,0 19.42769670000012,40.50226419999999,0 19.42763400000013,40.50223800000001,0 19.42760960000012,40.50227950000001,0 19.42757870000013,40.50215000000001,0</coordinates></LinearRing></outerBoundaryIs>
        </Polygon>
      </MultiGeometry>
    </Placemark>
    <Placemark id="ID_00010">
      <name>Populus alba</name>
      <Snippet></Snippet>
      <description><![CDATA[<html xmlns:fo="http://www.w3.org/1999/XSL/Format" xmlns:msxsl="urn:schemas-microsoft-com:xslt">
<head>
<META http-equiv="Content-Type" content="text/html">
<meta http-equiv="content-type" content="text/html; charset=UTF-8">
</head>
<body style="margin:0px 0px 0px 0px;overflow:auto;background:#FFFFFF;">
<table style="font-family:Arial,Verdana,Times;font-size:12px;text-align:left;width:100%;border-collapse:collapse;padding:3px 3px 3px 3px">
<tr style="text-align:center;font-weight:bold;background:#9CBCE2">
<td>Populus alba</td>
</tr>
<tr>
<td>
<table style="font-family:Arial,Verdana,Times;font-size:12px;text-align:left;width:100%;border-spacing:0px; padding:3px 3px 3px 3px">
<tr>
<td>FID</td>
<td>10</td>
</tr>
<tr bgcolor="#D4E4F3">
<td>Species</td>
<td>Populus alba</td>
</tr>
<tr>
<td>Date</td>
<td>04/02/2021</td>
</tr>
<tr bgcolor="#D4E4F3">
<td>TreesNum</td>
<td>25</td>
</tr>
<tr>
<td>Code</td>
<td>A10</td>
</tr>
<tr bgcolor="#D4E4F3">
<td>Area_mq</td>
<td>263.977</td>
</tr>
<tr>
<td>Area_ha</td>
<td>0.026</td>
</tr>
<tr bgcolor="#D4E4F3">
<td>Eligible</td>
<td>yes</td>
</tr>
</table>
</td>
</tr>
</table>
</body>
</html>
]]></description>
      <styleUrl>#PolyStyle00</styleUrl>
      <MultiGeometry>
        <Polygon>
          <extrude>0</extrude><altitudeMode>clampToGround</altitudeMode>
          <outerBoundaryIs><LinearRing><coordinates> 19.42688000000012,40.503267,0 19.42675200000013,40.503373,0 19.42664700000012,40.50350999999999,0 19.42661400000013,40.503571,0 19.42658100000012,40.503558,0 19.42662000000012,40.50335499999999,0 19.42684600000013,40.50325599999999,0 19.42688000000012,40.503267,0</coordinates></LinearRing></outerBoundaryIs>
        </Polygon>
      </MultiGeometry>
    </Placemark>
    <Placemark id="ID_00011">
      <name>Populus alba</name>
      <Snippet></Snippet>
      <description><![CDATA[<html xmlns:fo="http://www.w3.org/1999/XSL/Format" xmlns:msxsl="urn:schemas-microsoft-com:xslt">
<head>
<META http-equiv="Content-Type" content="text/html">
<meta http-equiv="content-type" content="text/html; charset=UTF-8">
</head>
<body style="margin:0px 0px 0px 0px;overflow:auto;background:#FFFFFF;">
<table style="font-family:Arial,Verdana,Times;font-size:12px;text-align:left;width:100%;border-collapse:collapse;padding:3px 3px 3px 3px">
<tr style="text-align:center;font-weight:bold;background:#9CBCE2">
<td>Populus alba</td>
</tr>
<tr>
<td>
<table style="font-family:Arial,Verdana,Times;font-size:12px;text-align:left;width:100%;border-spacing:0px; padding:3px 3px 3px 3px">
<tr>
<td>FID</td>
<td>11</td>
</tr>
<tr bgcolor="#D4E4F3">
<td>Species</td>
<td>Populus alba</td>
</tr>
<tr>
<td>Date</td>
<td>04/02/2021</td>
</tr>
<tr bgcolor="#D4E4F3">
<td>TreesNum</td>
<td>25</td>
</tr>
<tr>
<td>Code</td>
<td>A10</td>
</tr>
<tr bgcolor="#D4E4F3">
<td>Area_mq</td>
<td>118.201</td>
</tr>
<tr>
<td>Area_ha</td>
<td>0.012</td>
</tr>
<tr bgcolor="#D4E4F3">
<td>Eligible</td>
<td>yes</td>
</tr>
</table>
</td>
</tr>
</table>
</body>
</html>
]]></description>
      <styleUrl>#PolyStyle00</styleUrl>
      <MultiGeometry>
        <Polygon>
          <extrude>0</extrude><altitudeMode>clampToGround</altitudeMode>
          <outerBoundaryIs><LinearRing><coordinates> 19.42775200000013,40.502633,0 19.42760500000012,40.50267100000001,0 19.42745000000012,40.5027299,0 19.42741500000012,40.502736,0 19.42734100000012,40.502784,0 19.42721260000013,40.5028696,0 19.42736680000013,40.50273299999999,0 19.42772500000012,40.50260500000001,0 19.42775200000013,40.502633,0</coordinates></LinearRing></outerBoundaryIs>
        </Polygon>
      </MultiGeometry>
    </Placemark>
    <Placemark id="ID_00012">
      <name>Pinus pinea</name>
      <Snippet></Snippet>
      <description><![CDATA[<html xmlns:fo="http://www.w3.org/1999/XSL/Format" xmlns:msxsl="urn:schemas-microsoft-com:xslt">
<head>
<META http-equiv="Content-Type" content="text/html">
<meta http-equiv="content-type" content="text/html; charset=UTF-8">
</head>
<body style="margin:0px 0px 0px 0px;overflow:auto;background:#FFFFFF;">
<table style="font-family:Arial,Verdana,Times;font-size:12px;text-align:left;width:100%;border-collapse:collapse;padding:3px 3px 3px 3px">
<tr style="text-align:center;font-weight:bold;background:#9CBCE2">
<td>Pinus pinea</td>
</tr>
<tr>
<td>
<table style="font-family:Arial,Verdana,Times;font-size:12px;text-align:left;width:100%;border-spacing:0px; padding:3px 3px 3px 3px">
<tr>
<td>FID</td>
<td>12</td>
</tr>
<tr bgcolor="#D4E4F3">
<td>Species</td>
<td>Pinus pinea</td>
</tr>
<tr>
<td>Date</td>
<td>04/02/2021</td>
</tr>
<tr bgcolor="#D4E4F3">
<td>TreesNum</td>
<td>40</td>
</tr>
<tr>
<td>Code</td>
<td>A11</td>
</tr>
<tr bgcolor="#D4E4F3">
<td>Area_mq</td>
<td>167.924</td>
</tr>
<tr>
<td>Area_ha</td>
<td>0.017</td>
</tr>
<tr bgcolor="#D4E4F3">
<td>Eligible</td>
<td>yes</td>
</tr>
</table>
</td>
</tr>
</table>
</body>
</html>
]]></description>
      <styleUrl>#PolyStyle00</styleUrl>
      <MultiGeometry>
        <Polygon>
          <extrude>0</extrude><altitudeMode>clampToGround</altitudeMode>
          <outerBoundaryIs><LinearRing><coordinates> 19.42757320000013,40.50211980000001,0 19.42756110000012,40.5021392,0 19.42757170000013,40.5021077,0 19.42757320000013,40.50211980000001,0</coordinates></LinearRing></outerBoundaryIs>
        </Polygon>
        <Polygon>
          <extrude>0</extrude><altitudeMode>clampToGround</altitudeMode>
          <outerBoundaryIs><LinearRing><coordinates> 19.42756920000012,40.50208720000001,0 19.42758490000012,40.5020685,0 19.42757170000013,40.5021077,0 19.42756920000012,40.50208720000001,0</coordinates></LinearRing></outerBoundaryIs>
        </Polygon>
        <Polygon>
          <extrude>0</extrude><altitudeMode>clampToGround</altitudeMode>
          <outerBoundaryIs><LinearRing><coordinates> 19.42760900000012,40.50199700000001,0 19.42762200000012,40.50196,0 19.42771400000013,40.5018761,0 19.42783500000013,40.50184099999999,0 19.42784900000012,40.501865,0 19.42778640000012,40.5019403,0 19.42773680000013,40.5019669,0 19.42771300000012,40.501952,0 19.42766600000012,40.501991,0 19.42762700000013,40.502015,0 19.42763100000013,40.502022,0 19.42760000000013,40.5020505,0 19.42758490000012,40.5020685,0 19.42760900000012,40.50199700000001,0</coordinates></LinearRing></outerBoundaryIs>
        </Polygon>
      </MultiGeometry>
    </Placemark>
    <Placemark id="ID_00013">
      <name>Laurus nobilis</name>
      <Snippet></Snippet>
      <description><![CDATA[<html xmlns:fo="http://www.w3.org/1999/XSL/Format" xmlns:msxsl="urn:schemas-microsoft-com:xslt">
<head>
<META http-equiv="Content-Type" content="text/html">
<meta http-equiv="content-type" content="text/html; charset=UTF-8">
</head>
<body style="margin:0px 0px 0px 0px;overflow:auto;background:#FFFFFF;">
<table style="font-family:Arial,Verdana,Times;font-size:12px;text-align:left;width:100%;border-collapse:collapse;padding:3px 3px 3px 3px">
<tr style="text-align:center;font-weight:bold;background:#9CBCE2">
<td>Laurus nobilis</td>
</tr>
<tr>
<td>
<table style="font-family:Arial,Verdana,Times;font-size:12px;text-align:left;width:100%;border-spacing:0px; padding:3px 3px 3px 3px">
<tr>
<td>FID</td>
<td>13</td>
</tr>
<tr bgcolor="#D4E4F3">
<td>Species</td>
<td>Laurus nobilis</td>
</tr>
<tr>
<td>Date</td>
<td>15/02/2021</td>
</tr>
<tr bgcolor="#D4E4F3">
<td>TreesNum</td>
<td>100</td>
</tr>
<tr>
<td>Code</td>
<td>A13</td>
</tr>
<tr bgcolor="#D4E4F3">
<td>Area_mq</td>
<td>587.296</td>
</tr>
<tr>
<td>Area_ha</td>
<td>0.059</td>
</tr>
<tr bgcolor="#D4E4F3">
<td>Eligible</td>
<td>yes</td>
</tr>
</table>
</td>
</tr>
</table>
</body>
</html>
]]></description>
      <styleUrl>#PolyStyle00</styleUrl>
      <MultiGeometry>
        <Polygon>
          <extrude>0</extrude><altitudeMode>clampToGround</altitudeMode>
          <outerBoundaryIs><LinearRing><coordinates> 19.42766400000012,40.50164399999998,0 19.42765590000013,40.50165969999998,0 19.42760900000012,40.501645,0 19.42751000000013,40.50162499999999,0 19.42736090000012,40.5016117,0 19.42732500000012,40.50157100000001,0 19.42732300000012,40.50154299999999,0 19.42736900000012,40.501449,0 19.42746800000013,40.501442,0 19.42750570000013,40.5014486,0 19.42778600000013,40.5015638,0 19.42771000000013,40.501617,0 19.42773770000013,40.5016372,0 19.42766400000012,40.50164399999998,0</coordinates></LinearRing></outerBoundaryIs>
        </Polygon>
      </MultiGeometry>
    </Placemark>
    <Placemark id="ID_00014">
      <name>Pinus halepensis</name>
      <Snippet></Snippet>
      <description><![CDATA[<html xmlns:fo="http://www.w3.org/1999/XSL/Format" xmlns:msxsl="urn:schemas-microsoft-com:xslt">
<head>
<META http-equiv="Content-Type" content="text/html">
<meta http-equiv="content-type" content="text/html; charset=UTF-8">
</head>
<body style="margin:0px 0px 0px 0px;overflow:auto;background:#FFFFFF;">
<table style="font-family:Arial,Verdana,Times;font-size:12px;text-align:left;width:100%;border-collapse:collapse;padding:3px 3px 3px 3px">
<tr style="text-align:center;font-weight:bold;background:#9CBCE2">
<td>Pinus halepensis</td>
</tr>
<tr>
<td>
<table style="font-family:Arial,Verdana,Times;font-size:12px;text-align:left;width:100%;border-spacing:0px; padding:3px 3px 3px 3px">
<tr>
<td>FID</td>
<td>14</td>
</tr>
<tr bgcolor="#D4E4F3">
<td>Species</td>
<td>Pinus halepensis</td>
</tr>
<tr>
<td>Date</td>
<td>18/02/2021</td>
</tr>
<tr bgcolor="#D4E4F3">
<td>TreesNum</td>
<td>1040</td>
</tr>
<tr>
<td>Code</td>
<td>A14</td>
</tr>
<tr bgcolor="#D4E4F3">
<td>Area_mq</td>
<td>3341.558</td>
</tr>
<tr>
<td>Area_ha</td>
<td>0.334</td>
</tr>
<tr bgcolor="#D4E4F3">
<td>Eligible</td>
<td>yes</td>
</tr>
</table>
</td>
</tr>
</table>
</body>
</html>
]]></description>
      <styleUrl>#PolyStyle00</styleUrl>
      <MultiGeometry>
        <Polygon>
          <extrude>0</extrude><altitudeMode>clampToGround</altitudeMode>
          <outerBoundaryIs><LinearRing><coordinates> 19.37679000000015,40.56466,0 19.37691900000015,40.564668,0 19.37692740000015,40.564716,0 19.37704600000015,40.56470300000001,0 19.37706150000015,40.5647689,0 19.37707700000015,40.56471999999999,0 19.37712320000016,40.56477499999999,0 19.37727900000016,40.56490999999999,0 19.37724120000015,40.5649584,0 19.37721100000015,40.564959,0 19.37718100000015,40.565004,0 19.37717420000015,40.56501959999999,0 19.37714200000015,40.565058,0 19.37712050000016,40.5650888,0 19.37709300000015,40.56509199999999,0 19.37715300000015,40.565138,0 19.37716080000015,40.56518459999999,0 19.37714200000015,40.56520910000001,0 19.37714200000015,40.5652376,0 19.37716700000015,40.565238,0 19.37718000000015,40.565295,0 19.37717200000015,40.565308,0 19.37717690000015,40.5653496,0 19.37715900000016,40.56537,0 19.37709910000016,40.56541479999999,0 19.37703740000015,40.5654148,0 19.37660800000015,40.56521399999999,0 19.37650360000015,40.56517850000001,0 19.37688990000015,40.56523760000001,0 19.37694200000015,40.565178,0 19.37650900000015,40.5650888,0 19.37632500000016,40.565122,0 19.37633900000016,40.56515400000001,0 19.37625000000015,40.565177,0 19.37623200000016,40.565013,0 19.37629100000015,40.565015,0 19.37650800000016,40.564987,0 19.37662200000016,40.564968,0 19.37664500000016,40.564945,0 19.37679000000015,40.56466,0</coordinates></LinearRing></outerBoundaryIs>
        </Polygon>
      </MultiGeometry>
    </Placemark>
    <Placemark id="ID_00015">
      <name>Pinus pinea</name>
      <Snippet></Snippet>
      <description><![CDATA[<html xmlns:fo="http://www.w3.org/1999/XSL/Format" xmlns:msxsl="urn:schemas-microsoft-com:xslt">
<head>
<META http-equiv="Content-Type" content="text/html">
<meta http-equiv="content-type" content="text/html; charset=UTF-8">
</head>
<body style="margin:0px 0px 0px 0px;overflow:auto;background:#FFFFFF;">
<table style="font-family:Arial,Verdana,Times;font-size:12px;text-align:left;width:100%;border-collapse:collapse;padding:3px 3px 3px 3px">
<tr style="text-align:center;font-weight:bold;background:#9CBCE2">
<td>Pinus pinea</td>
</tr>
<tr>
<td>
<table style="font-family:Arial,Verdana,Times;font-size:12px;text-align:left;width:100%;border-spacing:0px; padding:3px 3px 3px 3px">
<tr>
<td>FID</td>
<td>15</td>
</tr>
<tr bgcolor="#D4E4F3">
<td>Species</td>
<td>Pinus pinea</td>
</tr>
<tr>
<td>Date</td>
<td>19/02/2021</td>
</tr>
<tr bgcolor="#D4E4F3">
<td>TreesNum</td>
<td>300</td>
</tr>
<tr>
<td>Code</td>
<td>A24</td>
</tr>
<tr bgcolor="#D4E4F3">
<td>Area_mq</td>
<td>464.465</td>
</tr>
<tr>
<td>Area_ha</td>
<td>0.046</td>
</tr>
<tr bgcolor="#D4E4F3">
<td>Eligible</td>
<td>yes</td>
</tr>
</table>
</td>
</tr>
</table>
</body>
</html>
]]></description>
      <styleUrl>#PolyStyle00</styleUrl>
      <MultiGeometry>
        <Polygon>
          <extrude>0</extrude><altitudeMode>clampToGround</altitudeMode>
          <outerBoundaryIs><LinearRing><coordinates> 19.42764700000012,40.50178500000001,0 19.42766000000012,40.50179499999999,0 19.42751480000013,40.5018865,0 19.42737000000012,40.501999,0 19.42734000000013,40.50201300000001,0 19.42728150000012,40.5020752,0 19.42721580000012,40.5022282,0 19.42698510000012,40.50245049999999,0 19.42696630000012,40.5024658,0 19.42693410000012,40.50245150000001,0 19.42696800000012,40.502352,0 19.42704950000013,40.50229139999999,0 19.42726670000012,40.50203439999999,0 19.42732400000012,40.50196200000001,0 19.42734050000012,40.5019579,0 19.42750100000012,40.50188299999999,0 19.42756310000012,40.50183250000001,0 19.42758600000013,40.501809,0 19.42764700000012,40.50178500000001,0</coordinates></LinearRing></outerBoundaryIs>
        </Polygon>
      </MultiGeometry>
    </Placemark>
    <Placemark id="ID_00016">
      <name>Laurus nobilis</name>
      <Snippet></Snippet>
      <description><![CDATA[<html xmlns:fo="http://www.w3.org/1999/XSL/Format" xmlns:msxsl="urn:schemas-microsoft-com:xslt">
<head>
<META http-equiv="Content-Type" content="text/html">
<meta http-equiv="content-type" content="text/html; charset=UTF-8">
</head>
<body style="margin:0px 0px 0px 0px;overflow:auto;background:#FFFFFF;">
<table style="font-family:Arial,Verdana,Times;font-size:12px;text-align:left;width:100%;border-collapse:collapse;padding:3px 3px 3px 3px">
<tr style="text-align:center;font-weight:bold;background:#9CBCE2">
<td>Laurus nobilis</td>
</tr>
<tr>
<td>
<table style="font-family:Arial,Verdana,Times;font-size:12px;text-align:left;width:100%;border-spacing:0px; padding:3px 3px 3px 3px">
<tr>
<td>FID</td>
<td>16</td>
</tr>
<tr bgcolor="#D4E4F3">
<td>Species</td>
<td>Laurus nobilis</td>
</tr>
<tr>
<td>Date</td>
<td>19/02/2021</td>
</tr>
<tr bgcolor="#D4E4F3">
<td>TreesNum</td>
<td>600</td>
</tr>
<tr>
<td>Code</td>
<td>A15</td>
</tr>
<tr bgcolor="#D4E4F3">
<td>Area_mq</td>
<td>1122</td>
</tr>
<tr>
<td>Area_ha</td>
<td>0.112</td>
</tr>
<tr bgcolor="#D4E4F3">
<td>Eligible</td>
<td>yes</td>
</tr>
</table>
</td>
</tr>
</table>
</body>
</html>
]]></description>
      <styleUrl>#PolyStyle00</styleUrl>
      <MultiGeometry>
        <Polygon>
          <extrude>0</extrude><altitudeMode>clampToGround</altitudeMode>
          <outerBoundaryIs><LinearRing><coordinates> 19.42737100000013,40.50138,0 19.42729720000013,40.50154920000001,0 19.42734400000013,40.50164699999998,0 19.42734320000012,40.5016836,0 19.42735930000012,40.5016979,0 19.42740100000012,40.50169499999999,0 19.42740890000012,40.5017162,0 19.42734320000012,40.50175500000002,0 19.42727740000013,40.50176929999999,0 19.42692100000013,40.5017,0 19.42678120000012,40.501808,0 19.42683300000012,40.501709,0 19.42690460000012,40.50164889999999,0 19.42695100000012,40.50166900000001,0 19.42700920000012,40.50167750000001,0 19.42703740000013,40.50160199999999,0 19.42701460000012,40.50158669999999,0 19.42703340000012,40.50155310000001,0 19.42701460000012,40.50154080000001,0 19.42699200000012,40.50150299999999,0 19.42700500000013,40.501489,0 19.42703900000012,40.501442,0 19.42713260000012,40.50148879999999,0 19.42714330000013,40.50145819999999,0 19.42713130000012,40.5014338,0 19.42714600000012,40.50142759999999,0 19.42715900000012,40.50137900000001,0 19.42725460000013,40.501392,0 19.42725700000013,40.50137599999999,0 19.42727100000013,40.50135599999999,0 19.42737100000013,40.50138,0</coordinates></LinearRing></outerBoundaryIs>
        </Polygon>
      </MultiGeometry>
    </Placemark>
    <Placemark id="ID_00017">
      <name>Laurus nobilis</name>
      <Snippet></Snippet>
      <description><![CDATA[<html xmlns:fo="http://www.w3.org/1999/XSL/Format" xmlns:msxsl="urn:schemas-microsoft-com:xslt">
<head>
<META http-equiv="Content-Type" content="text/html">
<meta http-equiv="content-type" content="text/html; charset=UTF-8">
</head>
<body style="margin:0px 0px 0px 0px;overflow:auto;background:#FFFFFF;">
<table style="font-family:Arial,Verdana,Times;font-size:12px;text-align:left;width:100%;border-collapse:collapse;padding:3px 3px 3px 3px">
<tr style="text-align:center;font-weight:bold;background:#9CBCE2">
<td>Laurus nobilis</td>
</tr>
<tr>
<td>
<table style="font-family:Arial,Verdana,Times;font-size:12px;text-align:left;width:100%;border-spacing:0px; padding:3px 3px 3px 3px">
<tr>
<td>FID</td>
<td>17</td>
</tr>
<tr bgcolor="#D4E4F3">
<td>Species</td>
<td>Laurus nobilis</td>
</tr>
<tr>
<td>Date</td>
<td>19/02/2021</td>
</tr>
<tr bgcolor="#D4E4F3">
<td>TreesNum</td>
<td>0</td>
</tr>
<tr>
<td>Code</td>
<td>A15</td>
</tr>
<tr bgcolor="#D4E4F3">
<td>Area_mq</td>
<td>19.273</td>
</tr>
<tr>
<td>Area_ha</td>
<td>0.002</td>
</tr>
<tr bgcolor="#D4E4F3">
<td>Eligible</td>
<td>yes</td>
</tr>
</table>
</td>
</tr>
</table>
</body>
</html>
]]></description>
      <styleUrl>#PolyStyle00</styleUrl>
      <MultiGeometry>
        <Polygon>
          <extrude>0</extrude><altitudeMode>clampToGround</altitudeMode>
          <outerBoundaryIs><LinearRing><coordinates> 19.42752150000013,40.50177639999999,0 19.42750540000013,40.50177839999999,0 19.42747400000012,40.50177099999999,0 19.42759000000012,40.50174499999999,0 19.42758860000012,40.5017754,0 19.42753490000013,40.50177639999999,0 19.42752150000013,40.50177639999999,0</coordinates></LinearRing></outerBoundaryIs>
        </Polygon>
      </MultiGeometry>
    </Placemark>
    <Placemark id="ID_00018">
      <name>Laurus nobilis</name>
      <Snippet></Snippet>
      <description><![CDATA[<html xmlns:fo="http://www.w3.org/1999/XSL/Format" xmlns:msxsl="urn:schemas-microsoft-com:xslt">
<head>
<META http-equiv="Content-Type" content="text/html">
<meta http-equiv="content-type" content="text/html; charset=UTF-8">
</head>
<body style="margin:0px 0px 0px 0px;overflow:auto;background:#FFFFFF;">
<table style="font-family:Arial,Verdana,Times;font-size:12px;text-align:left;width:100%;border-collapse:collapse;padding:3px 3px 3px 3px">
<tr style="text-align:center;font-weight:bold;background:#9CBCE2">
<td>Laurus nobilis</td>
</tr>
<tr>
<td>
<table style="font-family:Arial,Verdana,Times;font-size:12px;text-align:left;width:100%;border-spacing:0px; padding:3px 3px 3px 3px">
<tr>
<td>FID</td>
<td>18</td>
</tr>
<tr bgcolor="#D4E4F3">
<td>Species</td>
<td>Laurus nobilis</td>
</tr>
<tr>
<td>Date</td>
<td>22/02/2021</td>
</tr>
<tr bgcolor="#D4E4F3">
<td>TreesNum</td>
<td>200</td>
</tr>
<tr>
<td>Code</td>
<td>A16</td>
</tr>
<tr bgcolor="#D4E4F3">
<td>Area_mq</td>
<td>555.139</td>
</tr>
<tr>
<td>Area_ha</td>
<td>0.056</td>
</tr>
<tr bgcolor="#D4E4F3">
<td>Eligible</td>
<td>yes</td>
</tr>
</table>
</td>
</tr>
</table>
</body>
</html>
]]></description>
      <styleUrl>#PolyStyle00</styleUrl>
      <MultiGeometry>
        <Polygon>
          <extrude>0</extrude><altitudeMode>clampToGround</altitudeMode>
          <outerBoundaryIs><LinearRing><coordinates> 19.42809800000012,40.501532,0 19.42821000000012,40.50141199999999,0 19.42827930000012,40.5014399,0 19.42830740000013,40.50140829999999,0 19.42829400000013,40.50138379999999,0 19.42829400000013,40.50134100000001,0 19.42824710000013,40.50134199999999,0 19.42831400000012,40.50121600000001,0 19.42835300000013,40.5012706,0 19.42840500000013,40.501321,0 19.42842600000013,40.50133899999999,0 19.42841870000013,40.5013665,0 19.42840400000012,40.5014042,0 19.42838120000012,40.5014491,0 19.42839860000013,40.5014633,0 19.42839700000012,40.501498,0 19.42839190000013,40.5015337,0 19.42837600000012,40.501536,0 19.42835840000012,40.5015572,0 19.42829900000012,40.50153,0 19.42827790000013,40.50153879999999,0 19.42825910000012,40.50152550000001,0 19.42815320000012,40.5015673,0 19.42821700000012,40.501619,0 19.42821220000013,40.5016336,0 19.42816660000013,40.5016408,0 19.42811560000013,40.50176110000001,0 19.42809900000012,40.501749,0 19.42810600000012,40.501696,0 19.42813580000012,40.50162850000002,0 19.42812700000012,40.50159099999999,0 19.42810090000012,40.50154289999999,0 19.42809800000012,40.501532,0</coordinates></LinearRing></outerBoundaryIs>
        </Polygon>
      </MultiGeometry>
    </Placemark>
    <Placemark id="ID_00019">
      <name>Pinus halepensis</name>
      <Snippet></Snippet>
      <description><![CDATA[<html xmlns:fo="http://www.w3.org/1999/XSL/Format" xmlns:msxsl="urn:schemas-microsoft-com:xslt">
<head>
<META http-equiv="Content-Type" content="text/html">
<meta http-equiv="content-type" content="text/html; charset=UTF-8">
</head>
<body style="margin:0px 0px 0px 0px;overflow:auto;background:#FFFFFF;">
<table style="font-family:Arial,Verdana,Times;font-size:12px;text-align:left;width:100%;border-collapse:collapse;padding:3px 3px 3px 3px">
<tr style="text-align:center;font-weight:bold;background:#9CBCE2">
<td>Pinus halepensis</td>
</tr>
<tr>
<td>
<table style="font-family:Arial,Verdana,Times;font-size:12px;text-align:left;width:100%;border-spacing:0px; padding:3px 3px 3px 3px">
<tr>
<td>FID</td>
<td>19</td>
</tr>
<tr bgcolor="#D4E4F3">
<td>Species</td>
<td>Pinus halepensis</td>
</tr>
<tr>
<td>Date</td>
<td>24/02/2021</td>
</tr>
<tr bgcolor="#D4E4F3">
<td>TreesNum</td>
<td>0</td>
</tr>
<tr>
<td>Code</td>
<td>A17</td>
</tr>
<tr bgcolor="#D4E4F3">
<td>Area_mq</td>
<td>944.188</td>
</tr>
<tr>
<td>Area_ha</td>
<td>0.094</td>
</tr>
<tr bgcolor="#D4E4F3">
<td>Eligible</td>
<td>yes</td>
</tr>
</table>
</td>
</tr>
</table>
</body>
</html>
]]></description>
      <styleUrl>#PolyStyle00</styleUrl>
      <MultiGeometry>
        <Polygon>
          <extrude>0</extrude><altitudeMode>clampToGround</altitudeMode>
          <outerBoundaryIs><LinearRing><coordinates> 19.38523470000015,40.56547190000001,0 19.38523600000015,40.56544399999999,0 19.38548000000015,40.56543,0 19.38558300000015,40.56543499999999,0 19.38577400000015,40.565404,0 19.38589000000015,40.565369,0 19.38599600000015,40.56536999999999,0 19.38624730000015,40.5653262,0 19.38633380000014,40.5653063,0 19.38642500000014,40.565337,0 19.38633700000015,40.56541099999999,0 19.38606800000015,40.56545000000001,0 19.38604100000015,40.565476,0 19.38584580000014,40.5655351,0 19.38562900000015,40.5655116,0 19.38555530000015,40.5654923,0 19.38543700000015,40.56545699999999,0 19.38523470000015,40.56547190000001,0</coordinates></LinearRing></outerBoundaryIs>
        </Polygon>
      </MultiGeometry>
    </Placemark>
    <Placemark id="ID_00020">
      <name>Pinus pinea</name>
      <Snippet></Snippet>
      <description><![CDATA[<html xmlns:fo="http://www.w3.org/1999/XSL/Format" xmlns:msxsl="urn:schemas-microsoft-com:xslt">
<head>
<META http-equiv="Content-Type" content="text/html">
<meta http-equiv="content-type" content="text/html; charset=UTF-8">
</head>
<body style="margin:0px 0px 0px 0px;overflow:auto;background:#FFFFFF;">
<table style="font-family:Arial,Verdana,Times;font-size:12px;text-align:left;width:100%;border-collapse:collapse;padding:3px 3px 3px 3px">
<tr style="text-align:center;font-weight:bold;background:#9CBCE2">
<td>Pinus pinea</td>
</tr>
<tr>
<td>
<table style="font-family:Arial,Verdana,Times;font-size:12px;text-align:left;width:100%;border-spacing:0px; padding:3px 3px 3px 3px">
<tr>
<td>FID</td>
<td>20</td>
</tr>
<tr bgcolor="#D4E4F3">
<td>Species</td>
<td>Pinus pinea</td>
</tr>
<tr>
<td>Date</td>
<td>24/02/2021</td>
</tr>
<tr bgcolor="#D4E4F3">
<td>TreesNum</td>
<td>500</td>
</tr>
<tr>
<td>Code</td>
<td>A18</td>
</tr>
<tr bgcolor="#D4E4F3">
<td>Area_mq</td>
<td>726.893</td>
</tr>
<tr>
<td>Area_ha</td>
<td>0.073</td>
</tr>
<tr bgcolor="#D4E4F3">
<td>Eligible</td>
<td>yes</td>
</tr>
</table>
</td>
</tr>
</table>
</body>
</html>
]]></description>
      <styleUrl>#PolyStyle00</styleUrl>
      <MultiGeometry>
        <Polygon>
          <extrude>0</extrude><altitudeMode>clampToGround</altitudeMode>
          <outerBoundaryIs><LinearRing><coordinates> 19.38486400000015,40.565632,0 19.38472200000015,40.56567800000001,0 19.38461300000015,40.56569300000002,0 19.38430900000015,40.56579700000001,0 19.38432550000015,40.5658325,0 19.38426700000015,40.565832,0 19.38405460000015,40.56593239999999,0 19.38389900000015,40.56599549999999,0 19.38381000000015,40.566001,0 19.38362300000015,40.566019,0 19.38360660000015,40.5660383,0 19.38350900000015,40.56608799999999,0 19.38342300000015,40.56610799999999,0 19.38333200000015,40.56613099999999,0 19.38266400000015,40.56617900000001,0 19.38273000000015,40.566156,0 19.38309000000015,40.566106,0 19.38337060000015,40.56608309999999,0 19.38349900000015,40.56604599999999,0 19.38380900000015,40.565957,0 19.38406000000015,40.56589299999999,0 19.38425000000015,40.56578699999999,0 19.38467700000015,40.565646,0 19.38486400000015,40.565632,0</coordinates></LinearRing></outerBoundaryIs>
        </Polygon>
      </MultiGeometry>
    </Placemark>
    <Placemark id="ID_00021">
      <name>Pinus halepensis</name>
      <Snippet></Snippet>
      <description><![CDATA[<html xmlns:fo="http://www.w3.org/1999/XSL/Format" xmlns:msxsl="urn:schemas-microsoft-com:xslt">
<head>
<META http-equiv="Content-Type" content="text/html">
<meta http-equiv="content-type" content="text/html; charset=UTF-8">
</head>
<body style="margin:0px 0px 0px 0px;overflow:auto;background:#FFFFFF;">
<table style="font-family:Arial,Verdana,Times;font-size:12px;text-align:left;width:100%;border-collapse:collapse;padding:3px 3px 3px 3px">
<tr style="text-align:center;font-weight:bold;background:#9CBCE2">
<td>Pinus halepensis</td>
</tr>
<tr>
<td>
<table style="font-family:Arial,Verdana,Times;font-size:12px;text-align:left;width:100%;border-spacing:0px; padding:3px 3px 3px 3px">
<tr>
<td>FID</td>
<td>21</td>
</tr>
<tr bgcolor="#D4E4F3">
<td>Species</td>
<td>Pinus halepensis</td>
</tr>
<tr>
<td>Date</td>
<td>24/02/2021</td>
</tr>
<tr bgcolor="#D4E4F3">
<td>TreesNum</td>
<td>1000</td>
</tr>
<tr>
<td>Code</td>
<td>A17</td>
</tr>
<tr bgcolor="#D4E4F3">
<td>Area_mq</td>
<td>348.844</td>
</tr>
<tr>
<td>Area_ha</td>
<td>0.035</td>
</tr>
<tr bgcolor="#D4E4F3">
<td>Eligible</td>
<td>yes</td>
</tr>
</table>
</td>
</tr>
</table>
</body>
</html>
]]></description>
      <styleUrl>#PolyStyle00</styleUrl>
      <MultiGeometry>
        <Polygon>
          <extrude>0</extrude><altitudeMode>clampToGround</altitudeMode>
          <outerBoundaryIs><LinearRing><coordinates> 19.38427800000015,40.56606400000001,0 19.38431500000015,40.566091,0 19.38433400000015,40.566125,0 19.38440860000015,40.56621359999999,0 19.38435230000015,40.56623389999999,0 19.38425700000015,40.566246,0 19.38422890000015,40.56629300000001,0 19.38419300000015,40.566259,0 19.38414580000015,40.56626039999999,0 19.38410820000015,40.56618299999999,0 19.38410100000015,40.56615699999999,0 19.38418330000015,40.5661748,0 19.38418800000015,40.566142,0 19.38416800000015,40.56608299999999,0 19.38420800000015,40.56607400000001,0 19.38427800000015,40.56606400000001,0</coordinates></LinearRing></outerBoundaryIs>
        </Polygon>
      </MultiGeometry>
    </Placemark>
    <Placemark id="ID_00022">
      <name>Pinus halepensis</name>
      <Snippet></Snippet>
      <description><![CDATA[<html xmlns:fo="http://www.w3.org/1999/XSL/Format" xmlns:msxsl="urn:schemas-microsoft-com:xslt">
<head>
<META http-equiv="Content-Type" content="text/html">
<meta http-equiv="content-type" content="text/html; charset=UTF-8">
</head>
<body style="margin:0px 0px 0px 0px;overflow:auto;background:#FFFFFF;">
<table style="font-family:Arial,Verdana,Times;font-size:12px;text-align:left;width:100%;border-collapse:collapse;padding:3px 3px 3px 3px">
<tr style="text-align:center;font-weight:bold;background:#9CBCE2">
<td>Pinus halepensis</td>
</tr>
<tr>
<td>
<table style="font-family:Arial,Verdana,Times;font-size:12px;text-align:left;width:100%;border-spacing:0px; padding:3px 3px 3px 3px">
<tr>
<td>FID</td>
<td>22</td>
</tr>
<tr bgcolor="#D4E4F3">
<td>Species</td>
<td>Pinus halepensis</td>
</tr>
<tr>
<td>Date</td>
<td>24/02/2021</td>
</tr>
<tr bgcolor="#D4E4F3">
<td>TreesNum</td>
<td>0</td>
</tr>
<tr>
<td>Code</td>
<td>A17</td>
</tr>
<tr bgcolor="#D4E4F3">
<td>Area_mq</td>
<td>76.197</td>
</tr>
<tr>
<td>Area_ha</td>
<td>0.008</td>
</tr>
<tr bgcolor="#D4E4F3">
<td>Eligible</td>
<td>yes</td>
</tr>
</table>
</td>
</tr>
</table>
</body>
</html>
]]></description>
      <styleUrl>#PolyStyle00</styleUrl>
      <MultiGeometry>
        <Polygon>
          <extrude>0</extrude><altitudeMode>clampToGround</altitudeMode>
          <outerBoundaryIs><LinearRing><coordinates> 19.38455700000015,40.56599,0 19.38456550000015,40.5659955,0 19.38463300000015,40.56601699999999,0 19.38465500000015,40.566015,0 19.38466340000015,40.56606180000001,0 19.38461800000015,40.566062,0 19.38462590000015,40.56608109999998,0 19.38465100000015,40.56609,0 19.38461100000015,40.56610899999999,0 19.38457400000015,40.566074,0 19.38454810000015,40.5660434,0 19.38454270000015,40.5660078,0 19.38455700000015,40.56599,0</coordinates></LinearRing></outerBoundaryIs>
        </Polygon>
      </MultiGeometry>
    </Placemark>
    <Placemark id="ID_00023">
      <name>Pinus halepensis</name>
      <Snippet></Snippet>
      <description><![CDATA[<html xmlns:fo="http://www.w3.org/1999/XSL/Format" xmlns:msxsl="urn:schemas-microsoft-com:xslt">
<head>
<META http-equiv="Content-Type" content="text/html">
<meta http-equiv="content-type" content="text/html; charset=UTF-8">
</head>
<body style="margin:0px 0px 0px 0px;overflow:auto;background:#FFFFFF;">
<table style="font-family:Arial,Verdana,Times;font-size:12px;text-align:left;width:100%;border-collapse:collapse;padding:3px 3px 3px 3px">
<tr style="text-align:center;font-weight:bold;background:#9CBCE2">
<td>Pinus halepensis</td>
</tr>
<tr>
<td>
<table style="font-family:Arial,Verdana,Times;font-size:12px;text-align:left;width:100%;border-spacing:0px; padding:3px 3px 3px 3px">
<tr>
<td>FID</td>
<td>23</td>
</tr>
<tr bgcolor="#D4E4F3">
<td>Species</td>
<td>Pinus halepensis</td>
</tr>
<tr>
<td>Date</td>
<td>25/02/2021</td>
</tr>
<tr bgcolor="#D4E4F3">
<td>TreesNum</td>
<td>340</td>
</tr>
<tr>
<td>Code</td>
<td>A20</td>
</tr>
<tr bgcolor="#D4E4F3">
<td>Area_mq</td>
<td>262.346</td>
</tr>
<tr>
<td>Area_ha</td>
<td>0.026</td>
</tr>
<tr bgcolor="#D4E4F3">
<td>Eligible</td>
<td>no</td>
</tr>
</table>
</td>
</tr>
</table>
</body>
</html>
]]></description>
      <styleUrl>#PolyStyle00</styleUrl>
      <MultiGeometry>
        <Polygon>
          <extrude>0</extrude><altitudeMode>clampToGround</altitudeMode>
          <outerBoundaryIs><LinearRing><coordinates> 19.42688400000013,40.50160799999998,0 19.42690680000013,40.5015093,0 19.42692820000012,40.50146029999999,0 19.42696700000013,40.501409,0 19.42702100000012,40.50137,0 19.42710390000012,40.50138080000001,0 19.42710350000013,40.5014564,0 19.42701460000012,40.5014361,0 19.42700360000012,40.5014718,0 19.42699270000012,40.5015401,0 19.42700630000012,40.5016281,0 19.42699310000013,40.50164459999999,0 19.42692000000012,40.50163599999999,0 19.42688400000013,40.50160799999998,0</coordinates></LinearRing></outerBoundaryIs>
        </Polygon>
      </MultiGeometry>
    </Placemark>
    <Placemark id="ID_00024">
      <name>Laurus nobilis</name>
      <Snippet></Snippet>
      <description><![CDATA[<html xmlns:fo="http://www.w3.org/1999/XSL/Format" xmlns:msxsl="urn:schemas-microsoft-com:xslt">
<head>
<META http-equiv="Content-Type" content="text/html">
<meta http-equiv="content-type" content="text/html; charset=UTF-8">
</head>
<body style="margin:0px 0px 0px 0px;overflow:auto;background:#FFFFFF;">
<table style="font-family:Arial,Verdana,Times;font-size:12px;text-align:left;width:100%;border-collapse:collapse;padding:3px 3px 3px 3px">
<tr style="text-align:center;font-weight:bold;background:#9CBCE2">
<td>Laurus nobilis</td>
</tr>
<tr>
<td>
<table style="font-family:Arial,Verdana,Times;font-size:12px;text-align:left;width:100%;border-spacing:0px; padding:3px 3px 3px 3px">
<tr>
<td>FID</td>
<td>24</td>
</tr>
<tr bgcolor="#D4E4F3">
<td>Species</td>
<td>Laurus nobilis</td>
</tr>
<tr>
<td>Date</td>
<td>25/02/2021</td>
</tr>
<tr bgcolor="#D4E4F3">
<td>TreesNum</td>
<td>115</td>
</tr>
<tr>
<td>Code</td>
<td>A19</td>
</tr>
<tr bgcolor="#D4E4F3">
<td>Area_mq</td>
<td>50.455</td>
</tr>
<tr>
<td>Area_ha</td>
<td>0.005</td>
</tr>
<tr bgcolor="#D4E4F3">
<td>Eligible</td>
<td>no</td>
</tr>
</table>
</td>
</tr>
</table>
</body>
</html>
]]></description>
      <styleUrl>#PolyStyle00</styleUrl>
      <MultiGeometry>
        <Polygon>
          <extrude>0</extrude><altitudeMode>clampToGround</altitudeMode>
          <outerBoundaryIs><LinearRing><coordinates> 19.42720700000012,40.501299,0 19.42694000000012,40.50113600000001,0 19.42691800000012,40.50111299999998,0 19.42720850000012,40.50127169999999,0 19.42720700000012,40.501299,0</coordinates></LinearRing></outerBoundaryIs>
        </Polygon>
      </MultiGeometry>
    </Placemark>
    <Placemark id="ID_00025">
      <name>Laurus nobilis</name>
      <Snippet></Snippet>
      <description><![CDATA[<html xmlns:fo="http://www.w3.org/1999/XSL/Format" xmlns:msxsl="urn:schemas-microsoft-com:xslt">
<head>
<META http-equiv="Content-Type" content="text/html">
<meta http-equiv="content-type" content="text/html; charset=UTF-8">
</head>
<body style="margin:0px 0px 0px 0px;overflow:auto;background:#FFFFFF;">
<table style="font-family:Arial,Verdana,Times;font-size:12px;text-align:left;width:100%;border-collapse:collapse;padding:3px 3px 3px 3px">
<tr style="text-align:center;font-weight:bold;background:#9CBCE2">
<td>Laurus nobilis</td>
</tr>
<tr>
<td>
<table style="font-family:Arial,Verdana,Times;font-size:12px;text-align:left;width:100%;border-spacing:0px; padding:3px 3px 3px 3px">
<tr>
<td>FID</td>
<td>25</td>
</tr>
<tr bgcolor="#D4E4F3">
<td>Species</td>
<td>Laurus nobilis</td>
</tr>
<tr>
<td>Date</td>
<td>25/02/2021</td>
</tr>
<tr bgcolor="#D4E4F3">
<td>TreesNum</td>
<td>0</td>
</tr>
<tr>
<td>Code</td>
<td>A19</td>
</tr>
<tr bgcolor="#D4E4F3">
<td>Area_mq</td>
<td>32.727</td>
</tr>
<tr>
<td>Area_ha</td>
<td>0.003</td>
</tr>
<tr bgcolor="#D4E4F3">
<td>Eligible</td>
<td>no</td>
</tr>
</table>
</td>
</tr>
</table>
</body>
</html>
]]></description>
      <styleUrl>#PolyStyle00</styleUrl>
      <MultiGeometry>
        <Polygon>
          <extrude>0</extrude><altitudeMode>clampToGround</altitudeMode>
          <outerBoundaryIs><LinearRing><coordinates> 19.42738750000012,40.50138950000001,0 19.42737810000012,40.50133449999999,0 19.42737410000013,40.50128449999998,0 19.42737200000012,40.501276,0 19.42743200000012,40.501276,0 19.42738750000012,40.50138950000001,0</coordinates></LinearRing></outerBoundaryIs>
        </Polygon>
      </MultiGeometry>
    </Placemark>
    <Placemark id="ID_00026">
      <name>Pinus halepensis</name>
      <Snippet></Snippet>
      <description><![CDATA[<html xmlns:fo="http://www.w3.org/1999/XSL/Format" xmlns:msxsl="urn:schemas-microsoft-com:xslt">
<head>
<META http-equiv="Content-Type" content="text/html">
<meta http-equiv="content-type" content="text/html; charset=UTF-8">
</head>
<body style="margin:0px 0px 0px 0px;overflow:auto;background:#FFFFFF;">
<table style="font-family:Arial,Verdana,Times;font-size:12px;text-align:left;width:100%;border-collapse:collapse;padding:3px 3px 3px 3px">
<tr style="text-align:center;font-weight:bold;background:#9CBCE2">
<td>Pinus halepensis</td>
</tr>
<tr>
<td>
<table style="font-family:Arial,Verdana,Times;font-size:12px;text-align:left;width:100%;border-spacing:0px; padding:3px 3px 3px 3px">
<tr>
<td>FID</td>
<td>26</td>
</tr>
<tr bgcolor="#D4E4F3">
<td>Species</td>
<td>Pinus halepensis</td>
</tr>
<tr>
<td>Date</td>
<td>25/02/2021</td>
</tr>
<tr bgcolor="#D4E4F3">
<td>TreesNum</td>
<td>0</td>
</tr>
<tr>
<td>Code</td>
<td>A20</td>
</tr>
<tr bgcolor="#D4E4F3">
<td>Area_mq</td>
<td>45.154</td>
</tr>
<tr>
<td>Area_ha</td>
<td>0.005</td>
</tr>
<tr bgcolor="#D4E4F3">
<td>Eligible</td>
<td>no</td>
</tr>
</table>
</td>
</tr>
</table>
</body>
</html>
]]></description>
      <styleUrl>#PolyStyle00</styleUrl>
      <MultiGeometry>
        <Polygon>
          <extrude>0</extrude><altitudeMode>clampToGround</altitudeMode>
          <outerBoundaryIs><LinearRing><coordinates> 19.42725800000012,40.501225,0 19.42726100000013,40.501187,0 19.42730700000012,40.501191,0 19.42732300000012,40.501181,0 19.42732800000012,40.501206,0 19.42732310000012,40.50122330000001,0 19.42736070000013,40.5011896,0 19.42736740000013,40.5012345,0 19.42738610000012,40.50123039999999,0 19.42739150000012,40.5012519,0 19.42725800000012,40.501225,0</coordinates></LinearRing></outerBoundaryIs>
        </Polygon>
      </MultiGeometry>
    </Placemark>
    <Placemark id="ID_00027">
      <name>Pinus halepensis</name>
      <Snippet></Snippet>
      <description><![CDATA[<html xmlns:fo="http://www.w3.org/1999/XSL/Format" xmlns:msxsl="urn:schemas-microsoft-com:xslt">
<head>
<META http-equiv="Content-Type" content="text/html">
<meta http-equiv="content-type" content="text/html; charset=UTF-8">
</head>
<body style="margin:0px 0px 0px 0px;overflow:auto;background:#FFFFFF;">
<table style="font-family:Arial,Verdana,Times;font-size:12px;text-align:left;width:100%;border-collapse:collapse;padding:3px 3px 3px 3px">
<tr style="text-align:center;font-weight:bold;background:#9CBCE2">
<td>Pinus halepensis</td>
</tr>
<tr>
<td>
<table style="font-family:Arial,Verdana,Times;font-size:12px;text-align:left;width:100%;border-spacing:0px; padding:3px 3px 3px 3px">
<tr>
<td>FID</td>
<td>27</td>
</tr>
<tr bgcolor="#D4E4F3">
<td>Species</td>
<td>Pinus halepensis</td>
</tr>
<tr>
<td>Date</td>
<td>26/02/2021</td>
</tr>
<tr bgcolor="#D4E4F3">
<td>TreesNum</td>
<td>350</td>
</tr>
<tr>
<td>Code</td>
<td>A21</td>
</tr>
<tr bgcolor="#D4E4F3">
<td>Area_mq</td>
<td>804.983</td>
</tr>
<tr>
<td>Area_ha</td>
<td>0.08</td>
</tr>
<tr bgcolor="#D4E4F3">
<td>Eligible</td>
<td>no</td>
</tr>
</table>
</td>
</tr>
</table>
</body>
</html>
]]></description>
      <styleUrl>#PolyStyle00</styleUrl>
      <MultiGeometry>
        <Polygon>
          <extrude>0</extrude><altitudeMode>clampToGround</altitudeMode>
          <outerBoundaryIs><LinearRing><coordinates> 19.42766510000012,40.50143120000001,0 19.42752400000012,40.501363,0 19.42746500000013,40.50128699999999,0 19.42738610000012,40.50123039999999,0 19.42739160000012,40.5011946,0 19.42736740000013,40.5011671,0 19.42730040000012,40.50114980000001,0 19.42715550000013,40.50114059999999,0 19.42708710000013,40.501109,0 19.42703200000012,40.501045,0 19.42705100000012,40.501051,0 19.42708400000013,40.501077,0 19.42713410000012,40.50110180000001,0 19.42715150000013,40.5010753,0 19.42713940000013,40.50104569999999,0 19.42715020000012,40.50103039999999,0 19.42716000000012,40.50099199999999,0 19.42718770000013,40.5009998,0 19.42726950000013,40.5009703,0 19.42728430000012,40.5009274,0 19.42733500000012,40.50094099999999,0 19.42735940000013,40.5009621,0 19.42743200000012,40.50104,0 19.42750800000013,40.50114899999999,0 19.42754600000012,40.50124799999999,0 19.42754310000013,40.5013353,0 19.42769300000013,40.501368,0 19.42766510000012,40.50143120000001,0</coordinates></LinearRing></outerBoundaryIs>
        </Polygon>
      </MultiGeometry>
    </Placemark>
    <Placemark id="ID_00028">
      <name>Pinus halepensis</name>
      <Snippet></Snippet>
      <description><![CDATA[<html xmlns:fo="http://www.w3.org/1999/XSL/Format" xmlns:msxsl="urn:schemas-microsoft-com:xslt">
<head>
<META http-equiv="Content-Type" content="text/html">
<meta http-equiv="content-type" content="text/html; charset=UTF-8">
</head>
<body style="margin:0px 0px 0px 0px;overflow:auto;background:#FFFFFF;">
<table style="font-family:Arial,Verdana,Times;font-size:12px;text-align:left;width:100%;border-collapse:collapse;padding:3px 3px 3px 3px">
<tr style="text-align:center;font-weight:bold;background:#9CBCE2">
<td>Pinus halepensis</td>
</tr>
<tr>
<td>
<table style="font-family:Arial,Verdana,Times;font-size:12px;text-align:left;width:100%;border-spacing:0px; padding:3px 3px 3px 3px">
<tr>
<td>FID</td>
<td>28</td>
</tr>
<tr bgcolor="#D4E4F3">
<td>Species</td>
<td>Pinus halepensis</td>
</tr>
<tr>
<td>Date</td>
<td>01/03/2021</td>
</tr>
<tr bgcolor="#D4E4F3">
<td>TreesNum</td>
<td>474</td>
</tr>
<tr>
<td>Code</td>
<td>A22</td>
</tr>
<tr bgcolor="#D4E4F3">
<td>Area_mq</td>
<td>1306.66</td>
</tr>
<tr>
<td>Area_ha</td>
<td>0.131</td>
</tr>
<tr bgcolor="#D4E4F3">
<td>Eligible</td>
<td>yes</td>
</tr>
</table>
</td>
</tr>
</table>
</body>
</html>
]]></description>
      <styleUrl>#PolyStyle00</styleUrl>
      <MultiGeometry>
        <Polygon>
          <extrude>0</extrude><altitudeMode>clampToGround</altitudeMode>
          <outerBoundaryIs><LinearRing><coordinates> 19.42711100000012,40.50212899999999,0 19.42707900000012,40.50213800000001,0 19.42704400000012,40.50214099999999,0 19.42702490000012,40.502147,0 19.42696700000013,40.502138,0 19.42694400000012,40.502131,0 19.42683180000012,40.5021317,0 19.42684650000012,40.50208789999999,0 19.42686400000012,40.50206750000001,0 19.42687070000012,40.5020236,0 19.42689210000013,40.50199509999999,0 19.42685860000012,40.50198899999999,0 19.42686200000012,40.50195,0 19.42683180000012,40.5019176,0 19.42682200000013,40.501886,0 19.42683850000012,40.50184819999999,0 19.42735300000012,40.501805,0 19.42745100000013,40.501796,0 19.42744000000013,40.501835,0 19.42739400000012,40.501884,0 19.42719200000013,40.50208099999999,0 19.42711100000012,40.50212899999999,0</coordinates></LinearRing></outerBoundaryIs>
        </Polygon>
      </MultiGeometry>
    </Placemark>
    <Placemark id="ID_00029">
      <name>Pinus pinea</name>
      <Snippet></Snippet>
      <description><![CDATA[<html xmlns:fo="http://www.w3.org/1999/XSL/Format" xmlns:msxsl="urn:schemas-microsoft-com:xslt">
<head>
<META http-equiv="Content-Type" content="text/html">
<meta http-equiv="content-type" content="text/html; charset=UTF-8">
</head>
<body style="margin:0px 0px 0px 0px;overflow:auto;background:#FFFFFF;">
<table style="font-family:Arial,Verdana,Times;font-size:12px;text-align:left;width:100%;border-collapse:collapse;padding:3px 3px 3px 3px">
<tr style="text-align:center;font-weight:bold;background:#9CBCE2">
<td>Pinus pinea</td>
</tr>
<tr>
<td>
<table style="font-family:Arial,Verdana,Times;font-size:12px;text-align:left;width:100%;border-spacing:0px; padding:3px 3px 3px 3px">
<tr>
<td>FID</td>
<td>29</td>
</tr>
<tr bgcolor="#D4E4F3">
<td>Species</td>
<td>Pinus pinea</td>
</tr>
<tr>
<td>Date</td>
<td>01/03/2021</td>
</tr>
<tr bgcolor="#D4E4F3">
<td>TreesNum</td>
<td>620</td>
</tr>
<tr>
<td>Code</td>
<td>A23</td>
</tr>
<tr bgcolor="#D4E4F3">
<td>Area_mq</td>
<td>946.139</td>
</tr>
<tr>
<td>Area_ha</td>
<td>0.095</td>
</tr>
<tr bgcolor="#D4E4F3">
<td>Eligible</td>
<td>no</td>
</tr>
</table>
</td>
</tr>
</table>
</body>
</html>
]]></description>
      <styleUrl>#PolyStyle00</styleUrl>
      <MultiGeometry>
        <Polygon>
          <extrude>0</extrude><altitudeMode>clampToGround</altitudeMode>
          <outerBoundaryIs><LinearRing><coordinates> 19.42593460000013,40.5019339,0 19.42595070000013,40.5019247,0 19.42596500000013,40.501908,0 19.42598800000012,40.501915,0 19.42622430000013,40.50183599999999,0 19.42621800000012,40.501816,0 19.42606470000013,40.5018666,0 19.42602710000013,40.50187679999998,0 19.42601900000012,40.501833,0 19.42606200000013,40.501791,0 19.42614300000012,40.501743,0 19.42616100000012,40.501736,0 19.42620800000012,40.501701,0 19.42622290000012,40.50170749999999,0 19.42626050000013,40.50167589999999,0 19.42625240000012,40.5016555,0 19.42623900000012,40.50165039999999,0 19.42621620000012,40.50164839999999,0 19.42621500000012,40.501603,0 19.42628190000012,40.5016371,0 19.42627660000013,40.50161170000001,0 19.42634900000012,40.50155349999999,0 19.42636640000013,40.50155449999998,0 19.42643600000012,40.501622,0 19.42659600000012,40.50166300000001,0 19.42661600000012,40.50173899999999,0 19.42659600000013,40.501752,0 19.42629200000012,40.501845,0 19.42600500000012,40.501941,0 19.42596140000012,40.5019482,0 19.42587420000012,40.5019676,0 19.42593460000013,40.5019339,0</coordinates></LinearRing></outerBoundaryIs>
        </Polygon>
      </MultiGeometry>
    </Placemark>
  </Folder>
</Document>
</kml>