<?xml version="1.0" encoding="UTF-8"?>
<kml xmlns="http://www.opengis.net/kml/2.2" xmlns:gx="http://www.google.com/kml/ext/2.2" xmlns:kml="http://www.opengis.net/kml/2.2" xmlns:atom="http://www.w3.org/2005/Atom">
<Document id="Tombwe_Demo_Farm_Project_Area" xsi:schemaLocation="http://www.opengis.net/kml/2.2 http://schemas.opengis.net/kml/2.2.0/ogckml22.xsd http://www.google.com/kml/ext/2.2 http://code.google.com/apis/kml/schema/kml22gx.xsd">
	<name>Tombwe_Demo_Farm_Project_Area</name>
	<Snippet maxLines="0"></Snippet>
	<Style id="PolyStyle00">
		<LabelStyle>
			<color>00000000</color>
			<scale>0</scale>
		</LabelStyle>
		<LineStyle>
			<color>ff0000e6</color>
			<width>0.4</width>
		</LineStyle>
		<PolyStyle>
			<color>00ffffff</color>
		</PolyStyle>
	</Style>
	<Folder id="FeatureLayer0">
		<name>Tombwe_Demo_Farm_Project_Area</name>
		<Snippet maxLines="0"></Snippet>
		<Placemark id="ID_00000">
			<name>0</name>
			<Snippet maxLines="0"></Snippet>
			<description><![CDATA[<html xmlns:fo="http://www.w3.org/1999/XSL/Format" xmlns:msxsl="urn:schemas-microsoft-com:xslt">

<head>

<META http-equiv="Content-Type" content="text/html">

<meta http-equiv="content-type" content="text/html; charset=UTF-8">

</head>

<body style="margin:0px 0px 0px 0px;overflow:auto;background:#FFFFFF;">

<table style="font-family:Arial,Verdana,Times;font-size:12px;text-align:left;width:100%;border-collapse:collapse;padding:3px 3px 3px 3px">

<tr style="text-align:center;font-weight:bold;background:#9CBCE2">

<td>0</td>

</tr>

<tr>

<td>

<table style="font-family:Arial,Verdana,Times;font-size:12px;text-align:left;width:100%;border-spacing:0px; padding:3px 3px 3px 3px">

<tr>

<td>FID</td>

<td>0</td>

</tr>

<tr bgcolor="#D4E4F3">

<td>OID_</td>

<td>0</td>

</tr>

<tr>

<td>Area_ha</td>

<td>87</td>

</tr>

</table>

</td>

</tr>

</table>

</body>

</html>]]></description>
			<styleUrl>#PolyStyle00</styleUrl>
			<MultiGeometry>
				<Polygon>
					<outerBoundaryIs>
						<LinearRing>
							<coordinates>
								25.3780167200606,-14.90014639100707,0 25.37795723353538,-14.9000333666093,0 25.37709467892081,-14.90004526391442,0 25.3771184735308,-14.90048546420041,0 25.37705303835322,-14.90115766193457,0 25.37705303835322,-14.90178227044868,0 25.37698165452298,-14.90268051697836,0 25.3769959066774,-14.90297275341712,0 25.37725256860393,-14.90298420396277,0 25.37742169568849,-14.90284343092081,0 25.37768165366915,-14.90278513447178,0 25.37771379602918,-14.90253200683363,0 25.37751092613474,-14.90242702523977,0 25.37756446380288,-14.90223666811111,0 25.37755851496542,-14.90196897864079,0 25.37758825831661,-14.9017726730493,0 25.37775482074841,-14.90170723807884,0 25.37781817512249,-14.90170999519946,0 25.3780167200606,-14.90014639100707,0 
							</coordinates>
						</LinearRing>
					</outerBoundaryIs>
				</Polygon>
				<Polygon>
					<outerBoundaryIs>
						<LinearRing>
							<coordinates>
								25.37846806433992,-14.89629812851043,0 25.37870601030205,-14.89609825349695,0 25.37885719907996,-14.89606019981326,0 25.37889291691822,-14.89591293330093,0 25.37849207395922,-14.89587037911459,0 25.37827946089398,-14.89575013319938,0 25.37802203419009,-14.89582727270471,0 25.37780074431654,-14.89584868785376,0 25.37767217379695,-14.89601697858857,0 25.37757231605999,-14.89619133023863,0 25.37759144458832,-14.8962875512741,0 25.37807783268013,-14.89633619993321,0 25.37846806433992,-14.89629812851043,0 
							</coordinates>
						</LinearRing>
					</outerBoundaryIs>
				</Polygon>
				<Polygon>
					<outerBoundaryIs>
						<LinearRing>
							<coordinates>
								25.38326624777183,-14.89115952548837,0 25.38069731916278,-14.89115533876708,0 25.38045957526884,-14.8911410168859,0 25.38057186460401,-14.89131978040598,0 25.38070868361188,-14.89147444537133,0 25.38047073751119,-14.89159936707421,0 25.38048263481619,-14.8918313645222,0 25.38061945382407,-14.89202172140267,0 25.38322885035273,-14.89207044712834,0 25.38326624777183,-14.89115952548837,0 
							</coordinates>
						</LinearRing>
					</outerBoundaryIs>
				</Polygon>
				<Polygon>
					<outerBoundaryIs>
						<LinearRing>
							<coordinates>
								25.38335114700003,-14.88909152799993,0 25.38065462748659,-14.88897756504404,0 25.37975147200001,-14.88893939499995,0 25.37975921896993,-14.88855615529555,0 25.37964054356626,-14.88854921532618,0 25.37968337386435,-14.88809235881305,0 25.37882676790225,-14.88807451285548,0 25.37877813192199,-14.88796375733466,0 25.37866060404765,-14.8879575159621,0 25.37856889129308,-14.89077938392819,0 25.37955402476849,-14.8907911456389,0 25.37962126993203,-14.8891973011888,0 25.37973548406052,-14.88924489040892,0 25.37971750926163,-14.8907930974114,0 25.38066162724755,-14.89080436826872,0 25.38327963896109,-14.89083334243553,0 25.38330809937021,-14.89014009904993,0 25.38059209002249,-14.89007294283897,0 25.38060160786651,-14.88979692536229,0 25.38331591710887,-14.88994967237378,0 25.38334559293138,-14.88922681632117,0 25.38335114700003,-14.88909152799993,0 
							</coordinates>
						</LinearRing>
					</outerBoundaryIs>
				</Polygon>
				<Polygon>
					<outerBoundaryIs>
						<LinearRing>
							<coordinates>
								25.37832380680936,-14.89075583717857,0 25.3784591450857,-14.88794681771726,0 25.37769244365932,-14.88790610031791,0 25.37753044623391,-14.88789749742886,0 25.37740829376014,-14.89069574314356,0 25.37826961087399,-14.89075227984824,0 25.37832403418924,-14.8907572086585,0 25.37832380680936,-14.89075583717857,0 
							</coordinates>
						</LinearRing>
					</outerBoundaryIs>
				</Polygon>
				<Polygon>
					<outerBoundaryIs>
						<LinearRing>
							<coordinates>
								25.37915291273637,-14.90014044221613,0 25.37828050474893,-14.90008715081881,0 25.37792772517406,-14.90301432385693,0 25.3789377822505,-14.90305938254811,0 25.37895132673327,-14.90271158893873,0 25.37910575989164,-14.90283688681865,0 25.37948647303085,-14.90272267331301,0 25.37965779456444,-14.90252279838001,0 25.37977200866305,-14.90242761942293,0 25.37978152676701,-14.90225629815915,0 25.37973393690386,-14.90209449499547,0 25.37987670495112,-14.90198979922516,0 25.38026693613817,-14.90196124555417,0 25.38032404369674,-14.90180895977879,0 25.38033356130426,-14.90157101370831,0 25.38050488286788,-14.9014567997576,0 25.38065716816765,-14.90154245996588,0 25.38065716791762,-14.90166619226542,0 25.38091415011885,-14.90169474559519,0 25.38094270384932,-14.90146631740441,0 25.38112354253079,-14.90141872809228,0 25.38114257774036,-14.90120933561745,0 25.38094270339982,-14.90124740700106,0 25.38083800681058,-14.90142824614764,0 25.38061909694943,-14.9013616211859,0 25.38060957867307,-14.90105705041352,0 25.38037163290171,-14.90079055024028,0 25.38036211516442,-14.90044790807589,0 25.3805239186707,-14.90031465834809,0 25.3806857214261,-14.90010526565512,0 25.38165654172769,-14.90011478353715,0 25.38196111293819,-14.90008622972101,0 25.38207532710608,-14.89974358820853,0 25.38209436279789,-14.89945805265457,0 25.38196111247152,-14.89931528474075,0 25.38183155137114,-14.89918255072289,0 25.38171733706239,-14.89913020230379,0 25.38135197036512,-14.89902023124655,0 25.38102836407636,-14.89903926735668,0 25.3808189718897,-14.89881083941671,0 25.38052391838243,-14.89881083893405,0 25.38040018655961,-14.89860144679969,0 25.38045729340622,-14.89843964277405,0 25.38090463240139,-14.8984396431519,0 25.3814376311302,-14.89849674989708,0 25.38152329217357,-14.89867758949723,0 25.38167926551608,-14.89883039047351,0 25.38178872096244,-14.8987352119999,0 25.38186010479252,-14.89864003355973,0 25.38196004215472,-14.89857340865149,0 25.3820123902969,-14.89860672110563,0 25.38202666706297,-14.89873045307792,0 25.38207901520513,-14.89876852445406,0 25.38219322933343,-14.89876376553196,0 25.3825596663283,-14.89889701534837,0 25.3828118891949,-14.89886846181622,0 25.38294976894059,-14.89886787035333,0 25.38294978495783,-14.89886748023296,0 25.38317662480437,-14.89334253571453,0 25.38318513820774,-14.89313517088354,0 25.38321770518888,-14.8923419179229,0 25.38239215227344,-14.89228346211337,0 25.3816366734041,-14.89227156480838,0 25.38092878375477,-14.89221802693567,0 25.38047668616378,-14.89221207828313,0 25.3802625346733,-14.8916410076418,0 25.38036961041855,-14.89149229132886,0 25.38012571566542,-14.89141495884621,0 25.37975743206539,-14.89150630926543,0 25.37980502128556,-14.89190486898399,0 25.37979907263298,-14.89244619636275,0 25.37957302383746,-14.89246404232034,0 25.37944215348222,-14.89235101792258,0 25.37949569135485,-14.89202384203419,0 25.37937671830457,-14.89186917706888,0 25.37947784539721,-14.89146466869783,0 25.37944810213464,-14.89138138756261,0 25.37952543461744,-14.8912029279872,0 25.37950164000728,-14.89108990358937,0 25.37953733192245,-14.89100067380172,0 25.37854390695241,-14.89094713592907,0 25.37850226638482,-14.89174425536606,0 25.37843088255476,-14.89299942104668,0 25.37842178106891,-14.89352730938259,0 25.37871552809258,-14.89358554269306,0 25.37869649195055,-14.89384252440592,0 25.37835384978824,-14.89384252489828,0 25.37813493957966,-14.89373782781823,0 25.37821078225561,-14.89361213231355,0 25.3782345770217,-14.89316003466456,0 25.37831190950437,-14.89172640940853,0 25.37835355007195,-14.89093523862408,0 25.37739938620866,-14.89089979456947,0 25.37737559159866,-14.89136378946568,0 25.377345848336,-14.89198839797973,0 25.37731610507343,-14.89262490379872,0 25.37724885917686,-14.89331337539555,0 25.37741158335545,-14.8935569893941,0 25.37735447659206,-14.89406143502497,0 25.37709600473578,-14.8940704261369,0 25.37706894071462,-14.89431841635029,0 25.37737351169388,-14.8946039515729,0 25.37765904740398,-14.89485141588367,0 25.37801120753988,-14.89494659417704,0 25.37809624330836,-14.89522843505877,0 25.37826482958527,-14.89520774081741,0 25.37830756951078,-14.89548463031988,0 25.37828615436173,-14.89562025959722,0 25.37843305827112,-14.89559839464363,0 25.37852811913677,-14.89549491674162,0 25.3785727604568,-14.89513695130687,0 25.37901058102318,-14.89521309436836,0 25.37922949162988,-14.89523212989603,0 25.37930596234044,-14.89538393692187,0 25.37942115726153,-14.89544180002179,0 25.37954885988824,-14.8955275614847,0 25.37959247845393,-14.89626985245182,0 25.3806346823745,-14.89622702215371,0 25.38062292949668,-14.89565254055829,0 25.38108440050461,-14.89568450504438,0 25.38113872904485,-14.89577505281259,0 25.38145666733531,-14.89576512903378,0 25.38152329172427,-14.89557477245771,0 25.38176123825746,-14.89547007569774,0 25.38178979144664,-14.89524164712351,0 25.38153280945297,-14.89508936215184,0 25.38157088087775,-14.89497514829035,0 25.38180882746576,-14.89481334469359,0 25.38205629144039,-14.89461346967895,0 25.38187545183607,-14.89440407733593,0 25.38184689906329,-14.89424227428158,0 25.3823132732427,-14.89423275636738,0 25.38284627257807,-14.8942232386034,0 25.38290337958832,-14.89459443416923,0 25.38264639724722,-14.89475623751057,0 25.38260832595869,-14.89501321935996,0 25.38267495088387,-14.89601259295723,0 25.38246555842612,-14.89629812804916,0 25.38212291634371,-14.89601259298777,0 25.38198966626572,-14.89580320044211,0 25.38161847033616,-14.89574609331771,0 25.38148522029707,-14.89586030731796,0 25.38139956000532,-14.89654559183095,0 25.38098077500754,-14.8965455921003,0 25.38085677991648,-14.89635239353801,0 25.3798527120272,-14.89644532627539,0 25.37942163144604,-14.89654238263179,0 25.37947112594264,-14.89577730402359,0 25.37933549666531,-14.89562739798025,0 25.3791284835578,-14.89571305857644,0 25.37913562194083,-14.89610566964241,0 25.37928465922762,-14.89633966535176,0 25.37930694313325,-14.89674812411397,0 25.37922112785395,-14.89684137306686,0 25.37889147837614,-14.89661610056779,0 25.37753730330432,-14.89654216097114,0 25.3769085584056,-14.89655385908899,0 25.37657950874073,-14.89634683474888,0 25.37675576567511,-14.89618385022179,0 25.37703383704029,-14.89628360231547,0 25.37715828984498,-14.89612708479146,0 25.37731329574251,-14.89619813261817,0 25.37742954839962,-14.89602714742922,0 25.37759550483267,-14.89574529143673,0 25.3777222219182,-14.89562025936669,0 25.37756386909599,-14.8955652543357,0 25.37762097604464,-14.89534634358512,0 25.37750676137525,-14.89520357636188,0 25.37739254725178,-14.89522261175913,0 25.37716411937253,-14.89546055819896,0 25.37675485238065,-14.89503225472465,0 25.37703086981202,-14.89480382669621,0 25.37677388745148,-14.89451829102234,0 25.37675485203957,-14.89420420275952,0 25.37691107093837,-14.8941750287102,0 25.37688185343985,-14.89414775884245,0 25.3768402128722,-14.89398119657209,0 25.37701867218028,-14.89394550455165,0 25.37680244095534,-14.89368072074776,0 25.37676436982807,-14.89336663230435,0 25.37705646693029,-14.89327931928495,0 25.37704246705773,-14.89298182294964,0 25.37712574819295,-14.89265464706131,0 25.37713169684553,-14.89248808479095,0 25.37707815897289,-14.8923096252155,0 25.37718523471819,-14.89208357641996,0 25.37711385088796,-14.89188727088698,0 25.37707221032031,-14.89153630038862,0 25.37711385088795,-14.89136973811815,0 25.37724472124319,-14.89077725232761,0 25.37714359415053,-14.89089622537802,0 25.37698892918508,-14.89094381459808,0 25.37692944266007,-14.89087837942043,0 25.37698417026314,-14.89075702690912,0 25.37720308067559,-14.89065233062484,0 25.37730610418977,-14.88788558372277,0 25.37638011389676,-14.88783640891847,0 25.37620954800008,-14.88782735099992,0 25.37582080523068,-14.89732947168202,0 25.37605291114892,-14.89736888552171,0 25.37613857156728,-14.89754020681768,0 25.37601721884982,-14.89764014448943,0 25.37580962282455,-14.89760277703254,0 25.3755924570001,-14.90291013599992,0 25.37566454705296,-14.90291335185178,0 25.37586181641383,-14.90292215339462,0 25.3758871024603,-14.9027994900286,0 25.37681509225269,-14.90279949002861,0 25.37685078416769,-14.90181201371127,0 25.37679724629511,-14.90098515101169,0 25.3768448355151,-14.90054495072564,0 25.37685078416768,-14.9000393152619,0 25.37602987012076,-14.89997388008419,0 25.37608340799335,-14.89972998533107,0 25.37670801650745,-14.89968239611096,0 25.37689837338791,-14.8998430097289,0 25.37708873026838,-14.89992629086413,0 25.37783688908656,-14.8999364700154,0 25.37762097550688,-14.89976262343818,0 25.37758290439483,-14.89952467780057,0 25.37746869044559,-14.8993438381414,0 25.3772688160413,-14.89913444574908,0 25.37682250427246,-14.89893819840552,0 25.37656405911656,-14.89892096858909,0 25.37633801032104,-14.89892691724163,0 25.37634990762603,-14.89880794419138,0 25.37661759698915,-14.89877225227627,0 25.37676631330204,-14.89879009823375,0 25.3769864134449,-14.89881389284386,0 25.37712918110536,-14.89879009823376,0 25.37718271897802,-14.89865327922598,0 25.37737307585848,-14.89854025482816,0 25.37730169202825,-14.8984272304304,0 25.37695072152991,-14.89845102504052,0 25.37659380237914,-14.8986235359634,0 25.37629636975339,-14.89874845766616,0 25.37611791017792,-14.89873656036122,0 25.37613575613534,-14.89858189539575,0 25.37628447244823,-14.89851051156564,0 25.37634395897345,-14.89840343582039,0 25.37634395897344,-14.89827851411752,0 25.37627852379579,-14.89814169510976,0 25.37640939415109,-14.89802272205942,0 25.37657595642156,-14.89812384915218,0 25.37664139159916,-14.89828446277006,0 25.37672467273439,-14.89837369255781,0 25.37692692691991,-14.89833205199016,0 25.37699236209756,-14.8981535924147,0 25.37695667018249,-14.89805841397454,0 25.37719461628303,-14.8979453895767,0 25.37708159188519,-14.89788590305165,0 25.37683174847968,-14.89774908404371,0 25.3769566701825,-14.89764200829848,0 25.37718271897802,-14.89764200829847,0 25.37738497316348,-14.89773718673871,0 25.37744445968872,-14.89786805709406,0 25.37756420400007,-14.89812927619215,0 25.37794414649995,-14.89824282220239,0 25.37826652446797,-14.89827154899091,0 25.37807501685517,-14.89798703014429,0 25.37786086536471,-14.89782641652648,0 25.37797983841495,-14.89771339212859,0 25.37835460352334,-14.89777287865383,0 25.37861039558146,-14.89774908404371,0 25.37890782820732,-14.89783831383147,0 25.37924690140068,-14.89805841397452,0 25.37930043927314,-14.89834394929517,0 25.37919052477767,-14.89968242430334,0 25.37957510857583,-14.89991074535173,0 25.379444237877,-14.90014869059945,0 25.37915291273637,-14.90014044221613,0 25.37923468970287,-14.90025346239872,0 25.37940259746568,-14.90080700869775,0 25.37937285420308,-14.90135428472906,0 25.37928362441536,-14.90235365835154,0 25.37912895944999,-14.902335812394,0 25.37896482554319,-14.90236495524755,0 25.37900419637804,-14.90135396746757,0 25.37911127212327,-14.9009316131391,0 25.37910532347069,-14.90059848859824,0 25.37915291273637,-14.90014044221613,0 
							</coordinates>
						</LinearRing>
					</outerBoundaryIs>
					<innerBoundaryIs>
						<LinearRing>
							<coordinates>
								25.38070475720815,-14.89940094574213,0 25.38062861424095,-14.89980069466426,0 25.38019079391009,-14.89972455200115,0 25.38003850804867,-14.89941046317862,0 25.38033356132836,-14.8993438387178,0 25.38070475720815,-14.89940094574213,0 
							</coordinates>
						</LinearRing>
						<LinearRing>
							<coordinates>
								25.38251314775802,-14.89711904242115,0 25.38264877685558,-14.89721184117861,0 25.38261407302951,-14.89734680168799,0 25.38229185797595,-14.89731177885137,0 25.38234182690482,-14.89711190384465,0 25.38251314775802,-14.89711904242115,0 
							</coordinates>
						</LinearRing>
						<LinearRing>
							<coordinates>
								25.38203487589519,-14.89718328806769,0 25.38185641664696,-14.89716901098924,0 25.3817748268404,-14.89714269134728,0 25.38178503283054,-14.89689775247815,0 25.38199918372021,-14.89686919853993,0 25.3820705679427,-14.89695485928291,0 25.38203487589519,-14.89718328806769,0 
							</coordinates>
						</LinearRing>
						<LinearRing>
							<coordinates>
								25.38065002937565,-14.89689775200448,0 25.38062861478554,-14.89716901102882,0 25.38052867708901,-14.8971547338603,0 25.38035735561721,-14.89695485967878,0 25.38043587793991,-14.89684778388134,0 25.38062831006375,-14.89684778379939,0 25.38065002937565,-14.89689775200448,0 
							</coordinates>
						</LinearRing>
						<LinearRing>
							<coordinates>
								25.37967920964196,-14.89686206033188,0 25.3798294317829,-14.89687838899522,0 25.37982197767413,-14.89689061371048,0 25.37957213379779,-14.89706907389399,0 25.37925804496919,-14.89699055130525,0 25.37943650484877,-14.89684064514771,0 25.37967920964196,-14.89686206033188,0 
							</coordinates>
						</LinearRing>
						<LinearRing>
							<coordinates>
								25.38227044273263,-14.89639806561701,0 25.38229899649029,-14.89652655669951,0 25.38232267288587,-14.89652805518456,0 25.3822418892172,-14.89657652497553,0 25.38207056811896,-14.89660507883705,0 25.38179930976198,-14.89651227998328,0 25.38177075544132,-14.8961839144679,0 25.38199918450795,-14.89604114663891,0 25.38212053664452,-14.89626957450474,0 25.38227044273263,-14.89639806561701,0 
							</coordinates>
						</LinearRing>
						<LinearRing>
							<coordinates>
								25.37953406228182,-14.89385204223955,0 25.37996236565981,-14.89394722082909,0 25.38037163304471,-14.89398529209167,0 25.38047632929796,-14.89418516702919,0 25.38009561492593,-14.89456588093355,0 25.38016224013813,-14.89494659432374,0 25.38037163307119,-14.89501321965743,0 25.38032404320021,-14.89544152231578,0 25.38008609748854,-14.8953844155843,0 25.38007657973204,-14.89500370190546,0 25.37992429397934,-14.8949085227296,0 25.37971490114382,-14.89466105892596,0 25.37946743747857,-14.89468961302593,0 25.3792294914593,-14.89448021987304,0 25.3792485268253,-14.89398529245026,0 25.37939129489526,-14.8938805955337,0 25.37951644982736,-14.89384690061657,0 25.37953406228182,-14.89385204223955,0 
							</coordinates>
						</LinearRing>
					</innerBoundaryIs>
				</Polygon>
			</MultiGeometry>
		</Placemark>
	</Folder>
</Document>
</kml>
