<?xml version="1.0" encoding="UTF-8"?>
<kml xmlns="http://www.opengis.net/kml/2.2" xmlns:gx="http://www.google.com/kml/ext/2.2">
    <Document id="1">
        <Placemark id="3">
            <name>Piquete 23.geojson</name>
            <Polygon id="2">
                <outerBoundaryIs>
                    <LinearRing id="6">
                        <coordinates>-60.2872625,-21.0733214,0.0 -60.2872996,-21.0737887,0.0 -60.287762,-21.0737839,0.0 -60.2879062,-21.0806233,0.0 -60.2828889,-21.0779814,0.0 -60.2828647,-21.0760971,0.0 -60.2808937,-21.0761447,0.0 -60.2809338,-21.0780121,0.0 -60.2828887,-21.0779813,0.0 -60.2879061,-21.0806234,0.0 -60.2760659,-21.0808359,0.0 -60.2758941,-21.0735395,0.0 -60.2872625,-21.0733214,0.0</coordinates>
		</LinearRing>
                </outerBoundaryIs>
            </Polygon>
        </Placemark>
        <Placemark id="9">
            <name>Piquete 6.geojson</name>
            <Polygon id="8">
                <outerBoundaryIs>
                    <LinearRing id="12">
                        <coordinates>-60.32758664114673,-21.06400144674497,0.0 -60.32776050667291,-21.070918579513826,0.0 -60.329310642166796,-21.07089135575619,0.0 -60.32935191024699,-21.071473235686906,0.0 -60.339444710197036,-21.071272633768437,0.0 -60.33925697655288,-21.063769938822603,0.0 -60.32758664114673,-21.06400144674497,0.0 -60.33447797843828,-21.068441313791027,0.0 -60.332638754994065,-21.068522116494645,0.0 -60.33256564778603,-21.06679832548417,0.0 -60.33445873969932,-21.066756000258465,0.0 -60.33447797843828,-21.068441313791027,0.0</coordinates>
                    </LinearRing>
                </outerBoundaryIs>
            </Polygon>
        </Placemark>
        <Placemark id="15">
            <name>Piquete 7.geojson</name>
            <Polygon id="14">
                <outerBoundaryIs>
                    <LinearRing id="18">
                        <coordinates>-60.32799719029604,-21.079882121877493,0.0 -60.33961122564062,-21.07963351546716,0.0 -60.33943469553182,-21.072153540310158,0.0 -60.32778797084193,-21.07237997615049,0.0 -60.32799719029604,-21.079882121877493,0.0 -60.33465675558796,-21.077007492448924,0.0 -60.332751,-21.077032,0.0 -60.332687,-21.07519,0.0 -60.33462162756204,-21.075110579049294,0.0 -60.33465675558796,-21.077007492448924,0.0</coordinates>
                    </LinearRing>
                </outerBoundaryIs>
            </Polygon>
        </Placemark>
        <Placemark id="21">
            <name>Piquete 15b.geojson</name>
            <Polygon id="20">
                <outerBoundaryIs>
                    <LinearRing id="24">
                        <coordinates>-60.30633469694536,-21.080237836562773,0.0 -60.30626560740245,-21.0728649953407,0.0 -60.301797,-21.072939,0.0 -60.301937,-21.080292,0.0 -60.30633469694536,-21.080237836562773,0.0</coordinates>
                    </LinearRing>
                </outerBoundaryIs>
            </Polygon>
        </Placemark>
        <Placemark id="27">
            <name>Piquete 20.geojson</name>
            <Polygon id="26">
                <outerBoundaryIs>
                    <LinearRing id="30">
                        <coordinates>-60.288999,-21.081657,0.0 -60.28903469824775,-21.08483962976328,0.0 -60.29332422877145,-21.084859799969504,0.0 -60.29327044155485,-21.088577841316855,0.0 -60.301103204971966,-21.08855767111063,0.0 -60.300962884982056,-21.08137587721222,0.0 -60.288999,-21.081657,0.0 -60.296059,-21.085922,0.0 -60.294042,-21.085942,0.0 -60.293999,-21.08418,0.0 -60.295994,-21.08412,0.0 -60.296059,-21.085922,0.0</coordinates>
                    </LinearRing>
                </outerBoundaryIs>
            </Polygon>
        </Placemark>
        <Placemark id="33">
            <name>Piquete 21.geojson</name>
            <Polygon id="32">
                <outerBoundaryIs>
                    <LinearRing id="36">
                        <coordinates>-60.27541339288192,-21.056880152951,0.0 -60.275589172865075,-21.064134006922274,0.0 -60.28695981408561,-21.063928238744907,0.0 -60.28695844339232,-21.063452608174327,0.0 -60.28747382406822,-21.06344712540118,0.0 -60.28734299440496,-21.056622342309048,0.0 -60.27541339288192,-21.056880152951,0.0 -60.28249142965313,-21.06130692314515,0.0 -60.280472421002614,-21.061336851437574,0.0 -60.28045630576823,-21.05944676466212,0.0 -60.282456897008025,-21.059416836369692,0.0 -60.28249142965313,-21.06130692314515,0.0</coordinates>
                    </LinearRing>
                </outerBoundaryIs>
            </Polygon>
        </Placemark>
        <Placemark id="39">
            <name>Piquete 4.geojson</name>
            <Polygon id="38">
                <outerBoundaryIs>
                    <LinearRing id="42">
                        <coordinates>-60.340576641335,-21.08043749445266,0.0 -60.34077243933368,-21.088008148163976,0.0 -60.35228019100321,-21.087751370485048,0.0 -60.352116483574314,-21.08024643689428,0.0 -60.340576641335,-21.08043749445266,0.0 -60.347535305099214,-21.084976035685173,0.0 -60.34562144347267,-21.08502186054102,0.0 -60.3455890965156,-21.08321312652495,0.0 -60.34749487140288,-21.08318347514764,0.0 -60.347535305099214,-21.084976035685173,0.0</coordinates>
                    </LinearRing>
                </outerBoundaryIs>
            </Polygon>
        </Placemark>
        <Placemark id="45">
            <name>Piquete 17.geojson</name>
            <Polygon id="44">
                <outerBoundaryIs>
                    <LinearRing id="48">
                        <coordinates>-60.28913658627477,-21.06384210606325,0.0 -60.300499095269444,-21.063635746130238,0.0 -60.30030430149188,-21.056313270946358,0.0 -60.288439589585714,-21.056596607350087,0.0 -60.28861884939032,-21.063383202915666,0.0 -60.289127761214246,-21.06336849448145,0.0 -60.28913658627477,-21.06384210606325,0.0 -60.29546160692902,-21.0609928435935,0.0 -60.29351308206499,-21.061059155708826,0.0 -60.29347023459997,-21.059202748830216,0.0 -60.29540155514569,-21.059161946283478,0.0 -60.29546160692902,-21.0609928435935,0.0</coordinates>
                    </LinearRing>
                </outerBoundaryIs>
            </Polygon>
        </Placemark>
        <Placemark id="51">
            <name>Piquete 1.geojson</name>
            <Polygon id="50">
                <outerBoundaryIs>
                    <LinearRing id="54">
                        <coordinates>-60.339961,-21.055407,0.0 -60.3401670989884,-21.0628727003365,0.0 -60.351796102949756,-21.06262034312969,0.0 -60.35165320905745,-21.055182558644983,0.0 -60.339961,-21.055407,0.0 -60.34691950507635,-21.05986889772457,0.0 -60.345013868205996,-21.059891282929552,0.0 -60.34492251861551,-21.058151488456307,0.0 -60.34687492634551,-21.058133113392476,0.0 -60.34691950507635,-21.05986889772457,0.0</coordinates>
                    </LinearRing>
                </outerBoundaryIs>
            </Polygon>
        </Placemark>
        <Placemark id="57">
            <name>Piquete 25.geojson</name>
            <Polygon id="56">
                <outerBoundaryIs>
                    <LinearRing id="60">
                        <coordinates>-60.26503053830865,-21.06541738650304,0.0 -60.264893251376854,-21.06561327151548,0.0 -60.264518145761684,-21.065695841933916,0.0 -60.26420201901683,-21.065584961657734,0.0 -60.264082464007814,-21.065439416429367,0.0 -60.2626921599369,-21.06547172222674,0.0 -60.2628177478398,-21.072349544289196,0.0 -60.26334961130228,-21.072348597912928,0.0 -60.2633694852039,-21.072859641097523,0.0 -60.27465923280049,-21.072520746408497,0.0 -60.274472,-21.065198,0.0 -60.26503053830865,-21.06541738650304,0.0 -60.26966396347185,-21.06991993358738,0.0 -60.26769360285405,-21.069951724961726,0.0 -60.26762717180069,-21.06805622895547,0.0 -60.269659938191865,-21.06798779919577,0.0 -60.26966396347185,-21.06991993358738,0.0</coordinates>
                    </LinearRing>
                </outerBoundaryIs>
            </Polygon>
        </Placemark>
        <Placemark id="63">
            <name>Piquete 9.geojson</name>
            <Polygon id="62">
                <outerBoundaryIs>
                    <LinearRing id="66">
                        <coordinates>-60.31444857094318,-21.05603036327498,0.0 -60.31461159105895,-21.063344856591115,0.0 -60.326063922116106,-21.063138753497135,0.0 -60.32605403988035,-21.062718748394012,0.0 -60.326529,-21.062716,0.0 -60.32635173131633,-21.055796080926516,0.0 -60.31444857094318,-21.05603036327498,0.0 -60.32165762340671,-21.060501395202934,0.0 -60.319745051201,-21.06053325434312,0.0 -60.31968433567402,-21.058653999714316,0.0 -60.32164005704707,-21.058624722448254,0.0 -60.32165762340671,-21.060501395202934,0.0</coordinates>
                    </LinearRing>
                </outerBoundaryIs>
            </Polygon>
        </Placemark>
        <Placemark id="69">
            <name>Piquete 11.geojson</name>
            <Polygon id="68">
                <outerBoundaryIs>
                    <LinearRing id="72">
                        <coordinates>-60.314791,-21.072767,0.0 -60.31499620383972,-21.080039150698543,0.0 -60.32659623555825,-21.07984123988375,0.0 -60.326593,-21.079395,0.0 -60.326872,-21.079375,0.0 -60.326722,-21.072487,0.0 -60.314791,-21.072767,0.0 -60.32183499055811,-21.077164092067484,0.0 -60.31992296438059,-21.07720422101195,0.0 -60.31992,-21.07539,0.0 -60.32178236014982,-21.075362048896302,0.0 -60.32183499055811,-21.077164092067484,0.0</coordinates>
                    </LinearRing>
                </outerBoundaryIs>
            </Polygon>
        </Placemark>
        <Placemark id="75">
            <name>Piquete 2.geojson</name>
            <Polygon id="74">
                <outerBoundaryIs>
                    <LinearRing id="78">
                        <coordinates>-60.3401800237546,-21.06373392765342,0.0 -60.34037470205255,-21.071242974438643,0.0 -60.351942819969224,-21.07098849368865,0.0 -60.351798105849156,-21.063525366217387,0.0 -60.3401800237546,-21.06373392765342,0.0 -60.347110112859376,-21.06822714945569,0.0 -60.34523269088339,-21.06827545362317,0.0 -60.345132,-21.0665,0.0 -60.347042,-21.06646,0.0 -60.347110112859376,-21.06822714945569,0.0</coordinates>
                    </LinearRing>
                </outerBoundaryIs>
            </Polygon>
        </Placemark>
        <Placemark id="81">
            <name>Piquete 3.geojson</name>
            <Polygon id="80">
                <outerBoundaryIs>
                    <LinearRing id="84">
                        <coordinates>-60.34039765930994,-21.07210880045122,0.0 -60.34056195213432,-21.07962363374152,0.0 -60.35210759610719,-21.079379162751668,0.0 -60.35195301332277,-21.07187228823982,0.0 -60.34039765930994,-21.07210880045122,0.0 -60.347270432946495,-21.076596480964607,0.0 -60.345402045041716,-21.07662780347768,0.0 -60.34533559531356,-21.074854341999934,0.0 -60.34724380881038,-21.074829891227317,0.0 -60.347270432946495,-21.076596480964607,0.0</coordinates>
                    </LinearRing>
                </outerBoundaryIs>
            </Polygon>
        </Placemark>
        <Placemark id="87">
            <name>Piquete 19.geojson</name>
            <Polygon id="86">
                <outerBoundaryIs>
                    <LinearRing id="90">
                        <coordinates>-60.2900494560037,-21.073204068814324,0.0 -60.29005087246151,-21.073558183266087,0.0 -60.28928554169054,-21.07356734938875,0.0 -60.28928716083412,-21.074386636039783,0.0 -60.288830562344806,-21.074435210347158,0.0 -60.288956,-21.080516,0.0 -60.30083591118188,-21.08031726417361,0.0 -60.300758,-21.072988,0.0 -60.2900494560037,-21.073204068814324,0.0 -60.29583763084076,-21.07771471158967,0.0 -60.29388454124374,-21.07776526214395,0.0 -60.293831692937,-21.07588570062587,0.0 -60.29580546230622,-21.075876509616005,0.0 -60.29583763084076,-21.07771471158967,0.0</coordinates>
                    </LinearRing>
                </outerBoundaryIs>
            </Polygon>
        </Placemark>
    </Document>
</kml>
