<?xml version="1.0" encoding="utf-8" ?>
<kml xmlns="http://www.opengis.net/kml/2.2">
<Document id="root_doc">
<Folder><name>all_regions</name>
  <Placemark>
	<Style><LineStyle><color>ff0000ff</color></LineStyle><PolyStyle><fill>0</fill></PolyStyle></Style>
      <MultiGeometry><Polygon><outerBoundaryIs><LinearRing><coordinates>147.677487479731,-8.06400426226412 147.695030124114,-8.07855182102006 147.755862457777,-8.14934488285183 147.781044792175,-8.19589500009447 147.800250801532,-8.25671494366062 147.83020733974,-8.33898051199053 147.850228664854,-8.44502786180525 147.850073220192,-8.49419792352126 147.828829185894,-8.5336625075425 147.791221503556,-8.58476166131687 147.757632962842,-8.61286326630059 147.700905201071,-8.63291587399697 147.675944529064,-8.64973055266755 147.664601675338,-8.65085193525576 147.654393106984,-8.65085193525576 147.63511025565,-8.65197331450486 147.621498831179,-8.64973055266755 147.604484550589,-8.63290941343004 147.58747027,-8.59141406712238 147.573858845529,-8.56786063298766 147.562515991803,-8.55327920432946 147.485384586465,-8.51850585454441 147.395776042028,-8.46129121283816 147.184798962722,-8.29520863981931 147.207484670174,-8.30531027478755 147.255124655824,-8.32326809483117 147.294824643866,-8.33561361858441 147.327718919671,-8.33898051199053 147.352673197869,-8.33673591960799 147.382164617557,-8.32326809483117 147.39237318591,-8.31428928762525 147.401447468891,-8.29184137044309 147.402581754264,-8.28622919073032 147.403716039637,-8.25704456682192 147.415058893363,-8.18631904535243 147.421864605598,-8.16049548121773 147.428670317834,-8.15151298044707 147.42221171458,-8.08907502442544 147.591892134094,-8.04487076359716 147.677487479731,-8.06400426226412</coordinates></LinearRing></outerBoundaryIs></Polygon></MultiGeometry>
  </Placemark>
  <Placemark>
	<Style><LineStyle><color>ff0000ff</color></LineStyle><PolyStyle><fill>0</fill></PolyStyle></Style>
      <MultiGeometry><Polygon><outerBoundaryIs><LinearRing><coordinates>147.608504601251,-7.95468218380443 147.607624090469,-7.96788984553504 147.605420188187,-7.97387186601312 147.41572055983,-8.03341184836288 147.326584634299,-7.8804470367153 147.276676077904,-7.87145835089164 147.264577033929,-7.80478619365387 147.437744600815,-7.76882375569014 147.608504601251,-7.95468218380443</coordinates></LinearRing></outerBoundaryIs></Polygon><Polygon><outerBoundaryIs><LinearRing><coordinates>147.620531417642,-7.96912898726951 147.620583417269,-7.96782899659911 147.621498831179,-7.9688253504865 147.620531417642,-7.96912898726951</coordinates></LinearRing></outerBoundaryIs></Polygon></MultiGeometry>
  </Placemark>
  <Placemark>
	<Style><LineStyle><color>ff0000ff</color></LineStyle><PolyStyle><fill>0</fill></PolyStyle></Style>
      <MultiGeometry><Polygon><outerBoundaryIs><LinearRing><coordinates>147.207248415708,-7.99361294873586 147.207484752691,-7.99387291941675 147.240974047916,-8.00657575553671 147.245047808519,-8.00413149917451 147.322458409977,-8.03041300718056 147.343037466858,-8.05715727903217 147.354613186353,-8.07371237168688 147.363616523738,-8.09536031499575 147.364902714793,-8.12846668295525 147.362330332683,-8.1679360886584 147.364902714793,-8.21885858557056 147.366188905848,-8.2455902824364 147.364902714793,-8.2494089488784 147.362330332683,-8.26850172727411 147.355899377408,-8.27868416451398 147.339178893692,-8.28504805410359 147.290303633601,-8.27995695066245 147.251717901951,-8.27486578138723 147.039496377872,-8.04824271780368 147.039496377872,-8.04442213151208 147.038210186817,-8.0278658417205 147.044641142092,-8.01003523659389 147.078082109522,-7.99093015032568 147.135960706999,-7.97691918521312 147.170687865484,-7.98456158939284 147.207248415708,-7.99361294873586</coordinates></LinearRing></outerBoundaryIs></Polygon></MultiGeometry>
  </Placemark>
  <Placemark>
	<Style><LineStyle><color>ff0000ff</color></LineStyle><PolyStyle><fill>0</fill></PolyStyle></Style>
      <MultiGeometry><Polygon><outerBoundaryIs><LinearRing><coordinates>147.476553917777,-7.74212580358533 147.596653459274,-7.79986596776689 147.656703230023,-7.83451006627577 147.689037721965,-7.87839259105371 147.70982418107,-7.95230000120605 147.716753000772,-7.98694409971503 147.737539459877,-8.05161308359831 147.751397099281,-8.08856678867453 147.783731591223,-8.15092616599057 147.809137263462,-8.21097593673938 147.825304509433,-8.26871610092085 147.841471755404,-8.32876587166966 147.857639001375,-8.3911252489857 147.864567821077,-8.43038856062916 147.864567821077,-8.47658069197443 147.864567821077,-8.50660557734883 147.825304509433,-8.58744180720298 147.799898837193,-8.62670511884635 147.749087492714,-8.65442039765351 147.652084016889,-8.67982606989343 147.608201492111,-8.67289725019162 147.578176606736,-8.64287236481722 147.562009360765,-8.60129944660652 147.529674868824,-8.57127456123212 147.44883863897,-8.51815361018513 147.407265720759,-8.49043833137796 147.370312015683,-8.4627230525708 147.312571851501,-8.42345974092744 147.250212474185,-8.37957721614941 147.197091523138,-8.33800429793871 147.160137818062,-8.30566980599707 147.155518604927,-8.29181216659353 147.167066637764,-8.26640649435361 147.167066637764,-8.23407200241197 147.132422539255,-8.19711829733575 147.093159227611,-8.16709341196135 147.053895915968,-8.13475892001971 147.016942210892,-8.10011482151082 147.003084571488,-8.05161308359831 146.998465358354,-7.98232488658046 147.005394178055,-7.95460960777338 147.019251817459,-7.94075196836976 147.056205522535,-7.93382314866803 147.090849621044,-7.9315135421007 147.194781916571,-7.93382314866803 147.240974047916,-7.94306157493709 147.247307547893,-7.92852951449276 147.247902867618,-7.87377337791923 147.238664441349,-7.84374849254483 147.234045228214,-7.80448518090137 147.240974047916,-7.78138911522878 147.257141293887,-7.77676990209421 147.28023735956,-7.77446029552697 147.284856572694,-7.77215068895973 147.476553917777,-7.74212580358533</coordinates></LinearRing></outerBoundaryIs><innerBoundaryIs><LinearRing><coordinates>147.605420188187,-7.97387186601312 147.603582278976,-7.97886047672955 147.599540467483,-7.98347968986412 147.589147237931,-7.99156331284951 147.584528024796,-8.00080173911856 147.590879442856,-8.00773055882038 147.594343852707,-8.00657575553671 147.634184565992,-8.01177237031307 147.644577795545,-8.01696898508934 147.654393623456,-8.03255882941842 147.672293074352,-8.0596967065837 147.677487479731,-8.06400426226412 147.591892134094,-8.04487076359716 147.42221171458,-8.08907502442544 147.428670317834,-8.15151298044707 147.421864605598,-8.16049548121773 147.415058893363,-8.18631904535243 147.403716039637,-8.25704456682192 147.402581754264,-8.28622919073032 147.401447468891,-8.29184137044309 147.39237318591,-8.31428928762525 147.382164617557,-8.32326809483117 147.352673197869,-8.33673591960799 147.327718919671,-8.33898051199053 147.294824643866,-8.33561361858441 147.255124655824,-8.32326809483117 147.207484670174,-8.30531027478755 147.184798962722,-8.29520863981931 147.395776042028,-8.46129121283816 147.485384586465,-8.51850585454441 147.562515991803,-8.55327920432946 147.573858845529,-8.56786063298766 147.58747027,-8.59141406712238 147.604484550589,-8.63290941343004 147.621498831179,-8.64973055266755 147.63511025565,-8.65197331450486 147.654393106984,-8.65085193525576 147.664601675338,-8.65085193525576 147.675944529064,-8.64973055266755 147.700905201071,-8.63291587399697 147.757632962842,-8.61286326630059 147.791221503556,-8.58476166131687 147.828829185894,-8.5336625075425 147.850073220192,-8.49419792352126 147.850228664854,-8.44502786180525 147.83020733974,-8.33898051199053 147.800250801532,-8.25671494366062 147.781044792175,-8.19589500009447 147.755862457777,-8.14934488285183 147.695030124114,-8.07855182102006 147.695966541667,-8.07932836240547 147.719062607339,-8.10184702643619 147.736962058235,-8.12205608389975 147.745045681221,-8.12609789539244 147.74793268943,-8.12609789539244 147.747355287788,-8.10819844449621 147.743890877937,-8.09029899359989 147.695966541667,-8.03602323926932 147.657858033307,-8.0071531571785 147.64631000047,-8.00080173911856 147.633029762709,-7.99791473090944 147.622059131514,-7.98694409971494 147.620326926589,-7.97424126359507 147.620531417642,-7.96912898726951 147.621498831179,-7.9688253504865 147.620583417269,-7.96782899659911 147.620904328231,-7.95980622254965 147.627255746291,-7.91419149284626 147.635916770918,-7.88878582060634 147.645732598829,-7.86742195985921 147.640535984052,-7.852409517172 147.626678344649,-7.84317109090295 147.605314483902,-7.82758124657396 147.577599205094,-7.81603321373767 147.55392573778,-7.81025919731952 147.54757431972,-7.80506258254316 147.544687311511,-7.80563998418495 147.536026286884,-7.81083659896131 147.531984475391,-7.81603321373767 147.531407073749,-7.82180723015581 147.533716680317,-7.82758124657396 147.54122290166,-7.82931345149941 147.55392573778,-7.83220045970844 147.595498655991,-7.84605809911207 147.624946139723,-7.85702873030658 147.62379133644,-7.86799936150099 147.622059131514,-7.88705361568089 147.614552910171,-7.90495306657721 147.61108850032,-7.92227511583165 147.609933697036,-7.93324574702616 147.608504601251,-7.95468218380443 147.437744600815,-7.76882375569014 147.264577033929,-7.80478619365387 147.276676077904,-7.87145835089164 147.326584634299,-7.8804470367153 147.41572055983,-8.03341184836288 147.605420188187,-7.97387186601312</coordinates></LinearRing></innerBoundaryIs><innerBoundaryIs><LinearRing><coordinates>147.245047808519,-8.00413149917451 147.246748064334,-8.0031113456858 147.245593261051,-7.9921407144913 147.233467826573,-7.99098591120772 147.22307459702,-7.9880989029986 147.217300580602,-7.9771282718041 147.22307459702,-7.96327063240056 147.230003416722,-7.95691921434062 147.220764990453,-7.95749661598241 147.215568375676,-7.95749661598241 147.208639555974,-7.95922882090787 147.198246326422,-7.96500283732601 147.193627113287,-7.96211582911689 147.175150260749,-7.95230000120605 147.172840654182,-7.95345480448972 147.171685850898,-7.95749661598241 147.185543490302,-7.97597346852052 147.195936719855,-7.98117008329679 147.207248415708,-7.99361294873586 147.170687865484,-7.98456158939284 147.135960706999,-7.97691918521312 147.078082109522,-7.99093015032568 147.044641142092,-8.01003523659389 147.038210186817,-8.0278658417205 147.039496377872,-8.04442213151208 147.039496377872,-8.04824271780368 147.251717901951,-8.27486578138723 147.290303633601,-8.27995695066245 147.339178893692,-8.28504805410359 147.355899377408,-8.27868416451398 147.362330332683,-8.26850172727411 147.364902714793,-8.2494089488784 147.366188905848,-8.2455902824364 147.364902714793,-8.21885858557056 147.362330332683,-8.1679360886584 147.364902714793,-8.12846668295525 147.363616523738,-8.09536031499575 147.354613186353,-8.07371237168688 147.343037466858,-8.05715727903217 147.322458409977,-8.03041300718056 147.245047808519,-8.00413149917451</coordinates></LinearRing></innerBoundaryIs><innerBoundaryIs><LinearRing><coordinates>147.042347883132,-7.99098591120772 147.045812292983,-7.98636669807315 147.049854104475,-7.97539606687864 147.055628120893,-7.96442543568423 147.065443948804,-7.95865141926599 147.066598752088,-7.95114519792239 147.066021350446,-7.94999039463881 147.058515129102,-7.94883559135515 147.028490243728,-7.9655802389678 147.028490243728,-7.97424126359507 147.029645047012,-7.98636669807315 147.034264260146,-7.9921407144913 147.037151268355,-7.99329551777496 147.042347883132,-7.99098591120772</coordinates></LinearRing></innerBoundaryIs><innerBoundaryIs><LinearRing><coordinates>147.337977523741,-7.99733732926766 147.32181027777,-7.99618252598399 147.323542482696,-8.00657575553671 147.33451311389,-8.00888536210395 147.34086453195,-8.00946276374574 147.355299572996,-8.00946276374574 147.365692802548,-8.00830796046216 147.381282646877,-8.00484355061126 147.38532445837,-8.00253394404402 147.385901860012,-8.00137914076035 147.387634064937,-7.99675992762587 147.372044220608,-7.99791473090944 147.349525556577,-7.99849213255132 147.337977523741,-7.99733732926766</coordinates></LinearRing></innerBoundaryIs></Polygon></MultiGeometry>
  </Placemark>
  <Placemark>
	<Style><LineStyle><color>ff0000ff</color></LineStyle><PolyStyle><fill>0</fill></PolyStyle></Style>
      <MultiGeometry><Polygon><outerBoundaryIs><LinearRing><coordinates>147.695030124114,-8.07855182102006 147.677487479731,-8.06400426226412 147.683728163246,-8.06539926930343 147.695030124114,-8.07855182102006</coordinates></LinearRing></outerBoundaryIs></Polygon></MultiGeometry>
  </Placemark>
  <Placemark>
	<Style><LineStyle><color>ff0000ff</color></LineStyle><PolyStyle><fill>0</fill></PolyStyle></Style>
      <MultiGeometry><Polygon><outerBoundaryIs><LinearRing><coordinates>147.620583417269,-7.96782899659911 147.620531417642,-7.96912898726951 147.605420188187,-7.97387186601312 147.607624090469,-7.96788984553504 147.608504601251,-7.95468218380443 147.620583417269,-7.96782899659911</coordinates></LinearRing></outerBoundaryIs></Polygon></MultiGeometry>
  </Placemark>
  <Placemark>
	<Style><LineStyle><color>ff0000ff</color></LineStyle><PolyStyle><fill>0</fill></PolyStyle></Style>
      <MultiGeometry><Polygon><outerBoundaryIs><LinearRing><coordinates>147.245047808519,-8.00413149917451 147.240974047916,-8.00657575553671 147.207484752691,-7.99387291941675 147.207248415708,-7.99361294873586 147.232425036125,-7.99984596867231 147.245047808519,-8.00413149917451</coordinates></LinearRing></outerBoundaryIs></Polygon></MultiGeometry>
  </Placemark>
  <Placemark>
	<Style><LineStyle><color>ff0000ff</color></LineStyle><PolyStyle><fill>0</fill></PolyStyle></Style>
      <MultiGeometry><Polygon><outerBoundaryIs><LinearRing><coordinates>147.245047808519,-8.00413149917451 147.232425036125,-7.99984596867231 147.207248415708,-7.99361294873586 147.195936719855,-7.98117008329679 147.185543490302,-7.97597346852052 147.171685850898,-7.95749661598241 147.172840654182,-7.95345480448972 147.175150260749,-7.95230000120605 147.193627113287,-7.96211582911689 147.198246326422,-7.96500283732601 147.208639555974,-7.95922882090787 147.215568375676,-7.95749661598241 147.220764990453,-7.95749661598241 147.230003416722,-7.95691921434062 147.22307459702,-7.96327063240056 147.217300580602,-7.9771282718041 147.22307459702,-7.9880989029986 147.233467826573,-7.99098591120772 147.245593261051,-7.9921407144913 147.246748064334,-8.0031113456858 147.245047808519,-8.00413149917451</coordinates></LinearRing></outerBoundaryIs></Polygon></MultiGeometry>
  </Placemark>
  <Placemark>
	<Style><LineStyle><color>ff0000ff</color></LineStyle><PolyStyle><fill>0</fill></PolyStyle></Style>
      <MultiGeometry><Polygon><outerBoundaryIs><LinearRing><coordinates>147.337977523741,-7.99733732926766 147.349525556577,-7.99849213255132 147.372044220608,-7.99791473090944 147.387634064937,-7.99675992762587 147.385901860012,-8.00137914076035 147.38532445837,-8.00253394404402 147.381282646877,-8.00484355061126 147.365692802548,-8.00830796046216 147.355299572996,-8.00946276374574 147.34086453195,-8.00946276374574 147.33451311389,-8.00888536210395 147.323542482696,-8.00657575553671 147.32181027777,-7.99618252598399 147.337977523741,-7.99733732926766</coordinates></LinearRing></outerBoundaryIs></Polygon></MultiGeometry>
  </Placemark>
  <Placemark>
	<Style><LineStyle><color>ff0000ff</color></LineStyle><PolyStyle><fill>0</fill></PolyStyle></Style>
      <MultiGeometry><Polygon><outerBoundaryIs><LinearRing><coordinates>147.620583417269,-7.96782899659911 147.608504601251,-7.95468218380443 147.609933697036,-7.93324574702616 147.61108850032,-7.92227511583165 147.614552910171,-7.90495306657721 147.622059131514,-7.88705361568089 147.62379133644,-7.86799936150099 147.624946139723,-7.85702873030658 147.595498655991,-7.84605809911207 147.55392573778,-7.83220045970844 147.54122290166,-7.82931345149941 147.533716680317,-7.82758124657396 147.531407073749,-7.82180723015581 147.531984475391,-7.81603321373767 147.536026286884,-7.81083659896131 147.544687311511,-7.80563998418495 147.54757431972,-7.80506258254316 147.55392573778,-7.81025919731952 147.577599205094,-7.81603321373767 147.605314483902,-7.82758124657396 147.626678344649,-7.84317109090295 147.640535984052,-7.852409517172 147.645732598829,-7.86742195985921 147.635916770918,-7.88878582060634 147.627255746291,-7.91419149284626 147.620904328231,-7.95980622254965 147.620583417269,-7.96782899659911</coordinates></LinearRing></outerBoundaryIs></Polygon><Polygon><outerBoundaryIs><LinearRing><coordinates>147.695030124114,-8.07855182102006 147.683728163246,-8.06539926930343 147.677487479731,-8.06400426226412 147.672293074352,-8.0596967065837 147.654393623456,-8.03255882941842 147.644577795545,-8.01696898508934 147.634184565992,-8.01177237031307 147.594343852707,-8.00657575553671 147.590879442856,-8.00773055882038 147.584528024796,-8.00080173911856 147.589147237931,-7.99156331284951 147.599540467483,-7.98347968986412 147.603582278976,-7.97886047672955 147.605420188187,-7.97387186601312 147.620531417642,-7.96912898726951 147.620326926589,-7.97424126359507 147.622059131514,-7.98694409971494 147.633029762709,-7.99791473090944 147.64631000047,-8.00080173911856 147.657858033307,-8.0071531571785 147.695966541667,-8.03602323926932 147.743890877937,-8.09029899359989 147.747355287788,-8.10819844449621 147.74793268943,-8.12609789539244 147.745045681221,-8.12609789539244 147.736962058235,-8.12205608389975 147.719062607339,-8.10184702643619 147.695966541667,-8.07932836240547 147.695030124114,-8.07855182102006</coordinates></LinearRing></outerBoundaryIs></Polygon></MultiGeometry>
  </Placemark>
  <Placemark>
	<Style><LineStyle><color>ff0000ff</color></LineStyle><PolyStyle><fill>0</fill></PolyStyle></Style>
      <MultiGeometry><Polygon><outerBoundaryIs><LinearRing><coordinates>147.042347883132,-7.99098591120772 147.037151268355,-7.99329551777496 147.034264260146,-7.9921407144913 147.029645047012,-7.98636669807315 147.028490243728,-7.97424126359507 147.028490243728,-7.9655802389678 147.058515129102,-7.94883559135515 147.066021350446,-7.94999039463881 147.066598752088,-7.95114519792239 147.065443948804,-7.95865141926599 147.055628120893,-7.96442543568423 147.049854104475,-7.97539606687864 147.045812292983,-7.98636669807315 147.042347883132,-7.99098591120772</coordinates></LinearRing></outerBoundaryIs></Polygon></MultiGeometry>
  </Placemark>
</Folder>
</Document></kml>
