<?xml version="1.0" encoding="utf-8" ?>
<kml xmlns="http://www.opengis.net/kml/2.2">
<Document id="root_doc">
<Schema name="fCP_area_proy" id="fCP_area_proy">
	<SimpleField name="ID" type="int"></SimpleField>
	<SimpleField name="AREA" type="float"></SimpleField>
	<SimpleField name="PERIMETER" type="float"></SimpleField>
	<SimpleField name="X_COORD" type="float"></SimpleField>
	<SimpleField name="Y_COORD" type="float"></SimpleField>
	<SimpleField name="HECTARES" type="float"></SimpleField>
</Schema>
<Folder><name>fCP_area_proy</name>
  <Placemark>
	<Style><LineStyle><color>ff0000ff</color></LineStyle><PolyStyle><fill>0</fill></PolyStyle></Style>
	<ExtendedData><SchemaData schemaUrl="#fCP_area_proy">
		<SimpleData name="ID">0</SimpleData>
		<SimpleData name="AREA">225972737.587</SimpleData>
		<SimpleData name="PERIMETER">85754.196</SimpleData>
		<SimpleData name="X_COORD">398257.59876</SimpleData>
		<SimpleData name="Y_COORD">2166398.27596</SimpleData>
		<SimpleData name="HECTARES">22597.274</SimpleData>
	</SchemaData></ExtendedData>
      <MultiGeometry><Polygon><outerBoundaryIs><LinearRing><coordinates>-87.90286792068,19.6359989345114 -87.9047897781049,19.6311689355558 -87.9068476048705,19.6263597040897 -87.9087928642074,19.6217013194382 -87.9118110307706,19.6144501726503 -87.9151244221438,19.6067237684593 -87.9151236749671,19.6066687134922 -87.9106943258582,19.6064192303841 -87.9175375482191,19.571072064347 -87.9248869581819,19.5622986138735 -87.9251447866533,19.5402339729318 -87.9379421175549,19.5401680171585 -87.9374886110995,19.5287728702084 -87.9425258377653,19.5287056276579 -87.9481494752397,19.5076150506657 -87.9537760132601,19.5067267085786 -87.967250101649,19.5045986161449 -87.9725479226828,19.5005090571112 -87.990084144566,19.495704960739 -87.9928560069064,19.4996945869727 -87.998852880133,19.4964483068198 -87.9981010892953,19.4942248503423 -88.0214726893863,19.4881207680897 -88.0216134724784,19.5068428152779 -88.0201463150073,19.5101390300711 -88.0097819288764,19.5403377415361 -88.0086685661464,19.544343011251 -88.0105850839821,19.5455996135298 -88.0203251823094,19.5544338193826 -88.0213767394075,19.5553859910499 -88.0207593558167,19.55590067995 -88.0125633773063,19.5627329050265 -88.0068656988339,19.5677882126783 -88.0057875867212,19.5688263997777 -87.9924639357844,19.5812789760119 -87.9851638800293,19.5969738984207 -87.985380624788,19.5991940638393 -87.9853159060378,19.6019165341127 -87.9855650980534,19.6027883028194 -87.9856613700033,19.6036840892919 -87.9887602778371,19.6068282873156 -87.9853354974472,19.6140330654085 -87.9952399033261,19.6151641235094 -88.0029659958251,19.6205829794216 -87.9968672101707,19.6273398638843 -88.0056707831114,19.6326720213661 -88.0141370267559,19.6470299798931 -88.0154897178537,19.6482586081202 -88.0263645859904,19.6572133286946 -88.0303023291631,19.6539907684024 -88.0370215018546,19.647790451693 -88.055421897784,19.64590924865 -88.0606578900815,19.6400966683579 -88.0635971996228,19.6380182110872 -88.0626970849041,19.6410167881352 -88.0618446140905,19.6439118016162 -88.0610635044049,19.6464960924379 -88.0506105185439,19.681463727 -88.0505572928477,19.6913274259519 -87.9093322631793,19.6872567483451 -87.9000808089974,19.6883838662983 -87.8864015437095,19.6900083624503 -87.8822114378787,19.6905071259969 -87.8809182265097,19.6906952767186 -87.8774839012269,19.6911807471112 -87.8780657334978,19.6836377954128 -87.8800463874801,19.6724403890909 -87.8806750597479,19.6686625736568 -87.8812639748752,19.6682482071111 -87.8825982674649,19.6665035228138 -87.885033521523,19.6628928716368 -87.8945370043503,19.6498252446529 -87.8956820991004,19.6478871119332 -87.9019056020804,19.6381723797174 -87.90286792068,19.6359989345114</coordinates></LinearRing></outerBoundaryIs></Polygon></MultiGeometry>
  </Placemark>
</Folder>
</Document></kml>
