<?xml version="1.0" encoding="UTF-8"?>
<kml xmlns="http://www.opengis.net/kml/2.2" xmlns:gx="http://www.google.com/kml/ext/2.2" xmlns:kml="http://www.opengis.net/kml/2.2" xmlns:atom="http://www.w3.org/2005/Atom">
<Document id="Document" xsi:schemaLocation="http://www.opengis.net/kml/2.2 http://schemas.opengis.net/kml/2.2.0/ogckml22.xsd http://www.google.com/kml/ext/2.2 http://code.google.com/apis/kml/schema/kml22gx.xsd">
	<name>Document</name>
	<open>1</open>
	<Snippet maxLines="0"></Snippet>
	<Style id="PolyStyle00">
		<LabelStyle>
			<color>00000000</color>
			<scale>0</scale>
		</LabelStyle>
		<LineStyle>
			<color>ff0000e6</color>
			<width>2</width>
		</LineStyle>
		<PolyStyle>
			<color>00ffffff</color>
		</PolyStyle>
	</Style>
	<Folder id="FeatureLayer0">
		<name>_Polygons_</name>
		<open>1</open>
		<Snippet maxLines="0"></Snippet>
		<Placemark id="ID_00000">
			<name>Nartap Bamboo Mission Area</name>
			<Snippet maxLines="0"></Snippet>
			<description><![CDATA[<html xmlns:fo="http://www.w3.org/1999/XSL/Format" xmlns:msxsl="urn:schemas-microsoft-com:xslt">

<head>

<META http-equiv="Content-Type" content="text/html">

<meta http-equiv="content-type" content="text/html; charset=UTF-8">

</head>

<body style="margin:0px 0px 0px 0px;overflow:auto;background:#FFFFFF;">

<table style="font-family:Arial,Verdana,Times;font-size:12px;text-align:left;width:100%;border-collapse:collapse;padding:3px 3px 3px 3px">

<tr style="text-align:center;font-weight:bold;background:#9CBCE2">

<td>Nartap Bamboo Mission Area</td>

</tr>

<tr>

<td>

<table style="font-family:Arial,Verdana,Times;font-size:12px;text-align:left;width:100%;border-spacing:0px; padding:3px 3px 3px 3px">

<tr>

<td>FID</td>

<td>0</td>

</tr>

<tr bgcolor="#D4E4F3">

<td>OID_</td>

<td>0</td>

</tr>

<tr>

<td>Name</td>

<td>Nartap Bamboo Mission Area</td>

</tr>

<tr bgcolor="#D4E4F3">

<td>FolderPath</td>

<td>Document</td>

</tr>

<tr>

<td>SymbolID</td>

<td>0</td>

</tr>

<tr bgcolor="#D4E4F3">

<td>AltMode</td>

<td>0</td>

</tr>

<tr>

<td>Base</td>

<td>0</td>

</tr>

<tr bgcolor="#D4E4F3">

<td>Clamped</td>

<td>-1</td>

</tr>

<tr>

<td>Extruded</td>

<td>0</td>

</tr>

<tr bgcolor="#D4E4F3">

<td>Snippet</td>

<td></td>

</tr>

<tr>

<td>PopupInfo</td>

<td>Nartap village</td>

</tr>

<tr bgcolor="#D4E4F3">

<td>Shape_Leng</td>

<td>0.060383</td>

</tr>

</table>

</td>

</tr>

</table>

</body>

</html>]]></description>
			<styleUrl>#PolyStyle00</styleUrl>
			<MultiGeometry>
				<Polygon>
					<outerBoundaryIs>
						<LinearRing>
							<coordinates>
								91.90103609100004,25.84222219500003,0 91.90637536300005,25.84412107800006,0 91.91253673300008,25.84843501800003,0 91.91309530300003,25.85583023700008,0 91.90595358600007,25.85960852900007,0 91.90101329200006,25.85856282000003,0 91.89261831300007,25.85508530500005,0 91.89276415900008,25.85573972300006,0 91.89364157600006,25.85001366900008,0 91.89798072000009,25.84661043100005,0 91.89927153300006,25.84586695000007,0 91.89968358700007,25.84433893700002,0 91.90103609100004,25.84222219500003,0 
							</coordinates>
						</LinearRing>
					</outerBoundaryIs>
				</Polygon>
			</MultiGeometry>
		</Placemark>
		<Placemark id="ID_00001">
			<name>Plasha bamboo mission</name>
			<Snippet maxLines="0"></Snippet>
			<description><![CDATA[<html xmlns:fo="http://www.w3.org/1999/XSL/Format" xmlns:msxsl="urn:schemas-microsoft-com:xslt">

<head>

<META http-equiv="Content-Type" content="text/html">

<meta http-equiv="content-type" content="text/html; charset=UTF-8">

</head>

<body style="margin:0px 0px 0px 0px;overflow:auto;background:#FFFFFF;">

<table style="font-family:Arial,Verdana,Times;font-size:12px;text-align:left;width:100%;border-collapse:collapse;padding:3px 3px 3px 3px">

<tr style="text-align:center;font-weight:bold;background:#9CBCE2">

<td>Plasha bamboo mission</td>

</tr>

<tr>

<td>

<table style="font-family:Arial,Verdana,Times;font-size:12px;text-align:left;width:100%;border-spacing:0px; padding:3px 3px 3px 3px">

<tr>

<td>FID</td>

<td>1</td>

</tr>

<tr bgcolor="#D4E4F3">

<td>OID_</td>

<td>0</td>

</tr>

<tr>

<td>Name</td>

<td>Plasha bamboo mission</td>

</tr>

<tr bgcolor="#D4E4F3">

<td>FolderPath</td>

<td>Document</td>

</tr>

<tr>

<td>SymbolID</td>

<td>0</td>

</tr>

<tr bgcolor="#D4E4F3">

<td>AltMode</td>

<td>0</td>

</tr>

<tr>

<td>Base</td>

<td>0</td>

</tr>

<tr bgcolor="#D4E4F3">

<td>Clamped</td>

<td>-1</td>

</tr>

<tr>

<td>Extruded</td>

<td>0</td>

</tr>

<tr bgcolor="#D4E4F3">

<td>Snippet</td>

<td></td>

</tr>

<tr>

<td>PopupInfo</td>

<td>Plasha village(Bamboo planted Area)</td>

</tr>

<tr bgcolor="#D4E4F3">

<td>Shape_Leng</td>

<td>0.100952</td>

</tr>

</table>

</td>

</tr>

</table>

</body>

</html>]]></description>
			<styleUrl>#PolyStyle00</styleUrl>
			<MultiGeometry>
				<Polygon>
					<outerBoundaryIs>
						<LinearRing>
							<coordinates>
								91.95193134200008,25.93630226800008,0 91.95655480000005,25.93947619400007,0 91.96494709700005,25.93908846500005,0 91.97313923400009,25.94246733000006,0 91.97714813100004,25.94487230400006,0 91.98438439500006,25.94702006700004,0 91.98946952800009,25.94998599000007,0 91.98246158700003,25.95835607300006,0 91.96766249800004,25.95847544700007,0 91.95419680300007,25.95147193800005,0 91.95023618600004,25.94280620600006,0 91.95059090900007,25.93774014800005,0 91.95291303100004,25.93591875000004,0 91.95307429900004,25.93625824800006,0 91.95193134200008,25.93630226800008,0 
							</coordinates>
						</LinearRing>
					</outerBoundaryIs>
				</Polygon>
			</MultiGeometry>
		</Placemark>
		<Placemark id="ID_00002">
			<name>Umkaduh bamboo mission</name>
			<Snippet maxLines="0"></Snippet>
			<description><![CDATA[<html xmlns:fo="http://www.w3.org/1999/XSL/Format" xmlns:msxsl="urn:schemas-microsoft-com:xslt">

<head>

<META http-equiv="Content-Type" content="text/html">

<meta http-equiv="content-type" content="text/html; charset=UTF-8">

</head>

<body style="margin:0px 0px 0px 0px;overflow:auto;background:#FFFFFF;">

<table style="font-family:Arial,Verdana,Times;font-size:12px;text-align:left;width:100%;border-collapse:collapse;padding:3px 3px 3px 3px">

<tr style="text-align:center;font-weight:bold;background:#9CBCE2">

<td>Umkaduh bamboo mission</td>

</tr>

<tr>

<td>

<table style="font-family:Arial,Verdana,Times;font-size:12px;text-align:left;width:100%;border-spacing:0px; padding:3px 3px 3px 3px">

<tr>

<td>FID</td>

<td>2</td>

</tr>

<tr bgcolor="#D4E4F3">

<td>OID_</td>

<td>0</td>

</tr>

<tr>

<td>Name</td>

<td>Umkaduh bamboo mission</td>

</tr>

<tr bgcolor="#D4E4F3">

<td>FolderPath</td>

<td>Document</td>

</tr>

<tr>

<td>SymbolID</td>

<td>0</td>

</tr>

<tr bgcolor="#D4E4F3">

<td>AltMode</td>

<td>0</td>

</tr>

<tr>

<td>Base</td>

<td>0</td>

</tr>

<tr bgcolor="#D4E4F3">

<td>Clamped</td>

<td>-1</td>

</tr>

<tr>

<td>Extruded</td>

<td>0</td>

</tr>

<tr bgcolor="#D4E4F3">

<td>Snippet</td>

<td></td>

</tr>

<tr>

<td>PopupInfo</td>

<td>Umkaduh</td>

</tr>

<tr bgcolor="#D4E4F3">

<td>Shape_Leng</td>

<td>0.111909</td>

</tr>

</table>

</td>

</tr>

</table>

</body>

</html>]]></description>
			<styleUrl>#PolyStyle00</styleUrl>
			<MultiGeometry>
				<Polygon>
					<outerBoundaryIs>
						<LinearRing>
							<coordinates>
								91.93499922800011,25.86413248500003,0 91.93634603200013,25.85619561100003,0 91.93680837800019,25.85242807100002,0 91.9367269050001,25.84908042100017,0 91.93658441300005,25.84570672700011,0 91.94026440400017,25.84341047200007,0 91.94061952818281,25.84345197315497,0 91.94408319900003,25.84522303800014,0 91.95017013700003,25.85160738500002,0 91.95538234000009,25.85473561700019,0 91.95898354100007,25.85739370300001,0 91.95943784000008,25.85838632200017,0 91.96306183900003,25.862702759,0 91.96247208900007,25.87112127200015,0 91.96179784800016,25.87499379800011,0 91.96092344800007,25.87853679000017,0 91.95695545500013,25.87975969400009,0 91.95440333300019,25.88253938400004,0 91.94998607000019,25.88280030600015,0 91.94618303300001,25.87825021800006,0 91.94306463000004,25.87879048200017,0 91.94104895000004,25.87684057200016,0 91.94018628400011,25.87387069699997,0 91.93587731600007,25.87160093300014,0 91.9354216750001,25.86933384000002,0 91.93537306000007,25.8689491990001,0 91.93550851200014,25.86857903800012,0 91.93569861400003,25.86825804900013,0 91.9361264260001,25.86746251300019,0 91.93645197900008,25.86649682100006,0 91.93578209700007,25.86546535200006,0 91.93499922800011,25.86413248500003,0 
							</coordinates>
						</LinearRing>
					</outerBoundaryIs>
				</Polygon>
			</MultiGeometry>
		</Placemark>
		<Placemark id="ID_00003">
			<name>Ryndhi Bamboo mission</name>
			<Snippet maxLines="0"></Snippet>
			<description><![CDATA[<html xmlns:fo="http://www.w3.org/1999/XSL/Format" xmlns:msxsl="urn:schemas-microsoft-com:xslt">

<head>

<META http-equiv="Content-Type" content="text/html">

<meta http-equiv="content-type" content="text/html; charset=UTF-8">

</head>

<body style="margin:0px 0px 0px 0px;overflow:auto;background:#FFFFFF;">

<table style="font-family:Arial,Verdana,Times;font-size:12px;text-align:left;width:100%;border-collapse:collapse;padding:3px 3px 3px 3px">

<tr style="text-align:center;font-weight:bold;background:#9CBCE2">

<td>Ryndhi Bamboo mission</td>

</tr>

<tr>

<td>

<table style="font-family:Arial,Verdana,Times;font-size:12px;text-align:left;width:100%;border-spacing:0px; padding:3px 3px 3px 3px">

<tr>

<td>FID</td>

<td>3</td>

</tr>

<tr bgcolor="#D4E4F3">

<td>OID_</td>

<td>0</td>

</tr>

<tr>

<td>Name</td>

<td>Ryndhi Bamboo mission</td>

</tr>

<tr bgcolor="#D4E4F3">

<td>FolderPath</td>

<td>Document</td>

</tr>

<tr>

<td>SymbolID</td>

<td>0</td>

</tr>

<tr bgcolor="#D4E4F3">

<td>AltMode</td>

<td>0</td>

</tr>

<tr>

<td>Base</td>

<td>0</td>

</tr>

<tr bgcolor="#D4E4F3">

<td>Clamped</td>

<td>-1</td>

</tr>

<tr>

<td>Extruded</td>

<td>0</td>

</tr>

<tr bgcolor="#D4E4F3">

<td>Snippet</td>

<td></td>

</tr>

<tr>

<td>PopupInfo</td>

<td>Ryndhi</td>

</tr>

<tr bgcolor="#D4E4F3">

<td>Shape_Leng</td>

<td>0.056393</td>

</tr>

</table>

</td>

</tr>

</table>

</body>

</html>]]></description>
			<styleUrl>#PolyStyle00</styleUrl>
			<MultiGeometry>
				<Polygon>
					<outerBoundaryIs>
						<LinearRing>
							<coordinates>
								91.92177493100003,25.84862269600006,0 91.92186646200008,25.84708777800006,0 91.92238949200015,25.84560413600002,0 91.92268902045765,25.8454969216009,0 91.92544855200015,25.84473059800007,0 91.93196665500004,25.84181272200004,0 91.93600371500014,25.84660107800011,0 91.9361452010001,25.85666115200006,0 91.93532344000005,25.85999531200008,0 91.93135142300014,25.86103165500015,0 91.92271471000008,25.85540512200009,0 91.92206997400018,25.85232307200016,0 91.92294102200015,25.8508422110001,0 91.92177493100003,25.84862269600006,0 
							</coordinates>
						</LinearRing>
					</outerBoundaryIs>
				</Polygon>
			</MultiGeometry>
		</Placemark>
		<Placemark id="ID_00004">
			<name>Umkyrpiang village land Area acre</name>
			<Snippet maxLines="0"></Snippet>
			<description><![CDATA[<html xmlns:fo="http://www.w3.org/1999/XSL/Format" xmlns:msxsl="urn:schemas-microsoft-com:xslt">

<head>

<META http-equiv="Content-Type" content="text/html">

<meta http-equiv="content-type" content="text/html; charset=UTF-8">

</head>

<body style="margin:0px 0px 0px 0px;overflow:auto;background:#FFFFFF;">

<table style="font-family:Arial,Verdana,Times;font-size:12px;text-align:left;width:100%;border-collapse:collapse;padding:3px 3px 3px 3px">

<tr style="text-align:center;font-weight:bold;background:#9CBCE2">

<td>Umkyrpiang village land Area acre</td>

</tr>

<tr>

<td>

<table style="font-family:Arial,Verdana,Times;font-size:12px;text-align:left;width:100%;border-spacing:0px; padding:3px 3px 3px 3px">

<tr>

<td>FID</td>

<td>4</td>

</tr>

<tr bgcolor="#D4E4F3">

<td>OID_</td>

<td>0</td>

</tr>

<tr>

<td>Name</td>

<td>Umkyrpiang village land Area acre</td>

</tr>

<tr bgcolor="#D4E4F3">

<td>FolderPath</td>

<td>Document</td>

</tr>

<tr>

<td>SymbolID</td>

<td>0</td>

</tr>

<tr bgcolor="#D4E4F3">

<td>AltMode</td>

<td>0</td>

</tr>

<tr>

<td>Base</td>

<td>0</td>

</tr>

<tr bgcolor="#D4E4F3">

<td>Clamped</td>

<td>-1</td>

</tr>

<tr>

<td>Extruded</td>

<td>0</td>

</tr>

<tr bgcolor="#D4E4F3">

<td>Snippet</td>

<td></td>

</tr>

<tr>

<td>PopupInfo</td>

<td>Common Group</td>

</tr>

<tr bgcolor="#D4E4F3">

<td>Shape_Leng</td>

<td>0.076545</td>

</tr>

</table>

</td>

</tr>

</table>

</body>

</html>]]></description>
			<styleUrl>#PolyStyle00</styleUrl>
			<MultiGeometry>
				<Polygon>
					<outerBoundaryIs>
						<LinearRing>
							<coordinates>
								91.93218927800012,25.88307419900013,0 91.92686040000008,25.8784354340001,0 91.9232796510002,25.87064673800012,0 91.92588876900004,25.86886744399999,0 91.92696165300003,25.86630012100011,0 91.92913960700008,25.86381570800018,0 91.93432800500005,25.86120603800009,0 91.9343891028701,25.86126243707196,0 91.93460997200003,25.86247437500015,0 91.93486808837059,25.86413206704509,0 91.93580756773621,25.86639297123588,0 91.93522024859942,25.86890050690067,0 91.9355842737362,25.8710334292358,0 91.9357587999405,25.87171540927056,0 91.93969442844416,25.87414245949657,0 91.94076518589678,25.87692642887339,0 91.94178692229612,25.87793786670432,0 91.94350156605338,25.87964734253364,0 91.94594975982022,25.87872339512455,0 91.94747431541344,25.88021982872186,0 91.94832939736131,25.8815180832425,0 91.94860976200016,25.88291945600003,0 91.94724384700004,25.88431575700002,0 91.94485668100009,25.88437216400018,0 91.94184456000016,25.88232491400004,0 91.94054905300014,25.8824132960001,0 91.93959821000011,25.88245220800013,0 91.93787254400013,25.88300572600008,0 91.93647712500007,25.88340389500007,0 91.93499218700011,25.88353842700019,0 91.9332507630001,25.88356346400002,0 91.93218927800012,25.88307419900013,0 
							</coordinates>
						</LinearRing>
					</outerBoundaryIs>
				</Polygon>
			</MultiGeometry>
		</Placemark>
	</Folder>
</Document>
</kml>
