<?xml version="1.0" encoding="utf-8" ?>
<kml xmlns="http://www.opengis.net/kml/2.2">
<Document id="root_doc">
<Schema name="OkaEcole2" id="OkaEcole2">
	<SimpleField name="Nom" type="string"></SimpleField>
	<SimpleField name="SCI" type="string"></SimpleField>
	<SimpleField name="SPF2B" type="string"></SimpleField>
	<SimpleField name="Domaine" type="string"></SimpleField>
	<SimpleField name="FID" type="string"></SimpleField>
	<SimpleField name="m2" type="string"></SimpleField>
	<SimpleField name="ha" type="string"></SimpleField>
	<SimpleField name="Id" type="string"></SimpleField>
	<SimpleField name="Field_1" type="string"></SimpleField>
</Schema>
<Folder><name>OkaEcole2</name>
  <Placemark>
	<name>OkaEcole</name>
	<Style><LineStyle><color>ff0000ff</color></LineStyle><PolyStyle><fill>0</fill></PolyStyle></Style>
	<ExtendedData><SchemaData schemaUrl="#OkaEcole2">
		<SimpleData name="Nom">Oka Ecole 2 - est</SimpleData>
		<SimpleData name="SCI">SPFB</SimpleData>
		<SimpleData name="SPF2B">oui</SimpleData>
		<SimpleData name="Domaine">OkaEcole</SimpleData>
		<SimpleData name="FID">0</SimpleData>
		<SimpleData name="m2">27232597,0234</SimpleData>
		<SimpleData name="ha">2723,259702</SimpleData>
		<SimpleData name="Id">0</SimpleData>
		<SimpleData name="Field_1">OkaEcole</SimpleData>
	</SchemaData></ExtendedData>
      <MultiGeometry><Polygon><outerBoundaryIs><LinearRing><coordinates>15.3365357265637,-3.60052141222056 15.330277243972,-3.60501847187843 15.3270545464463,-3.60285526273056 15.3191792209712,-3.6085139618917 15.3191806707551,-3.61266599074002 15.3169784811961,-3.61266676472319 15.3136597426809,-3.61266792100694 15.313659678118,-3.61247986911937 15.3136566439361,-3.60363108346897 15.2941642056288,-3.61763639998954 15.2938562224266,-3.61785767936743 15.2928002800378,-3.61861634995683 15.2928621621926,-3.61882926014659 15.294958984295,-3.61969029050463 15.2977229086967,-3.62059896887131 15.2991527808255,-3.6218431915901 15.3012017760408,-3.62212974757285 15.3016512638261,-3.62238357559395 15.3042518778675,-3.62385214799795 15.3042819834971,-3.62388741233652 15.3056819081996,-3.6255272148103 15.3065398322112,-3.62624501645855 15.3088273760726,-3.62739318414729 15.3095721438861,-3.62785604235656 15.3098282189722,-3.62801518760717 15.3085839282034,-3.63007145686746 15.3077316821175,-3.63147984157569 15.3063029288604,-3.63363460707144 15.3054695871067,-3.63519075807362 15.3030879901853,-3.63782457112331 15.3030614389904,-3.6378445917843 15.309932873584,-3.64281429618983 15.3109376509946,-3.64354098315261 15.3496749649251,-3.63692718721515 15.3577004221421,-3.63902173385155 15.3609166666667,-3.63986111111105 15.3615003269086,-3.63878574044368 15.3642628021643,-3.63581652591118 15.3663583651965,-3.6333263017971 15.3665480733304,-3.63112408695676 15.3670238676197,-3.62940048113818 15.3681663951984,-3.6268148971294 15.3682612665901,-3.62576166220582 15.3689280381778,-3.624995428853 15.3689562424562,-3.62340931893855 15.3697777777778,-3.62283333333331 15.3700703225243,-3.62183537282006 15.3714991530288,-3.62030286462686 15.3734995234008,-3.61819564812748 15.3746426891439,-3.61723772434602 15.3755000421483,-3.61647140819593 15.3757855765047,-3.61560958413492 15.3756900044004,-3.6149394084998 15.3761666666667,-3.61408333333332 15.3728713295794,-3.61295573534213 15.3365357265637,-3.60052141222056</coordinates></LinearRing></outerBoundaryIs></Polygon></MultiGeometry>
  </Placemark>
</Folder>
</Document></kml>
