<?xml version="1.0" encoding="UTF-8"?>
<kml xmlns="http://www.opengis.net/kml/2.2" xmlns:gx="http://www.google.com/kml/ext/2.2" xmlns:kml="http://www.opengis.net/kml/2.2" xmlns:atom="http://www.w3.org/2005/Atom">
<Document>
	<name>HG- Forest Project2.kml</name>
	<Schema name="POTREROS_PADRONES" id="S_POTREROS_PADRONES_DDDS">
		<SimpleField type="double" name="area"><displayName>&lt;b&gt;area&lt;/b&gt;</displayName>
</SimpleField>
		<SimpleField type="double" name="Shape_Area"><displayName>&lt;b&gt;Shape_Area&lt;/b&gt;</displayName>
</SimpleField>
		<SimpleField type="double" name="Sup"><displayName>&lt;b&gt;Sup&lt;/b&gt;</displayName>
</SimpleField>
		<SimpleField type="long" name="Padron"><displayName>&lt;b&gt;Padron&lt;/b&gt;</displayName>
</SimpleField>
		<SimpleField type="string" name="POTREROS"><displayName>&lt;b&gt;POTREROS&lt;/b&gt;</displayName>
</SimpleField>
	</Schema>
	<Style id="falseColor76">
		<BalloonStyle>
			<text><![CDATA[<table border="0">
  <tr><td><b>PADRON</b></td><td>$[POTREROS/PADRON]</td></tr>
  <tr><td><b>DEPTO</b></td><td>$[POTREROS/DEPTO]</td></tr>
  <tr><td><b>SECCAT</b></td><td>$[POTREROS/SECCAT]</td></tr>
  <tr><td><b>LAMINA</b></td><td>$[POTREROS/LAMINA]</td></tr>
  <tr><td><b>CUADRICULA</b></td><td>$[POTREROS/CUADRICULA]</td></tr>
  <tr><td><b>AREAHA</b></td><td>$[POTREROS/AREAHA]</td></tr>
  <tr><td><b>AREAMC</b></td><td>$[POTREROS/AREAMC]</td></tr>
  <tr><td><b>VALORREAL</b></td><td>$[POTREROS/VALORREAL]</td></tr>
  <tr><td><b>Shape_Leng</b></td><td>$[POTREROS/Shape_Leng]</td></tr>
  <tr><td><b>Shape_Area</b></td><td>$[POTREROS/Shape_Area]</td></tr>
  <tr><td><b>Area_HA</b></td><td>$[POTREROS/Area_HA]</td></tr>
  <tr><td><b>Potrero</b></td><td>$[POTREROS/Potrero]</td></tr>
  <tr><td><b>Num</b></td><td>$[POTREROS/Num]</td></tr>
</table>]]></text>
		</BalloonStyle>
		<LineStyle>
			<width>1.5</width>
		</LineStyle>
		<PolyStyle>
			<fill>0</fill>
		</PolyStyle>
	</Style>
	<StyleMap id="falseColor75">
		<Pair>
			<key>normal</key>
			<styleUrl>#falseColor76</styleUrl>
		</Pair>
		<Pair>
			<key>highlight</key>
			<styleUrl>#falseColor74</styleUrl>
		</Pair>
	</StyleMap>
	<Style id="falseColor74">
		<BalloonStyle>
			<text><![CDATA[<table border="0">
  <tr><td><b>PADRON</b></td><td>$[POTREROS/PADRON]</td></tr>
  <tr><td><b>DEPTO</b></td><td>$[POTREROS/DEPTO]</td></tr>
  <tr><td><b>SECCAT</b></td><td>$[POTREROS/SECCAT]</td></tr>
  <tr><td><b>LAMINA</b></td><td>$[POTREROS/LAMINA]</td></tr>
  <tr><td><b>CUADRICULA</b></td><td>$[POTREROS/CUADRICULA]</td></tr>
  <tr><td><b>AREAHA</b></td><td>$[POTREROS/AREAHA]</td></tr>
  <tr><td><b>AREAMC</b></td><td>$[POTREROS/AREAMC]</td></tr>
  <tr><td><b>VALORREAL</b></td><td>$[POTREROS/VALORREAL]</td></tr>
  <tr><td><b>Shape_Leng</b></td><td>$[POTREROS/Shape_Leng]</td></tr>
  <tr><td><b>Shape_Area</b></td><td>$[POTREROS/Shape_Area]</td></tr>
  <tr><td><b>Area_HA</b></td><td>$[POTREROS/Area_HA]</td></tr>
  <tr><td><b>Potrero</b></td><td>$[POTREROS/Potrero]</td></tr>
  <tr><td><b>Num</b></td><td>$[POTREROS/Num]</td></tr>
</table>]]></text>
		</BalloonStyle>
		<LineStyle>
			<width>1.5</width>
		</LineStyle>
		<PolyStyle>
			<fill>0</fill>
		</PolyStyle>
	</Style>
	<Folder>
		<name>HG- Forest Project</name>
		<open>1</open>
		<Placemark>
			<styleUrl>#falseColor75</styleUrl>
			<ExtendedData>
				<SchemaData schemaUrl="#S_POTREROS_PADRONES_DDDS">
					<SimpleData name="area">0</SimpleData>
					<SimpleData name="Shape_Area">80.5157</SimpleData>
					<SimpleData name="Sup">80.5157</SimpleData>
					<SimpleData name="Padron">8856</SimpleData>
					<SimpleData name="POTREROS">Nuevo</SimpleData>
				</SchemaData>
			</ExtendedData>
			<Polygon>
				<outerBoundaryIs>
					<LinearRing>
						<coordinates>
							-54.5414166012663,-33.10426599456756,0 -54.54551974121369,-33.10973818693134,0 -54.54464901328453,-33.11139300823271,0 -54.5435773027727,-33.11082046495954,0 -54.54121719585781,-33.11471952329664,0 -54.5401721954374,-33.11491899519422,0 -54.53950555350374,-33.11244703266834,0 -54.53528074980744,-33.11288358474619,0 -54.53468588214829,-33.11293871454517,0 -54.53475598207003,-33.11351562809986,0 -54.53355011870877,-33.11359480457248,0 -54.53379329519232,-33.11278712229358,0 -54.53420885622874,-33.11136392647193,0 -54.5343199054423,-33.11094067390615,0 -54.5347133986475,-33.10734206874671,0 -54.53484621962304,-33.10601808997512,0 -54.53415600578278,-33.10566980274416,0 -54.5414166012663,-33.10426599456756,0 
						</coordinates>
					</LinearRing>
				</outerBoundaryIs>
			</Polygon>
		</Placemark>
		<Document>
			<name>HG El Tatu</name>
			<open>1</open>
			<Schema name="POTREROS" id="S_POTREROS_SSSDDDDDDSI">
				<SimpleField type="long" name="PADRON"><displayName>&lt;b&gt;PADRON&lt;/b&gt;</displayName>
</SimpleField>
				<SimpleField type="string" name="DEPTO"><displayName>&lt;b&gt;DEPTO&lt;/b&gt;</displayName>
</SimpleField>
				<SimpleField type="long" name="SECCAT"><displayName>&lt;b&gt;SECCAT&lt;/b&gt;</displayName>
</SimpleField>
				<SimpleField type="string" name="LAMINA"><displayName>&lt;b&gt;LAMINA&lt;/b&gt;</displayName>
</SimpleField>
				<SimpleField type="string" name="CUADRICULA"><displayName>&lt;b&gt;CUADRICULA&lt;/b&gt;</displayName>
</SimpleField>
				<SimpleField type="double" name="AREAHA"><displayName>&lt;b&gt;AREAHA&lt;/b&gt;</displayName>
</SimpleField>
				<SimpleField type="double" name="AREAMC"><displayName>&lt;b&gt;AREAMC&lt;/b&gt;</displayName>
</SimpleField>
				<SimpleField type="double" name="VALORREAL"><displayName>&lt;b&gt;VALORREAL&lt;/b&gt;</displayName>
</SimpleField>
				<SimpleField type="double" name="Shape_Leng"><displayName>&lt;b&gt;Shape_Leng&lt;/b&gt;</displayName>
</SimpleField>
				<SimpleField type="double" name="Shape_Area"><displayName>&lt;b&gt;Shape_Area&lt;/b&gt;</displayName>
</SimpleField>
				<SimpleField type="double" name="Area_HA"><displayName>&lt;b&gt;Area_HA&lt;/b&gt;</displayName>
</SimpleField>
				<SimpleField type="string" name="Potrero"><displayName>&lt;b&gt;Potrero&lt;/b&gt;</displayName>
</SimpleField>
				<SimpleField type="int" name="Num"><displayName>&lt;b&gt;Num&lt;/b&gt;</displayName>
</SimpleField>
			</Schema>
			<Style id="falseColor76">
				<BalloonStyle>
					<text><![CDATA[<table border="0">
  <tr><td><b>PADRON</b></td><td>$[POTREROS/PADRON]</td></tr>
  <tr><td><b>DEPTO</b></td><td>$[POTREROS/DEPTO]</td></tr>
  <tr><td><b>SECCAT</b></td><td>$[POTREROS/SECCAT]</td></tr>
  <tr><td><b>LAMINA</b></td><td>$[POTREROS/LAMINA]</td></tr>
  <tr><td><b>CUADRICULA</b></td><td>$[POTREROS/CUADRICULA]</td></tr>
  <tr><td><b>AREAHA</b></td><td>$[POTREROS/AREAHA]</td></tr>
  <tr><td><b>AREAMC</b></td><td>$[POTREROS/AREAMC]</td></tr>
  <tr><td><b>VALORREAL</b></td><td>$[POTREROS/VALORREAL]</td></tr>
  <tr><td><b>Shape_Leng</b></td><td>$[POTREROS/Shape_Leng]</td></tr>
  <tr><td><b>Shape_Area</b></td><td>$[POTREROS/Shape_Area]</td></tr>
  <tr><td><b>Area_HA</b></td><td>$[POTREROS/Area_HA]</td></tr>
  <tr><td><b>Potrero</b></td><td>$[POTREROS/Potrero]</td></tr>
  <tr><td><b>Num</b></td><td>$[POTREROS/Num]</td></tr>
</table>]]></text>
				</BalloonStyle>
				<LineStyle>
					<width>1.5</width>
				</LineStyle>
				<PolyStyle>
					<fill>0</fill>
				</PolyStyle>
			</Style>
			<StyleMap id="falseColor75">
				<Pair>
					<key>normal</key>
					<styleUrl>#falseColor76</styleUrl>
				</Pair>
				<Pair>
					<key>highlight</key>
					<styleUrl>#falseColor74</styleUrl>
				</Pair>
			</StyleMap>
			<Style id="falseColor74">
				<BalloonStyle>
					<text><![CDATA[<table border="0">
  <tr><td><b>PADRON</b></td><td>$[POTREROS/PADRON]</td></tr>
  <tr><td><b>DEPTO</b></td><td>$[POTREROS/DEPTO]</td></tr>
  <tr><td><b>SECCAT</b></td><td>$[POTREROS/SECCAT]</td></tr>
  <tr><td><b>LAMINA</b></td><td>$[POTREROS/LAMINA]</td></tr>
  <tr><td><b>CUADRICULA</b></td><td>$[POTREROS/CUADRICULA]</td></tr>
  <tr><td><b>AREAHA</b></td><td>$[POTREROS/AREAHA]</td></tr>
  <tr><td><b>AREAMC</b></td><td>$[POTREROS/AREAMC]</td></tr>
  <tr><td><b>VALORREAL</b></td><td>$[POTREROS/VALORREAL]</td></tr>
  <tr><td><b>Shape_Leng</b></td><td>$[POTREROS/Shape_Leng]</td></tr>
  <tr><td><b>Shape_Area</b></td><td>$[POTREROS/Shape_Area]</td></tr>
  <tr><td><b>Area_HA</b></td><td>$[POTREROS/Area_HA]</td></tr>
  <tr><td><b>Potrero</b></td><td>$[POTREROS/Potrero]</td></tr>
  <tr><td><b>Num</b></td><td>$[POTREROS/Num]</td></tr>
</table>]]></text>
				</BalloonStyle>
				<LineStyle>
					<width>1.5</width>
				</LineStyle>
				<PolyStyle>
					<fill>0</fill>
				</PolyStyle>
			</Style>
			<Folder id="layer 0">
				<name>POTREROS</name>
				<Placemark>
					<styleUrl>#falseColor75</styleUrl>
					<ExtendedData>
						<SchemaData schemaUrl="#S_POTREROS_SSSDDDDDDSI">
							<SimpleData name="PADRON">660</SimpleData>
							<SimpleData name="DEPTO">CERRO LARGO</SimpleData>
							<SimpleData name="SECCAT">9</SimpleData>
							<SimpleData name="LAMINA">F18B</SimpleData>
							<SimpleData name="CUADRICULA">A3</SimpleData>
							<SimpleData name="AREAHA">709</SimpleData>
							<SimpleData name="AREAMC">4780</SimpleData>
							<SimpleData name="VALORREAL">8.20724e+06</SimpleData>
							<SimpleData name="Shape_Leng">8807.87</SimpleData>
							<SimpleData name="Shape_Area">2.41499e+06</SimpleData>
							<SimpleData name="Area_HA">207.477</SimpleData>
							<SimpleData name="Potrero">Potrero 6</SimpleData>
							<SimpleData name="Num">6</SimpleData>
						</SchemaData>
					</ExtendedData>
					<Polygon>
						<outerBoundaryIs>
							<LinearRing>
								<coordinates>
									-54.96273322802785,-32.85842125789969,0 -54.96278080527943,-32.85841254435763,0 -54.96281130541728,-32.85840695839531,0 -54.96343632034623,-32.85829248792601,0 -54.96356405606272,-32.85826909291183,0 -54.96444016412541,-32.85842290616534,0 -54.96451962073153,-32.85843322871881,0 -54.96481326257382,-32.85808354342405,0 -54.96502732361742,-32.85797226518145,0 -54.96519512509392,-32.85781559461797,0 -54.96530169104858,-32.85762695810575,0 -54.96546607272493,-32.85747026487631,0 -54.96550420901243,-32.85710534851486,0 -54.96559003401424,-32.85681636107984,0 -54.9659867486033,-32.85687642959112,0 -54.96629178202696,-32.85641389004825,0 -54.96657266951021,-32.85639478623153,0 -54.96676097005365,-32.8561315500427,0 -54.96686948519323,-32.85567764946064,0 -54.9669980131333,-32.85523416672624,0 -54.96705213410808,-32.85504742203113,0 -54.96698313801558,-32.85469123712692,0 -54.96720255740254,-32.8545130352279,0 -54.96734745651631,-32.85439535449672,0 -54.96794131894902,-32.85325696547338,0 -54.96793339778827,-32.85299138519587,0 -54.96792918283595,-32.8528500664315,0 -54.96792542613527,-32.85272411187861,0 -54.96799295322959,-32.85252992395231,0 -54.96839970951172,-32.85252469597804,0 -54.9686316606208,-32.85249887463392,0 -54.96923115008987,-32.85203519107389,0 -54.96962200110044,-32.85149710511448,0 -54.96980583397929,-32.85112135430327,0 -54.97039600406774,-32.85014267072555,0 -54.97089870066449,-32.84961823050055,0 -54.97148050038845,-32.84900630490475,0 -54.97289449305898,-32.84817707360838,0 -54.97335375704252,-32.84740337386463,0 -54.97328608493507,-32.84698803567517,0 -54.97329007901991,-32.84681238408012,0 -54.97329146540753,-32.84675141325982,0 -54.97318470572656,-32.84620525141088,0 -54.97287803232485,-32.84544542485393,0 -54.97254760323266,-32.84462672588137,0 -54.97235136403881,-32.84400810017291,0 -54.97232009185378,-32.84391480180148,0 -54.97262465417818,-32.84370480706536,0 -54.97291814564709,-32.8431296245125,0 -54.97299979028212,-32.84262202160169,0 -54.97332400984256,-32.8422367035615,0 -54.97356037056903,-32.84201565826715,0 -54.97371800169493,-32.84124890477479,0 -54.97377886969541,-32.84042140628518,0 -54.97374107850923,-32.83930825789579,0 -54.97374945238711,-32.83924416019011,0 -54.97403002056804,-32.83884924722219,0 -54.97415761598766,-32.8387701850783,0 -54.97477882673824,-32.83925221751536,0 -54.97552936474326,-32.83983377170702,0 -54.97641256159763,-32.84050920803427,0 -54.97717207330822,-32.84109756061864,0 -54.97798427053389,-32.8417190489353,0 -54.97892168818316,-32.84244147114043,0 -54.97964004110938,-32.84299890581411,0 -54.9805082322765,-32.84366945930304,0 -54.9812258551795,-32.84420192958218,0 -54.98216147012771,-32.84493028002245,0 -54.98292934615608,-32.84552795920155,0 -54.98357390320905,-32.84602165502233,0 -54.98411001509809,-32.84643719599774,0 -54.98399175340785,-32.8466603242883,0 -54.98373575251751,-32.84716051558217,0 -54.98345605871823,-32.84768800024917,0 -54.9832570768444,-32.84808301842696,0 -54.98303170325187,-32.84832949312551,0 -54.98243583224792,-32.8489835935448,0 -54.98191019777729,-32.84956553410484,0 -54.98142939488225,-32.85009796906332,0 -54.98080988633843,-32.85074911697921,0 -54.98035465274952,-32.85125120916819,0 -54.97980311480849,-32.85184963485612,0 -54.97923706284518,-32.8524719116869,0 -54.97901182504896,-32.85300590249386,0 -54.97874059210616,-32.85364011526759,0 -54.9784741877568,-32.85427543038335,0 -54.97820131420253,-32.85492806577076,0 -54.97791769648156,-32.85557232644715,0 -54.97764025142761,-32.85623872433488,0 -54.97738906167665,-32.85684506914786,0 -54.97716621689914,-32.85737960701213,0 -54.97707330309097,-32.85759387346081,0 -54.97704038147082,-32.85800079118923,0 -54.97699593650147,-32.85854077663242,0 -54.97696559532538,-32.85896772413182,0 -54.97695209547576,-32.85900055109001,0 -54.97654113052206,-32.85908548037066,0 -54.97563051827675,-32.85925528143545,0 -54.97470837214383,-32.85943923962241,0 -54.97309042266025,-32.85976198458113,0 -54.97178010376416,-32.85999557478515,0 -54.969753580852,-32.86039409626423,0 -54.96680459318046,-32.86097611242501,0 -54.96555462092202,-32.86121953761034,0 -54.96542812584577,-32.860957367103,0 -54.96524530086504,-32.86051758796555,0 -54.965020182981,-32.86010493194184,0 -54.96377437397184,-32.85944417121339,0 -54.9625203133759,-32.85876363232748,0 -54.96230851386843,-32.85852358479951,0 -54.96273322802785,-32.85842125789969,0 
								</coordinates>
							</LinearRing>
						</outerBoundaryIs>
					</Polygon>
				</Placemark>
				<Placemark>
					<styleUrl>#falseColor75</styleUrl>
					<ExtendedData>
						<SchemaData schemaUrl="#S_POTREROS_SSSDDDDDDSI">
							<SimpleData name="PADRON">660</SimpleData>
							<SimpleData name="DEPTO">CERRO LARGO</SimpleData>
							<SimpleData name="SECCAT">9</SimpleData>
							<SimpleData name="LAMINA">F18B</SimpleData>
							<SimpleData name="CUADRICULA">A3</SimpleData>
							<SimpleData name="AREAHA">709</SimpleData>
							<SimpleData name="AREAMC">4780</SimpleData>
							<SimpleData name="VALORREAL">8.20724e+06</SimpleData>
							<SimpleData name="Shape_Leng">9394.05</SimpleData>
							<SimpleData name="Shape_Area">4.90154e+06</SimpleData>
							<SimpleData name="Area_HA">298.123</SimpleData>
							<SimpleData name="Potrero">Potrero 4</SimpleData>
							<SimpleData name="Num">4</SimpleData>
						</SchemaData>
					</ExtendedData>
					<Polygon>
						<outerBoundaryIs>
							<LinearRing>
								<coordinates>
									-55.0110361448105,-32.85025437876862,0 -55.01063548801217,-32.85052631666705,0 -55.01057579257279,-32.85056915291938,0 -55.01040785422529,-32.85066845467117,0 -55.0099712595576,-32.85094505218075,0 -55.00956626445685,-32.85119504300715,0 -55.00926512620703,-32.85140617932908,0 -55.00882615711549,-32.85167307571117,0 -55.0085347351959,-32.85187875632123,0 -55.00832547708978,-32.8520274014184,0 -55.00679019170625,-32.85299350648435,0 -55.00587474368634,-32.85353913371471,0 -55.00550961320209,-32.85377200472755,0 -55.00507679084944,-32.85376472147382,0 -55.00412443559789,-32.85375523858289,0 -55.00389943498961,-32.8537927625538,0 -55.00323923616434,-32.85386864138594,0 -55.00232232063606,-32.85398838373062,0 -55.00142451710732,-32.85412060675433,0 -55.0012595731797,-32.85414349518035,0 -55.00115814486436,-32.85415756975465,0 -55.00115659687162,-32.85416030554067,0 -55.00115350071727,-32.85415853251288,0 -55.00100726154722,-32.85422357748775,0 -55.00075218248722,-32.85441555578131,0 -55.00024153962772,-32.85476067260725,0 -54.99984084789832,-32.85462787651934,0 -54.9996171290256,-32.85456795660587,0 -54.99929565672232,-32.8546513493012,0 -54.99929373170286,-32.85465105101195,0 -54.99870478844588,-32.85476983069288,0 -54.99868768000507,-32.85477205034846,0 -54.99797329547308,-32.85490851853313,0 -54.99730366248582,-32.85504738751954,0 -54.99658621124864,-32.85517772044219,0 -54.99585440392138,-32.85532368980545,0 -54.99512196925397,-32.85546187828233,0 -54.99466261386816,-32.85555412776173,0 -54.99386577728341,-32.85570951054087,0 -54.99316020044473,-32.85584507909771,0 -54.9924224449887,-32.85598823126503,0 -54.99196789525843,-32.85607771448861,0 -54.99194855862351,-32.85582888499454,0 -54.99188258937968,-32.85507403781599,0 -54.99181887277453,-32.85429218187944,0 -54.99175038329953,-32.85343050161428,0 -54.99168033241431,-32.8526381419146,0 -54.99160110575681,-32.85177906285759,0 -54.99153148529196,-32.85093123325197,0 -54.9914655256648,-32.85006681933606,0 -54.99138388312134,-32.84913280769859,0 -54.99131921048757,-32.84835717681865,0 -54.99052003908823,-32.8474019319039,0 -54.98983983740593,-32.84659976777859,0 -54.98912115246873,-32.84575606751245,0 -54.98843152788669,-32.84493571473064,0 -54.98766216704411,-32.84404542338487,0 -54.98716159403279,-32.8434396095457,0 -54.98647590719236,-32.84262832482298,0 -54.98633432019738,-32.84245832077852,0 -54.98781159578628,-32.83960401287276,0 -54.99073628351028,-32.83731583739765,0 -54.99555291686394,-32.8353783555204,0 -54.99586294185011,-32.83593102658315,0 -54.99642025421463,-32.83692816267401,0 -54.99702320128056,-32.83794479900447,0 -54.99717548720295,-32.83809473101547,0 -54.99728223309146,-32.83829220461748,0 -54.99757375199751,-32.83853688390132,0 -54.99908799286581,-32.83984622252486,0 -54.99909172009701,-32.83984526356686,0 -54.99909263219064,-32.83984858869756,0 -54.99942804014852,-32.840123828906,0 -55.00022305794813,-32.84079934726397,0 -55.00097038390624,-32.84142603854812,0 -55.00164919996553,-32.84201149303383,0 -55.00204024617173,-32.84234518182453,0 -55.00290455582606,-32.84216357323373,0 -55.00411827725514,-32.84191201052778,0 -55.00516994159791,-32.84168901175787,0 -55.00530128055804,-32.84166612550609,0 -55.0082671024261,-32.84576457618059,0 -55.010930395484,-32.84951358819534,0 -55.01103542771332,-32.8496614305586,0 -55.01116802022112,-32.84984237172085,0 -55.01126917043154,-32.84998086487741,0 -55.01132455739054,-32.8500617915012,0 -55.0110361448105,-32.85025437876862,0 
								</coordinates>
							</LinearRing>
						</outerBoundaryIs>
					</Polygon>
				</Placemark>
				<Placemark>
					<styleUrl>#falseColor75</styleUrl>
					<ExtendedData>
						<SchemaData schemaUrl="#S_POTREROS_SSSDDDDDDSI">
							<SimpleData name="PADRON">660</SimpleData>
							<SimpleData name="DEPTO">CERRO LARGO</SimpleData>
							<SimpleData name="SECCAT">9</SimpleData>
							<SimpleData name="LAMINA">F18B</SimpleData>
							<SimpleData name="CUADRICULA">A3</SimpleData>
							<SimpleData name="AREAHA">709</SimpleData>
							<SimpleData name="AREAMC">4780</SimpleData>
							<SimpleData name="VALORREAL">8.20724e+06</SimpleData>
							<SimpleData name="Shape_Leng">9394.05</SimpleData>
							<SimpleData name="Shape_Area">4.90154e+06</SimpleData>
							<SimpleData name="Area_HA">23.3271</SimpleData>
							<SimpleData name="Potrero">Potrero 2</SimpleData>
							<SimpleData name="Num">2</SimpleData>
						</SchemaData>
					</ExtendedData>
					<Polygon>
						<outerBoundaryIs>
							<LinearRing>
								<coordinates>
									-54.99586719493217,-32.83534336035824,0 -54.99628403877262,-32.83515719045703,0 -54.99641099091298,-32.83509755981972,0 -54.996477249649,-32.83531660416413,0 -54.99708148527909,-32.83530035641974,0 -54.99813965445839,-32.83524855854477,0 -54.9990901639511,-32.83520524178507,0 -54.99913115129181,-32.83520314793943,0 -54.9992088262413,-32.83510030794781,0 -54.99932160460373,-32.83494657729318,0 -54.99953069278758,-32.83491692852838,0 -54.99975996861743,-32.83481690481591,0 -55.00018755960941,-32.83463083311958,0 -55.00165218417366,-32.83662287117488,0 -55.00321590106565,-32.83878409478632,0 -54.99908799286581,-32.83984622252486,0 -54.99757375199751,-32.83853688390132,0 -54.99728223309146,-32.83829220461748,0 -54.99717548720295,-32.83809473101547,0 -54.99702320128056,-32.83794479900447,0 -54.99642025421463,-32.83692816267401,0 -54.99586294185011,-32.83593102658315,0 -54.99559991428237,-32.83546213669657,0 -54.99586719493217,-32.83534336035824,0 
								</coordinates>
							</LinearRing>
						</outerBoundaryIs>
					</Polygon>
				</Placemark>
				<Placemark>
					<styleUrl>#falseColor75</styleUrl>
					<ExtendedData>
						<SchemaData schemaUrl="#S_POTREROS_SSSDDDDDDSI">
							<SimpleData name="PADRON">660</SimpleData>
							<SimpleData name="DEPTO">CERRO LARGO</SimpleData>
							<SimpleData name="SECCAT">9</SimpleData>
							<SimpleData name="LAMINA">F18B</SimpleData>
							<SimpleData name="CUADRICULA">A3</SimpleData>
							<SimpleData name="AREAHA">709</SimpleData>
							<SimpleData name="AREAMC">4780</SimpleData>
							<SimpleData name="VALORREAL">8.20724e+06</SimpleData>
							<SimpleData name="Shape_Leng">9394.05</SimpleData>
							<SimpleData name="Shape_Area">4.90154e+06</SimpleData>
							<SimpleData name="Area_HA">12.5689</SimpleData>
							<SimpleData name="Potrero">Potrero 3</SimpleData>
							<SimpleData name="Num">3</SimpleData>
						</SchemaData>
					</ExtendedData>
					<Polygon>
						<outerBoundaryIs>
							<LinearRing>
								<coordinates>
									-55.00321590106565,-32.83878409478632,0 -55.00530128055804,-32.84166612550609,0 -55.00516994159791,-32.84168901175787,0 -55.00411827725514,-32.84191201052778,0 -55.00290455582606,-32.84216357323373,0 -55.00204024617173,-32.84234518182453,0 -55.00164919996553,-32.84201149303383,0 -55.00097038390624,-32.84142603854812,0 -55.00022305794813,-32.84079934726397,0 -54.99942804014852,-32.840123828906,0 -54.99909263219064,-32.83984858869756,0 -54.99909172009701,-32.83984526356686,0 -55.00321590106565,-32.83878409478632,0 
								</coordinates>
							</LinearRing>
						</outerBoundaryIs>
					</Polygon>
				</Placemark>
				<Placemark>
					<styleUrl>#falseColor75</styleUrl>
					<ExtendedData>
						<SchemaData schemaUrl="#S_POTREROS_SSSDDDDDDSI">
							<SimpleData name="PADRON">660</SimpleData>
							<SimpleData name="DEPTO">CERRO LARGO</SimpleData>
							<SimpleData name="SECCAT">9</SimpleData>
							<SimpleData name="LAMINA">F18B</SimpleData>
							<SimpleData name="CUADRICULA">A3</SimpleData>
							<SimpleData name="AREAHA">709</SimpleData>
							<SimpleData name="AREAMC">4780</SimpleData>
							<SimpleData name="VALORREAL">8.20724e+06</SimpleData>
							<SimpleData name="Shape_Leng">8807.87</SimpleData>
							<SimpleData name="Shape_Area">2.41499e+06</SimpleData>
							<SimpleData name="Area_HA">23.7689</SimpleData>
							<SimpleData name="Potrero">Potrero 7</SimpleData>
							<SimpleData name="Num">7</SimpleData>
						</SchemaData>
					</ExtendedData>
					<Polygon>
						<outerBoundaryIs>
							<LinearRing>
								<coordinates>
									-54.96454298077537,-32.86141653869905,0 -54.96302756795756,-32.86171541664985,0 -54.96283266929545,-32.86174166843124,0 -54.95955735004713,-32.86238760751248,0 -54.95492927480732,-32.86331801909262,0 -54.9546940589014,-32.86256854235711,0 -54.95543337776058,-32.86182316609298,0 -54.95609860919216,-32.86155590811345,0 -54.95700928842945,-32.86128673868163,0 -54.958099933507,-32.8608133812784,0 -54.95812621854648,-32.86080836038276,0 -54.95861060884297,-32.86033669645826,0 -54.95939235436969,-32.85978743328624,0 -54.95973239550657,-32.85970856888451,0 -54.96033405326475,-32.85930013195639,0 -54.96053977417476,-32.85929091800912,0 -54.96109753789117,-32.85912248106275,0 -54.96177055424392,-32.85881981255887,0 -54.96229611005151,-32.85852657324068,0 -54.96230851386843,-32.85852358479951,0 -54.9625203133759,-32.85876363232748,0 -54.96377437397184,-32.85944417121339,0 -54.965020182981,-32.86010493194184,0 -54.96524530086504,-32.86051758796555,0 -54.96542812584577,-32.860957367103,0 -54.96555462092202,-32.86121953761034,0 -54.96454298077537,-32.86141653869905,0 
								</coordinates>
							</LinearRing>
						</outerBoundaryIs>
					</Polygon>
				</Placemark>
				<Placemark>
					<styleUrl>#falseColor75</styleUrl>
					<ExtendedData>
						<SchemaData schemaUrl="#S_POTREROS_SSSDDDDDDSI">
							<SimpleData name="PADRON">660</SimpleData>
							<SimpleData name="DEPTO">CERRO LARGO</SimpleData>
							<SimpleData name="SECCAT">9</SimpleData>
							<SimpleData name="LAMINA">F18B</SimpleData>
							<SimpleData name="CUADRICULA">A3</SimpleData>
							<SimpleData name="AREAHA">709</SimpleData>
							<SimpleData name="AREAMC">4780</SimpleData>
							<SimpleData name="VALORREAL">8.20724e+06</SimpleData>
							<SimpleData name="Shape_Leng">9394.05</SimpleData>
							<SimpleData name="Shape_Area">4.90154e+06</SimpleData>
							<SimpleData name="Area_HA">138.532</SimpleData>
							<SimpleData name="Potrero">Potrero 5</SimpleData>
							<SimpleData name="Num">5</SimpleData>
						</SchemaData>
					</ExtendedData>
					<Polygon>
						<outerBoundaryIs>
							<LinearRing>
								<coordinates>
									-54.98633432019738,-32.84245832077852,0 -54.98647590719236,-32.84262832482298,0 -54.98716159403279,-32.8434396095457,0 -54.98766216704411,-32.84404542338487,0 -54.98843152788669,-32.84493571473064,0 -54.98912115246873,-32.84575606751245,0 -54.98983983740593,-32.84659976777859,0 -54.99052003908823,-32.8474019319039,0 -54.99131921048757,-32.84835717681865,0 -54.99138388312134,-32.84913280769859,0 -54.9914655256648,-32.85006681933606,0 -54.99153148529196,-32.85093123325197,0 -54.99160110575681,-32.85177906285759,0 -54.99168033241431,-32.8526381419146,0 -54.99175038329953,-32.85343050161428,0 -54.99181887277453,-32.85429218187944,0 -54.99188258937968,-32.85507403781599,0 -54.99194855862351,-32.85582888499454,0 -54.9919679063081,-32.856077856679,0 -54.9918301229383,-32.85610433664942,0 -54.99102209466324,-32.85625884601092,0 -54.99019221646639,-32.85642414217097,0 -54.98941306164654,-32.85657539056029,0 -54.98858737548224,-32.8567319638159,0 -54.98773774016006,-32.85690367916651,0 -54.98690788148476,-32.85706760284035,0 -54.98600256599075,-32.85724212440231,0 -54.98520734755703,-32.85739545124783,0 -54.98433612715605,-32.85756578240967,0 -54.98362558717705,-32.85770729452122,0 -54.98275606035471,-32.85787325208303,0 -54.98188007050101,-32.85804180060163,0 -54.9811174174044,-32.85818752241862,0 -54.98022084928955,-32.85836349342127,0 -54.97937536828302,-32.85852711409678,0 -54.97847351053858,-32.8587067013194,0 -54.97761756403576,-32.85887284215243,0 -54.97714820481539,-32.85896574046421,0 -54.97714698614265,-32.85896396756301,0 -54.97716904008035,-32.85861340471905,0 -54.97719257048437,-32.8582546901281,0 -54.97722393064943,-32.85791067796478,0 -54.9772454463281,-32.85758649237305,0 -54.97757864216148,-32.85681688036713,0 -54.9780159656521,-32.85578150708741,0 -54.97827418392657,-32.85517441271492,0 -54.97849910896858,-32.8546614433025,0 -54.97874297650418,-32.85407393852301,0 -54.97896336145557,-32.85354956741639,0 -54.97920359587397,-32.85299517557232,0 -54.97940105820785,-32.85253030595812,0 -54.97953010761389,-32.85239808135683,0 -54.9799417838572,-32.85195528001864,0 -54.98047824552215,-32.85137775541106,0 -54.9808508696049,-32.85096587487912,0 -54.98127378076048,-32.85051313646412,0 -54.98167796623635,-32.85006171252371,0 -54.98209566287465,-32.84960605511055,0 -54.98258041989589,-32.84906250786887,0 -54.98304308482974,-32.84857234636699,0 -54.98313758170272,-32.84846686020176,0 -54.98339489093517,-32.84817962609842,0 -54.983412828817,-32.84815960196178,0 -54.98343952290136,-32.84812362310482,0 -54.98366183950709,-32.84768139643745,0 -54.98392692805476,-32.84717027661674,0 -54.98419992560735,-32.84664836081507,0 -54.98449763253428,-32.84609326503902,0 -54.98477369509958,-32.84554146066199,0 -54.9850327710048,-32.84502012751392,0 -54.98529514236262,-32.84450127407911,0 -54.98554326127825,-32.84399796781316,0 -54.98577091728497,-32.843551777176,0 -54.98577472981906,-32.8435360454741,0 -54.98588081949183,-32.84333450633441,0 -54.98633432019738,-32.84245832077852,0 
								</coordinates>
							</LinearRing>
						</outerBoundaryIs>
					</Polygon>
				</Placemark>
				<Placemark>
					<styleUrl>#falseColor75</styleUrl>
					<ExtendedData>
						<SchemaData schemaUrl="#S_POTREROS_SSSDDDDDDSI">
							<SimpleData name="PADRON">660</SimpleData>
							<SimpleData name="DEPTO">CERRO LARGO</SimpleData>
							<SimpleData name="SECCAT">9</SimpleData>
							<SimpleData name="LAMINA">F18B</SimpleData>
							<SimpleData name="CUADRICULA">A3</SimpleData>
							<SimpleData name="AREAHA">709</SimpleData>
							<SimpleData name="AREAMC">4780</SimpleData>
							<SimpleData name="VALORREAL">8.20724e+06</SimpleData>
							<SimpleData name="Shape_Leng">9394.05</SimpleData>
							<SimpleData name="Shape_Area">4.90154e+06</SimpleData>
							<SimpleData name="Area_HA">3.53631</SimpleData>
							<SimpleData name="Potrero">Potrero 1</SimpleData>
							<SimpleData name="Num">1</SimpleData>
						</SchemaData>
					</ExtendedData>
					<Polygon>
						<outerBoundaryIs>
							<LinearRing>
								<coordinates>
									-55.00018755960941,-32.83463083311958,0 -54.99975996861743,-32.83481690481591,0 -54.99953069278758,-32.83491692852838,0 -54.99932160460373,-32.83494657729318,0 -54.9992088262413,-32.83510030794781,0 -54.99913115129181,-32.83520314793943,0 -54.9990901639511,-32.83520524178507,0 -54.99813965445839,-32.83524855854477,0 -54.99708148527909,-32.83530035641974,0 -54.996477249649,-32.83531660416413,0 -54.99641099091298,-32.83509755981972,0 -54.99628403877262,-32.83515719045703,0 -54.99586719493217,-32.83534336035824,0 -54.99559991428237,-32.83546213669657,0 -54.99555291686394,-32.8353783555204,0 -54.99555403627895,-32.83537790520577,0 -54.99555213392028,-32.83537596442735,0 -54.99586162566786,-32.83524749154848,0 -54.99664991461007,-32.83489411870725,0 -54.99755139098438,-32.83448999665696,0 -54.99876598537468,-32.83392817492882,0 -54.99944549264038,-32.8336129753568,0 -54.99946651578356,-32.83360322336193,0 -54.999819241053,-32.83408703841935,0 -55.00004988973249,-32.83444329579161,0 -55.00007093262264,-32.83447220418509,0 -55.00018755960941,-32.83463083311958,0 
								</coordinates>
							</LinearRing>
						</outerBoundaryIs>
					</Polygon>
				</Placemark>
			</Folder>
		</Document>
	</Folder>
</Document>
</kml>
