<?xml version="1.0" encoding="utf-8" ?>
<kml xmlns="http://www.opengis.net/kml/2.2">
<Document id="root_doc">
<Schema name="leakage_management_area_rio_preto" id="leakage_management_area_rio_preto">
	<SimpleField name="fid" type="float"></SimpleField>
	<SimpleField name="Id" type="float"></SimpleField>
	<SimpleField name="area_plan" type="float"></SimpleField>
</Schema>
<Folder><name>leakage_management_area_rio_preto</name>
  <Placemark>
	<Style><LineStyle><color>ff0000ff</color></LineStyle><PolyStyle><fill>0</fill></PolyStyle></Style>
	<ExtendedData><SchemaData schemaUrl="#leakage_management_area_rio_preto">
		<SimpleData name="fid">1</SimpleData>
		<SimpleData name="Id">0</SimpleData>
		<SimpleData name="area_plan">78</SimpleData>
	</SchemaData></ExtendedData>
      <MultiGeometry><Polygon><outerBoundaryIs><LinearRing><coordinates>-57.1567175527529,-14.459544762639 -57.1567175011875,-14.45947119148 -57.1567173110742,-14.4591999427839 -57.1569956731439,-14.4591997573666 -57.1569954826971,-14.45892850888 -57.1575522061493,-14.4589281370655 -57.157552564013,-14.459436027446 -57.157627341929,-14.4594197784364 -57.15780566274,-14.4593737076832 -57.1579819623495,-14.459320764712 -57.1581559624401,-14.4592610338015 -57.1583273884134,-14.45919460827 -57.1584959684652,-14.4591215949973 -57.1586614363648,-14.4590421080932 -57.1588235296027,-14.45895627342 -57.1589439856399,-14.4588863049479 -57.1589438219036,-14.4586559533037 -57.1592955183605,-14.4586557156663 -57.1594331278029,-14.4585523213431 -57.1595746275034,-14.4584369773993 -57.1597113094172,-14.4583162433117 -57.1598429574844,-14.4581903091095 -57.1599693640051,-14.4580593747617 -57.1600903277803,-14.4579236465622 -57.1602056578258,-14.4577833398399 -57.1603151724416,-14.4576386753419 -57.1604186982863,-14.4574898828515 -57.1605160722303,-14.4573371966654 -57.1606071385744,-14.4571808601169 -57.1606917555405,-14.4570211183377 -57.1607697869247,-14.4568582245928 -57.1608411113735,-14.4566924366577 -57.1609056158879,-14.4565240159182 -57.1609631976813,-14.4563532300819 -57.1610137651036,-14.4561803486566 -57.161057240426,-14.4560056447567 -57.1610935533462,-14.4558293951077 -57.1611226465532,-14.4556518773296 -57.1611444738734,-14.4554733726507 -57.1611590011971,-14.4552941640992 -57.1611662064766,-14.4551145337898 -57.1611660769448,-14.4549347665428 -57.1611586128237,-14.4547551462648 -57.1611438273263,-14.454575957757 -57.1611217429417,-14.4543974831012 -57.1610923942221,-14.4542200061784 -57.1610558277775,-14.4540438054359 -57.1610121013528,-14.4538691611211 -57.1609612856788,-14.4536963489512 -57.1609034589065,-14.453525641925 -57.1608387131008,-14.453357309415 -57.1607671514588,-14.4531916189769 -57.1606888873787,-14.4530288327344 -57.1606040426037,-14.4528692064756 -57.1605127537191,-14.4527129932661 -57.1604151628715,-14.4525604398377 -57.1603114261206,-14.4524117883921 -57.1602017069413,-14.4522672729881 -57.1600861790101,-14.4521271231569 -57.159965024346,-14.4519915593819 -57.1598384342412,-14.4518607967155 -57.1597066101856,-14.4517350411616 -57.1595697601583,-14.4516144923906 -57.1594281004807,-14.4514993410258 -57.1592818539603,-14.4513897677407 -57.1591312536055,-14.451285947777 -57.1589765370532,-14.4511880437154 -57.1588179484295,-14.4510962118038 -57.1586557392725,-14.4510105956269 -57.158490164825,-14.4509313315343 -57.1583214877438,-14.4508585450213 -57.158149974388,-14.4507923507314 -57.1579758966749,-14.4507328524549 -57.157799529299,-14.4506801467478 -57.157621150654,-14.4506343138894 -57.1574410437678,-14.4505954287319 -57.1572594925856,-14.4505635516607 -57.1570767847565,-14.4505387340184 -57.1568932088477,-14.450521013585 -57.1567090552754,-14.4505104190989 -57.1565246144472,-14.4505069675449 -57.1563401795459,-14.4505106641531 -57.1561560400352,-14.4505215033068 -57.1559724890825,-14.4505394676336 -57.1557898161356,-14.4505645280105 -57.1556083097086,-14.4505966462743 -57.1554282573789,-14.4506357707007 -57.155249943007,-14.4506818405272 -57.1550736495162,-14.4507347805261 -57.1548996551875,-14.4507945100486 -57.1547282345807,-14.4508609321741 -57.1545596603957,-14.4509339427504 -57.1543941969756,-14.451013426782 -57.1542321068016,-14.4510992584248 -57.1540736467818,-14.4511913009891 -57.1539190673256,-14.4512894105569 -57.1537686123406,-14.4513934305561 -57.1536225201644,-14.4515031980901 -57.1534810217046,-14.4516185376087 -57.1533443395163,-14.4517392681426 -57.1532126915101,-14.4518651987803 -57.1530862853858,-14.4519961295748 -57.1529653204898,-14.452131854256 -57.1528499878136,-14.4522721575174 -57.1527404709237,-14.4524168186323 -57.1526369422477,-14.4525656078397 -57.1525395658614,-14.4527182908629 -57.152448494702,-14.4528746252945 -57.1523638742825,-14.4530343642114 -57.1522858371231,-14.4531972543689 -57.1522145073927,-14.453363039815 -57.152149998123,-14.4535314582756 -57.152092410281,-14.4537022420585 -57.152041835555,-14.453875121669 -57.1519983544975,-14.4540498240024 -57.1519620346702,-14.4542260732491 -57.1519329343537,-14.4544035890843 -57.1519110988405,-14.454582092999 -57.1518965641413,-14.4547613010649 -57.1518893523505,-14.4549409311702 -57.1518894744266,-14.4551206984971 -57.1518969301945,-14.4553003191385 -57.151911708344,-14.4554795082897 -57.1519337864325,-14.4556579838648 -57.1519631280984,-14.4558354628824 -57.1519996877021,-14.4560116641745 -57.1520434066162,-14.4561863101978 -57.1520942169342,-14.4563591243181 -57.1521520377616,-14.4565298335261 -57.1522167770707,-14.4566981684357 -57.1522883335556,-14.4568638614746 -57.1523665938512,-14.457026651407 -57.1524514334594,-14.4571862806205 -57.152542719533,-14.4573424960286 -57.1526403062388,-14.4574950526905 -57.1527440403206,-14.4576437074781 -57.1528537573923,-14.4577882263119 -57.1529692847188,-14.4579283796388 -57.1530904384347,-14.4580639469542 -57.1532170272543,-14.4581947131834 -57.1533488515452,-14.4583204722988 -57.1534857033271,-14.4584410246075 -57.1536273644183,-14.458556180369 -57.1537736120003,-14.4586657561757 -57.1539242149098,-14.458769579475 -57.1540789345652,-14.4588674867618 -57.154237526821,-14.4589593217678 -57.1543997410438,-14.4590449408881 -57.1545653201089,-14.4591242077557 -57.1547340013305,-14.4591969968578 -57.1549055201736,-14.4592631944374 -57.1550796037566,-14.4593226939773 -57.1552559773502,-14.4593754025245 -57.1554343625192,-14.4594212361706 -57.155614476196,-14.4594601227655 -57.1557960343921,-14.4594920010102 -57.155978749414,-14.4595168195551 -57.1561623326488,-14.459534540614 -57.1563464945621,-14.4595451354444 -57.1565309419158,-14.4595485870608 -57.1567153851915,-14.4595448902305 -57.1567175527529,-14.459544762639</coordinates></LinearRing></outerBoundaryIs></Polygon></MultiGeometry>
  </Placemark>
</Folder>
</Document></kml>
