<?xml version="1.0" encoding="UTF-8"?>
<kml xmlns="http://www.opengis.net/kml/2.2" xmlns:gx="http://www.google.com/kml/ext/2.2" xmlns:kml="http://www.opengis.net/kml/2.2" xmlns:atom="http://www.w3.org/2005/Atom">
<Document>
	<name>PAI Fazenda Boqueirão</name>
	<visibility>0</visibility>
	<open>1</open>
	<LookAt>
		<longitude>-43.4683351470493</longitude>
		<latitude>-7.539524444016081</latitude>
		<altitude>0</altitude>
		<heading>0</heading>
		<tilt>45</tilt>
		<range>28087.64921941413</range>
		<gx:altitudeMode>relativeToSeaFloor</gx:altitudeMode>
	</LookAt>
	<StyleMap id="PolyStyle00">
		<Pair>
			<key>normal</key>
			<styleUrl>#PolyStyle000</styleUrl>
		</Pair>
		<Pair>
			<key>highlight</key>
			<styleUrl>#PolyStyle001</styleUrl>
		</Pair>
	</StyleMap>
	<Style id="PolyStyle001">
		<LabelStyle>
			<color>00000000</color>
			<scale>0</scale>
		</LabelStyle>
		<LineStyle>
			<width>1.5</width>
		</LineStyle>
		<PolyStyle>
			<color>80ffffff</color>
			<outline>0</outline>
		</PolyStyle>
	</Style>
	<Style id="PolyStyle000">
		<LabelStyle>
			<color>00000000</color>
			<scale>0</scale>
		</LabelStyle>
		<LineStyle>
			<width>1.5</width>
		</LineStyle>
		<PolyStyle>
			<color>80ffffff</color>
			<outline>0</outline>
		</PolyStyle>
	</Style>
	<Placemark id="ID_00000">
		<name>Fazenda Boqueirão Limits</name>
		<visibility>0</visibility>
		<snippet></snippet>
		<description><![CDATA[<html xmlns:fo="http://www.w3.org/1999/XSL/Format" xmlns:msxsl="urn:schemas-microsoft-com:xslt">

<head>

<META http-equiv="Content-Type" content="text/html">

<meta http-equiv="content-type" content="text/html; charset=UTF-8">

</head>

<body style="margin:0px 0px 0px 0px;overflow:auto;background:#FFFFFF;">

<table style="font-family:Arial,Verdana,Times;font-size:12px;text-align:left;width:100%;border-collapse:collapse;padding:3px 3px 3px 3px">

<tr style="text-align:center;font-weight:bold;background:#9CBCE2">

<td>76275,0323241434</td>

</tr>

<tr>

<td>

<table style="font-family:Arial,Verdana,Times;font-size:12px;text-align:left;width:100%;border-spacing:0px; padding:3px 3px 3px 3px">

<tr>

<td>SHAPE</td>

<td>Polygon</td>

</tr>

<tr bgcolor="#D4E4F3">

<td>area_ha</td>

<td>27389,987808</td>

</tr>

</table>

</td>

</tr>

</table>

</body><script type="text/javascript">

				function changeImage(attElement, nameElement) {

				document.getElementById('imageAttachment').src = attElement;

				document.getElementById('imageName').innerHTML = nameElement;}

			</script></html>]]></description>
		<Camera>
			<longitude>-43.66389137355583</longitude>
			<latitude>-7.654820187414735</latitude>
			<altitude>139192.5856784085</altitude>
			<heading>-0.4121282680152624</heading>
			<tilt>11.18546669588484</tilt>
			<roll>-0.6093791595993399</roll>
			<gx:altitudeMode>relativeToSeaFloor</gx:altitudeMode>
		</Camera>
		<styleUrl>#PolyStyle00</styleUrl>
		<MultiGeometry>
			<Polygon>
				<outerBoundaryIs>
					<LinearRing>
						<coordinates>
							-43.56765947958955,-7.45029540772362,0 -43.58435502005965,-7.575883520872817,0 -43.58263237251564,-7.583815080553491,0 -43.57952462789695,-7.589757392492189,0 -43.57608769607676,-7.599465360406423,0 -43.55137461957533,-7.628753480308544,0 -43.48902429717597,-7.61553985438497,0 -43.43475284176619,-7.615462937648826,0 -43.41472002631345,-7.609711255949414,0 -43.41043916392349,-7.612045872010476,0 -43.35231527403896,-7.512860413175025,0 -43.47434373837389,-7.516268704682243,0 -43.50181718662363,-7.506611568393646,0 -43.50313561379351,-7.508271833418292,0 -43.53963834208632,-7.486923578093432,0 -43.56765947958955,-7.45029540772362,0 
						</coordinates>
					</LinearRing>
				</outerBoundaryIs>
			</Polygon>
		</MultiGeometry>
	</Placemark>
</Document>
</kml>
