<?xml version="1.0" encoding="UTF-8"?>
<kml xmlns="http://www.opengis.net/kml/2.2" xmlns:gx="http://www.google.com/kml/ext/2.2" xmlns:kml="http://www.opengis.net/kml/2.2" xmlns:atom="http://www.w3.org/2005/Atom">
<Document>
	<name>3211-TR Closed 09-08-2025.kml</name>
	<Style id="PolyStyle00">
		<LabelStyle>
			<color>00000000</color>
			<scale>0</scale>
		</LabelStyle>
		<LineStyle>
			<color>ff0000e6</color>
		</LineStyle>
		<PolyStyle>
			<color>00ffffff</color>
		</PolyStyle>
	</Style>
	<Folder id="FeatureLayer0">
		<name>Placemark_Polygon</name>
		<open>1</open>
		<Snippet maxLines="0"></Snippet>
		<Placemark id="ID_00000">
			<name>Placemark</name>
			<Snippet maxLines="0"></Snippet>
			<description><![CDATA[<html xmlns:fo="http://www.w3.org/1999/XSL/Format" xmlns:msxsl="urn:schemas-microsoft-com:xslt">

<head>

<META http-equiv="Content-Type" content="text/html">

<meta http-equiv="content-type" content="text/html; charset=UTF-8">

</head>

<body style="margin:0px 0px 0px 0px;overflow:auto;background:#FFFFFF;">

<table style="font-family:Arial,Verdana,Times;font-size:12px;text-align:left;width:100%;border-collapse:collapse;padding:3px 3px 3px 3px">

<tr style="text-align:center;font-weight:bold;background:#9CBCE2">

<td>Placemark</td>

</tr>

<tr>

<td>

<table style="font-family:Arial,Verdana,Times;font-size:12px;text-align:left;width:100%;border-spacing:0px; padding:3px 3px 3px 3px">

<tr>

<td>FID</td>

<td>0</td>

</tr>

<tr bgcolor="#D4E4F3">

<td>OID_</td>

<td>0</td>

</tr>

<tr>

<td>Name</td>

<td>Placemark</td>

</tr>

<tr bgcolor="#D4E4F3">

<td>FolderPath</td>

<td>Document/Placemark_Polygon</td>

</tr>

<tr>

<td>SymbolID</td>

<td>0</td>

</tr>

<tr bgcolor="#D4E4F3">

<td>AltMode</td>

<td>0</td>

</tr>

<tr>

<td>Base</td>

<td>0</td>

</tr>

<tr bgcolor="#D4E4F3">

<td>Clamped</td>

<td>-1</td>

</tr>

<tr>

<td>Extruded</td>

<td>0</td>

</tr>

<tr bgcolor="#D4E4F3">

<td>Snippet</td>

<td></td>

</tr>

<tr>

<td>PopupInfo</td>

<td></td>

</tr>

<tr bgcolor="#D4E4F3">

<td>Shape_Leng</td>

<td>0.005048</td>

</tr>

</table>

</td>

</tr>

</table>

</body>

</html>]]></description>
			<styleUrl>#PolyStyle00</styleUrl>
			<MultiGeometry>
				<Polygon>
					<outerBoundaryIs>
						<LinearRing>
							<coordinates>
								16.90335408400006,39.00328025100004,32.08950000000186 16.90391826200005,39.00304246400003,30.58400000000256 16.90543686200005,39.00419191600003,27.59010000000126 16.90518015400005,39.00432518200006,27.04279999999562 16.90472522800008,39.00441275300005,28.24629999999888 16.90335408400006,39.00328025100004,32.08950000000186 
							</coordinates>
						</LinearRing>
					</outerBoundaryIs>
				</Polygon>
			</MultiGeometry>
		</Placemark>
		<Placemark id="ID_00001">
			<name>Placemark</name>
			<Snippet maxLines="0"></Snippet>
			<description><![CDATA[<html xmlns:fo="http://www.w3.org/1999/XSL/Format" xmlns:msxsl="urn:schemas-microsoft-com:xslt">

<head>

<META http-equiv="Content-Type" content="text/html">

<meta http-equiv="content-type" content="text/html; charset=UTF-8">

</head>

<body style="margin:0px 0px 0px 0px;overflow:auto;background:#FFFFFF;">

<table style="font-family:Arial,Verdana,Times;font-size:12px;text-align:left;width:100%;border-collapse:collapse;padding:3px 3px 3px 3px">

<tr style="text-align:center;font-weight:bold;background:#9CBCE2">

<td>Placemark</td>

</tr>

<tr>

<td>

<table style="font-family:Arial,Verdana,Times;font-size:12px;text-align:left;width:100%;border-spacing:0px; padding:3px 3px 3px 3px">

<tr>

<td>FID</td>

<td>1</td>

</tr>

<tr bgcolor="#D4E4F3">

<td>OID_</td>

<td>0</td>

</tr>

<tr>

<td>Name</td>

<td>Placemark</td>

</tr>

<tr bgcolor="#D4E4F3">

<td>FolderPath</td>

<td>Document/Placemark_Polygon</td>

</tr>

<tr>

<td>SymbolID</td>

<td>0</td>

</tr>

<tr bgcolor="#D4E4F3">

<td>AltMode</td>

<td>0</td>

</tr>

<tr>

<td>Base</td>

<td>0</td>

</tr>

<tr bgcolor="#D4E4F3">

<td>Clamped</td>

<td>-1</td>

</tr>

<tr>

<td>Extruded</td>

<td>0</td>

</tr>

<tr bgcolor="#D4E4F3">

<td>Snippet</td>

<td></td>

</tr>

<tr>

<td>PopupInfo</td>

<td></td>

</tr>

<tr bgcolor="#D4E4F3">

<td>Shape_Leng</td>

<td>0.018532</td>

</tr>

</table>

</td>

</tr>

</table>

</body>

</html>]]></description>
			<styleUrl>#PolyStyle00</styleUrl>
			<MultiGeometry>
				<Polygon>
					<outerBoundaryIs>
						<LinearRing>
							<coordinates>
								16.23972629700009,39.53312145600008,0 16.23888677189541,39.53337879018599,76.60640000000421 16.23877198893159,39.53393149738076,75.78130000000237 16.23894779500007,39.53405210300013,75.05199999999604 16.23867509300004,39.53567893700006,75.97329999999783 16.23858522300003,39.53590837500008,75.68439999999828 16.23841318700006,39.53599490600008,75.25629999999364 16.23836209500009,39.53637825800013,75.58440000000701 16.23804597300006,39.53652403600006,74.29249999999593 16.23790452600002,39.53613975300007,74.2502999999997 16.23800156100004,39.53578969600005,74.34729999999399 16.23775926300005,39.53501983800007,77.35009999999602 16.23774809400004,39.53457361200006,74.16379999999481 16.23809301500006,39.53359349100003,75.01549999999406 16.23824652100007,39.53351795900007,74.1536000000051 16.23811920748213,39.53329924104472,73.5969000000041 16.23817141747906,39.53323700088438,73.49400000000605 16.23824788079864,39.53314493070077,74.01240000000689 16.23834928874157,39.53299734186392,74.70549999999639 16.2384010497663,39.53288460048294,75.40110000000277 16.23843027300007,39.53280439300004,76.00909999999567 16.23884551300007,39.53228275600007,75.78119999999763 16.23894947700007,39.53235149000005,75.78109999999288 16.23925248900002,39.53210842800009,76.06510000000708 16.23982017500003,39.53225701200006,75.17549999999756 16.23987505700007,39.53236438000007,74.90679999999702 16.24011292000007,39.53241190800003,73.82889999999315 16.23993025394778,39.53311676782256,0 16.23972629700009,39.53312145600008,0 
							</coordinates>
						</LinearRing>
					</outerBoundaryIs>
				</Polygon>
			</MultiGeometry>
		</Placemark>
		<Placemark id="ID_00002">
			<name>Placemark</name>
			<Snippet maxLines="0"></Snippet>
			<description><![CDATA[<html xmlns:fo="http://www.w3.org/1999/XSL/Format" xmlns:msxsl="urn:schemas-microsoft-com:xslt">

<head>

<META http-equiv="Content-Type" content="text/html">

<meta http-equiv="content-type" content="text/html; charset=UTF-8">

</head>

<body style="margin:0px 0px 0px 0px;overflow:auto;background:#FFFFFF;">

<table style="font-family:Arial,Verdana,Times;font-size:12px;text-align:left;width:100%;border-collapse:collapse;padding:3px 3px 3px 3px">

<tr style="text-align:center;font-weight:bold;background:#9CBCE2">

<td>Placemark</td>

</tr>

<tr>

<td>

<table style="font-family:Arial,Verdana,Times;font-size:12px;text-align:left;width:100%;border-spacing:0px; padding:3px 3px 3px 3px">

<tr>

<td>FID</td>

<td>2</td>

</tr>

<tr bgcolor="#D4E4F3">

<td>OID_</td>

<td>0</td>

</tr>

<tr>

<td>Name</td>

<td>Placemark</td>

</tr>

<tr bgcolor="#D4E4F3">

<td>FolderPath</td>

<td>Document/Placemark_Polygon</td>

</tr>

<tr>

<td>SymbolID</td>

<td>0</td>

</tr>

<tr bgcolor="#D4E4F3">

<td>AltMode</td>

<td>0</td>

</tr>

<tr>

<td>Base</td>

<td>0</td>

</tr>

<tr bgcolor="#D4E4F3">

<td>Clamped</td>

<td>-1</td>

</tr>

<tr>

<td>Extruded</td>

<td>0</td>

</tr>

<tr bgcolor="#D4E4F3">

<td>Snippet</td>

<td></td>

</tr>

<tr>

<td>PopupInfo</td>

<td></td>

</tr>

<tr bgcolor="#D4E4F3">

<td>Shape_Leng</td>

<td>0.018532</td>

</tr>

</table>

</td>

</tr>

</table>

</body>

</html>]]></description>
			<styleUrl>#PolyStyle00</styleUrl>
			<MultiGeometry>
				<Polygon>
					<outerBoundaryIs>
						<LinearRing>
							<coordinates>
								16.23993654028661,39.53321484139567,0 16.23993473028834,39.53331515738471,73.70070000000123 16.23994165266956,39.53340597462196,73.57420000000275 16.23975775100008,39.53447549200008,73.37970000000496 16.23946384100002,39.53474750700011,74.80520000000251 16.23912290500006,39.53566590100014,74.00019999999495 16.23897131700006,39.53606691200008,74.64130000000296 16.23876888300006,39.53625026600005,75.28509999999369 16.23883435600006,39.53547431400005,74.24460000000545 16.23891688800007,39.53476865400004,74.545100000003 16.23917341600004,39.53354921700007,76.36729999999807 16.2392285444817,39.53339706583585,75.22460000000137 16.23981643917191,39.53323726492857,0 16.23993654028661,39.53321484139567,0 
							</coordinates>
						</LinearRing>
					</outerBoundaryIs>
				</Polygon>
			</MultiGeometry>
		</Placemark>
		<atom:link rel="app" href="https://www.google.com/earth/about/versions/#earth-pro" title="Google Earth Pro 7.3.6.10441"></atom:link>
	</Folder>
</Document>
</kml>
