<?xml version="1.0" encoding="utf-8" ?>
<kml xmlns="http://www.opengis.net/kml/2.2">
<Document id="root_doc">
<Schema name="prj_inst_0001_ken_honguera_20231227" id="prj_inst_0001_ken_honguera_20231227">
	<SimpleField name="area_ha" type="float"></SimpleField>
</Schema>
<Folder><name>prj_inst_0001_ken_honguera_20231227</name>
  <Placemark>
	<name>C2C0010</name>
	<Style><LineStyle><color>ff0000ff</color></LineStyle><PolyStyle><fill>0</fill></PolyStyle></Style>
	<ExtendedData><SchemaData schemaUrl="#prj_inst_0001_ken_honguera_20231227">
		<SimpleData name="area_ha">0.082291760253906</SimpleData>
	</SchemaData></ExtendedData>
      <MultiGeometry><Polygon><outerBoundaryIs><LinearRing><coordinates>36.2675300000001,-0.314618 36.2676740000001,-0.314553 36.26778,-0.314967 36.267636,-0.315034 36.2675300000001,-0.314618</coordinates></LinearRing></outerBoundaryIs></Polygon></MultiGeometry>
  </Placemark>
  <Placemark>
	<name>C2C0129</name>
	<Style><LineStyle><color>ff0000ff</color></LineStyle><PolyStyle><fill>0</fill></PolyStyle></Style>
	<ExtendedData><SchemaData schemaUrl="#prj_inst_0001_ken_honguera_20231227">
		<SimpleData name="area_ha">0.057362377929688</SimpleData>
	</SchemaData></ExtendedData>
      <MultiGeometry><Polygon><outerBoundaryIs><LinearRing><coordinates>36.28154,-0.293929 36.281636,-0.293907 36.281793,-0.294394 36.281725,-0.294427 36.281653,-0.294159 36.281591,-0.294163 36.281536,-0.293948 36.28154,-0.293929</coordinates></LinearRing></outerBoundaryIs></Polygon></MultiGeometry>
  </Placemark>
  <Placemark>
	<name>C1C0060</name>
	<Style><LineStyle><color>ff0000ff</color></LineStyle><PolyStyle><fill>0</fill></PolyStyle></Style>
	<ExtendedData><SchemaData schemaUrl="#prj_inst_0001_ken_honguera_20231227">
		<SimpleData name="area_ha">0.039412194824219</SimpleData>
	</SchemaData></ExtendedData>
      <MultiGeometry><Polygon><outerBoundaryIs><LinearRing><coordinates>36.312921,-0.307902 36.313122,-0.308107 36.313021,-0.308166 36.312815,-0.307936 36.312921,-0.307902</coordinates></LinearRing></outerBoundaryIs></Polygon></MultiGeometry>
  </Placemark>
  <Placemark>
	<name>B5B0026</name>
	<Style><LineStyle><color>ff0000ff</color></LineStyle><PolyStyle><fill>0</fill></PolyStyle></Style>
	<ExtendedData><SchemaData schemaUrl="#prj_inst_0001_ken_honguera_20231227">
		<SimpleData name="area_ha">0.023441381835938</SimpleData>
	</SchemaData></ExtendedData>
      <MultiGeometry><Polygon><outerBoundaryIs><LinearRing><coordinates>36.324938,0.208612 36.325143,0.208471 36.3251012945884,0.208411962469331 36.3250783184932,0.208432291095889 36.3250351678082,0.208466195205482 36.3249714691781,0.208506263698625 36.3249386624247,0.208474356684074 36.324896,0.208512 36.324938,0.208612</coordinates></LinearRing></outerBoundaryIs></Polygon></MultiGeometry>
  </Placemark>
  <Placemark>
	<name>E3C0001</name>
	<Style><LineStyle><color>ff0000ff</color></LineStyle><PolyStyle><fill>0</fill></PolyStyle></Style>
	<ExtendedData><SchemaData schemaUrl="#prj_inst_0001_ken_honguera_20231227">
		<SimpleData name="area_ha">0.352581652832031</SimpleData>
	</SchemaData></ExtendedData>
      <MultiGeometry><Polygon><outerBoundaryIs><LinearRing><coordinates>36.4289922539061,0.066750538863324 36.4288779627532,0.0668519642204 36.428962033242,0.067058997228735 36.4287499710917,0.067143989726907 36.42901500687,0.067733991891139 36.4293989818543,0.067581022158266 36.4293619305677,0.067562845647228 36.4293017907322,0.06739889300043 36.4292173085823,0.067242815808268 36.4291886705654,0.067166209113042 36.4291202973,0.067060964400893 36.4290526399851,0.066918848241985 36.4289922539061,0.066750538863324</coordinates></LinearRing></outerBoundaryIs></Polygon></MultiGeometry>
  </Placemark>
  <Placemark>
	<name>E4C0001</name>
	<Style><LineStyle><color>ff0000ff</color></LineStyle><PolyStyle><fill>0</fill></PolyStyle></Style>
	<ExtendedData><SchemaData schemaUrl="#prj_inst_0001_ken_honguera_20231227">
		<SimpleData name="area_ha">2.977903735351563</SimpleData>
	</SchemaData></ExtendedData>
      <MultiGeometry><Polygon><outerBoundaryIs><LinearRing><coordinates>36.4758328848482,-0.197070740628414 36.4766967775943,-0.19668186857987 36.4769921128213,-0.196590085127378 36.4772379724126,-0.196499117078601 36.4777493603625,-0.19769153609648 36.4776657681015,-0.197723497843347 36.4775133351549,-0.197873472194055 36.4773215646737,-0.198043115312058 36.4769839326524,-0.198304748981657 36.4767142914831,-0.198569254837485 36.4764635147,-0.198709394804522 36.4764093249774,-0.198548760984229 36.4762545340473,-0.198490579768263 36.4763233747329,-0.198411904699041 36.4762545340473,-0.198298809287024 36.4760484255648,-0.197573792389647 36.4758328848482,-0.197070740628414</coordinates></LinearRing></outerBoundaryIs></Polygon></MultiGeometry>
  </Placemark>
</Folder>
</Document></kml>
