<?xml version="1.0" encoding="utf-8" ?>
<kml xmlns="http://www.opengis.net/kml/2.2">
<Document id="root_doc">
<Schema name="xico2_mexican_peninsula_forest_project_project_area" id="xico2_mexican_peninsula_forest_project_project_area">
	<SimpleField name="Nombre" type="string"></SimpleField>
	<SimpleField name="Superficie" type="float"></SimpleField>
	<SimpleField name="xCentroid" type="float"></SimpleField>
	<SimpleField name="yCentroid" type="float"></SimpleField>
</Schema>
<Folder><name>xico2_mexican_peninsula_forest_project_project_area</name>
  <Placemark>
	<Style><LineStyle><color>ff0000ff</color></LineStyle><PolyStyle><fill>0</fill></PolyStyle></Style>
	<ExtendedData><SchemaData schemaUrl="#xico2_mexican_peninsula_forest_project_project_area">
		<SimpleData name="Nombre">Ejido 20 de Noviembre</SimpleData>
		<SimpleData name="Superficie">9814.090000000000146</SimpleData>
		<SimpleData name="xCentroid">-89.292723</SimpleData>
		<SimpleData name="yCentroid">18.339763</SimpleData>
	</SchemaData></ExtendedData>
      <MultiGeometry><Polygon><outerBoundaryIs><LinearRing><coordinates>-89.3318171877228,18.3883239150828,0 -89.3282997369763,18.3998549948271,0 -89.2531030543216,18.371829858714,0 -89.2325298201185,18.3720723367377,0 -89.2473196839229,18.3211344582227,0 -89.2691632619594,18.2860370087557,0 -89.275753934819,18.2881844068717,0 -89.2997860579622,18.2940504777666,0 -89.3292093595718,18.2971320665534,0 -89.3356532427025,18.2955478000375,0 -89.3464887431841,18.2979978164075,0 -89.3350871580577,18.3495597048621,0 -89.334948484445,18.3495297070914,0 -89.3339059448091,18.3494682485426,0 -89.3324719790944,18.3492037191581,0 -89.3316664077966,18.3494214399548,0 -89.3313714431133,18.3494547443535,0 -89.3307298971841,18.3491508073045,0 -89.3306374214084,18.3492113269507,0 -89.3304126049246,18.3498376533887,0 -89.331673990039,18.3580920123555,0 -89.3317706567274,18.3583432279754,0 -89.3314346873959,18.3590538896409,0 -89.3312879315718,18.3593967740188,0 -89.3311353934601,18.359759963128,0 -89.3309319433944,18.3599387788905,0 -89.3304992876258,18.3604360534791,0 -89.3300631279963,18.3612582772225,0 -89.3297639220922,18.3614197463673,0 -89.329641172917,18.3616904493564,0 -89.3293617836978,18.3617724656998,0 -89.3301595787786,18.3626495146609,0 -89.3304804697652,18.3626548693819,0 -89.3306382361832,18.3628200280395,0 -89.3309464180797,18.3633268077122,0 -89.3311338486033,18.364252790518,0 -89.3311787139738,18.3646978144536,0 -89.3310717906508,18.3646991238923,0 -89.3308912186562,18.3650076668711,0 -89.3308058549291,18.3651665194332,0 -89.3303969778052,18.3651251118275,0 -89.3301170821069,18.365277062906,0 -89.3297096998984,18.3653470289601,0 -89.3296050187749,18.365515400323,0 -89.3293036876296,18.365519088074,0 -89.3293097921222,18.365973869962,0 -89.3296754273616,18.366414968769,0 -89.3300116539672,18.3668378611239,0 -89.3310279447088,18.3679486331247,0 -89.3314760920259,18.3687414623075,0 -89.3314790853088,18.3689642122021,0 -89.3321066995878,18.3700890202718,0 -89.3322002986512,18.3705427288701,0 -89.3325521260884,18.3714017139631,0 -89.3328195765487,18.3717697459711,0 -89.3327544023803,18.3719840485395,0 -89.3327025683061,18.3724673877217,0 -89.3331360226619,18.3728890804305,0 -89.3331320445256,18.3733161362278,0 -89.3333115130489,18.3736481148588,0 -89.3329938705343,18.3737674170853,0 -89.3326443982287,18.3739254947497,0 -89.3322499634082,18.37423666128,0 -89.3322811227369,18.3743848035668,0 -89.3321674678458,18.3746089830972,0 -89.3323208939298,18.3751733510007,0 -89.3324583592554,18.3752737761851,0 -89.3333160444329,18.3754303490411,0 -89.3331043254916,18.3763148076046,0 -89.333633002799,18.3765868060708,0 -89.333791660519,18.376816928698,0 -89.3340765664189,18.3770362194815,0 -89.3342571657481,18.3774517274393,0 -89.3342140577117,18.3778606974623,0 -89.3342166813007,18.3780556030527,0 -89.3345297533927,18.378200285262,0 -89.3346912880876,18.3786438747489,0 -89.3345576923984,18.3788311693392,0 -89.3346594017965,18.3791641000068,0 -89.3346437085836,18.3794427750606,0 -89.3340562183426,18.3798584257432,0 -89.3340406491664,18.3801463820616,0 -89.3336468290171,18.380503958704,0 -89.3332500308529,18.3813628399337,0 -89.3331470942664,18.3816611507925,0 -89.3330790455976,18.3816619855241,0 -89.3330172417855,18.3821268813678,0 -89.3328558519003,18.3824166263937,0 -89.3328478791132,18.3825466827581,0 -89.3327812038706,18.382649610881,0 -89.3320536046767,18.3827699269705,0 -89.3319861210229,18.3828411238803,0 -89.3319289755113,18.382901413737,0 -89.3317548656709,18.3829685277704,0 -89.3316597746187,18.3831275005273,0 -89.3314870375054,18.3832967078967,0 -89.3313312463999,18.3832800521604,0 -89.3311572607066,18.3833564469457,0 -89.3308355826784,18.3832954102407,0 -89.3306136138374,18.3834188064418,0 -89.3301042453993,18.3838613379665,0 -89.3283223639664,18.3836696575214,0 -89.3275845355118,18.3837529512978,0 -89.3269526447458,18.3837606838199,0 -89.3252283568648,18.382788514392,0 -89.3259419924669,18.3838008953005,0 -89.3258461481889,18.3839041781709,0 -89.3258728138418,18.384442253925,0 -89.3249449076982,18.3848527603055,0 -89.3255117414921,18.3850686166389,0 -89.3254566500314,18.3853106429214,0 -89.325160637252,18.3857134225954,0 -89.3247451014565,18.3859041588649,0 -89.3248096551015,18.3863675094264,0 -89.3247880843951,18.386934023611,0 -89.3248206105667,18.3871842613877,0 -89.3246930980622,18.3878263331497,0 -89.3245824138949,18.3882732604667,0 -89.324654324981,18.3885601479099,0 -89.3247632555711,18.3887073407726,0 -89.3249331313804,18.3890487269714,0 -89.3248731729211,18.3896528416004,0 -89.3249899583624,18.3896606963183,0 -89.3254155977004,18.3894976835047,0 -89.3255711453881,18.3894957809936,0 -89.3257912573349,18.3892331705389,0 -89.3257902608253,18.3891589204311,0 -89.325944562454,18.389064205022,0 -89.3265536653295,18.3888061176329,0 -89.326951132724,18.3887177086801,0 -89.3272121223368,18.3886031210764,0 -89.3274021931312,18.3882758973191,0 -89.3278532512433,18.3878340851244,0 -89.3279667939508,18.3876006256199,0 -89.3281797965291,18.3875330382816,0 -89.3283551594157,18.3875587393699,0 -89.3285600612423,18.3876119268776,0 -89.3286201367192,18.3877411500045,0 -89.3291408702497,18.3881432140232,0 -89.329307510128,18.3882432831612,0 -89.3296725754574,18.388637969599,0 -89.3298864518132,18.3886353489454,0 -89.3301947991475,18.3884273494881,0 -89.3304670049801,18.3884240133587,0 -89.3306850000454,18.3887276724871,0 -89.3309745273197,18.3885663163356,0 -89.3312621812631,18.3882657413794,0 -89.3312768969572,18.3886368713005,0 -89.3318171877228,18.3883239150828,0</coordinates></LinearRing></outerBoundaryIs></Polygon></MultiGeometry>
  </Placemark>
  <Placemark>
	<Style><LineStyle><color>ff0000ff</color></LineStyle><PolyStyle><fill>0</fill></PolyStyle></Style>
	<ExtendedData><SchemaData schemaUrl="#xico2_mexican_peninsula_forest_project_project_area">
		<SimpleData name="Nombre">Ejido Andres Quintana Roo</SimpleData>
		<SimpleData name="Superficie">4898.560000000000400</SimpleData>
		<SimpleData name="xCentroid">-88.072393</SimpleData>
		<SimpleData name="yCentroid">19.164602</SimpleData>
	</SchemaData></ExtendedData>
      <MultiGeometry><Polygon><outerBoundaryIs><LinearRing><coordinates>-88.1302369652634,19.1539526002891,0 -88.1290332190479,19.1533116856163,0 -88.1270199732107,19.1522397387196,0 -88.1218640571337,19.1527794948418,0 -88.1045168689999,19.154594435,0 -88.1043246439999,19.1528169790001,0 -88.104325322,19.1528059680001,0 -88.1043025974157,19.1528166552045,0 -88.0992066268506,19.1540388819536,0 -88.0885285126712,19.1529157081577,0 -88.0935195889642,19.138962142538,0 -88.0969166648599,19.1302755335713,0 -88.1001980912771,19.1309757531592,0 -88.1004527055426,19.1310300827588,0 -88.1025404651898,19.1314755597339,0 -88.1032404613774,19.1316249145914,0 -88.1074401497703,19.1325209501091,0 -88.1074993265911,19.1325335758765,0 -88.1379867126327,19.1390347499759,0 -88.1376925552636,19.1546397423395,0 -88.1376313038467,19.1578892997269,0 -88.1302369652634,19.1539526002891,0</coordinates></LinearRing></outerBoundaryIs></Polygon><Polygon><outerBoundaryIs><LinearRing><coordinates>-88.041291488,19.209928442,0 -88.0412795749999,19.2078265100001,0 -88.041228916,19.1988840550001,0 -88.0450431529999,19.1989246520001,0 -88.0451437239999,19.1834551190001,0 -88.045206233,19.17384437,0 -88.041086378,19.173693988,0 -88.0410399009999,19.1654710170001,0 -88.040982253,19.155265258,0 -88.0434475319999,19.1551935760001,0 -88.041589001,19.1487764110001,0 -88.040824269,19.1461357690001,0 -88.0382252569999,19.137051924,0 -88.037229493,19.1330278520001,0 -88.036129866,19.12858379,0 -88.036598526,19.1203092340001,0 -88.0368522909999,19.1189632510001,0 -88.046709584,19.1206851120001,0 -88.057727622,19.1226090570001,0 -88.0664309259999,19.1241283060001,0 -88.0757694209999,19.12575794,0 -88.0759528329999,19.140362737,0 -88.0759516739999,19.140561685,0 -88.0758669599999,19.155106087,0 -88.0758666999999,19.1551506670001,0 -88.0758721179999,19.1698434190001,0 -88.070721089,19.170570578,0 -88.0674143269999,19.1710242,0 -88.05904013,19.1721726970001,0 -88.058957956,19.1721839640001,0 -88.0591481979999,19.1743525860001,0 -88.0600196389999,19.1842854540001,0 -88.060445815,19.1891425320001,0 -88.064549809,19.188062072,0 -88.0722236519999,19.1860414950001,0 -88.075620088,19.1852316050001,0 -88.0838618229999,19.1832660470001,0 -88.0867730269999,19.183336055,0 -88.086623181,19.194351656,0 -88.086623034,19.1943624660001,0 -88.0938244709999,19.194421417,0 -88.0935589439999,19.2020566630001,0 -88.0927254609999,19.2019580200001,0 -88.0911481859999,19.2175521350001,0 -88.08220958,19.2161863720001,0 -88.0730587339999,19.214787702,0 -88.041291488,19.209928442,0</coordinates></LinearRing></outerBoundaryIs></Polygon></MultiGeometry>
  </Placemark>
  <Placemark>
	<Style><LineStyle><color>ff0000ff</color></LineStyle><PolyStyle><fill>0</fill></PolyStyle></Style>
	<ExtendedData><SchemaData schemaUrl="#xico2_mexican_peninsula_forest_project_project_area">
		<SimpleData name="Nombre">Ejido Betania</SimpleData>
		<SimpleData name="Superficie">6991.060000000000400</SimpleData>
		<SimpleData name="xCentroid">-88.297159</SimpleData>
		<SimpleData name="yCentroid">19.593996</SimpleData>
	</SchemaData></ExtendedData>
      <MultiGeometry><Polygon><outerBoundaryIs><LinearRing><coordinates>-88.3174820071508,19.5604730956139,0 -88.3548379741865,19.560259087068,0 -88.3585493865401,19.5604826638114,0 -88.3585075055829,19.5607477784045,0 -88.3582973196058,19.5611703168236,0 -88.3581039255827,19.5614856712157,0 -88.3578842327986,19.5617542947236,0 -88.3569025095703,19.5625811751056,0 -88.3566889234698,19.5629068083761,0 -88.3558674721853,19.5636664679948,0 -88.3554776020474,19.5639360510625,0 -88.3548863279318,19.5643324322824,0 -88.3545370487734,19.5645665837449,0 -88.3539234094345,19.5651287118869,0 -88.3532977891698,19.5653305245415,0 -88.3529651136782,19.565466784519,0 -88.3526472322131,19.5657688727733,0 -88.3516312300922,19.5675300568233,0 -88.3509763084634,19.5678843239834,0 -88.3502933596474,19.5686356772714,0 -88.3494252179247,19.5699277133829,0 -88.3491055282246,19.570226240685,0 -88.3484656936117,19.5704470095196,0 -88.3478250268387,19.5710654563261,0 -88.3464983108979,19.5716397809311,0 -88.3457820351229,19.571794802036,0 -88.3445242926486,19.5719684031034,0 -88.3429491351087,19.5721191414067,0 -88.3386489146561,19.5723685412956,0 -88.338299980619,19.5733421153642,0 -88.3377613087148,19.5746018401947,0 -88.3370603715349,19.5756725575848,0 -88.3362856209574,19.5773970822491,0 -88.3357115915314,19.5787201385885,0 -88.3355243459667,19.5798747596405,0 -88.3355132768296,19.5806944694024,0 -88.3353762979129,19.5811752164721,0 -88.3353956978949,19.5814644339822,0 -88.3353412085412,19.5817489401383,0 -88.3353700286077,19.5827160256139,0 -88.3351733451523,19.5834768629471,0 -88.3348201037432,19.5850906519919,0 -88.3347012902674,19.5854210630909,0 -88.3345863089922,19.5860511611895,0 -88.3345588754019,19.5866634804938,0 -88.334640603412,19.588092215747,0 -88.3346483079096,19.5892583849498,0 -88.3347605903992,19.5899939486857,0 -88.3348094707449,19.5933201438917,0 -88.3348769909514,19.5937149151448,0 -88.3348633689225,19.5941636942706,0 -88.3344363532493,19.5951595881914,0 -88.3339255009189,19.5962037895028,0 -88.3340316238036,19.5966762218167,0 -88.3340517420508,19.5971808325037,0 -88.3342628957095,19.5980992407007,0 -88.3344685730391,19.5987971492537,0 -88.3348167802622,19.6003870568972,0 -88.3352455925542,19.6019095688817,0 -88.3353542737954,19.6030052090934,0 -88.335421333835,19.604344926529,0 -88.3353140996508,19.6048446797671,0 -88.3348538901203,19.6058701204628,0 -88.3336779008882,19.608593395572,0 -88.3073887305741,19.6076614246989,0 -88.3071161295664,19.5745555821365,0 -88.2975144144747,19.5746248997241,0 -88.297677743081,19.579398434332,0 -88.2671410671574,19.5782672832224,0 -88.2669241782712,19.5856095338215,0 -88.275903404071,19.585628052463,0 -88.2755299318112,19.5981779137324,0 -88.2500452568079,19.5977308281516,0 -88.2501923523206,19.5565888207112,0 -88.2502203791567,19.5488014756232,0 -88.2938969173136,19.5519436828599,0 -88.3172283132494,19.5429604500197,0 -88.3172283141002,19.5429605087523,0 -88.3174820071508,19.5604730956139,0</coordinates></LinearRing></outerBoundaryIs></Polygon><Polygon><outerBoundaryIs><LinearRing><coordinates>-88.3315706778393,19.6173507715342,0 -88.331383238245,19.6181587002755,0 -88.3311601104058,19.6189056071348,0 -88.3309910194214,19.6192916109521,0 -88.330527407522,19.621310892918,0 -88.3303059891677,19.6222733654435,0 -88.3280084747601,19.6279227299116,0 -88.3272741274871,19.6287103218481,0 -88.3267612622204,19.6291384945562,0 -88.3263381192004,19.6293255425472,0 -88.3251476902629,19.6300893816192,0 -88.324674030298,19.6308425988581,0 -88.3244930346314,19.6312650698059,0 -88.3244610586104,19.6318765711376,0 -88.3250867142358,19.6395688220919,0 -88.3254114378453,19.6435607949902,0 -88.3246737915654,19.6450061824822,0 -88.3191134130524,19.644380481601,0 -88.319519434158,19.6633977913643,0 -88.3137770249458,19.6627183880681,0 -88.2983549388765,19.65689489251,0 -88.2980533683498,19.6359111604341,0 -88.2948476941093,19.6356812959113,0 -88.2954468139889,19.6262330134311,0 -88.2657920440459,19.623876609355,0 -88.2658595114973,19.623101109525,0 -88.2642445817403,19.6229803113747,0 -88.2638980118611,19.6320830336907,0 -88.2591502557208,19.6321175794924,0 -88.249923783523,19.6317064043001,0 -88.2499589104726,19.6218815415594,0 -88.2556548214168,19.6223430601216,0 -88.2554568529793,19.6063156245096,0 -88.3332122017863,19.6103099057749,0 -88.332619013691,19.6120553625489,0 -88.3317587679774,19.6169762550185,0 -88.3315706778393,19.6173507715342,0</coordinates></LinearRing></outerBoundaryIs></Polygon></MultiGeometry>
  </Placemark>
  <Placemark>
	<Style><LineStyle><color>ff0000ff</color></LineStyle><PolyStyle><fill>0</fill></PolyStyle></Style>
	<ExtendedData><SchemaData schemaUrl="#xico2_mexican_peninsula_forest_project_project_area">
		<SimpleData name="Nombre">Ejido Chan Cah Derrepente</SimpleData>
		<SimpleData name="Superficie">2602.909999999999854</SimpleData>
		<SimpleData name="xCentroid">-88.228284</SimpleData>
		<SimpleData name="yCentroid">19.457004</SimpleData>
	</SchemaData></ExtendedData>
      <MultiGeometry><Polygon><outerBoundaryIs><LinearRing><coordinates>-88.2463304861824,19.4408982242824,0 -88.2445893992496,19.4447954729074,0 -88.2463612424555,19.4470904236159,0 -88.2566544438208,19.4635333726157,0 -88.246977473431,19.4632843946626,0 -88.2462391683825,19.4884376182137,0 -88.2041698384469,19.4845050787064,0 -88.2080813004217,19.4431973221361,0 -88.2156326684294,19.4446872256786,0 -88.2154036059106,19.434388109058,0 -88.2244688030248,19.4353753087192,0 -88.2325671040366,19.4356999840092,0 -88.2316679497674,19.4276101698416,0 -88.2410945611236,19.4273200802651,0 -88.2417255372472,19.4364055758455,0 -88.2420122942057,19.441065860214,0 -88.2463304861824,19.4408982242824,0</coordinates></LinearRing></outerBoundaryIs></Polygon><Polygon><outerBoundaryIs><LinearRing><coordinates>-88.2411061842022,19.3824768550036,0 -88.2403608884867,19.38834541646,0 -88.2320159634971,19.3878328970788,0 -88.2316797829791,19.3899766267098,0 -88.2230202340498,19.3894206493811,0 -88.2236606223658,19.3810831908408,0 -88.2411061842022,19.3824768550036,0</coordinates></LinearRing></outerBoundaryIs></Polygon></MultiGeometry>
  </Placemark>
  <Placemark>
	<Style><LineStyle><color>ff0000ff</color></LineStyle><PolyStyle><fill>0</fill></PolyStyle></Style>
	<ExtendedData><SchemaData schemaUrl="#xico2_mexican_peninsula_forest_project_project_area">
		<SimpleData name="Nombre">Ejido Chan Santa Cruz</SimpleData>
		<SimpleData name="Superficie">4034.860000000000127</SimpleData>
		<SimpleData name="xCentroid">-88.340170</SimpleData>
		<SimpleData name="yCentroid">19.395236</SimpleData>
	</SchemaData></ExtendedData>
      <MultiGeometry><Polygon><outerBoundaryIs><LinearRing><coordinates>-88.3971808264044,19.410327969825,0 -88.397270109263,19.4178765048822,0 -88.3202922026416,19.4077333406407,0 -88.3202450448415,19.4077271163082,0 -88.3200020315923,19.4076950409228,0 -88.3199524018683,19.4076884902399,0 -88.263555376324,19.400235403067,0 -88.2564442190206,19.4233891469327,0 -88.2509040317337,19.4306598992073,0 -88.2493777093509,19.4305323566719,0 -88.2511751407776,19.4098897295108,0 -88.257409209221,19.4104682441432,0 -88.2592920322769,19.3995430133805,0 -88.2635725688273,19.4002217634716,0 -88.2636576204406,19.3951977375963,0 -88.300069908837,19.3953559842518,0 -88.2989218960737,19.3749080431989,0 -88.3026507942422,19.3746539555833,0 -88.3026506442428,19.3784869474624,0 -88.3119600308339,19.3784021729174,0 -88.3119824229948,19.3797451859853,0 -88.3216435492308,19.3796671076487,0 -88.3216232452455,19.3752021148196,0 -88.3297861588443,19.3749573743221,0 -88.3302708063218,19.3800940300767,0 -88.3304832226443,19.3810290155946,0 -88.3304322530707,19.382204479655,0 -88.3401578133247,19.3821154133867,0 -88.3401879508465,19.3833808400559,0 -88.3494951322462,19.3832877265934,0 -88.3495014322714,19.3846173799389,0 -88.3601659967981,19.3845688597384,0 -88.3601595286132,19.373136171352,0 -88.3608994895025,19.3731173859507,0 -88.361036013581,19.3730249288654,0 -88.396728263076,19.3728930276397,0 -88.3969468224492,19.3904903370439,0 -88.3969478426838,19.3905769472735,0 -88.3969536530693,19.3910700427698,0 -88.3879947388824,19.3909308219216,0 -88.3881930051682,19.4005860658675,0 -88.3788435832181,19.4007389618115,0 -88.3790374508532,19.4102065218854,0 -88.3971808264044,19.410327969825,0</coordinates></LinearRing></outerBoundaryIs></Polygon></MultiGeometry>
  </Placemark>
  <Placemark>
	<Style><LineStyle><color>ff0000ff</color></LineStyle><PolyStyle><fill>0</fill></PolyStyle></Style>
	<ExtendedData><SchemaData schemaUrl="#xico2_mexican_peninsula_forest_project_project_area">
		<SimpleData name="Nombre">Ejido Dzoyola</SimpleData>
		<SimpleData name="Superficie">2484.239999999999782</SimpleData>
		<SimpleData name="xCentroid">-88.453409</SimpleData>
		<SimpleData name="yCentroid">19.884699</SimpleData>
	</SchemaData></ExtendedData>
      <MultiGeometry><Polygon><outerBoundaryIs><LinearRing><coordinates>-88.4332067178597,19.911170409261,0 -88.4332115916397,19.9111703684379,0 -88.4347358377113,19.84788829461,0 -88.4868154551599,19.8802856258136,0 -88.4835725594092,19.8836316469855,0 -88.4840206334791,19.8917695880701,0 -88.4840205403715,19.8917695883366,0 -88.4684112379355,19.8913848635082,0 -88.4683914432312,19.8961166124916,0 -88.4684120511618,19.9124630990284,0 -88.4618371225547,19.9122708496798,0 -88.4618614189454,19.9113659842356,0 -88.4523241868488,19.9110474012304,0 -88.4522809242223,19.9128544685046,0 -88.4331812937849,19.9121231975429,0 -88.4332067178597,19.911170409261,0</coordinates></LinearRing></outerBoundaryIs></Polygon></MultiGeometry>
  </Placemark>
  <Placemark>
	<Style><LineStyle><color>ff0000ff</color></LineStyle><PolyStyle><fill>0</fill></PolyStyle></Style>
	<ExtendedData><SchemaData schemaUrl="#xico2_mexican_peninsula_forest_project_project_area">
		<SimpleData name="Nombre">Ejido Laguna Kana</SimpleData>
		<SimpleData name="Superficie">4947.829999999999927</SimpleData>
		<SimpleData name="xCentroid">-88.503551</SimpleData>
		<SimpleData name="yCentroid">19.469238</SimpleData>
	</SchemaData></ExtendedData>
      <MultiGeometry><Polygon><outerBoundaryIs><LinearRing><coordinates>-88.4572601399999,19.4804484160001,0 -88.4573870739999,19.4771921110001,0 -88.458106695,19.4636922900001,0 -88.4672241199999,19.4641187950001,0 -88.46723928,19.464130959,0 -88.46835682,19.4699174370001,0 -88.467562018,19.471613764,0 -88.46638369,19.4734591060001,0 -88.464438541,19.4753321450001,0 -88.463105423,19.4752121820001,0 -88.462797234,19.476695854,0 -88.460776295,19.476712162,0 -88.460754539,19.477164987,0 -88.460621446,19.4799371590001,0 -88.4595469129999,19.4803998260001,0 -88.4572601399999,19.4804484160001,0</coordinates></LinearRing></outerBoundaryIs></Polygon><Polygon><outerBoundaryIs><LinearRing><coordinates>-88.46338675,19.484589586,0 -88.46335803,19.4828774340001,0 -88.463354899,19.482783496,0 -88.4667109519999,19.482850309,0 -88.466686054,19.48008502,0 -88.4666646739999,19.4777101,0 -88.467418429,19.4771111260001,0 -88.4674399939999,19.477093965,0 -88.4683994469999,19.476519883,0 -88.469402055,19.4756404280001,0 -88.470817567,19.474714159,0 -88.472138877,19.473527175,0 -88.4736098129999,19.473645861,0 -88.473418035,19.4676791590001,0 -88.47176469,19.467692594,0 -88.471058444,19.466498224,0 -88.472401152,19.4655888,0 -88.47405775,19.464399443,0 -88.475214195,19.463794635,0 -88.476079502,19.463323017,0 -88.477648928,19.4623056410001,0 -88.478875016,19.4596467070001,0 -88.4798068529999,19.4584906800001,0 -88.481327242,19.45701091,0 -88.484061437,19.455727644,0 -88.484502883,19.454802745,0 -88.484551941,19.4539240640001,0 -88.484208659,19.45313795,0 -88.482541071,19.45281423,0 -88.481658351,19.452629273,0 -88.4812495529999,19.452524917,0 -88.483206377,19.450970194,0 -88.4831119849999,19.445289387,0 -88.487045068,19.445197014,0 -88.488455748,19.4451801130001,0 -88.4923124919999,19.4451337880001,0 -88.494923751,19.43208847,0 -88.5012783739999,19.431895615,0 -88.5130702179999,19.431624225,0 -88.525136139,19.431343443,0 -88.540504875,19.430962663,0 -88.534920313,19.467437264,0 -88.5319209299999,19.487029969,0 -88.5341526059999,19.500892562,0 -88.520848694,19.501000982,0 -88.5066723019999,19.501119574,0 -88.494809319,19.5012526540001,0 -88.482141411,19.5013751980001,0 -88.480534978,19.501390698,0 -88.463685196,19.501519194,0 -88.46338675,19.484589586,0</coordinates></LinearRing></outerBoundaryIs><innerBoundaryIs><LinearRing><coordinates>-88.516069477,19.469330723,0 -88.515695738,19.4690899080001,0 -88.515352585,19.469065677,0 -88.515012462,19.469366662,0 -88.515074154,19.469854015,0 -88.5148784,19.470316431,0 -88.5148541079999,19.4707774000001,0 -88.515088508,19.471398846,0 -88.5153683379999,19.471785,0 -88.5159228919999,19.4720062310001,0 -88.516551877,19.472037108,0 -88.517067492,19.472168308,0 -88.517608323,19.471937908,0 -88.517660754,19.471431523,0 -88.517741938,19.4709429690001,0 -88.517851446,19.4704270770001,0 -88.517991046,19.4700735540001,0 -88.517931108,19.469775908,0 -88.517414246,19.469509185,0 -88.5166698,19.4693528000001,0 -88.516069477,19.469330723,0</coordinates></LinearRing></innerBoundaryIs></Polygon></MultiGeometry>
  </Placemark>
  <Placemark>
	<Style><LineStyle><color>ff0000ff</color></LineStyle><PolyStyle><fill>0</fill></PolyStyle></Style>
	<ExtendedData><SchemaData schemaUrl="#xico2_mexican_peninsula_forest_project_project_area">
		<SimpleData name="Nombre">Ejido Naranjal Poniente</SimpleData>
		<SimpleData name="Superficie">5451.000000000000000</SimpleData>
		<SimpleData name="xCentroid">-88.499939</SimpleData>
		<SimpleData name="yCentroid">19.395259</SimpleData>
	</SchemaData></ExtendedData>
      <MultiGeometry><Polygon><outerBoundaryIs><LinearRing><coordinates>-88.495507561,19.3224050640001,0 -88.484811749,19.3214061940001,0 -88.485622576799,19.3132255833921,0 -88.47611884,19.312156354,0 -88.4767874869999,19.303458572,0 -88.497133838,19.3060053,0 -88.496301424,19.31442702,0 -88.4962749461755,19.3144240410804,0 -88.495507561,19.3224050640001,0</coordinates></LinearRing></outerBoundaryIs></Polygon><Polygon><outerBoundaryIs><LinearRing><coordinates>-88.5364661399999,19.3349615590001,0 -88.5254425639999,19.3329648220001,0 -88.5224346699999,19.3092179300001,0 -88.5333047129999,19.3106590860001,0 -88.5364661399999,19.3349615590001,0</coordinates></LinearRing></outerBoundaryIs></Polygon><Polygon><outerBoundaryIs><LinearRing><coordinates>-88.516996185,19.430327743,0 -88.496939126,19.430741034,0 -88.496934807,19.43073725,0 -88.4869006538732,19.4299940728034,0 -88.486896481,19.4300672280001,0 -88.457260896,19.4269581970001,0 -88.446231112,19.4257835230001,0 -88.44946802,19.40902137,0 -88.4521237219999,19.390211728,0 -88.461250806,19.391209874,0 -88.4598543649999,19.400162059,0 -88.468851769,19.40116083,0 -88.4688400336375,19.4014054768904,0 -88.4696201119999,19.3935408060001,0 -88.479914027,19.3944094170001,0 -88.48072832,19.386142125,0 -88.480750214,19.386128298,0 -88.4814333159999,19.3770259840001,0 -88.490477076,19.3775747060001,0 -88.490720129,19.368233868,0 -88.5005679679999,19.3690868200001,0 -88.4991361292877,19.3876894469492,0 -88.511200658,19.388703566,0 -88.512029709924,19.3800062095833,0 -88.511988623,19.3800037570001,0 -88.5129779259999,19.371600378,0 -88.523343374,19.37248419,0 -88.523019543,19.375904012,0 -88.533074132,19.3767898510001,0 -88.5328326309226,19.3788508539964,0 -88.543420887,19.379622864,0 -88.54224219,19.3878906570001,0 -88.5422386461654,19.3878903703241,0 -88.539939523,19.4040708950001,0 -88.539816334115,19.4040641715791,0 -88.536217291,19.4298916650001,0 -88.526508545,19.430020337,0 -88.526463846,19.430100149,0 -88.517000987,19.4303220150001,0 -88.516996185,19.430327743,0</coordinates></LinearRing></outerBoundaryIs></Polygon></MultiGeometry>
  </Placemark>
  <Placemark>
	<Style><LineStyle><color>ff0000ff</color></LineStyle><PolyStyle><fill>0</fill></PolyStyle></Style>
	<ExtendedData><SchemaData schemaUrl="#xico2_mexican_peninsula_forest_project_project_area">
		<SimpleData name="Nombre">Ejido Noh-Bec</SimpleData>
		<SimpleData name="Superficie">20632.400000000001455</SimpleData>
		<SimpleData name="xCentroid">-88.314816</SimpleData>
		<SimpleData name="yCentroid">19.131400</SimpleData>
	</SchemaData></ExtendedData>
      <MultiGeometry><Polygon><outerBoundaryIs><LinearRing><coordinates>-88.2453248085168,19.1171980393555,0 -88.2410366351734,19.1157485429432,0 -88.2370038449657,19.1143852549852,0 -88.2321452886957,19.1104013701767,0 -88.228888398589,19.1075980571673,0 -88.2244470679683,19.1013303498377,0 -88.2277255992707,19.0924421837214,0 -88.2277440104991,19.0917551837254,0 -88.2424006206207,19.0519840856556,0 -88.3140013214859,19.0728492744785,0 -88.3210474698748,19.0749168117499,0 -88.3150373959975,19.0781271391548,0 -88.3106939751397,19.0821744657369,0 -88.3048191676453,19.0833636935747,0 -88.2900785163582,19.0892052053432,0 -88.2803153791633,19.0960891167354,0 -88.2752210510265,19.099636601218,0 -88.2656593901807,19.1060593735083,0 -88.2637792505413,19.1002388856105,0 -88.2618425342782,19.1007862574902,0 -88.2627448733897,19.1071812774849,0 -88.2547764162483,19.1098181619604,0 -88.2485655781701,19.1155942023654,0 -88.2488072698448,19.1146893725337,0 -88.2494655952597,19.1115238246115,0 -88.2480795060516,19.1111507084894,0 -88.2469771993363,19.1161827357535,0 -88.2453248085168,19.1171980393555,0</coordinates></LinearRing></outerBoundaryIs><innerBoundaryIs><LinearRing><coordinates>-88.2421492429553,19.1118602331888,0 -88.2421710001334,19.111405843391,0 -88.2413886896855,19.111052508071,0 -88.2412408260105,19.111459933255,0 -88.2408619783313,19.1112473197434,0 -88.2402193229446,19.1127578257722,0 -88.238733709381,19.1125287546064,0 -88.2384670324397,19.1138693718059,0 -88.2398015801801,19.1140755546664,0 -88.2412395853804,19.1146635503612,0 -88.2422364768495,19.1134375409199,0 -88.2430851365554,19.1125711405502,0 -88.2421492429553,19.1118602331888,0</coordinates></LinearRing></innerBoundaryIs></Polygon><Polygon><outerBoundaryIs><LinearRing><coordinates>-88.3851894405704,19.1983666476032,0 -88.3272308891703,19.1953984740306,0 -88.2083718733664,19.1567823674952,0 -88.210173584473,19.1507132300257,0 -88.212719296353,19.1421418676817,0 -88.2136409163733,19.1390385862908,0 -88.2159624760298,19.1312209422854,0 -88.2172677515379,19.126973600287,0 -88.2172971071032,19.1269747053439,0 -88.2187005818596,19.1269953648804,0 -88.2212578451474,19.1256953013126,0 -88.2244008378155,19.1290628826466,0 -88.2272356640587,19.1267307938737,0 -88.2285597237746,19.1276194707298,0 -88.2300350316934,19.1286096384966,0 -88.2329367245447,19.1276143331364,0 -88.2358447954923,19.1262032893265,0 -88.2385488719265,19.125320348511,0 -88.2392446956081,19.1255054281165,0 -88.2395638308655,19.1255903136715,0 -88.240593833964,19.126233662471,0 -88.2409401929501,19.1252576933493,0 -88.2427539918582,19.1239781771612,0 -88.2460542105165,19.1241727165187,0 -88.2472758106914,19.1235409618829,0 -88.247421316438,19.1239285188999,0 -88.2505061023978,19.1258141493743,0 -88.2507573004905,19.1252732618032,0 -88.2501393331987,19.1224886835225,0 -88.250055979778,19.1220161591725,0 -88.2500204933348,19.1218149881791,0 -88.2505433887356,19.1217476184938,0 -88.2496338149716,19.1188696439056,0 -88.2509121359355,19.1181581916457,0 -88.2518396176872,19.117068518022,0 -88.2520075962031,19.1168711637661,0 -88.2523877834219,19.1173168785569,0 -88.2531483585503,19.1175639072246,0 -88.2540040055697,19.1176312786154,0 -88.2546457408342,19.1174067072059,0 -88.2547645806981,19.1172045926768,0 -88.2547645806981,19.1148194204415,0 -88.2554051722405,19.1143682170287,0 -88.2561095541303,19.1135593572979,0 -88.256792433011,19.1126256145293,0 -88.2574554285375,19.1123165780796,0 -88.257314276718,19.1120291634265,0 -88.2575775572449,19.1118546162895,0 -88.2581089085971,19.1115314446417,0 -88.2581192761121,19.1119347704105,0 -88.2581277754987,19.1122654199435,0 -88.2581374183716,19.1126405534419,0 -88.2586345613853,19.1127672660185,0 -88.2592841287879,19.1129061753259,0 -88.2597890629483,19.1130109301887,0 -88.2599714921363,19.1130487773732,0 -88.2609163880928,19.1129466776724,0 -88.2615658752638,19.1136881377922,0 -88.2616909452164,19.1142610573224,0 -88.2615829958844,19.1159448780535,0 -88.2637934303699,19.115566318862,0 -88.2643706555799,19.1147399406572,0 -88.2652553450897,19.1146573580745,0 -88.2649610117501,19.1129954290797,0 -88.2679150752448,19.1118113579229,0 -88.2683109208458,19.1116526913055,0 -88.2683459095308,19.1126637276638,0 -88.2683625355667,19.113144153007,0 -88.26852392929,19.1132004191435,0 -88.2718949952732,19.1127830796637,0 -88.273443028771,19.1125106133017,0 -88.273428997647,19.1111165059699,0 -88.2732461791646,19.1083886524529,0 -88.2720100948772,19.1083706063922,0 -88.2719387909589,19.1071803077811,0 -88.2730083497332,19.1063268808625,0 -88.274125444453,19.1052937792275,0 -88.2751474672818,19.1043729658098,0 -88.2768825292934,19.1032825813417,0 -88.2768254861587,19.1063369872598,0 -88.280295610182,19.106319020331,0 -88.2803362504528,19.103527501593,0 -88.2803241317493,19.1022898872751,0 -88.2815321214266,19.1017792098415,0 -88.282249337543,19.1016834875166,0 -88.2822208159756,19.1022764117491,0 -88.283992718345,19.1022814650715,0 -88.2839960707282,19.1011634545156,0 -88.2849896296932,19.1010907177294,0 -88.2854208896966,19.099345051387,0 -88.285589156423,19.098962059858,0 -88.2862174005955,19.0988260794842,0 -88.2869609806073,19.0969135455025,0 -88.2872524299609,19.0956307328574,0 -88.2874684219773,19.0950284556901,0 -88.2880154251208,19.0942244631227,0 -88.2887146198406,19.0940843407248,0 -88.2896119582971,19.0939545673023,0 -88.290903325526,19.0938979046004,0 -88.2918866909402,19.093693721994,0 -88.2924292508482,19.0937180393102,0 -88.2941676108531,19.0937942717088,0 -88.2948118916228,19.0937420860371,0 -88.2958013113493,19.0928432703287,0 -88.29648863484,19.0920028071497,0 -88.2970542501144,19.0913350086944,0 -88.297469542253,19.0907999545769,0 -88.2984688092776,19.0901428849507,0 -88.3004328805623,19.0882810260546,0 -88.3048540661045,19.0885325257723,0 -88.3066960839935,19.0885325257723,0 -88.3073199932786,19.088644831115,0 -88.3075873829721,19.0888413652814,0 -88.3074091231764,19.0894871187566,0 -88.3082872082359,19.0892278067937,0 -88.3083598420869,19.0892063566855,0 -88.3084192620188,19.0885606021153,0 -88.309488820793,19.0880271507878,0 -88.3096373706229,19.0872129322903,0 -88.3100236001802,19.0868198598585,0 -88.3104395397035,19.0865390932644,0 -88.3108580178554,19.0861712802787,0 -88.3110306772293,19.0860195240571,0 -88.312608367218,19.0853879452518,0 -88.3125422380292,19.0841427851094,0 -88.3129942075984,19.0836781331965,0 -88.3135469788061,19.08327184067,0 -88.3134670122431,19.0837876745657,0 -88.3148466007984,19.0839242193376,0 -88.3148516592736,19.0838861155915,0 -88.3149875538871,19.0828624634544,0 -88.3160331122836,19.0827315382898,0 -88.3167292577525,19.0828891206471,0 -88.3179063845376,19.0831555795761,0 -88.3186824643517,19.0832345375102,0 -88.319610815401,19.0831231426993,0 -88.3201256251324,19.0829898775537,0 -88.3207287384035,19.0827421003564,0 -88.3221483396751,19.0818469690633,0 -88.3234713959702,19.0812637048291,0 -88.3244131500775,19.0839145499012,0 -88.3251727388283,19.0848265258464,0 -88.3255751949256,19.0859101226299,0 -88.3301581478212,19.0840468296438,0 -88.3304314028018,19.0832542078622,0 -88.3302234330401,19.0823276563458,0 -88.3295401038232,19.0812607118151,0 -88.3289756144701,19.080474537763,0 -88.3295103938572,19.0796602821325,0 -88.3305205326996,19.0797445156593,0 -88.3311444419846,19.0799410603883,0 -88.3315900914739,19.0800533715574,0 -88.332154580827,19.0805306931761,0 -88.3323328406227,19.0811203238651,0 -88.3331647196693,19.0815134098251,0 -88.3345610880691,19.0808957028978,0 -88.3349176076605,19.0806710816258,0 -88.3358089066391,19.0806149262602,0 -88.3362842660943,19.0812607118151,0 -88.3364328159241,19.081569564886,0 -88.3376212145622,19.0814853322876,0 -88.3381857039152,19.0812607118151,0 -88.3385719334726,19.0810080134196,0 -88.3390472929279,19.0804464600492,0 -88.3392106055439,19.0801615240257,0 -88.3776444510102,19.091257080794,0 -88.3706541707067,19.0944403641679,0 -88.3701687451534,19.0948634912628,0 -88.3624469720741,19.1015938238464,0 -88.3557298264461,19.1015952521444,0 -88.3474636002605,19.1048400283753,0 -88.345832662049,19.1054801697913,0 -88.3390885139936,19.1078366919075,0 -88.32586251615,19.1120991193099,0 -88.3253687815204,19.1122582161141,0 -88.3170885772803,19.1229169289586,0 -88.3155301969848,19.1247927873905,0 -88.3148364331556,19.125535129234,0 -88.3090962114318,19.1316769457381,0 -88.3089732749797,19.1318265975422,0 -88.3077020546034,19.1326065744583,0 -88.3074738820649,19.1329658555133,0 -88.3069224650968,19.1341694413529,0 -88.306941479475,19.1350317064118,0 -88.3071886663918,19.1357322934569,0 -88.3071126088788,19.1360736040175,0 -88.3066562638019,19.1361993498357,0 -88.3061618899684,19.1360556403212,0 -88.3057816024042,19.1369897499286,0 -88.3052111710579,19.1381214525656,0 -88.3056485017568,19.1390196237402,0 -88.3053442717055,19.1394327808397,0 -88.3046977828463,19.1398998267508,0 -88.3049639841412,19.1403668713404,0 -88.305667516135,19.1404027977926,0 -88.3058610403711,19.1405307758147,0 -88.3057491296126,19.1407232126348,0 -88.3048934667421,19.1412466554798,0 -88.3048145222716,19.1434353604578,0 -88.3054606940406,19.1444221442892,0 -88.3056485891063,19.1454135382898,0 -88.3057859688772,19.1461383937928,0 -88.3058782229263,19.1463997022102,0 -88.3055284438571,19.1463518713011,0 -88.3052206976086,19.1463041846819,0 -88.3047587644978,19.1464222179307,0 -88.3050447002929,19.146955705092,0 -88.3050170019209,19.1472099094511,0 -88.3049623616242,19.1477113746562,0 -88.3048304381406,19.1483883155748,0 -88.3045699391076,19.1489800909901,0 -88.3043989635732,19.1492936100332,0 -88.3044836673533,19.1498285242251,0 -88.3041058249234,19.1504049732772,0 -88.3030686592327,19.1504661168096,0 -88.3018931027625,19.1505354188001,0 -88.3018198082727,19.1514539655994,0 -88.3008337344093,19.1514609491792,0 -88.3007212364876,19.152513652536,0 -88.301025195712,19.152779259775,0 -88.3015832656727,19.152732276753,0 -88.302038874545,19.1526935544521,0 -88.3020308366893,19.1535727933257,0 -88.3002072399715,19.1545314790073,0 -88.298688471509,19.1553251571109,0 -88.2968919282318,19.1557075999267,0 -88.2960855956264,19.1558792493371,0 -88.2954288956162,19.1562537248887,0 -88.296139055196,19.1526475942381,0 -88.293236710441,19.1514300002187,0 -88.2901692892716,19.1476044981505,0 -88.2899546074628,19.1473367509859,0 -88.2889205627926,19.1467054369715,0 -88.2878189483467,19.1464600676718,0 -88.2873566383869,19.1459281446415,0 -88.2832610712301,19.1464265055395,0 -88.2831673855402,19.1465089952472,0 -88.2802437862087,19.1428489879311,0 -88.2802491254107,19.1421436886211,0 -88.2799731087735,19.1414667356635,0 -88.2793185727573,19.1412660133416,0 -88.2783547749917,19.1406871066789,0 -88.2778946101361,19.1407068529345,0 -88.2776095831507,19.1406850900031,0 -88.2759024993983,19.1404352891378,0 -88.2758950407955,19.1404341976692,0 -88.2760424785055,19.1411191783247,0 -88.276135077185,19.1415493790328,0 -88.2762093226436,19.1418943113917,0 -88.2762935950914,19.1422858252867,0 -88.2764074811599,19.142644693185,0 -88.2765343571828,19.1430444918739,0 -88.2766672662365,19.1434632988102,0 -88.2783908868977,19.1433917618503,0 -88.2783834348505,19.14394446875,0 -88.2783739895133,19.1446450187098,0 -88.2783706007849,19.1448963576663,0 -88.2783664730307,19.145202513257,0 -88.278434566536,19.1455474651596,0 -88.2784756676633,19.1457556768877,0 -88.2786030679836,19.1460393241719,0 -88.2790001942328,19.1457797121838,0 -88.2792153656648,19.1458527904925,0 -88.2793583257435,19.1459766394651,0 -88.2794653826643,19.1460980825252,0 -88.2795261434464,19.1461670082052,0 -88.2796133912944,19.1462659801732,0 -88.2797777394335,19.1464524127909,0 -88.2799362170307,19.1466321858063,0 -88.2799742212004,19.1467986582708,0 -88.2801359134272,19.1475069287647,0 -88.280291574566,19.1481887780387,0 -88.2803967185351,19.1486493431562,0 -88.2807160327321,19.1500480363347,0 -88.2802869281882,19.1506535249193,0 -88.2797148386922,19.1514607691701,0 -88.2795083924651,19.1517520731991,0 -88.2798876602513,19.1523185208724,0 -88.2800556364242,19.1525693976409,0 -88.280439441201,19.1527710548094,0 -88.2811853845199,19.153162984655,0 -88.2814474128689,19.153620506502,0 -88.2819584114594,19.1545127460752,0 -88.2823137752302,19.1551332334334,0 -88.2826218427881,19.1556782418249,0 -88.2832278752734,19.1567799280819,0 -88.2839663972424,19.1581224526078,0 -88.2856721570217,19.1594344001576,0 -88.2855994823312,19.1602592715804,0 -88.2854271353939,19.1622154252764,0 -88.2853827108966,19.162719643881,0 -88.2853399551915,19.1632049198078,0 -88.285326710044,19.164052268293,0 -88.2853014481604,19.1656683664796,0 -88.2852625226454,19.1681585477973,0 -88.292837483502,19.16814029056,0 -88.2926298302962,19.164791064087,0 -88.2926342913724,19.16472229351,0 -88.2929344457779,19.1648096957482,0 -88.2952997271754,19.164114855522,0 -88.2953924566851,19.1641040421242,0 -88.29794189556,19.1638067275315,0 -88.3003472251704,19.1656526059849,0 -88.3013906261152,19.1640894850421,0 -88.3018573250911,19.1633458041091,0 -88.3024205727834,19.1625019800737,0 -88.3053931783027,19.161892282995,0 -88.3076513249332,19.1585291978667,0 -88.3097339794021,19.1551430853463,0 -88.3119938718215,19.1499334189917,0 -88.3129921280576,19.1502703451674,0 -88.3132812890302,19.1497883684581,0 -88.3125662038795,19.1483602385464,0 -88.315044544418,19.1436077581851,0 -88.315440881202,19.1414558300937,0 -88.3154761190438,19.1415064767308,0 -88.315843706093,19.1399885332376,0 -88.3300547218886,19.140254000115,0 -88.3318511869542,19.1402879778747,0 -88.3319135779089,19.140142097558,0 -88.3318819107943,19.1387714274257,0 -88.3317383625826,19.1374010868106,0 -88.3323979037872,19.1361231405402,0 -88.3324882511062,19.133470052713,0 -88.333815802544,19.1319750661295,0 -88.3356954650554,19.1297333812317,0 -88.3370419423333,19.1272047852276,0 -88.3385958768958,19.1233544479741,0 -88.3396694628804,19.1233466331719,0 -88.341465585774,19.1245560840949,0 -88.3429417404318,19.1252190397402,0 -88.3443437577837,19.1254782892838,0 -88.3451779366483,19.1256406226613,0 -88.346417072806,19.1254799686801,0 -88.3478989515552,19.1246606462397,0 -88.3493937476987,19.123251709262,0 -88.3497170101277,19.1215987120825,0 -88.3505786743015,19.1207839192315,0 -88.3511908964954,19.1198025233403,0 -88.3522644846087,19.118901951776,0 -88.3531644376488,19.1184405715227,0 -88.3581429660694,19.1183533640904,0 -88.3594526293191,19.118158418808,0 -88.3600878803541,19.1178337058611,0 -88.3607602202172,19.1177108338198,0 -88.3611654023697,19.1174215048931,0 -88.3613756804963,19.1171336171599,0 -88.3624163772538,19.1165532517764,0 -88.3646765906794,19.1155932936975,0 -88.3651567822152,19.1158086914434,0 -88.3654963348583,19.1161598767124,0 -88.3663893096035,19.1170122428139,0 -88.3668893028028,19.1174801348949,0 -88.3672989050205,19.1177297371746,0 -88.3692694017259,19.1181698458194,0 -88.3697829609793,19.1181323381868,0 -88.3703460664953,19.1176565407181,0 -88.3703956129127,19.1172182531878,0 -88.3703223790142,19.1169324672135,0 -88.3701069831629,19.1165972112112,0 -88.3695912090737,19.116365248581,0 -88.3679579347403,19.11599000742,0 -88.366760841408,19.1147862034944,0 -88.3677817069645,19.1139533104262,0 -88.3682919289529,19.1135115988016,0 -88.3694383298653,19.1128630376018,0 -88.3698087428391,19.1126581644329,0 -88.37073752058,19.1114048669134,0 -88.37158352993,19.110859588131,0 -88.3721516663088,19.1106859936612,0 -88.37251172962,19.109538914506,0 -88.3731016141564,19.1080186439792,0 -88.3738523358795,19.1066656021032,0 -88.3746603714354,19.1058174197801,0 -88.3754035179545,19.1056939686139,0 -88.3773019006348,19.1059997940796,0 -88.3786124065607,19.103783553756,0 -88.3785872678992,19.1037234380465,0 -88.3792012876,19.1034312131454,0 -88.3808594143024,19.102579047082,0 -88.3820632972539,19.1019130452061,0 -88.3828138360695,19.101607190537,0 -88.3832497130598,19.1014295650445,0 -88.384198442634,19.1010429449481,0 -88.3854210805177,19.1005574461505,0 -88.3863128675699,19.0997623725365,0 -88.3870996206504,19.0988038443571,0 -88.3882576626912,19.0967913664603,0 -88.3887271967124,19.0963472273299,0 -88.3892797622311,19.095824546926,0 -88.3901851315686,19.0949681504717,0 -88.3904022057812,19.0944015079209,0 -88.4235217097259,19.0970711422925,0 -88.406766076604,19.1481247790921,0 -88.4046180134798,19.1548688827877,0 -88.4045378644366,19.1551205104841,0 -88.4039395811804,19.156998796566,0 -88.4009307369518,19.1664443388873,0 -88.3989224774901,19.1727482266455,0 -88.3965461814333,19.1771676875316,0 -88.3962818726367,19.1776592364612,0 -88.3955350556963,19.1790481144209,0 -88.394231668605,19.1814720036625,0 -88.3931498264918,19.1834838320883,0 -88.3851894405704,19.1983666476032,0</coordinates></LinearRing></outerBoundaryIs><innerBoundaryIs><LinearRing><coordinates>-88.2757857416272,19.1365812640839,0 -88.2765031685188,19.1365498869384,0 -88.2773021806193,19.1359380851578,0 -88.2787486474384,19.1347573017811,0 -88.2798776981704,19.1338396014237,0 -88.2784343604247,19.1290905827881,0 -88.2770258972496,19.126182821375,0 -88.2744638753819,19.1267506285275,0 -88.2740938621599,19.1268899834475,0 -88.274084058311,19.1269594787541,0 -88.2739355385126,19.1270411450719,0 -88.2731089365593,19.1272383040947,0 -88.2718914546872,19.1277207294489,0 -88.2683177244114,19.1291367531773,0 -88.2693978189118,19.132190385753,0 -88.2701639611466,19.1336678091336,0 -88.2709644251699,19.1363407232945,0 -88.2710986845917,19.136924055067,0 -88.27115615882,19.1369982255332,0 -88.2712178067254,19.1370777820286,0 -88.2712577440184,19.1371293283417,0 -88.2712606095939,19.137131372527,0 -88.2713487957904,19.1372468228083,0 -88.2713562211732,19.1372652343538,0 -88.2714257404628,19.1374376100918,0 -88.2718001655291,19.1375390350607,0 -88.2718213595793,19.137531016538,0 -88.2740118150865,19.1367022661233,0 -88.2757952875185,19.136593880815,0 -88.2757857416272,19.1365812640839,0</coordinates></LinearRing></innerBoundaryIs></Polygon></MultiGeometry>
  </Placemark>
  <Placemark>
	<Style><LineStyle><color>ff0000ff</color></LineStyle><PolyStyle><fill>0</fill></PolyStyle></Style>
	<ExtendedData><SchemaData schemaUrl="#xico2_mexican_peninsula_forest_project_project_area">
		<SimpleData name="Nombre">Ejido Santa Maria Poniente</SimpleData>
		<SimpleData name="Superficie">5045.000000000000000</SimpleData>
		<SimpleData name="xCentroid">-88.400754</SimpleData>
		<SimpleData name="yCentroid">19.329952</SimpleData>
	</SchemaData></ExtendedData>
      <MultiGeometry><Polygon><outerBoundaryIs><LinearRing><coordinates>-88.37770026,19.3729642490001,0 -88.3608671739999,19.3730255740001,0 -88.360668892,19.368873087,0 -88.360666965,19.3688324600001,0 -88.360373351,19.3626490040001,0 -88.359508784,19.344436751,0 -88.358594703,19.3251739040001,0 -88.357971384,19.3120339450001,0 -88.357841588,19.3096444940001,0 -88.35785971,19.3095986430001,0 -88.363349741,19.295707021,0 -88.3750618569999,19.297220479,0 -88.381935146,19.2981082900001,0 -88.387576256,19.2962583760001,0 -88.390125404,19.2939641080001,0 -88.3967885879999,19.2879666980001,0 -88.401025049,19.289191428,0 -88.409147036,19.291539104,0 -88.417474128,19.293945613,0 -88.4258043989999,19.29635258,0 -88.434391147,19.298833174,0 -88.442960851,19.301308357,0 -88.451653111,19.3038184400001,0 -88.4605123899999,19.306376238,0 -88.4528401799999,19.3235886520001,0 -88.4440455019999,19.343314848,0 -88.43624635,19.340618375,0 -88.4281755369999,19.337827522,0 -88.4200463479999,19.335016015,0 -88.4275540099999,19.3171663250001,0 -88.4264853719999,19.316894817,0 -88.418021868,19.3147442390001,0 -88.409564478,19.312594757,0 -88.401437921,19.310528928,0 -88.399222874,19.309965774,0 -88.3930835419999,19.3099118760001,0 -88.385308921,19.309843324,0 -88.3718801859999,19.309724137,0 -88.369380521,19.309701842,0 -88.369422605,19.325136158,0 -88.376873501,19.3251098110001,0 -88.386321283,19.325075965,0 -88.3864794079999,19.343808707,0 -88.387860724,19.343776434,0 -88.397250393,19.343556776,0 -88.3977260459999,19.3621997510001,0 -88.394005848,19.362244839,0 -88.39400267,19.3623248650001,0 -88.405844229,19.36858425,0 -88.420454485,19.363835782,0 -88.4215943139999,19.359845041,0 -88.4365076489999,19.3603101290001,0 -88.4313059789999,19.3723105730001,0 -88.417946035,19.3726176820001,0 -88.404835052,19.3729181140001,0 -88.404830872,19.3729180830001,0 -88.404771566,19.372917583,0 -88.404755437,19.372917446,0 -88.3985513869999,19.3728847860001,0 -88.396728057,19.372893053,0 -88.3935824859999,19.3729049600001,0 -88.37770026,19.3729642490001,0</coordinates></LinearRing></outerBoundaryIs></Polygon></MultiGeometry>
  </Placemark>
  <Placemark>
	<Style><LineStyle><color>ff0000ff</color></LineStyle><PolyStyle><fill>0</fill></PolyStyle></Style>
	<ExtendedData><SchemaData schemaUrl="#xico2_mexican_peninsula_forest_project_project_area">
		<SimpleData name="Nombre">Ejido Tabi</SimpleData>
		<SimpleData name="Superficie">2701.340000000000146</SimpleData>
		<SimpleData name="xCentroid">-88.282920</SimpleData>
		<SimpleData name="yCentroid">19.751263</SimpleData>
	</SchemaData></ExtendedData>
      <MultiGeometry><Polygon><outerBoundaryIs><LinearRing><coordinates>-88.2785910276413,19.7176062142776,0 -88.2850630348302,19.7166439741298,0 -88.2869487323005,19.7160230130301,0 -88.2943449442484,19.7148868286022,0 -88.2957407363349,19.7150044333972,0 -88.3097193642795,19.7189225776957,0 -88.3062525702823,19.7663344677016,0 -88.3048953781534,19.7750887856097,0 -88.2871216350749,19.7750816276424,0 -88.2871197882181,19.7750816268059,0 -88.2870903516255,19.7750816134691,0 -88.2870840081108,19.7750816105943,0 -88.2870821593165,19.7750816097565,0 -88.2810332566488,19.7750787694185,0 -88.2364580980863,19.7751722465853,0 -88.2372737609707,19.7612806944084,0 -88.2472183945496,19.7612580474122,0 -88.2476239274539,19.7567100448176,0 -88.2563940563514,19.7568806002472,0 -88.2564397728411,19.7564628662265,0 -88.2665291637443,19.7562062482857,0 -88.2664838397856,19.7566703599562,0 -88.2761621735104,19.7570886015834,0 -88.2761993927848,19.758688410244,0 -88.2859010328374,19.7589436256602,0 -88.286182816756,19.7543732869687,0 -88.2841232764645,19.7541097988256,0 -88.2846889792178,19.7421631771229,0 -88.2849583688647,19.7421612447214,0 -88.284973581231,19.7410016627427,0 -88.2767901053017,19.7405732021271,0 -88.2771178096354,19.7355851190203,0 -88.2780373786001,19.7263041983711,0 -88.2779914412708,19.7263016272316,0 -88.2785910276413,19.7176062142776,0</coordinates></LinearRing></outerBoundaryIs></Polygon></MultiGeometry>
  </Placemark>
  <Placemark>
	<Style><LineStyle><color>ff0000ff</color></LineStyle><PolyStyle><fill>0</fill></PolyStyle></Style>
	<ExtendedData><SchemaData schemaUrl="#xico2_mexican_peninsula_forest_project_project_area">
		<SimpleData name="Nombre">Ejido Tixcacal Guardia</SimpleData>
		<SimpleData name="Superficie">2210.280000000000200</SimpleData>
		<SimpleData name="xCentroid">-88.193648</SimpleData>
		<SimpleData name="yCentroid">19.812836</SimpleData>
	</SchemaData></ExtendedData>
      <MultiGeometry><Polygon><outerBoundaryIs><LinearRing><coordinates>-88.218568122,19.834511166,0 -88.218735592,19.8342819520001,0 -88.21868847,19.8342511230001,0 -88.218502639,19.834505468,0 -88.2123038729999,19.833965975,0 -88.202800334,19.8331384330001,0 -88.193281737,19.8323090600001,0 -88.193050911,19.8231415240001,0 -88.183504562,19.8222785500001,0 -88.174051777,19.8214235190001,0 -88.174290378,19.830617163,0 -88.1647853999999,19.829767549,0 -88.1645458569999,19.8205631650001,0 -88.1643098249999,19.811491529,0 -88.1640716899999,19.802336893,0 -88.163834689,19.7932236480001,0 -88.173341197,19.7940307350001,0 -88.1788528769999,19.794498431,0 -88.1828267489999,19.794857741,0 -88.192360801,19.795719424,0 -88.201854678,19.796576958,0 -88.211355641,19.797434615,0 -88.22087297,19.79829323,0 -88.221104301,19.807422429,0 -88.221337992,19.816642459,0 -88.221568034,19.8257163100001,0 -88.2217981859999,19.8347921980001,0 -88.2217900829999,19.834791493,0 -88.221779586,19.83479058,0 -88.218568122,19.834511166,0</coordinates></LinearRing></outerBoundaryIs></Polygon></MultiGeometry>
  </Placemark>
  <Placemark>
	<Style><LineStyle><color>ff0000ff</color></LineStyle><PolyStyle><fill>0</fill></PolyStyle></Style>
	<ExtendedData><SchemaData schemaUrl="#xico2_mexican_peninsula_forest_project_project_area">
		<SimpleData name="Nombre">Ejido X-Maben y anexos</SimpleData>
		<SimpleData name="Superficie">40030.300000000002910</SimpleData>
		<SimpleData name="xCentroid">-88.006908</SimpleData>
		<SimpleData name="yCentroid">19.771875</SimpleData>
	</SchemaData></ExtendedData>
      <MultiGeometry><Polygon><outerBoundaryIs><LinearRing><coordinates>-88.1419875463212,19.7827454487363,0 -88.1185767543027,19.7806441454745,0 -88.1210024911343,19.7615965442351,0 -88.1080176104012,19.7602932226428,0 -88.1130924108363,19.7243048603777,0 -88.1010136988991,19.7226126933582,0 -88.1036029585125,19.7034828169758,0 -88.0913979587022,19.7023109087945,0 -88.09396316182,19.6857710846838,0 -88.1380525526581,19.6897590553998,0 -88.1451796000012,19.6904026700003,0 -88.1736155394565,19.6964613598891,0 -88.1701300813779,19.7322839814474,0 -88.1657351559061,19.7774375157928,0 -88.1429257197002,19.7747309281785,0 -88.1419875463212,19.7827454487363,0</coordinates></LinearRing></outerBoundaryIs></Polygon><Polygon><outerBoundaryIs><LinearRing><coordinates>-87.9820884192749,19.9122139793208,0 -87.9125805127007,19.9093593077754,0 -87.9145787521908,19.8878408864492,0 -87.917926053754,19.8517847631528,0 -87.9212860819708,19.8155789019501,0 -87.9253342773298,19.7719409436306,0 -87.944195858825,19.772288731522,0 -87.9447387595282,19.7627587023537,0 -87.9495955199337,19.7631143927094,0 -87.9497518240632,19.7541329430715,0 -87.8867477818437,19.7514907097329,0 -87.8889348055995,19.7184257242966,0 -87.9085892798826,19.6866760319501,0 -87.9311981971308,19.6868072677016,0 -87.9701655786412,19.6870390582183,0 -87.9859802967524,19.686982706,0 -87.9904584298728,19.6864376048002,0 -88.0047700639408,19.6863634901469,0 -88.0144919806388,19.6880075720122,0 -88.0235871520764,19.6900793801866,0 -88.0289692394026,19.6905918359561,0 -88.0430425449694,19.6920637090767,0 -88.049331660055,19.691594564257,0 -88.0494472296178,19.6817332907572,0 -88.0777901477767,19.6843054261473,0 -88.0782171563234,19.7206815457945,0 -88.0786381036499,19.7564891343244,0 -88.0788323677119,19.7729966403321,0 -88.0686386000214,19.7724147366579,0 -88.0678557145288,19.7908546224016,0 -88.0590209824435,19.790478455225,0 -88.0588498036278,19.7988396301859,0 -88.0495602816577,19.7982513429638,0 -88.0495082977219,19.7903201947725,0 -88.0403886536616,19.7901629855692,0 -88.0398922862331,19.8084010210273,0 -88.0235764370479,19.807698471638,0 -88.0224187170087,19.8241388899483,0 -88.0175557532409,19.8783015788256,0 -87.9922033621143,19.8759812674155,0 -87.9905639626383,19.8944399851386,0 -87.9825387104374,19.8937445793833,0 -87.9820884192749,19.9122139793208,0</coordinates></LinearRing></outerBoundaryIs></Polygon></MultiGeometry>
  </Placemark>
  <Placemark>
	<Style><LineStyle><color>ff0000ff</color></LineStyle><PolyStyle><fill>0</fill></PolyStyle></Style>
	<ExtendedData><SchemaData schemaUrl="#xico2_mexican_peninsula_forest_project_project_area">
		<SimpleData name="Nombre">Ejido Yaxley</SimpleData>
		<SimpleData name="Superficie">7543.689999999999600</SimpleData>
		<SimpleData name="xCentroid">-88.220651</SimpleData>
		<SimpleData name="yCentroid">19.767259</SimpleData>
	</SchemaData></ExtendedData>
      <MultiGeometry><Polygon><outerBoundaryIs><LinearRing><coordinates>-88.1736154129999,19.696461376,0 -88.183110275,19.6983321740001,0 -88.1923705969999,19.700156228,0 -88.1970499399999,19.701077743,0 -88.1970895229999,19.701085538,0 -88.2193139419999,19.705460417,0 -88.2376692299999,19.7090713740002,0 -88.23663999,19.723017812,0 -88.2362639559999,19.7281128080001,0 -88.2354972469999,19.7385005510002,0 -88.2341708199999,19.756469718,0 -88.233814314,19.761298918,0 -88.217088818,19.758123144,0 -88.215664328,19.757852588,0 -88.2159978849999,19.7530650280001,0 -88.216704595,19.742921027,0 -88.2168567079999,19.7407375210001,0 -88.217597898,19.730097637,0 -88.2090605999999,19.7279344420002,0 -88.2095174989998,19.722811437,0 -88.209950604,19.7179550140001,0 -88.200637453,19.7157737620001,0 -88.2004655509999,19.7176304260001,0 -88.200211736,19.7203717430002,0 -88.200189235,19.72036676,0 -88.1997164809999,19.724751638,0 -88.1902632319999,19.7227588650001,0 -88.1892077389999,19.733026397,0 -88.1883670489999,19.741203707,0 -88.1791643859999,19.7389920330002,0 -88.178648533,19.7443064850001,0 -88.1778940009999,19.7520794130001,0 -88.1840212599816,19.7535412565004,0 -88.1820467511487,19.7677041567994,0 -88.2313141076748,19.7730470365623,0 -88.2293556996849,19.7829623413809,0 -88.2262318176014,19.7987761626853,0 -88.178852877021,19.7944984403742,0 -88.179077269503,19.7852648875428,0 -88.1648694937141,19.7863279027949,0 -88.16842339,19.7498194410001,0 -88.1710034259999,19.723307764,0 -88.171542551,19.717767088,0 -88.1736154129999,19.696461376,0</coordinates></LinearRing></outerBoundaryIs></Polygon><Polygon><outerBoundaryIs><LinearRing><coordinates>-88.2810330299999,19.7750787950001,0 -88.281032295,19.7932460500001,0 -88.2810316909999,19.8113533010001,0 -88.2810315739998,19.8153724480001,0 -88.2808696889999,19.820507107,0 -88.2806666407072,19.8269473823932,0 -88.2290082944146,19.8268107043501,0 -88.2290463371091,19.8221386697057,0 -88.2290463859999,19.822132664,0 -88.229123274,19.812689982,0 -88.2336297389999,19.8125515880001,0 -88.2335383909999,19.8030229350001,0 -88.2334964929999,19.7986509190001,0 -88.2334521819999,19.7940260290002,0 -88.2424451449999,19.7938013510001,0 -88.2424127849999,19.784765953,0 -88.252902398,19.7845499560001,0 -88.252782903,19.7793594400002,0 -88.252685766,19.7751395280001,0 -88.2715957429999,19.7750995130001,0 -88.2810330299999,19.7750787950001,0</coordinates></LinearRing></outerBoundaryIs></Polygon></MultiGeometry>
  </Placemark>
  <Placemark>
	<Style><LineStyle><color>ff0000ff</color></LineStyle><PolyStyle><fill>0</fill></PolyStyle></Style>
	<ExtendedData><SchemaData schemaUrl="#xico2_mexican_peninsula_forest_project_project_area">
		<SimpleData name="Nombre">Ejido Yoactun</SimpleData>
		<SimpleData name="Superficie">13625.100000000000364</SimpleData>
		<SimpleData name="xCentroid">-88.303881</SimpleData>
		<SimpleData name="yCentroid">19.478586</SimpleData>
	</SchemaData></ExtendedData>
      <MultiGeometry><Polygon><outerBoundaryIs><LinearRing><coordinates>-88.3764931097228,19.4414418161356,0 -88.3775540051614,19.4370081389651,0 -88.3786148507552,19.4325744570216,0 -88.3804033161855,19.4331766511109,0 -88.3821917937554,19.4337788267211,0 -88.3832563772793,19.4293289035692,0 -88.3843209106606,19.4248789756292,0 -88.3937919158175,19.42806754908,0 -88.4032627307555,19.4312554257219,0 -88.3989579876952,19.4490041180755,0 -88.3877259291883,19.445223540518,0 -88.3764931097228,19.4414418161356,0</coordinates></LinearRing></outerBoundaryIs></Polygon><Polygon><outerBoundaryIs><LinearRing><coordinates>-88.3446964036389,19.4707408717261,0 -88.3514018638091,19.4810293119791,0 -88.3450509514082,19.4838510011013,0 -88.3376439411904,19.4780941830039,0 -88.3446964036389,19.4707408717261,0</coordinates></LinearRing></outerBoundaryIs></Polygon><Polygon><outerBoundaryIs><LinearRing><coordinates>-88.34055617885,19.4963040553434,0 -88.3570496819819,19.5002345641636,0 -88.358794364055,19.4944512689055,0 -88.3699670282312,19.4972619884777,0 -88.3700905551716,19.4973335075046,0 -88.366807944552,19.5108882184429,0 -88.366807944552,19.5108882184429,0 -88.3644294358516,19.5207096689996,0 -88.3635072823197,19.5244198101001,0 -88.3626263625979,19.5281550043091,0 -88.3611541811022,19.5342340057305,0 -88.3608867096765,19.5352275494107,0 -88.3603166318347,19.537345097591,0 -88.3571065547645,19.5371878214199,0 -88.3350305739104,19.536106219432,0 -88.3350304027135,19.5361062110443,0 -88.3350303557599,19.5361062291227,0 -88.3350301852321,19.536106236698,0 -88.3306998287692,19.5377378572843,0 -88.3263693795466,19.5393693788818,0 -88.3254694567622,19.5397874403284,0 -88.2938971431903,19.5519436564474,0 -88.2871294673102,19.5501382920328,0 -88.2871294556847,19.5501382889316,0 -88.2672635945925,19.5448388154761,0 -88.2649257526308,19.5441379958295,0 -88.265552618717,19.5324866980998,0 -88.2657674036865,19.5290521460149,0 -88.2651671137968,19.5018204548322,0 -88.2650954140685,19.4985678515592,0 -88.2649106192166,19.4901847746073,0 -88.2630724805623,19.4832873624099,0 -88.25866309157,19.4667416174268,0 -88.2463612424555,19.4470904236159,0 -88.2445893992496,19.4447954729074,0 -88.2509040317337,19.4306598992073,0 -88.2564442190206,19.4233891469327,0 -88.2598345836519,19.4123502075682,0 -88.2599997917759,19.4118123301401,0 -88.2601659108541,19.4112714147854,0 -88.263555359157,19.4002354589626,0 -88.2777271807304,19.4021100435835,0 -88.2918994748338,19.4039835324864,0 -88.3115312971689,19.4065768275304,0 -88.3114522407735,19.4070097565796,0 -88.3078516931996,19.4247232473036,0 -88.3208971524507,19.42815427399,0 -88.3339431031168,19.43158432939,0 -88.3334728275872,19.4466800388824,0 -88.3337002587655,19.4780291819674,0 -88.332060620315,19.4883866623665,0 -88.34055617885,19.4963040553434,0</coordinates></LinearRing></outerBoundaryIs></Polygon></MultiGeometry>
  </Placemark>
</Folder>
</Document></kml>
