<?xml version="1.0" encoding="UTF-8"?>
<kml xmlns="http://www.opengis.net/kml/2.2" xmlns:gx="http://www.google.com/kml/ext/2.2" xmlns:kml="http://www.opengis.net/kml/2.2" xmlns:atom="http://www.w3.org/2005/Atom">
<Placemark id="1.2.1">
	<name>Nashik</name>
	<address>Maharashtra</address>
	<snippet>Maharashtra</snippet>
	<description><![CDATA[<!DOCTYPE html><html><head></head><body><script type="text/javascript">window.location.href="https://www.google.com/earth/rpc/entity?lat=19.99096305&lng=73.80348084999999&fid=0x3bddd290b09914b3:0xcb07845d9d28215c&hl=en&gl=in&client=earth-client&cv=7.3.4.8642&useragent=GoogleEarth/7.3.4.8642(Windows;Microsoft Windows (6.2.9200.0);en;kml:2.2;client:Pro;type:default)";</script></body></html>]]></description>
	<styleUrl>#geocode</styleUrl>
	<ExtendedData>
		<Data name="placepageUri">
			<value>https://www.google.com/earth/rpc/entity?lat=19.99096305&amp;lng=73.80348084999999&amp;fid=0x3bddd290b09914b3:0xcb07845d9d28215c&amp;hl=en&amp;gl=in&amp;client=earth-client&amp;cv=7.3.4.8642&amp;useragent=GoogleEarth/7.3.4.8642(Windows;Microsoft Windows (6.2.9200.0);en;kml:2.2;client:Pro;type:default)</value>
		</Data>
	</ExtendedData>
	<MultiGeometry>
		<Point>
			<coordinates>73.78980229999999,19.9974533,0</coordinates>
		</Point>
		<LinearRing>
			<coordinates>
				73.65822643460994,19.89877140095746,0 73.65822643460994,20.09613519904254,0 73.92137816539004,20.09613519904254,0 73.92137816539004,19.89877140095746,0 73.65822643460994,19.89877140095746,0 
			</coordinates>
		</LinearRing>
	</MultiGeometry>
</Placemark>
</kml>
