<?xml version="1.0" encoding="UTF-8"?>
<kml xmlns="http://www.opengis.net/kml/2.2" xmlns:gx="http://www.google.com/kml/ext/2.2" xmlns:kml="http://www.opengis.net/kml/2.2" xmlns:atom="http://www.w3.org/2005/Atom">
<Document id="Hilton_Project_Boundary" xsi:schemaLocation="http://www.opengis.net/kml/2.2 http://schemas.opengis.net/kml/2.2.0/ogckml22.xsd http://www.google.com/kml/ext/2.2 http://code.google.com/apis/kml/schema/kml22gx.xsd">
	<name>Hilton_Project_Boundary</name>
	<snippet></snippet>
	<atom:link rel="app" href="https://www.google.com/earth/about/versions/#earth-pro" title="Google Earth Pro 7.3.6.10201"></atom:link>
	<Style id="PolyStyle00">
		<LabelStyle>
			<color>00000000</color>
			<scale>0</scale>
		</LabelStyle>
		<LineStyle>
			<color>ff0000e6</color>
			<width>2</width>
		</LineStyle>
		<PolyStyle>
			<color>00828282</color>
		</PolyStyle>
	</Style>
	<Folder id="FeatureLayer0">
		<name>Hilton_Project_Boundary</name>
		<snippet></snippet>
		<Placemark id="ID_00000">
			<name>Hilton</name>
			<snippet></snippet>
			<description><![CDATA[<html xmlns:fo="http://www.w3.org/1999/XSL/Format" xmlns:msxsl="urn:schemas-microsoft-com:xslt">

<head>

<META http-equiv="Content-Type" content="text/html">

<meta http-equiv="content-type" content="text/html; charset=UTF-8">

</head>

<body style="margin:0px 0px 0px 0px;overflow:auto;background:#FFFFFF;">

<table style="font-family:Arial,Verdana,Times;font-size:12px;text-align:left;width:100%;border-collapse:collapse;padding:3px 3px 3px 3px">

<tr style="text-align:center;font-weight:bold;background:#9CBCE2">

<td>Hilton</td>

</tr>

<tr>

<td>

<table style="font-family:Arial,Verdana,Times;font-size:12px;text-align:left;width:100%;border-spacing:0px; padding:3px 3px 3px 3px">

<tr>

<td>Name</td>

<td>Hilton</td>

</tr>

<tr bgcolor="#D4E4F3">

<td>Area</td>

<td>1399.425984</td>

</tr>

</table>

</td>

</tr>

</table>

</body><script type="text/javascript">

				function changeImage(attElement, nameElement) {

				document.getElementById('imageAttachment').src = attElement;

				document.getElementById('imageName').innerHTML = nameElement;}

			</script></html>]]></description>
			<styleUrl>#PolyStyle00</styleUrl>
			<MultiGeometry>
				<Polygon>
					<outerBoundaryIs>
						<LinearRing>
							<coordinates>
								26.31796503615121,-33.24052032763017,0 26.30116581089516,-33.23666159089562,0 26.29291152807737,-33.23614867821088,0 26.29118854771805,-33.23598298711163,0 26.29302532891824,-33.24703557832972,0 26.29401050581321,-33.24712903421845,0 26.29603432620479,-33.24715917165178,0 26.2981090415453,-33.24747189142171,0 26.29956363151046,-33.24755558384228,0 26.30269812752606,-33.24781654344734,0 26.30567163550279,-33.24798568124922,0 26.31020184507795,-33.24837642059222,0 26.31282967178191,-33.24857268644369,0 26.31482275694225,-33.24866976673177,0 26.31591959891427,-33.24877565625123,0 26.31640913996725,-33.24865443007312,0 26.31640962526893,-33.24863084065716,0 26.31718964798698,-33.24895924626212,0 26.31788277044733,-33.24851928932819,0 26.31866349208179,-33.24837834897931,0 26.31967609547339,-33.24814651386459,0 26.32064801809928,-33.24793143877474,0 26.32185098488723,-33.2479302534451,0 26.32285644874519,-33.24798509624692,0 26.32424566713404,-33.24829200941302,0 26.32541712117027,-33.24853616079415,0 26.32725919592952,-33.24898807863156,0 26.32835798800001,-33.24909244038456,0 26.32909245872611,-33.24953617800563,0 26.32892549859282,-33.25038152798687,0 26.32885670031563,-33.25126864035403,0 26.32872181086921,-33.25324011342592,0 26.32865815020851,-33.25604749937644,0 26.32845169434868,-33.25931621293849,0 26.32846917946818,-33.26066640827105,0 26.3283918262353,-33.26134710706378,0 26.32900265619864,-33.26124468884284,0 26.32985938058895,-33.26138820244458,0 26.33113343749699,-33.2618112834081,0 26.33212975988259,-33.26212974067278,0 26.33297725240015,-33.26261221412101,0 26.33351836759672,-33.26272245713009,0 26.33370605473901,-33.2632820319126,0 26.33395953610365,-33.263688815189,0 26.33466442244493,-33.26387211819105,0 26.33543594139843,-33.26400803633506,0 26.33641698233546,-33.26402307323632,0 26.33735731948299,-33.26415576914174,0 26.33823143681771,-33.26415806502877,0 26.33877600934218,-33.26436065239242,0 26.33931423807475,-33.26416507803773,0 26.33972258358257,-33.2642958246842,0 26.34012472462048,-33.26411944417836,0 26.34049098126124,-33.2636129086078,0 26.34078939013015,-33.26280586804756,0 26.34078499747577,-33.26214230626511,0 26.34105507806067,-33.26164170889038,0 26.34147277525245,-33.26123451756251,0 26.34212249141421,-33.26009274835592,0 26.34251175407368,-33.26006610906145,0 26.34286587352781,-33.26047039861881,0 26.3437474149931,-33.26078530344147,0 26.34451610364965,-33.26083147127918,0 26.3453348300038,-33.26082143410714,0 26.3461653257996,-33.26091191736718,0 26.3471728326478,-33.26103279303431,0 26.34806323242676,-33.26117933922509,0 26.34875212036929,-33.26158540571294,0 26.34951096930843,-33.26178686837723,0 26.35007511354691,-33.26197811502281,0 26.35006676397835,-33.26201463119468,0 26.35075404630964,-33.26220827630873,0 26.35158009048609,-33.26244101773871,0 26.35318214800308,-33.26304534482055,0 26.35241458612553,-33.26411300766124,0 26.35477291860244,-33.26470966057489,0 26.35693389530167,-33.2650945628522,0 26.35753002964086,-33.265441285999,0 26.359574951865,-33.2653919427507,0 26.36141374451132,-33.26556879197269,0 26.36299168572068,-33.26569899323179,0 26.36372414476294,-33.26593554306133,0 26.36336868146942,-33.26717540011159,0 26.36295148112848,-33.26829972283595,0 26.36272818509874,-33.26922294111353,0 26.36260193752614,-33.26973188712525,0 26.36336321747859,-33.27186421706717,0 26.36433211829917,-33.274210194844,0 26.36460081670987,-33.27550003536926,0 26.36566432063596,-33.2759625003258,0 26.36662537870316,-33.27615818192282,0 26.36736306403034,-33.27650120731758,0 26.36770853561049,-33.2762314991161,0 26.36938567930216,-33.27672548493862,0 26.37071355543135,-33.27739213542764,0 26.37198944987861,-33.27798038998019,0 26.37373321348525,-33.27831935534041,0 26.3750873158181,-33.27840455330715,0 26.3772383243273,-33.27899726489785,0 26.37813755719661,-33.27950961876643,0 26.38048057473577,-33.28005682728638,0 26.38120382617599,-33.25803883082228,0 26.37867096272764,-33.25739965811007,0 26.37656760604987,-33.25690802225574,0 26.3746933084946,-33.2567118710549,0 26.37142223812991,-33.25577655420087,0 26.36849485083687,-33.25485921600654,0 26.36588118567064,-33.25389187473898,0 26.36442097346634,-33.25323125324358,0 26.36244970983098,-33.25240942695949,0 26.36137670853294,-33.25193366937031,0 26.36113502206682,-33.25181642091319,0 26.36025837738209,-33.25077590508784,0 26.35981417508079,-33.25024866843876,0 26.35859765089884,-33.24920633129578,0 26.35782386884255,-33.24857054340689,0 26.35657632250251,-33.24786260375068,0 26.35556051685501,-33.24712136909537,0 26.35396870964462,-33.2461090132231,0 26.35311567214567,-33.2452743030301,0 26.35099109705307,-33.24295977643364,0 26.34982261216242,-33.24279021340841,0 26.34841648153563,-33.24277620918334,0 26.34568364775104,-33.2429294113867,0 26.34189811684601,-33.24191329820912,0 26.33943239853232,-33.24270222073925,0 26.33698560281339,-33.24306141662592,0 26.3331267954124,-33.24330583645138,0 26.33011866549381,-33.24230095018947,0 26.32413817615321,-33.24225757778617,0 26.31850650682051,-33.24091003996952,0 26.31788543746197,-33.24076143071027,0 26.31785922696292,-33.24076581669619,0 26.31796503615121,-33.24052032763017,0 
							</coordinates>
						</LinearRing>
					</outerBoundaryIs>
				</Polygon>
			</MultiGeometry>
		</Placemark>
	</Folder>
</Document>
</kml>
