<?xml version="1.0" encoding="utf-8" ?>
<kml xmlns="http://www.opengis.net/kml/2.2">
<Document id="root_doc">
<Schema name="properties_area_TDX" id="properties_area_TDX">
	<SimpleField name="municipio" type="string"></SimpleField>
	<SimpleField name="estado" type="string"></SimpleField>
	<SimpleField name="area_ha" type="float"></SimpleField>
	<SimpleField name="id" type="int"></SimpleField>
</Schema>
<Folder><name>properties_area_TDX</name>
  <Placemark>
	<name>Didacio</name>
	<Style><LineStyle><color>ff0000ff</color></LineStyle><PolyStyle><fill>0</fill></PolyStyle></Style>
	<ExtendedData><SchemaData schemaUrl="#properties_area_TDX">
		<SimpleData name="municipio">Altamira</SimpleData>
		<SimpleData name="estado">PA</SimpleData>
		<SimpleData name="area_ha">1880.197</SimpleData>
		<SimpleData name="id">1</SimpleData>
	</SchemaData></ExtendedData>
      <MultiGeometry><Polygon><outerBoundaryIs><LinearRing><coordinates>-53.4189782115928,-6.11867416530542,255.48 -53.4150080663924,-6.11689937228072,281.634 -53.3911164690476,-6.118706821469,281.634 -53.3833741476643,-6.11959657886928,288.883 -53.38330972,-6.11991527999999,288.607 -53.38300778,-6.12043639,286.323 -53.38249222,-6.12204639,284.167 -53.38248056,-6.12365693999998,277.899 -53.38257889,-6.12392333,276.45 -53.38182417,-6.12972556000001,242.05 -53.38185694,-6.1300075,241.472 -53.38034861,-6.13038389,238.009 -53.37962389,-6.13072861000001,236.113 -53.37497472,-6.13162471999998,229.09 -53.37382722,-6.13207306000001,229.508 -53.37325972,-6.13210055999999,228.314 -53.3679925,-6.13351582999999,230.027 -53.36745306,-6.13391972,228.86 -53.36599583,-6.13452139000001,225.979 -53.36529889,-6.13505111000001,226.909 -53.3651375,-6.13560417,228.197 -53.36478389,-6.13608528,231.149 -53.36603056,-6.13593361,226.304 -53.38177778,-6.13451249999999,229.759 -53.38119389,-6.13675556000001,224.334 -53.38068833,-6.13903250000001,219.951 -53.38064972,-6.13919888999998,219.251 -53.38061306,-6.14027221999999,218.668 -53.38048611,-6.14029416999999,218.548 -53.37902333,-6.14096528,218.057 -53.37789417,-6.14223000000002,219.076 -53.37611,-6.14341417,219.149 -53.37540861,-6.1461,214.717 -53.37483333,-6.14788888999999,213.853 -53.37802972,-6.15484667000001,210.03 -53.38603889,-6.14925360999999,274.995 -53.38841194,-6.14895833,254.76 -53.40538167,-6.14699555999999,279.951 -53.40414417,-6.14970611,284.079 -53.40569278,-6.14983361000001,280.235 -53.40605972,-6.15169443999999,302.951 -53.41045472,-6.15180499999999,290.658 -53.41778528,-6.13378693999999,302.87 -53.426815,-6.13544250000001,271.111 -53.42818139,-6.13288667,296.001 -53.44370917,-6.14322028000002,271.111 -53.449105,-6.14654527999999,343.306 -53.4532371040076,-6.14020491823004,271.111 -53.4218942705385,-6.12032108510491,268.208 -53.4189782115928,-6.11867416530542,255.48</coordinates></LinearRing></outerBoundaryIs></Polygon></MultiGeometry>
  </Placemark>
  <Placemark>
	<name>Campo_Lindo</name>
	<Style><LineStyle><color>ff0000ff</color></LineStyle><PolyStyle><fill>0</fill></PolyStyle></Style>
	<ExtendedData><SchemaData schemaUrl="#properties_area_TDX">
		<SimpleData name="municipio">Altamira</SimpleData>
		<SimpleData name="estado">PA</SimpleData>
		<SimpleData name="area_ha">2435.699</SimpleData>
		<SimpleData name="id">2</SimpleData>
	</SchemaData></ExtendedData>
      <MultiGeometry><Polygon><outerBoundaryIs><LinearRing><coordinates>-53.6274094531787,-5.69999502589707,0 -53.5370463956495,-5.70235828055578,0 -53.5367078244853,-5.68887712415711,0 -53.5012681518887,-5.68871462006654,0 -53.5015036560553,-5.76014946256392,0 -53.5142834237633,-5.76005857101265,0 -53.513097758142,-5.70997821203665,0 -53.6282935443906,-5.70676534184728,0 -53.6274094531787,-5.69999502589707,0</coordinates></LinearRing></outerBoundaryIs></Polygon></MultiGeometry>
  </Placemark>
  <Placemark>
	<name>Santa_Marta</name>
	<Style><LineStyle><color>ff0000ff</color></LineStyle><PolyStyle><fill>0</fill></PolyStyle></Style>
	<ExtendedData><SchemaData schemaUrl="#properties_area_TDX">
		<SimpleData name="municipio">Altamira</SimpleData>
		<SimpleData name="estado">PA</SimpleData>
		<SimpleData name="area_ha">2445.921</SimpleData>
		<SimpleData name="id">3</SimpleData>
	</SchemaData></ExtendedData>
      <MultiGeometry><Polygon><outerBoundaryIs><LinearRing><coordinates>-53.6459262856001,-5.66597858599382,0 -53.6457766633818,-5.67495053372905,0 -53.6454281533157,-5.70315604124575,0 -53.6450225334269,-5.71279195144486,0 -53.5358933613184,-5.71736634304797,0 -53.5215576013873,-5.71776377371955,0 -53.5226709669811,-5.76035923596431,0 -53.5255695215964,-5.76030030742002,0 -53.5266311846598,-5.76028956173193,0 -53.52668951244,-5.75920196551173,0 -53.5269148918867,-5.72240652091129,0 -53.5278876764385,-5.72232686680533,0 -53.5360017490463,-5.72207103716304,0 -53.554753237372,-5.72190980286594,0 -53.5733269058978,-5.72176578251066,0 -53.591564458681,-5.72161946464494,0 -53.6095210224395,-5.7214046864298,0 -53.6361326275315,-5.72121525974385,0 -53.6465577164934,-5.72651880029975,0 -53.6652381246051,-5.70787498957477,0 -53.6664677115279,-5.68482092282138,0 -53.6633313217121,-5.66716145499717,0 -53.6631719769549,-5.66705752420659,0 -53.6627996831258,-5.6670499563543,0 -53.6623860937311,-5.66703506864483,0 -53.6618298176604,-5.66699615737767,0 -53.6611053996397,-5.66707739473014,0 -53.6601873867761,-5.66699628026578,0 -53.6593446511275,-5.66695993011792,0 -53.6584504106692,-5.66694844058372,0 -53.6574661372046,-5.66690676433951,0 -53.6566884496023,-5.66688204916403,0 -53.6559965533073,-5.66687353086977,0 -53.6553031762804,-5.66686481068166,0 -53.6545756651053,-5.66686831942609,0 -53.653774547422,-5.66668348432407,0 -53.653059987566,-5.66669638422837,0 -53.6520462552339,-5.66645080810729,0 -53.650944571109,-5.66614466081273,0 -53.6494226266354,-5.66587668131351,0 -53.6488025597831,-5.66578254394027,0 -53.6479944088035,-5.66582010226985,0 -53.6468389599861,-5.66580719495265,0 -53.6462002185051,-5.66582787249367,0 -53.6459262856001,-5.66597858599382,0</coordinates></LinearRing></outerBoundaryIs></Polygon></MultiGeometry>
  </Placemark>
  <Placemark>
	<name>Retiro_Encantado</name>
	<Style><LineStyle><color>ff0000ff</color></LineStyle><PolyStyle><fill>0</fill></PolyStyle></Style>
	<ExtendedData><SchemaData schemaUrl="#properties_area_TDX">
		<SimpleData name="municipio">Altamira</SimpleData>
		<SimpleData name="estado">PA</SimpleData>
		<SimpleData name="area_ha">2342.034</SimpleData>
		<SimpleData name="id">4</SimpleData>
	</SchemaData></ExtendedData>
      <MultiGeometry><Polygon><outerBoundaryIs><LinearRing><coordinates>-53.6457766633818,-5.67495053372905,0 -53.6273668877572,-5.67380135353016,0 -53.6274094531787,-5.69999502589707,0 -53.6282935443906,-5.70676534184728,0 -53.513097758142,-5.70997821203665,0 -53.5142834237633,-5.76005857101265,0 -53.5226709669811,-5.76035923596431,0 -53.5215576013873,-5.71776377371955,0 -53.5358933613184,-5.71736634304797,0 -53.6450225334269,-5.71279195144486,0 -53.6454281444599,-5.7031560774341,0 -53.6457766633818,-5.67495053372905,0</coordinates></LinearRing></outerBoundaryIs></Polygon></MultiGeometry>
  </Placemark>
  <Placemark>
	<name>Vo_Lina</name>
	<Style><LineStyle><color>ff0000ff</color></LineStyle><PolyStyle><fill>0</fill></PolyStyle></Style>
	<ExtendedData><SchemaData schemaUrl="#properties_area_TDX">
		<SimpleData name="municipio">Altamira</SimpleData>
		<SimpleData name="estado">PA</SimpleData>
		<SimpleData name="area_ha">2364.771</SimpleData>
		<SimpleData name="id">5</SimpleData>
	</SchemaData></ExtendedData>
      <MultiGeometry><Polygon><outerBoundaryIs><LinearRing><coordinates>-53.6368876118628,-5.76342344597068,0 -53.6374395906991,-5.76324159580042,0 -53.6388834729591,-5.76318014049854,0 -53.6396104404328,-5.76322195475878,0 -53.6396461639099,-5.76322061431062,0 -53.639704396313,-5.76322847752196,0 -53.639773589324,-5.76324568830549,0 -53.6399387127368,-5.76332571269749,0 -53.6400647504561,-5.76324578396469,0 -53.6401312767822,-5.76321312323657,0 -53.64013916968,-5.76312488623693,0 -53.6401972257176,-5.76305557487579,0 -53.6402369461629,-5.76302105034412,0 -53.6402803812629,-5.76298985224578,0 -53.6403418762626,-5.76294230392153,0 -53.6404044222544,-5.76294644192452,0 -53.6405634335911,-5.76262173071813,0 -53.6405788188981,-5.76259283157625,0 -53.6405809433372,-5.76258396553877,0 -53.6405963164828,-5.76251340624105,0 -53.6406082594754,-5.76248154088161,0 -53.6406301496191,-5.76237643031654,0 -53.6407472952997,-5.76226626912288,0 -53.6408428252605,-5.76226203052654,0 -53.6408693382438,-5.76225910610517,0 -53.6409426951698,-5.76225975990643,0 -53.6410395116857,-5.76228009573114,0 -53.6411207266184,-5.7623605994192,0 -53.6411239630288,-5.76237757381311,0 -53.6411897027917,-5.76242850817602,0 -53.6412074615942,-5.76246412161831,0 -53.6412364014811,-5.76247871753845,0 -53.6412756482502,-5.76249787446829,0 -53.6412984223806,-5.7625059020385,0 -53.6413284457046,-5.76248163418142,0 -53.6413441939959,-5.76247270494082,0 -53.641336962263,-5.7624697563087,0 -53.6412976369734,-5.7624531300843,0 -53.6412522353162,-5.76242975435712,0 -53.6412496985891,-5.76242750689594,0 -53.6412088695786,-5.76241739421992,0 -53.6411434480524,-5.76233772098201,0 -53.6411244690895,-5.76227238173144,0 -53.6411223203865,-5.76225648672184,0 -53.6411119320264,-5.76223430409086,0 -53.6410837401093,-5.76212779922068,0 -53.641139116761,-5.76204494490965,0 -53.6412009991528,-5.76196413891338,0 -53.6413080835727,-5.76196111183383,0 -53.6413560949214,-5.76194399007749,0 -53.6413936941685,-5.76193857424313,0 -53.6413719221033,-5.76191310076847,0 -53.6413455626314,-5.76179312241793,0 -53.6413451925058,-5.76177161627174,0 -53.6413357473489,-5.76175828544817,0 -53.6413258105389,-5.76173619109498,0 -53.6413223469206,-5.76172861615112,0 -53.641308891788,-5.7617066284868,0 -53.6413009495226,-5.76168660337128,0 -53.6412797451125,-5.76164730076932,0 -53.6412747095694,-5.7615729502933,0 -53.641298200732,-5.76150190152476,0 -53.641320062486,-5.76146872500028,0 -53.641355228905,-5.76140548419641,0 -53.6415213267247,-5.76132564070661,0 -53.6415368603088,-5.76132882193964,0 -53.6415494686964,-5.7613237931481,0 -53.6415613728417,-5.76132256312791,0 -53.6415575487475,-5.76131508022702,0 -53.641513848471,-5.76126937540845,0 -53.6414131235523,-5.7611452235475,0 -53.6414167291437,-5.76112496412929,0 -53.641274088998,-5.76104845045601,0 -53.6411661191107,-5.76093797785868,0 -53.6411179791171,-5.76088822695867,0 -53.641037199766,-5.76086284636218,0 -53.6410261488846,-5.76061926225214,0 -53.6409847222828,-5.76061647217564,0 -53.6409146975912,-5.76059492754533,0 -53.6408545908587,-5.76057189100726,0 -53.6407475125189,-5.76049810402007,0 -53.6406692942539,-5.76028501458331,0 -53.6409903691754,-5.76015944893597,0 -53.6410420119319,-5.76016671011495,0 -53.6410898318658,-5.76016675947977,0 -53.641132246717,-5.76016864128864,0 -53.6411835436129,-5.76017915734813,0 -53.6412024192097,-5.76018313643032,0 -53.6412132527636,-5.76018453209888,0 -53.6412074972248,-5.76016910565813,0 -53.6412206606986,-5.76006945777226,0 -53.6412695749827,-5.76001347315763,0 -53.6412644781659,-5.76000391765953,0 -53.6412528969212,-5.75997740282453,0 -53.641252624161,-5.75997695224345,0 -53.641224427104,-5.7599473515363,0 -53.6411975320297,-5.75990662937889,0 -53.6411809191401,-5.75988465633143,0 -53.6410868895841,-5.75980348895588,0 -53.6410433427762,-5.75982998830842,0 -53.6410094908567,-5.75984577914149,0 -53.6409963678734,-5.75985659392358,0 -53.6409738073015,-5.75987522421588,0 -53.6409328243395,-5.75990984490569,0 -53.6408795116044,-5.75995121008388,0 -53.6407172187796,-5.76003437926834,0 -53.6405815574783,-5.76004268960584,0 -53.6405130403777,-5.75999592488043,0 -53.640463478642,-5.75997039940934,0 -53.6403681062497,-5.75985245781628,0 -53.6403574778101,-5.75983687320494,0 -53.6403011989877,-5.75982213278833,0 -53.6402496232164,-5.75973173149698,0 -53.6402081988898,-5.75965131412819,0 -53.6402333292967,-5.75958351107093,0 -53.6402508036514,-5.75949902518909,0 -53.640264215277,-5.7594920949616,0 -53.640260498219,-5.75944918679367,0 -53.6402734299902,-5.7593969837936,0 -53.6402915671497,-5.75935831205534,0 -53.6403322043204,-5.75930742654907,0 -53.6403400872345,-5.75929509979305,0 -53.6403681097622,-5.75924788752718,0 -53.6404242328135,-5.75920940119883,0 -53.6403994801711,-5.75920273823692,0 -53.6403586101084,-5.75916415926392,0 -53.6403303237081,-5.7591542593836,0 -53.6402806426565,-5.75910288880496,0 -53.6402662202492,-5.75908632770664,0 -53.6400408497601,-5.75883533229923,0 -53.6399840942728,-5.75873691205979,0 -53.6399754836553,-5.75863076805864,0 -53.639981913578,-5.75855781025512,0 -53.6400199741115,-5.75845696251332,0 -53.6400885486201,-5.75835994962545,0 -53.6401837394566,-5.75828242353134,0 -53.6402874072289,-5.75816491493792,0 -53.6402878545903,-5.7581640995415,0 -53.6402905024986,-5.75813182544592,0 -53.640292194624,-5.75812702803387,0 -53.6402919966443,-5.75812323344249,0 -53.6403047668327,-5.75805557806057,0 -53.6403239674124,-5.75803226418568,0 -53.6403550693344,-5.757948528498,0 -53.6404187623735,-5.75788858963496,0 -53.6404722074229,-5.75785635125047,0 -53.6405234833413,-5.75782330959274,0 -53.6405326707023,-5.75781992335446,0 -53.6405367667188,-5.75780815637126,0 -53.6405996555876,-5.75776945800066,0 -53.6406640774116,-5.75773057178413,0 -53.6407614420003,-5.757733012365,0 -53.6408320222927,-5.75773819777385,0 -53.6408991514574,-5.75777755873191,0 -53.6409387877801,-5.75768583101041,0 -53.6410218816927,-5.75762643478538,0 -53.6413608402847,-5.75754434468999,0 -53.6416673140321,-5.75750054082089,0 -53.6416708899795,-5.75749338507923,0 -53.641717043084,-5.75744518509032,0 -53.6417429861117,-5.75741659853347,0 -53.6417557293515,-5.75740171891382,0 -53.6418048799335,-5.75727976380071,0 -53.642112217165,-5.75734476019921,0 -53.6424168928314,-5.75751712724053,0 -53.6423610011372,-5.75766414585997,0 -53.6423553838974,-5.7576786309666,0 -53.6423536136825,-5.75768604944274,0 -53.6424735172571,-5.75762621126674,0 -53.6425312347518,-5.75760091135918,0 -53.6425524731692,-5.75758906488149,0 -53.6426101309138,-5.75755084246603,0 -53.6426856996556,-5.75750313859621,0 -53.6427202297125,-5.75747794621628,0 -53.6427424384343,-5.7574613056738,0 -53.6427821095464,-5.75743572797275,0 -53.6428403027639,-5.75741575761776,0 -53.6429388826351,-5.75740789013505,0 -53.6429449355159,-5.75739005935434,0 -53.6429514603817,-5.75735722511924,0 -53.6429509148636,-5.75735632395873,0 -53.6429375981359,-5.75734472811314,0 -53.6429206415583,-5.75732646183755,0 -53.6428954550217,-5.757303986385,0 -53.6428584997467,-5.75725346073024,0 -53.6428430744332,-5.75719560569252,0 -53.6428309122043,-5.75714098880639,0 -53.642822731503,-5.75708888378802,0 -53.6428201363199,-5.75707398492565,0 -53.6428052139408,-5.75702733331615,0 -53.6428229958122,-5.75693136925813,0 -53.6428464396409,-5.75688914854564,0 -53.6428585195232,-5.75686740394595,0 -53.6428604451147,-5.75685456260705,0 -53.6428796405088,-5.75681064458554,0 -53.6429083272955,-5.75675104869809,0 -53.6430247227358,-5.75665453694823,0 -53.6430251738519,-5.7566545348561,0 -53.6430168194239,-5.75664291599183,0 -53.6429957748186,-5.75657957450408,0 -53.6429909821055,-5.75653820769764,0 -53.6429885218396,-5.7565134579826,0 -53.6429812007914,-5.75647165105525,0 -53.6429836292733,-5.7564114539936,0 -53.6429996509637,-5.75634459695309,0 -53.6430383637845,-5.75628739454503,0 -53.6430816094794,-5.756234870308,0 -53.6431255982665,-5.75620647116388,0 -53.6431488887791,-5.75618964487782,0 -53.6431488808419,-5.75618792790252,0 -53.6431460726354,-5.75616598124472,0 -53.6431448947216,-5.75616490227861,0 -53.643092031463,-5.75612773463867,0 -53.6430462544743,-5.7560425481562,0 -53.6430423777865,-5.75594560012612,0 -53.6430635538939,-5.7558812495242,0 -53.6430858945503,-5.75585412557724,0 -53.6430701217952,-5.75560396677935,0 -53.6431062590757,-5.7553994747627,0 -53.6432464293063,-5.75533240354575,0 -53.6433093991115,-5.75531132666848,0 -53.6433583396538,-5.75530016506874,0 -53.6433974007779,-5.75529880913564,0 -53.6434607966244,-5.75529182783991,0 -53.6435934311199,-5.75535121778319,0 -53.6436356467585,-5.75542720308764,0 -53.6436788527245,-5.75544417281994,0 -53.6436942984198,-5.75546741639164,0 -53.6437230189937,-5.75547369938738,0 -53.6437313069753,-5.75547094987734,0 -53.643745718422,-5.75546564163407,0 -53.643813057733,-5.75543342904856,0 -53.6442812133921,-5.75519467151709,0 -53.644333920631,-5.75515909275056,0 -53.6444305738921,-5.75510541706508,0 -53.6445067031577,-5.7550814776026,0 -53.6445877428933,-5.75506582929636,0 -53.6446784451522,-5.75501299451455,0 -53.6447943619615,-5.75504724877373,0 -53.6450326144872,-5.75515756823047,0 -53.6450449528045,-5.75526974918316,0 -53.6450414764505,-5.75531793195015,0 -53.6450339084253,-5.75539830504038,0 -53.6449874387455,-5.75543647561746,0 -53.6449878945191,-5.75545698724902,0 -53.6449737651758,-5.75550377354737,0 -53.6449718283401,-5.75551417496139,0 -53.6449700702783,-5.75552421407017,0 -53.644969993013,-5.75552701586547,0 -53.6449713626581,-5.75553053389823,0 -53.6450053153764,-5.75555613149303,0 -53.6450118222938,-5.75555845089101,0 -53.6450637844848,-5.75557637392117,0 -53.6451187650672,-5.75562265877816,0 -53.6451562161469,-5.75568285141819,0 -53.645171469816,-5.75572308516612,0 -53.6451725554173,-5.75572371271054,0 -53.6451852200694,-5.75573088345023,0 -53.6452478436315,-5.75575201025751,0 -53.6452586917028,-5.75575656872707,0 -53.6452851462495,-5.75576060292316,0 -53.6453175125265,-5.75577482136745,0 -53.6453194995211,-5.75577526399029,0 -53.6457642836429,-5.75555550095435,0 -53.6457850101404,-5.75553055331016,0 -53.645823756954,-5.75550028062724,0 -53.6458440762354,-5.75548482360396,0 -53.6459748540959,-5.75510394440782,0 -53.6459743866756,-5.75510042219201,0 -53.6459425728945,-5.75504960182248,0 -53.6458709360996,-5.75487443798774,0 -53.6458680335125,-5.75477359980579,0 -53.6458839698254,-5.75474686702716,0 -53.6458852780143,-5.75473710111826,0 -53.6458823862079,-5.75471660080743,0 -53.6458761974704,-5.75468554264082,0 -53.6458713536347,-5.75463315117972,0 -53.6458665673385,-5.75455419100448,0 -53.6459035708699,-5.75447865163727,0 -53.6460187311451,-5.75432991224186,0 -53.6460552582746,-5.75430742160787,0 -53.6460731206038,-5.75428745755849,0 -53.646123031114,-5.75425198206265,0 -53.6461459029257,-5.75424220644242,0 -53.6461481505477,-5.75424047900255,0 -53.6461721379751,-5.75421831767206,0 -53.6462286276139,-5.7541812753667,0 -53.6462373945076,-5.75414553898444,0 -53.6464051497261,-5.75407354971422,0 -53.6465399376955,-5.75416943796807,0 -53.6465495588969,-5.75416234453963,0 -53.6465788853201,-5.7541435924325,0 -53.6466140540464,-5.75412002365775,0 -53.6466327860521,-5.75411252646126,0 -53.6466391726194,-5.75410833984939,0 -53.6466433955177,-5.75410452475655,0 -53.6466644222946,-5.75408599191227,0 -53.6467573168362,-5.75400007179651,0 -53.6468715637564,-5.75402448322278,0 -53.646884757155,-5.75402894041388,0 -53.6469281817923,-5.75403470315864,0 -53.6469705640128,-5.75406866580098,0 -53.6470299248024,-5.75410616436307,0 -53.6470952845038,-5.75413369449775,0 -53.6471878898568,-5.7541802563002,0 -53.6472060771018,-5.75423050726109,0 -53.6472069818367,-5.75423104527294,0 -53.6472326610832,-5.75424303545579,0 -53.6472370598204,-5.75423822548699,0 -53.6472634272671,-5.75422346331774,0 -53.6473232295055,-5.75418089305999,0 -53.6474613639875,-5.75412259638302,0 -53.6474644206774,-5.75412023260181,0 -53.6474919509632,-5.75410329617744,0 -53.6475254296572,-5.75408497659954,0 -53.6475296065353,-5.75407122115432,0 -53.6475364997084,-5.75405953157711,0 -53.647534396858,-5.75403405735505,0 -53.6475495598383,-5.75399621280915,0 -53.6475509416591,-5.7539438828885,0 -53.6475463845251,-5.75393396348731,0 -53.647503325992,-5.75389033458296,0 -53.6474953355604,-5.75384039776626,0 -53.6474738768919,-5.75378510135985,0 -53.6474478533913,-5.75375720787837,0 -53.6474131542695,-5.75364829390112,0 -53.6474615906994,-5.75356727934255,0 -53.6474702173377,-5.75355973868224,0 -53.6474825065913,-5.75352479928424,0 -53.6475062387315,-5.75350598276328,0 -53.6475725019508,-5.75341684261807,0 -53.6476012184814,-5.75340279249691,0 -53.6476408614176,-5.75337125047449,0 -53.6476537565248,-5.75336974470009,0 -53.6476754301473,-5.75333503283751,0 -53.6476772099177,-5.75332969281806,0 -53.6476817686555,-5.7532619854656,0 -53.6477002185287,-5.75323252995971,0 -53.647752987303,-5.7530933881984,0 -53.6478792016312,-5.75309135625112,0 -53.647887772209,-5.75307170644141,0 -53.6479298026356,-5.7529712019957,0 -53.6479924714461,-5.75294371001355,0 -53.6480348861217,-5.75290673299428,0 -53.6481858575401,-5.75289292847511,0 -53.6482703642538,-5.75298317584287,0 -53.6483226977619,-5.75304239540462,0 -53.6483598120241,-5.75308831107231,0 -53.6483901208568,-5.75314537369003,0 -53.6484017504696,-5.75316285120355,0 -53.648517771766,-5.75327825536205,0 -53.649061256376,-5.75305830385856,0 -53.6491240560607,-5.75305909654701,0 -53.6491263082684,-5.75305836313519,0 -53.6491318614549,-5.75304957158,0 -53.6491913296929,-5.7530128767561,0 -53.649213975298,-5.75299325192878,0 -53.6492390255152,-5.75296683828318,0 -53.6492516727743,-5.75295078428112,0 -53.6493054524715,-5.75287417294907,0 -53.6493804424075,-5.75285764857975,0 -53.6494019766289,-5.75285131310045,0 -53.6494477734955,-5.75284332863181,0 -53.6494975677552,-5.75284128991629,0 -53.6495432582485,-5.75284930117836,0 -53.649566798278,-5.75284747480478,0 -53.6495960685796,-5.75283613310309,0 -53.6496407775681,-5.75280754963464,0 -53.6496452928602,-5.75280843234144,0 -53.6496474061154,-5.75277769719926,0 -53.6496714758747,-5.75269544031043,0 -53.6496719215445,-5.75269426344798,0 -53.6496677307307,-5.75268551716547,0 -53.6496696296431,-5.75264746316336,0 -53.6496643769132,-5.75262372062729,0 -53.6496705355178,-5.75258980378954,0 -53.6496666702628,-5.75255394541477,0 -53.6496621261634,-5.7525078785421,0 -53.6496655910812,-5.75247677564625,0 -53.6496504422116,-5.75243970453399,0 -53.6496243756167,-5.75230508605392,0 -53.6496897341979,-5.75223501784928,0 -53.6497392421441,-5.75217116834948,0 -53.6497959683636,-5.75216584416038,0 -53.6497990407601,-5.75214739469382,0 -53.6498313604002,-5.75211263336704,0 -53.6498451355603,-5.7520673850741,0 -53.6498895355594,-5.75201105989916,0 -53.6498696045203,-5.75197392064272,0 -53.6499114942709,-5.75188209228024,0 -53.6499134111839,-5.75184792405046,0 -53.6499371997216,-5.75180235813357,0 -53.6499472700904,-5.75177538151021,0 -53.6499756965977,-5.7517182268686,0 -53.6499806378796,-5.75171368548267,0 -53.6499780122099,-5.75161429224636,0 -53.6499587532459,-5.75152744714812,0 -53.6499727629087,-5.7514549064623,0 -53.649977768962,-5.75130848610887,0 -53.650090370369,-5.75125048858059,0 -53.6500959415262,-5.7512455827953,0 -53.6501164910928,-5.75118250043339,0 -53.6501168381703,-5.75117951665818,0 -53.6501097641202,-5.75113264823529,0 -53.6501519659191,-5.75104976493702,0 -53.6501776587928,-5.75096731981146,0 -53.6502245210641,-5.75091667644295,0 -53.6502623590563,-5.75086562315651,0 -53.6503426061264,-5.75079593765916,0 -53.6503065714806,-5.75076881376678,0 -53.6502790365968,-5.75070676811966,0 -53.6502633830377,-5.75069708103675,0 -53.6502329545515,-5.75055570522896,0 -53.6502512120717,-5.75052372031158,0 -53.6502482923369,-5.75051668512746,0 -53.650317058151,-5.75028619695993,0 -53.6503854379866,-5.75030359153823,0 -53.6504069137644,-5.75026517550559,0 -53.650480828836,-5.7502309439189,0 -53.6505229423498,-5.75018746174027,0 -53.6506161157933,-5.75018151639505,0 -53.6506365205337,-5.75018458449559,0 -53.6506392229983,-5.75018366825483,0 -53.6506844397739,-5.75016737258147,0 -53.6508380298884,-5.7501542784972,0 -53.6508749955866,-5.75018763346416,0 -53.650959521719,-5.75020423000155,0 -53.6510287321251,-5.75024511645017,0 -53.6510689686069,-5.75030285569402,0 -53.6510834942509,-5.75034173702059,0 -53.6510907802097,-5.7503564332296,0 -53.6517875739257,-5.75039476440028,0 -53.6517901731859,-5.75039104721221,0 -53.6517923234316,-5.75038778395347,0 -53.6517846585683,-5.75036920367968,0 -53.6517757297582,-5.75031149974106,0 -53.65179300288,-5.75018390957203,0 -53.6518421629525,-5.75016190228125,0 -53.6518326025991,-5.75010420127976,0 -53.6518388703789,-5.75009387014446,0 -53.6518368398697,-5.75008402942138,0 -53.6518561447637,-5.75004444868224,0 -53.6518430502881,-5.75002236927488,0 -53.6518684542375,-5.74993603970247,0 -53.6518658196007,-5.74987369772036,0 -53.6518748099336,-5.74986678793302,0 -53.6518753269803,-5.74986154416006,0 -53.651861828299,-5.74977169029541,0 -53.651862454407,-5.74977051259562,0 -53.6518536007711,-5.74974850384381,0 -53.6518515022325,-5.74974345296413,0 -53.6518444155557,-5.74973282242394,0 -53.6518275688445,-5.74969928365862,0 -53.6518144235143,-5.74968569911691,0 -53.651782753273,-5.74964635529232,0 -53.6517736599578,-5.74963103491635,0 -53.6516705613466,-5.74953942859271,0 -53.6516051357363,-5.74949753056211,0 -53.6512988972093,-5.7490840718603,0 -53.6512502836537,-5.74902926331451,0 -53.6511531962528,-5.74889136020805,0 -53.6509952410378,-5.7486826198031,0 -53.6510213365516,-5.74860920971857,0 -53.6509684833478,-5.74853508194985,0 -53.6509528738051,-5.74837899766462,0 -53.6510108794911,-5.74827986507252,0 -53.6510129807416,-5.74820756050306,0 -53.6510776285233,-5.74815945527075,0 -53.6510954377912,-5.74812810504226,0 -53.6511677664988,-5.74808258481514,0 -53.6512104822711,-5.74805229368203,0 -53.6512843252112,-5.74802203868986,0 -53.6517874853459,-5.74788252181078,0 -53.6518852072831,-5.74786525924555,0 -53.6519837770099,-5.74783624482955,0 -53.6522251331503,-5.74777981786495,0 -53.6523102621841,-5.74798510080374,0 -53.6524194531749,-5.74814544914314,0 -53.6524485872628,-5.74824110425673,0 -53.652448880114,-5.7482458924213,0 -53.6529367733288,-5.74747919863538,0 -53.6529439330309,-5.74744717495414,0 -53.6529712718957,-5.74738903139362,0 -53.6530263898384,-5.74723144388547,0 -53.6530516222112,-5.74716653249208,0 -53.6530523425161,-5.74714673847192,0 -53.6530541728974,-5.74711338403739,0 -53.6530844093403,-5.74682379363295,0 -53.6530996732342,-5.74676886909616,0 -53.6531360394105,-5.746692338817,0 -53.653184194391,-5.74657029846651,0 -53.6530676052823,-5.74633199670648,0 -53.6530504935189,-5.74626068521462,0 -53.6530468447613,-5.74619364884011,0 -53.6530497555314,-5.74614031797578,0 -53.6530792822845,-5.74608704416642,0 -53.6530775350586,-5.746040964418,0 -53.653077730607,-5.74600526800396,0 -53.653106075775,-5.7458722044206,0 -53.6531435260027,-5.74585440856461,0 -53.6531565083972,-5.74583284056681,0 -53.6531655139611,-5.7458097547868,0 -53.6531715160592,-5.74580050932297,0 -53.6531749873712,-5.74579028156739,0 -53.6531842828508,-5.7457713513851,0 -53.653196385448,-5.74573514780185,0 -53.6533420270995,-5.74546725179708,0 -53.6533729008444,-5.74541261621528,0 -53.6533989478736,-5.74536776284514,0 -53.6534269627845,-5.74533871479132,0 -53.6534317838627,-5.74530823825605,0 -53.6534783482653,-5.74523238357144,0 -53.6535299484637,-5.74517241031476,0 -53.6535788713336,-5.74511877528322,0 -53.6536329767606,-5.7450542719682,0 -53.6536560784871,-5.74503581984153,0 -53.6536697594008,-5.74498975878593,0 -53.6537020575705,-5.74495047920759,0 -53.6537455648846,-5.74487689794458,0 -53.6538301997694,-5.74483927288245,0 -53.6538756916701,-5.74482406032839,0 -53.653915638451,-5.74481935626611,0 -53.6539822283432,-5.74482058305466,0 -53.6540072619354,-5.74481016472382,0 -53.6540226616025,-5.74480403847681,0 -53.6540294643615,-5.74479234934952,0 -53.6540458807459,-5.74475251100057,0 -53.6540506270945,-5.74464748097573,0 -53.6540587404766,-5.74458761945379,0 -53.6540687285977,-5.74454293109414,0 -53.6540726958059,-5.74450342170972,0 -53.6540758933297,-5.74443409436352,0 -53.6541371386445,-5.74433332018662,0 -53.6542283484201,-5.74427379543131,0 -53.6543393997501,-5.7442711104711,0 -53.6543766704235,-5.7442730157178,0 -53.6543874047747,-5.7442530848059,0 -53.6544062690167,-5.7441963362197,0 -53.6544449907647,-5.7440440664442,0 -53.6544641673223,-5.7439768336903,0 -53.654575628866,-5.74382901537032,0 -53.6548314713266,-5.74353087616051,0 -53.6550197438607,-5.74340944982162,0 -53.6550351049545,-5.74339500987097,0 -53.6550914050931,-5.74333691250658,0 -53.6551915367809,-5.74331421647685,0 -53.655357329352,-5.74334543612582,0 -53.6556897749547,-5.7437492822587,0 -53.6558944996334,-5.74377101273667,0 -53.6561910586553,-5.74386804456946,0 -53.6562361739157,-5.74390786784243,0 -53.6562784115023,-5.74393026344105,0 -53.6562910049015,-5.74394159125712,0 -53.6563113442563,-5.7439500816348,0 -53.6563874121991,-5.74399129718784,0 -53.6564230053355,-5.74402059165194,0 -53.6564453059325,-5.74404344143327,0 -53.6568246093561,-5.74418165728189,0 -53.6571549982847,-5.74433627626426,0 -53.657340188561,-5.74448416043747,0 -53.6575202134128,-5.74460766916994,0 -53.6575411003043,-5.74463694158771,0 -53.6577142258244,-5.7447318356562,0 -53.6585118257018,-5.74497283957587,0 -53.659480735055,-5.74466478212693,0 -53.659549467722,-5.74464177968948,0 -53.6597679787897,-5.74460145198361,0 -53.659919988341,-5.74457887495672,0 -53.6599311584304,-5.7445751178465,0 -53.6600272382324,-5.74453481809329,0 -53.6601201963826,-5.74452173359753,0 -53.6601766997242,-5.74454641192982,0 -53.6602080493026,-5.74455557378732,0 -53.6602450298847,-5.7445338939736,0 -53.6603094969472,-5.74450548926473,0 -53.6603907503782,-5.74449761022137,0 -53.66044468014,-5.74449265986036,0 -53.6604688805096,-5.74449715588042,0 -53.6604700525308,-5.74449696968475,0 -53.6605249268706,-5.74444285481426,0 -53.660578161717,-5.74444369122199,0 -53.6606082012028,-5.74442330888073,0 -53.6607034458283,-5.74439747178898,0 -53.6607390592269,-5.74439224526899,0 -53.6608162476729,-5.74438330069993,0 -53.6608213784615,-5.74438074649611,0 -53.6608678085901,-5.74435396203357,0 -53.6609262056658,-5.74433959256911,0 -53.6609400747804,-5.7443341962482,0 -53.6609456499525,-5.74433019408831,0 -53.6609572350285,-5.7443186633986,0 -53.6609856614267,-5.74428120904795,0 -53.6610525844606,-5.74423770141937,0 -53.6611179104006,-5.74421941384313,0 -53.6611621815295,-5.74421342402012,0 -53.6611812032462,-5.74421017251351,0 -53.6612189629874,-5.74418144034561,0 -53.6612687593499,-5.74418012389491,0 -53.6612979293245,-5.74416679427314,0 -53.6613392752081,-5.74415259460251,0 -53.6613690695821,-5.7441377258167,0 -53.6614025885744,-5.74412835210757,0 -53.6614237596107,-5.74412165660378,0 -53.6615094365864,-5.74409496032404,0 -53.6615445203421,-5.74407283746241,0 -53.6616166760695,-5.7440487344804,0 -53.6616850387747,-5.74402383585914,0 -53.6617226096993,-5.74403215533178,0 -53.6617429821778,-5.74402835530897,0 -53.6617751629629,-5.74402224105909,0 -53.6619310964598,-5.74402874372395,0 -53.6620733307533,-5.74401895363953,0 -53.6621683477263,-5.74400242529937,0 -53.6622273778943,-5.74398841425249,0 -53.6622849909915,-5.74398010297196,0 -53.6622994097872,-5.74397651141958,0 -53.662323291586,-5.74397070693075,0 -53.6623570715305,-5.74395925350342,0 -53.6623887210479,-5.74395531052493,0 -53.6624059316165,-5.74395062154406,0 -53.662414222181,-5.74394850443982,0 -53.6624246528273,-5.7439409552974,0 -53.6624523741826,-5.74392654797481,0 -53.6625081223401,-5.74388580336821,0 -53.6625495365209,-5.74386690419437,0 -53.662563126955,-5.74385979215914,0 -53.6625663647893,-5.74385760824057,0 -53.6625861257993,-5.74383871963985,0 -53.6626095186938,-5.74382478433048,0 -53.6626103243731,-5.74382342505926,0 -53.6626155126091,-5.74381382189799,0 -53.6626266628469,-5.74378638850911,0 -53.6626435749711,-5.74375630759675,0 -53.6626552745043,-5.74373058863364,0 -53.6626679500775,-5.74370134078108,0 -53.6626827564911,-5.74366467284539,0 -53.662706873951,-5.74361250863055,0 -53.6627161216526,-5.7436027961777,0 -53.6627209821191,-5.74358090454101,0 -53.6627255891428,-5.7435627191607,0 -53.6627472697053,-5.7434715274721,0 -53.6628134925216,-5.74343272212335,0 -53.6628545868042,-5.74338382237218,0 -53.6629084030212,-5.74337390214318,0 -53.6629163872205,-5.74336410521312,0 -53.6629503159865,-5.74332644445659,0 -53.6630058483997,-5.74329753901255,0 -53.663014318549,-5.74329524033233,0 -53.6630385501948,-5.74326765559379,0 -53.663075656019,-5.74325356598154,0 -53.6631088366218,-5.74322964459416,0 -53.6631082583488,-5.74322169493698,0 -53.6631199997829,-5.74318558350349,0 -53.6631215947602,-5.74317934069953,0 -53.6631136419268,-5.74315705696773,0 -53.663143889586,-5.74308444109309,0 -53.6631637075295,-5.74303898413932,0 -53.6631791375336,-5.74302002536376,0 -53.6631807484683,-5.74301721645628,0 -53.663212325963,-5.74295896284046,0 -53.6632200697296,-5.7429556735023,0 -53.6632199358361,-5.74294627589168,0 -53.6632861650625,-5.74285062925553,0 -53.6633785316228,-5.74278802568232,0 -53.66344978246,-5.74280224266929,0 -53.6634933097832,-5.74279155707769,0 -53.6635903466836,-5.74282146814861,0 -53.6635921489745,-5.7428210079069,0 -53.6637314336542,-5.74281728594126,0 -53.6637299691412,-5.74281277438997,0 -53.6637512897705,-5.7426829974586,0 -53.6638274336026,-5.7426435132302,0 -53.6638596858941,-5.74261399336695,0 -53.6638505430647,-5.74260743916575,0 -53.6638333986759,-5.74256811883702,0 -53.6638062449686,-5.74252992959034,0 -53.6638021251305,-5.74243940046358,0 -53.6637865657244,-5.74241109758659,0 -53.663787682562,-5.74236021541843,0 -53.663782880274,-5.74233638076279,0 -53.6637884860948,-5.74224192047896,0 -53.6638292562272,-5.7421815455593,0 -53.6638563365982,-5.74214572409066,0 -53.6638862763456,-5.74212335406178,0 -53.6639073280484,-5.74211042370488,0 -53.663919113611,-5.74210322971184,0 -53.6639245699556,-5.74209308309971,0 -53.6639579077944,-5.7420641907585,0 -53.6639682149855,-5.74204950314842,0 -53.6640031683683,-5.74201879592202,0 -53.6640258381325,-5.74200459287274,0 -53.6640533545414,-5.74198494516858,0 -53.6640924370875,-5.74196912933785,0 -53.6640946686312,-5.7419639679801,0 -53.6641062002475,-5.74194096084304,0 -53.6641168405897,-5.74192030741921,0 -53.664122441504,-5.74186362082961,0 -53.6641233033771,-5.74185494152306,0 -53.6641232441566,-5.74184219997038,0 -53.6641137596241,-5.7418009462112,0 -53.6640979497401,-5.74177698215321,0 -53.6640775132391,-5.74168933052033,0 -53.6640894946151,-5.74164662115542,0 -53.6640894806023,-5.74160478102971,0 -53.6641219831852,-5.74153206431303,0 -53.6641255964245,-5.74149418344934,0 -53.6641521777078,-5.74142863338289,0 -53.6641632032071,-5.74139379045739,0 -53.6641935338728,-5.74133906702035,0 -53.664187547828,-5.7413128883337,0 -53.6641642099437,-5.74129980348169,0 -53.6641089574684,-5.74127240861543,0 -53.6637650593854,-5.74104483965512,0 -53.663741795195,-5.7409699429875,0 -53.6637365540274,-5.7409487310309,0 -53.6636951396779,-5.74081219788322,0 -53.6639813665899,-5.74066663693623,0 -53.6640862363514,-5.74061545183857,0 -53.6641888011041,-5.74043713029261,0 -53.6635209583885,-5.72241975921026,0 -53.663508127451,-5.72225959694232,0 -53.6640179967446,-5.72201630767438,0 -53.6645180800636,-5.72170555903093,0 -53.6647530791481,-5.72152617159035,0 -53.6651645122073,-5.72133981903544,0 -53.6654422742916,-5.72114098441596,0 -53.665624556303,-5.72097476446071,0 -53.6659086756426,-5.72080454671289,0 -53.6663368057767,-5.72058097506456,0 -53.6667745081412,-5.72034000818503,0 -53.6671908206381,-5.72013628162523,0 -53.6675927164056,-5.719858701436,0 -53.6681318584728,-5.71952834072096,0 -53.6684142859333,-5.71940222951747,0 -53.66908566319,-5.71895034170459,0 -53.6693888156259,-5.71874117666847,0 -53.670035124817,-5.71825343893923,0 -53.6706543434283,-5.7177799243646,0 -53.6708339416712,-5.7176192288086,0 -53.6710373187559,-5.71735305445724,0 -53.6713656428936,-5.71696954410112,0 -53.6715853165133,-5.71671585492997,0 -53.6716547007143,-5.71652304997227,0 -53.6717485832979,-5.71637983286794,0 -53.6718283097997,-5.71633554326814,0 -53.6719796617181,-5.71630926468527,0 -53.6721307042806,-5.71631353157631,0 -53.6722736195318,-5.71631611929874,0 -53.6724203436156,-5.71626464975658,0 -53.6725753204328,-5.71620302064759,0 -53.6727123612893,-5.7161256608166,0 -53.6728234580886,-5.71601769701821,0 -53.6729351079622,-5.71585397419917,0 -53.6730095273222,-5.71565762156655,0 -53.673104704002,-5.7154434603404,0 -53.6732155145664,-5.7152544387054,0 -53.6732626577874,-5.71493486221711,0 -53.6733943755132,-5.71464371893196,0 -53.6735338519189,-5.71441091660102,0 -53.6735873287772,-5.71421195059022,0 -53.6736919333097,-5.71394930887385,0 -53.6737659126758,-5.71375539832287,0 -53.6738060387333,-5.71349838858146,0 -53.6738740672885,-5.71330522870676,0 -53.6740993935741,-5.7131036550969,0 -53.6742763636154,-5.71296032224708,0 -53.6744217078152,-5.71286448894236,0 -53.6747938340967,-5.7126670209326,0 -53.6750320531463,-5.71258042417638,0 -53.675220805905,-5.7124878224943,0 -53.6753544995742,-5.7123699034799,0 -53.6756137158742,-5.71208413065123,0 -53.6757668027919,-5.71188786360994,0 -53.6759617643123,-5.71167531617699,0 -53.6760944283086,-5.71145230537017,0 -53.6762639929046,-5.71111327243516,0 -53.6763768063241,-5.71077305809879,0 -53.6764786946163,-5.71039204892624,0 -53.676608179448,-5.71024215973666,0 -53.6768071013177,-5.71014435971344,0 -53.6770353207058,-5.71011943943901,0 -53.6772107362601,-5.71010795870524,0 -53.6774206430653,-5.71008330436661,0 -53.6776182787009,-5.71005825532152,0 -53.677801458323,-5.71002857453297,0 -53.6779330786493,-5.70998892260643,0 -53.6781094330961,-5.70983004925198,0 -53.6782168914362,-5.70969670935578,0 -53.6782844491387,-5.70959672002288,0 -53.6783214186087,-5.70947617932961,0 -53.6783220748753,-5.70932616766591,0 -53.6782807780239,-5.70907839413385,0 -53.6782612957037,-5.70886567152251,0 -53.6784357920598,-5.70861761506826,0 -53.6785824365753,-5.7084525546386,0 -53.678697268708,-5.70817820854302,0 -53.6787935484014,-5.70791072644635,0 -53.6788223426395,-5.70770048989052,0 -53.6788376490783,-5.70730560688559,0 -53.6788266022179,-5.70694726444596,0 -53.6788878516019,-5.70663512386919,0 -53.6789354799237,-5.70647865806285,0 -53.6790691005866,-5.70628718110373,0 -53.6792634729199,-5.70612316355208,0 -53.6794531314119,-5.7059542881617,0 -53.6797150470945,-5.70578444339494,0 -53.6799711318678,-5.70575767595825,0 -53.6802944902493,-5.70570583436372,0 -53.6804340074838,-5.70559918401471,0 -53.6808662677076,-5.70537549962619,0 -53.6812051791567,-5.70505980552557,0 -53.6816380342517,-5.70473138344844,0 -53.6819744108986,-5.70449160883581,0 -53.6824664638801,-5.7041671576579,0 -53.6827064248917,-5.70406835227664,0 -53.6828583026577,-5.70402038216608,0 -53.6831510680047,-5.70396669419352,0 -53.6835327827906,-5.70393211015053,0 -53.683940990299,-5.70389107659701,0 -53.6842930502511,-5.70386205246288,0 -53.6845768238158,-5.70387301765433,0 -53.6847680213287,-5.70382224296648,0 -53.6849103422789,-5.70375624380367,0 -53.6850767146918,-5.70362443613749,0 -53.6852416784544,-5.70336440548322,0 -53.6854431805541,-5.70312417516686,0 -53.6857272349834,-5.70288545708866,0 -53.6859973225725,-5.70259213271511,0 -53.6863252268567,-5.70219976823946,0 -53.6866273651894,-5.70189255855304,0 -53.6869224391592,-5.70156007936193,0 -53.68725219112,-5.70117728507907,0 -53.6875640518357,-5.70078833912121,0 -53.6876339790349,-5.7006552648889,0 -53.6876153449351,-5.70048943999886,0 -53.687549536752,-5.7002864239115,0 -53.6874828755171,-5.6999970218971,0 -53.6875081167238,-5.69981861193625,0 -53.6876528750933,-5.69954006054235,0 -53.6880703723564,-5.69891810996442,0 -53.6884563584858,-5.69840682417708,0 -53.6888193592395,-5.69789971226444,0 -53.6890170059927,-5.69756832107708,0 -53.6892482107263,-5.69729487842985,0 -53.6893756393289,-5.69716966869754,0 -53.6894202684175,-5.6971059330398,0 -53.6894158654655,-5.69679961337427,0 -53.689384873628,-5.69642085410757,0 -53.6893681583137,-5.69608576521783,0 -53.6893456240323,-5.6956827483637,0 -53.6893279858352,-5.69534314546188,0 -53.6894006187994,-5.69513252495414,0 -53.6894700518745,-5.69499032635149,0 -53.6895517936704,-5.69483731674535,0 -53.6898327815235,-5.69454168312505,0 -53.6902159679361,-5.69422424589962,0 -53.6904618544772,-5.69398498369802,0 -53.6905535803888,-5.69376758707471,0 -53.6906668856963,-5.69336041193957,0 -53.6907572705581,-5.69302934149734,0 -53.6907529226122,-5.69296737088988,0 -53.6907087587558,-5.69287901868448,0 -53.6906008673548,-5.69274370275646,0 -53.6904847896628,-5.69257453783962,0 -53.6903527249911,-5.6923817716705,0 -53.6902548805665,-5.69219544237495,0 -53.6901272419719,-5.69192629630331,0 -53.6900746505072,-5.69177156443127,0 -53.6899627481092,-5.69160780170124,0 -53.6897334407572,-5.69128030176446,0 -53.6896046105828,-5.69116216225901,0 -53.6895117290901,-5.69103418580619,0 -53.6894356665483,-5.69085651998149,0 -53.6894378085951,-5.69056056178288,0 -53.6894257904811,-5.69028464050412,0 -53.6892965160811,-5.68991564719477,0 -53.6892199683886,-5.68957532491152,0 -53.689187169596,-5.68942827187777,0 -53.6891843577963,-5.68930855019491,0 -53.6892943469575,-5.68909974380897,0 -53.6894921531843,-5.68880287293032,0 -53.6896184970645,-5.68838632955607,0 -53.68980859123,-5.68809943496738,0 -53.6898770300818,-5.68785982699422,0 -53.6898599830821,-5.68760814727698,0 -53.6897901535611,-5.68747093615016,0 -53.6896615685097,-5.68728881608467,0 -53.6895130708262,-5.68709242063429,0 -53.6893356838101,-5.68691070870567,0 -53.6891878019832,-5.68674973363014,0 -53.6891160840541,-5.68653608155005,0 -53.6890669651624,-5.6863906407065,0 -53.6889096200073,-5.68621208822143,0 -53.6887596599731,-5.68606973796109,0 -53.6886000119692,-5.6859003229973,0 -53.6881822242089,-5.68548767091493,0 -53.6877554807606,-5.68510840501913,0 -53.6876176315454,-5.68491250109494,0 -53.6875931435766,-5.68480652546193,0 -53.687558151349,-5.68455592275862,0 -53.6875038437607,-5.68424477439662,0 -53.6874648047037,-5.68389966763491,0 -53.6874395600437,-5.6835917274131,0 -53.687413942122,-5.68341716917276,0 -53.6873561521086,-5.68324971891043,0 -53.6872906529839,-5.68305392958335,0 -53.687247655235,-5.68286652987448,0 -53.6872106494455,-5.68268732556275,0 -53.6871333761745,-5.68255918478219,0 -53.6870212095815,-5.6824154827106,0 -53.686889350387,-5.68226599845874,0 -53.6867848312811,-5.6820789753377,0 -53.6866665146852,-5.68187349133045,0 -53.6865591367569,-5.68169244556632,0 -53.6865096773033,-5.68157050076303,0 -53.6864638883868,-5.68136467912112,0 -53.686421149435,-5.68115513825745,0 -53.6864074639102,-5.68100519419507,0 -53.6865056273313,-5.68071655995209,0 -53.686607383372,-5.68058017589135,0 -53.6867631482671,-5.68039908042207,0 -53.6869375084316,-5.68016223292977,0 -53.6871031642777,-5.67995479492208,0 -53.6873037645378,-5.67973508526353,0 -53.6874767383047,-5.67953005309591,0 -53.6876028538673,-5.67931656385164,0 -53.6877244757342,-5.67910671017441,0 -53.6878456437546,-5.67901297894479,0 -53.6879730842598,-5.67892961060665,0 -53.6881017350252,-5.6787959931341,0 -53.6881659821603,-5.67864424073467,0 -53.6883063032259,-5.67842056444177,0 -53.6885076559908,-5.67822714781009,0 -53.6886358361792,-5.67808937570278,0 -53.6887768232628,-5.67795100179046,0 -53.6889099427651,-5.67784736501338,0 -53.6890087512536,-5.67779530614763,0 -53.6891844037411,-5.67777903593612,0 -53.6893609296857,-5.67777604539685,0 -53.6895336536862,-5.67771189479835,0 -53.6897547030651,-5.67756420183553,0 -53.6898665519312,-5.67740635410542,0 -53.6899632792304,-5.67719742971101,0 -53.6900320749983,-5.67697625525543,0 -53.6900310910087,-5.6767641711774,0 -53.6899989021406,-5.6765342495653,0 -53.6899762106659,-5.67630979604331,0 -53.689953080962,-5.67614643187316,0 -53.6898912386847,-5.67596083716042,0 -53.6898175862823,-5.67581569093665,0 -53.6897377077376,-5.67563126450665,0 -53.6896976949402,-5.67552319240817,0 -53.6896305277428,-5.67533698981532,0 -53.689575397871,-5.67510093957087,0 -53.6895378629032,-5.67496303515272,0 -53.6895845401532,-5.67475750663977,0 -53.6896783093805,-5.67459151999777,0 -53.6897779411069,-5.67436694899558,0 -53.6898520767004,-5.67418840251471,0 -53.6898822811909,-5.67406834645287,0 -53.6898376702277,-5.67388294252823,0 -53.6897247399696,-5.67371023658158,0 -53.6895651533334,-5.6735140717743,0 -53.6894013259866,-5.67329822682985,0 -53.6892763570512,-5.67311663045156,0 -53.6892302052177,-5.6730074119891,0 -53.689193361512,-5.67284338847116,0 -53.6891185413304,-5.67262125553614,0 -53.6890339490199,-5.6724121807026,0 -53.6889943946762,-5.67224717570538,0 -53.6889968578715,-5.67211685656407,0 -53.6890327234766,-5.67199198478861,0 -53.6890997178158,-5.6718296471365,0 -53.6893105337607,-5.67142057430045,0 -53.6895732451584,-5.67099761494868,0 -53.6897435156582,-5.67077425194566,0 -53.6898349034908,-5.67067840058353,0 -53.6900110923287,-5.67058369106936,0 -53.6902492454146,-5.67046763809436,0 -53.6905065574257,-5.67033965802744,0 -53.6906364436651,-5.67025889938768,0 -53.6907201265898,-5.67013561262031,0 -53.6908253870972,-5.66991887760335,0 -53.6909211196377,-5.66970950655244,0 -53.6909818357028,-5.66951620277579,0 -53.6910279092145,-5.66929721286593,0 -53.6910393610168,-5.66915998431701,0 -53.6910360258541,-5.66906321805864,0 -53.6910148443816,-5.66889180228619,0 -53.6910283558636,-5.66865398702263,0 -53.6911127997696,-5.66842243857901,0 -53.6910452148927,-5.66824310568615,0 -53.6909404089256,-5.66803231781821,0 -53.6908752716579,-5.66783607506848,0 -53.6908237739562,-5.66764374496664,0 -53.6906819512221,-5.66738713286013,0 -53.6906115586277,-5.66720528260208,0 -53.6906192212083,-5.66691210021122,0 -53.6906863622368,-5.66676205190753,0 -53.690787469107,-5.66658338047949,0 -53.6908214893595,-5.66644966164367,0 -53.690778938269,-5.66637756678881,0 -53.6906233152371,-5.66629641874148,0 -53.6904885803653,-5.66622610781295,0 -53.6903436698281,-5.66619858718053,0 -53.6901591500123,-5.66618878156204,0 -53.6898920727275,-5.6662141503876,0 -53.6896363572582,-5.66625808168552,0 -53.6894639283973,-5.66626846163389,0 -53.689277241674,-5.66623878529886,0 -53.6890927574104,-5.66625617932204,0 -53.6889380908931,-5.66624524060098,0 -53.6887695218083,-5.66623201689741,0 -53.6885671866459,-5.66617367661219,0 -53.6882727453709,-5.66621191341804,0 -53.6880054802516,-5.66619679830549,0 -53.6877470323638,-5.66611820515792,0 -53.6874750809915,-5.66608458648773,0 -53.6872190086524,-5.66603200745033,0 -53.686980887339,-5.66599886403351,0 -53.6867521325716,-5.66602098109869,0 -53.6865580225145,-5.66600516425302,0 -53.6863757685732,-5.66595874855959,0 -53.686190748854,-5.66595798054013,0 -53.6860492456114,-5.66600409132049,0 -53.6858248967476,-5.66614022972049,0 -53.6855537840201,-5.66634661885179,0 -53.6854372534259,-5.66638954123673,0 -53.6852913193839,-5.66641389420364,0 -53.6851199250792,-5.66643357583454,0 -53.6849336709706,-5.66645856758987,0 -53.6847231994146,-5.66647454462441,0 -53.6845269640804,-5.66646741216092,0 -53.6843107664583,-5.66643506963909,0 -53.684089117611,-5.6664138673588,0 -53.6838929193848,-5.66639525797057,0 -53.683780362264,-5.6663610791744,0 -53.6836761765163,-5.66622538013426,0 -53.6835595308112,-5.66602865115966,0 -53.6834211325178,-5.66586825986705,0 -53.6832179980919,-5.66571503640031,0 -53.6829509663252,-5.66563340802554,0 -53.6827128365254,-5.66563758402445,0 -53.6824181127467,-5.66565404089318,0 -53.6820952292304,-5.66564776536801,0 -53.6817529314002,-5.66561772284055,0 -53.6814775351937,-5.6655805927331,0 -53.6812404600231,-5.6655201511699,0 -53.6809918810211,-5.66552762803177,0 -53.6804351342506,-5.66547282323968,0 -53.679820333695,-5.66542678104703,0 -53.6791883441992,-5.66544832160371,0 -53.6784897354265,-5.66538179105528,0 -53.6781324363962,-5.66538525131825,0 -53.6774168146026,-5.66534626958502,0 -53.6770363156872,-5.66530709294095,0 -53.6764427954967,-5.66531815077287,0 -53.6760035745392,-5.66529939668902,0 -53.675644427827,-5.66529355614039,0 -53.6754664652053,-5.66527802214871,0 -53.6750706478069,-5.66524261996012,0 -53.6747574300996,-5.66522002946347,0 -53.6746188424653,-5.66523368255645,0 -53.6743397914546,-5.66524545418751,0 -53.6741001016608,-5.66526382141731,0 -53.6737507009841,-5.66529805763425,0 -53.6735072023949,-5.66531210460626,0 -53.6733302958442,-5.66533009124881,0 -53.6731166992795,-5.66541231753183,0 -53.6729020970248,-5.66545243732417,0 -53.672678673562,-5.66549675466258,0 -53.6724581374714,-5.66556084901032,0 -53.6722470775863,-5.6656258935944,0 -53.67186617801,-5.66571566931439,0 -53.6716966755013,-5.66573524797484,0 -53.6715038866597,-5.66577174235576,0 -53.671302350224,-5.66578920955951,0 -53.6710875237299,-5.66583954133518,0 -53.6708938731092,-5.66582597605179,0 -53.6706968791733,-5.66588969015587,0 -53.6704667411032,-5.66590602390659,0 -53.6703086504945,-5.66593558033558,0 -53.6701388062757,-5.66597901714398,0 -53.6699495149963,-5.66605037675055,0 -53.6696752645138,-5.66608634266437,0 -53.6693643695161,-5.66619657869977,0 -53.6690860730746,-5.66625515489132,0 -53.6688631846089,-5.666298384155,0 -53.6687176935636,-5.66632155642368,0 -53.6686061072929,-5.6663809904341,0 -53.6683982483093,-5.66649508872002,0 -53.6681536384732,-5.66664071388927,0 -53.6678839267688,-5.66678121339859,0 -53.6677134692978,-5.66690733878445,0 -53.6675538099227,-5.66704724061669,0 -53.6673480176783,-5.66715970258849,0 -53.6671993717866,-5.66724244135109,0 -53.6669939208261,-5.66723281512044,0 -53.666739770997,-5.6671869950699,0 -53.6664399148126,-5.66716732096187,0 -53.6661267182324,-5.66714996733179,0 -53.6657424656214,-5.6671192952852,0 -53.6653829611058,-5.66711498672274,0 -53.6650884888936,-5.66712845202259,0 -53.664802133272,-5.66710211801362,0 -53.664573697376,-5.66705726292252,0 -53.6643529716607,-5.66700197994103,0 -53.6641503629598,-5.66702207054547,0 -53.6639136913555,-5.6670500894932,0 -53.6637196460658,-5.66706878503007,0 -53.6635516918961,-5.66709196919451,0 -53.6633313579196,-5.66716148194092,0 -53.6664676845896,-5.68482095005613,0 -53.6652381606489,-5.70787498037087,0 -53.6465577437253,-5.7265188363215,0 -53.6361326273245,-5.72121521455999,0 -53.6367506750758,-5.75779894005703,0 -53.63674659966,-5.75801078505315,0 -53.6368876118628,-5.76342344597068,0</coordinates></LinearRing></outerBoundaryIs></Polygon></MultiGeometry>
  </Placemark>
  <Placemark>
	<name>Patacho</name>
	<Style><LineStyle><color>ff0000ff</color></LineStyle><PolyStyle><fill>0</fill></PolyStyle></Style>
	<ExtendedData><SchemaData schemaUrl="#properties_area_TDX">
		<SimpleData name="municipio">Altamira</SimpleData>
		<SimpleData name="estado">PA</SimpleData>
		<SimpleData name="area_ha">2137.530</SimpleData>
		<SimpleData name="id">6</SimpleData>
	</SchemaData></ExtendedData>
      <MultiGeometry><Polygon><outerBoundaryIs><LinearRing><coordinates>-53.6327601501231,-5.64365319708686,0 -53.6226019139087,-5.64357812698498,0 -53.62261431726,-5.64437635993395,0 -53.6226114411533,-5.64491467529359,0 -53.6226099773535,-5.64518853286145,0 -53.6225961437517,-5.64556658022018,0 -53.6226065873524,-5.64599315554878,0 -53.622606557262,-5.64719356906927,0 -53.6226553197206,-5.64812671649548,0 -53.6226522720496,-5.6485680198667,0 -53.6226732344356,-5.64919283918388,0 -53.6226842001323,-5.64940643522488,0 -53.6226776507781,-5.65017192343494,0 -53.6226600881688,-5.65047076859705,0 -53.6226869277845,-5.65134279767159,0 -53.622636631356,-5.65181063049907,0 -53.6226561003827,-5.65214553796434,0 -53.6226933567865,-5.65276637949306,0 -53.6227204773582,-5.6533639511326,0 -53.6227230625378,-5.65393382657434,0 -53.6226936217495,-5.65430314235851,0 -53.6227111669366,-5.65463335012734,0 -53.622735473853,-5.65504471640645,0 -53.622736722433,-5.65513562375307,0 -53.6227557941816,-5.65548423311189,0 -53.6226964215968,-5.65605166855471,0 -53.6227128466459,-5.65625331989654,0 -53.6226844460948,-5.65694337493685,0 -53.6227076230992,-5.65785634919173,0 -53.6226704235596,-5.65876956946801,0 -53.6227695553813,-5.65942347748494,0 -53.6227717765739,-5.65953394568075,0 -53.6227974324756,-5.65995197504504,0 -53.6227561767167,-5.6603995692908,0 -53.622752869668,-5.66106240854649,0 -53.622781909051,-5.66173639769812,0 -53.6228140372247,-5.66214714995121,0 -53.6228311270615,-5.66250387434389,0 -53.6228422834102,-5.66274515889481,0 -53.6228158753887,-5.66301838789655,0 -53.6227826550331,-5.66347123249902,0 -53.6227460064298,-5.66390402130142,0 -53.6227976354976,-5.66449782146983,0 -53.62276894223,-5.66488027389537,0 -53.6227387477646,-5.66507803340849,0 -53.6228093337415,-5.66556185078206,0 -53.6228082146638,-5.6659493554142,0 -53.6228269222937,-5.66636933475295,0 -53.6228485794183,-5.66679096095284,0 -53.6228863719723,-5.66706831320257,0 -53.6233956294034,-5.66704000593142,0 -53.6239056338911,-5.66691777428555,0 -53.624534594454,-5.66692742029658,0 -53.6249994497016,-5.66686322900631,0 -53.6253234657596,-5.66673490638065,0 -53.6260100376264,-5.66678739876696,0 -53.6270183937362,-5.66660291778519,0 -53.6273668877572,-5.67380135371604,0 -53.6457766633818,-5.674950533915,0 -53.6459262856,-5.66597858617947,0 -53.6459026595327,-5.66581223431601,0 -53.6462002185051,-5.66582787267928,0 -53.646838959986,-5.66580719513825,0 -53.6479944088035,-5.66582010245549,0 -53.648802559783,-5.66578254412594,0 -53.6494226266353,-5.66587668149916,0 -53.6509445711089,-5.66614466099839,0 -53.6520462552338,-5.66645080829294,0 -53.653059987566,-5.66669638441403,0 -53.653774547422,-5.66668348450974,0 -53.6545756651053,-5.66686831961175,0 -53.6553031762804,-5.66686481086734,0 -53.6559965533073,-5.66687353105544,0 -53.6566884496023,-5.6668820493497,0 -53.6574661372046,-5.66690676452516,0 -53.6584504106692,-5.6669484407694,0 -53.6593446511274,-5.6669599303036,0 -53.6601873867761,-5.66699628045146,0 -53.6611053996397,-5.66707739491579,0 -53.6618298176603,-5.66699615756335,0 -53.6623860937311,-5.6670350688305,0 -53.6627996831258,-5.66704995653996,0 -53.6631719769549,-5.66705752439225,0 -53.6633313217121,-5.66716145518281,0 -53.6637928537996,-5.66703002390487,0 -53.6644171157942,-5.66701293563056,0 -53.6650397422159,-5.66706019602917,0 -53.6652795164945,-5.66707536714286,0 -53.6661854499677,-5.6671000489986,0 -53.6670499213247,-5.66719320217986,0 -53.6678448298309,-5.66675169903216,0 -53.6688136302217,-5.66627034588169,0 -53.6690961163142,-5.66622046190517,0 -53.6701198883356,-5.66597484828734,0 -53.6713505007467,-5.66578071895571,0 -53.6724687585129,-5.6655616044348,0 -53.6735458485556,-5.66533384034791,0 -53.6743972161799,-5.66526656995177,0 -53.6751722938563,-5.66524243062317,0 -53.6764417003593,-5.66534673906327,0 -53.6775083915294,-5.6653711579963,0 -53.6787322578864,-5.66544387163844,0 -53.6800180080052,-5.66546614259908,0 -53.6812860846181,-5.66557430454856,0 -53.6823383421687,-5.6656912440524,0 -53.6828237968173,-5.66564050393347,0 -53.6830175373928,-5.66569538924516,0 -53.6833511643109,-5.66583833875593,0 -53.6836301922877,-5.66615591201664,0 -53.6837735080462,-5.66634189925587,0 -53.6845875382029,-5.66648876509919,0 -53.6853058659684,-5.66640718498879,0 -53.6856645191312,-5.66629500318781,0 -53.6861379225431,-5.66602417507894,0 -53.6866926476882,-5.666012771989,0 -53.688803419106,-5.66624311923048,0 -53.690494800762,-5.66615709379981,0 -53.6906618256851,-5.66597526047905,0 -53.6912294486417,-5.66601844637146,0 -53.6918712526705,-5.66459054803026,0 -53.6919679370664,-5.66393635660719,0 -53.6920672298459,-5.66382966106364,0 -53.6924996088676,-5.66386054401257,0 -53.6933926160303,-5.66323254306547,0 -53.6934741710388,-5.66250040093958,0 -53.6930098110934,-5.66135092185973,0 -53.693257962885,-5.66005247894164,0 -53.6938281605448,-5.65913205725763,0 -53.6946592035746,-5.65653431383268,0 -53.6946020491208,-5.65355311197163,0 -53.6946398843236,-5.65257922006259,0 -53.6946239510696,-5.65149269316563,0 -53.6945950257967,-5.65054190140781,0 -53.6943710995495,-5.6499564048955,0 -53.6945495291166,-5.64968437149115,0 -53.6946574302788,-5.64927639417309,0 -53.6945575730563,-5.64893098334608,0 -53.6939239568132,-5.64809360447519,0 -53.6938467993759,-5.64775674493998,0 -53.693558664273,-5.64741818004059,0 -53.6928064511702,-5.64622152113707,0 -53.6922748687337,-5.64486585999999,0 -53.6922576045054,-5.64424344066772,0 -53.6922533230445,-5.64408909444381,0 -53.6920436836534,-5.64408756972907,0 -53.6827090493525,-5.64401959773818,0 -53.6825436804311,-5.64401839214563,0 -53.6793324362074,-5.64399497130203,0 -53.6787918071856,-5.64399102644478,0 -53.6773501564037,-5.64398050442575,0 -53.675147224541,-5.64396441884009,0 -53.6752101642365,-5.64397379724306,0 -53.6712247514784,-5.64393575552966,0 -53.6689400570072,-5.64391904734647,0 -53.66749045586,-5.64390844136476,0 -53.6638054908419,-5.64388146320773,0 -53.6635741909997,-5.64387976900612,0 -53.663264253792,-5.6438774986574,0 -53.6622417223081,-5.64387000718375,0 -53.6558605307523,-5.64382321314371,0 -53.6549762503453,-5.64381672277792,0 -53.6512778548843,-5.64378956222618,0 -53.6509653697067,-5.64378726623656,0 -53.6333973817268,-5.6436579000297,0 -53.6327601501231,-5.64365319708686,0</coordinates></LinearRing></outerBoundaryIs></Polygon></MultiGeometry>
  </Placemark>
  <Placemark>
	<name>Belcon</name>
	<Style><LineStyle><color>ff0000ff</color></LineStyle><PolyStyle><fill>0</fill></PolyStyle></Style>
	<ExtendedData><SchemaData schemaUrl="#properties_area_TDX">
		<SimpleData name="municipio">Altamira</SimpleData>
		<SimpleData name="estado">PA</SimpleData>
		<SimpleData name="area_ha">2197.415</SimpleData>
		<SimpleData name="id">7</SimpleData>
	</SchemaData></ExtendedData>
      <MultiGeometry><Polygon><outerBoundaryIs><LinearRing><coordinates>-53.6226008100996,-5.64350709891458,0 -53.6226019139087,-5.64357812698498,0 -53.6327601501231,-5.64365319708686,0 -53.6333973817268,-5.6436579000297,0 -53.6509653697067,-5.64378726623656,0 -53.6512778548843,-5.64378956222618,0 -53.6549762503453,-5.64381672277792,0 -53.6558605307523,-5.64382321314371,0 -53.6622417223081,-5.64387000718375,0 -53.663264253792,-5.6438774986574,0 -53.6635741909997,-5.64387976900612,0 -53.6638054908419,-5.64388146320773,0 -53.66749045586,-5.64390844136476,0 -53.6689400570072,-5.64391904734647,0 -53.6712247514784,-5.64393575552966,0 -53.6752101642365,-5.64397379724306,0 -53.675147224541,-5.64396441884009,0 -53.6773501564037,-5.64398050442575,0 -53.6787918071856,-5.64399102644478,0 -53.6793324362074,-5.64399497130203,0 -53.6825436804311,-5.64401839214563,0 -53.6827090493525,-5.64401959773818,0 -53.6920436836534,-5.64408756972907,0 -53.6922533230445,-5.64408909444381,0 -53.6922576045054,-5.64424344066772,0 -53.6922748687337,-5.64486585999999,0 -53.6922901125018,-5.6446153385928,0 -53.6923265993382,-5.6440156850944,0 -53.6926568961631,-5.64346605032697,0 -53.6924910357002,-5.64249620018873,0 -53.6924349058781,-5.64228988405771,0 -53.692947066135,-5.64143437778117,0 -53.6936447597479,-5.64041370035937,0 -53.6957552750314,-5.6383814578572,0 -53.7088091193127,-5.63965609515196,0 -53.6885950970093,-5.61911453625276,0 -53.6225524614739,-5.62089193376665,0 -53.6224665693781,-5.62090636344584,0 -53.6224726752892,-5.62122642058732,0 -53.6225014768949,-5.62132892532483,0 -53.6225019897325,-5.62209800620336,0 -53.6224798428897,-5.62246825579583,0 -53.6225132202922,-5.62357401916656,0 -53.6225535007069,-5.62387479106801,0 -53.6225744204759,-5.62398172319646,0 -53.6225942960099,-5.62423609102727,0 -53.6226720477174,-5.62473200381866,0 -53.6226016771987,-5.62539805527906,0 -53.6223775344878,-5.62580293088679,0 -53.6223258594118,-5.62595277230215,0 -53.6216094172656,-5.6270243053525,0 -53.6215711939491,-5.62723702967615,0 -53.6217325070722,-5.62812589720792,0 -53.6224387673528,-5.6288676011395,0 -53.6225753320667,-5.62933846924669,0 -53.6226225422002,-5.63016413775198,0 -53.6225942668444,-5.63079655365606,0 -53.6226072099794,-5.63115008935023,0 -53.6226073521361,-5.63169647077913,0 -53.6225728981902,-5.63191072348159,0 -53.6224755684262,-5.63272773464035,0 -53.6224773139878,-5.63345638686398,0 -53.6225086194686,-5.63369433685748,0 -53.6225517738205,-5.63414833723017,0 -53.6225653579954,-5.63422647391264,0 -53.6225860589621,-5.63457776954675,0 -53.6225741232602,-5.63498137426075,0 -53.6225382353787,-5.63551710061618,0 -53.6225546140893,-5.63608096789035,0 -53.6225522783311,-5.63689265303338,0 -53.6227851346427,-5.63751385164686,0 -53.6229974169196,-5.6379326217536,0 -53.6231237870324,-5.6387512540541,0 -53.6229657084733,-5.63975948374977,0 -53.6227863630619,-5.64067829727827,0 -53.6227528482748,-5.64108520742834,0 -53.6226459646114,-5.6412266770584,0 -53.622677135187,-5.64181548299154,0 -53.6226460022402,-5.64214816993597,0 -53.6226008100996,-5.64350709891458,0</coordinates></LinearRing></outerBoundaryIs></Polygon></MultiGeometry>
  </Placemark>
</Folder>
</Document></kml>
