<?xml version="1.0" encoding="utf-8" ?>
<kml xmlns="http://www.opengis.net/kml/2.2">
<Document id="root_doc">
<Schema name="Chirisa_REDD_project_area" id="Chirisa_REDD_project_area">
	<SimpleField name="Id" type="int"></SimpleField>
	<SimpleField name="Area" type="float"></SimpleField>
	<SimpleField name="length" type="float"></SimpleField>
</Schema>
<Folder><name>Chirisa_REDD_project_area</name>
  <Placemark>
	<Style><LineStyle><color>ff0000ff</color></LineStyle><PolyStyle><fill>0</fill></PolyStyle></Style>
	<ExtendedData><SchemaData schemaUrl="#Chirisa_REDD_project_area">
		<SimpleData name="Id">0</SimpleData>
		<SimpleData name="Area">144796.10029700000</SimpleData>
		<SimpleData name="length">200.03938291400</SimpleData>
	</SchemaData></ExtendedData>
      <MultiGeometry><Polygon><outerBoundaryIs><LinearRing><coordinates>28.3963073545709,-17.671589702053 28.4509270611216,-17.7398736200218 28.4505870830123,-17.7398748655198 28.4404822484015,-17.7733844588626 28.4325929319381,-17.8484452951976 28.3950914227963,-17.879441343376 28.3880904669624,-17.949976460526 28.41660694737,-17.974168882042 28.3950379789527,-18.0104530013393 28.3869976701368,-18.0255883939095 28.3808501021917,-18.0224046378184 28.3670298025418,-18.0207095653794 28.3650093696222,-18.0179143000418 28.3299832103132,-18.0073141532099 28.3016575603373,-18.0084102747455 28.2518198653283,-18.0394641649827 28.2397934530577,-18.0756891041245 28.2268301302654,-18.1137267687919 28.271427908161,-18.1387404683366 28.271050787543,-18.1404201016986 28.2700800095816,-18.1410481622329 28.2648760812531,-18.1442146076276 28.2635978559886,-18.147307357744 28.2622784456338,-18.1481528589826 28.2619787399625,-18.151693461555 28.2605871337361,-18.152939675254 28.2537201268051,-18.1632059770058 28.2526708310732,-18.1651255964825 28.2382211624359,-18.1732290131634 28.2380994754072,-18.1737079937891 28.2293221214564,-18.1793831730092 28.2175678500794,-18.1887231411444 28.2152398229191,-18.1905633539724 28.2134052915284,-18.1929659531325 28.2112619404232,-18.1941271674296 28.2079790603017,-18.1969214130428 28.2051042185237,-18.2008607253004 28.1855279506617,-18.2146905986027 28.1765023568808,-18.2143349262186 28.1615763300564,-18.2045987858659 28.1564064876413,-18.2059450826096 28.1513911910196,-18.2045525800803 28.1392833804878,-18.2085461682573 28.1364728630609,-18.2072477640417 28.1253926858519,-18.1994435253109 28.1242554410105,-18.1976568987349 28.1208805292167,-18.1980352965196 28.1085535954471,-18.1921591112465 28.1058587494148,-18.1863165307092 28.0932247639384,-18.1860929168773 28.0863014272287,-18.1841028282115 28.0693664748305,-18.1814700265826 28.0525506789922,-18.1805586433493 28.0538903418819,-18.1703651833337 28.0481337241227,-18.1614060815685 28.0472727944022,-18.1512485323215 28.0535849719226,-18.1465513919021 28.0718285855984,-18.1370760049204 28.0691224248972,-18.1091039121392 28.0723015533837,-18.1022787561285 28.0713495515522,-18.0999168459389 28.0701137260549,-18.0940415644351 28.0700076150375,-18.0889132076958 28.0663691179234,-18.0777297555646 28.0692923805309,-18.0660747986643 28.0697588485523,-18.0597127828875 28.0660330363802,-18.0587004103916 28.0596542841729,-18.0554835614678 28.0547602115715,-18.0530426855706 28.0505049543797,-18.0523889334488 28.037072142391,-18.0635803067965 28.0296800024003,-18.0627231722064 28.0264879823167,-18.0554591042334 28.0264255044707,-18.0511553608435 28.0177142832282,-18.0403998740659 28.0180196671497,-18.0369395363483 28.0162328558009,-18.0326448386848 28.0153991911208,-18.0187037855581 28.0126066524712,-18.0154903339694 28.0075917107519,-18.0103874298834 27.9965270538402,-18.0004924735656 27.9967479278484,-17.9997739823674 27.9995286099516,-18.0009791602937 28.0117476064011,-18.0007722666859 28.0181310032693,-17.9904121754798 28.0387648255882,-17.9641429694265 28.0414170017936,-17.9626581900508 28.0438054931213,-17.9566568387186 28.0443032348952,-17.9563658765594 28.0479637774307,-17.9423014735995 28.0524146058713,-17.9398264729276 28.0683529394297,-17.938634065416 28.065807699389,-17.9307572248034 28.0661482471436,-17.9292250165265 28.0687530199605,-17.9207950369513 28.0689991109757,-17.9097644621946 28.0733010726572,-17.9049188913306 28.0728906654732,-17.9014635370967 28.0791051153568,-17.8924575665972 28.0759269320308,-17.8743907889112 28.0758326319484,-17.8736596129905 28.0758296959435,-17.8731718315641 28.0796982144397,-17.871170560849 28.0798620464184,-17.8677837663705 28.079965881088,-17.8676110275245 28.0800143709629,-17.8657169572543 28.0849470622337,-17.8598698716992 28.0850141376813,-17.8585782709724 28.0852456574892,-17.8572283674927 28.0853333687159,-17.8568692051595 28.0856127002233,-17.8559924854863 28.0856987562579,-17.8553607396681 28.085876961172,-17.8551015023691 28.0859039629299,-17.8546135548875 28.0860527274595,-17.8544405631648 28.0883079418109,-17.8511199245571 28.0883435493299,-17.8495845998192 28.0884600782517,-17.8490387649152 28.0893344619507,-17.8450167336391 28.0901642659188,-17.8421259678399 28.0905851056106,-17.8409359528372 28.0885362065651,-17.8404516724349 28.0914597617499,-17.8383885159019 28.095149044575,-17.8374400891414 28.1014459339121,-17.8313419795959 28.104231274589,-17.8275601818093 28.1048819815179,-17.8268092663834 28.1084118414072,-17.8223357460776 28.1119333065933,-17.8215685051712 28.1177168975656,-17.8232690954907 28.1255590303102,-17.8198167012016 28.1341748819447,-17.8221137948811 28.1395196003169,-17.8264154376863 28.1475590838108,-17.8257414435983 28.1544147920233,-17.823482094189 28.1630656439665,-17.8258286085775 28.1705476756871,-17.8247079258591 28.1719193678723,-17.8237384765357 28.1734925181246,-17.8238007686114 28.175129868414,-17.8244025744829 28.1779646800821,-17.8227117294528 28.1828056036807,-17.8223955552504 28.1858075934897,-17.8158018269699 28.189379124253,-17.8123130304366 28.1909910259891,-17.8115694485468 28.1951093882994,-17.8068218971338 28.1978208627712,-17.8063569772312 28.2004963218638,-17.8051749126424 28.2025867503815,-17.8051620699656 28.2070663389808,-17.8031618233005 28.2077835369471,-17.803097618712 28.2141730577976,-17.8021016250836 28.2198663664727,-17.8016967801521 28.2229966244881,-17.7995252610439 28.2319608793579,-17.7961517965279 28.2330878357618,-17.7945187665352 28.2486484077832,-17.7925660690329 28.2528162205252,-17.7882029099902 28.2544877125844,-17.7776536817632 28.2545047179016,-17.7707912191057 28.2605129833281,-17.7493750295031 28.2743306371785,-17.7343655345107 28.277470754549,-17.7338429976498 28.3046060151948,-17.7355152210778 28.314009553301,-17.7284833928817 28.3360484831452,-17.7262840586836 28.3392796495925,-17.7207936563858 28.3484953177519,-17.7180813580092 28.3546941533295,-17.7196406684308 28.3599609479117,-17.7161794441963 28.3626521863593,-17.7122238204334 28.3618155221555,-17.7010103011697 28.3601880842254,-17.6984609014107 28.3608172452777,-17.6960416205195 28.3606087913849,-17.6861341772544 28.3649982824289,-17.6842869112579 28.3668364203516,-17.6817865774903 28.373364537747,-17.679263446557 28.3741186138292,-17.6791587663473 28.3756356296002,-17.6799889115811 28.3963073545709,-17.671589702053</coordinates></LinearRing></outerBoundaryIs></Polygon></MultiGeometry>
  </Placemark>
</Folder>
</Document></kml>
