<?xml version="1.0" encoding="utf-8" ?>
<kml xmlns="http://www.opengis.net/kml/2.2">
<Document id="root_doc">
<Schema name="PD_Grandas" id="PD_Grandas">
	<SimpleField name="timestamp" type="string"></SimpleField>
	<SimpleField name="begin" type="string"></SimpleField>
	<SimpleField name="end" type="string"></SimpleField>
	<SimpleField name="altitudeMode" type="string"></SimpleField>
	<SimpleField name="tessellate" type="int"></SimpleField>
	<SimpleField name="extrude" type="int"></SimpleField>
	<SimpleField name="visibility" type="int"></SimpleField>
	<SimpleField name="drawOrder" type="int"></SimpleField>
	<SimpleField name="icon" type="string"></SimpleField>
	<SimpleField name="Rodal" type="float"></SimpleField>
	<SimpleField name="ha" type="float"></SimpleField>
	<SimpleField name="tnCO2/ha" type="float"></SimpleField>
	<SimpleField name="tnCO2total" type="float"></SimpleField>
	<SimpleField name="nationalCa" type="string"></SimpleField>
	<SimpleField name="Empresa" type="string"></SimpleField>
	<SimpleField name="layer" type="string"></SimpleField>
	<SimpleField name="path" type="string"></SimpleField>
</Schema>
<Folder><name>PD_Grandas</name>
  <Placemark>
	<Style><LineStyle><color>ff0000ff</color></LineStyle><PolyStyle><fill>0</fill></PolyStyle></Style>
	<ExtendedData><SchemaData schemaUrl="#PD_Grandas">
		<SimpleData name="tessellate">-1</SimpleData>
		<SimpleData name="extrude">0</SimpleData>
		<SimpleData name="visibility">-1</SimpleData>
		<SimpleData name="Rodal">23</SimpleData>
		<SimpleData name="ha">3.165</SimpleData>
		<SimpleData name="tnCO2/ha">651.799</SimpleData>
		<SimpleData name="tnCO2total">2062.944</SimpleData>
		<SimpleData name="nationalCa">33027A03200491</SimpleData>
		<SimpleData name="Empresa">RIS</SimpleData>
		<SimpleData name="layer">Grandas_RIS_def</SimpleData>
		<SimpleData name="path">C:/Users/AlejandroRodriguezVi/OneDrive - Grupo Sylvestris/SYLVESTRIS/WORKSTREAMS/WS4/PDD_FactorCO2_MV_Spain/PD_Grandas_RIS/Grandas_RIS_def.kml|layername=Grandas_RIS_def|geometrytype=Polygon</SimpleData>
	</SchemaData></ExtendedData>
      <Polygon><outerBoundaryIs><LinearRing><coordinates>-6.8329679397165,43.2075015003058,0 -6.83263276517367,43.2077123871661,0 -6.832287354368,43.2079230789866,0 -6.83214635587806,43.208145136143,0 -6.83210477902497,43.2084514790389,0 -6.83190184353764,43.2086873436456,0 -6.83151018178791,43.209046976173,0 -6.83133115982771,43.2091859101956,0 -6.83125209074809,43.2093941586608,0 -6.83146143705088,43.2095554398869,0 -6.83140852857978,43.2096379701845,0 -6.83128831407459,43.2096781008077,0 -6.83102765077387,43.2097075535378,0 -6.83090523035843,43.2097335050918,0 -6.83082704350225,43.2097583146512,0 -6.8307816281074,43.2098275069523,0 -6.83071643426595,43.2098747136008,0 -6.83057960820045,43.209914618389,0 -6.83048535101295,43.2099339483967,0 -6.83033996191232,43.2099727419153,0 -6.83017409511223,43.2099776085585,0 -6.83002914926635,43.210017358611,0 -6.82994506922449,43.2100132481772,0 -6.82994397747589,43.2099984571973,0 -6.82998801850832,43.2099160526743,0 -6.83006784271255,43.2097378434088,0 -6.83012430257685,43.2095787667053,0 -6.83015198752176,43.2095156181777,0 -6.83015754126235,43.2094819269151,0 -6.83021361258465,43.2092956884919,0 -6.83029702339932,43.2090459418325,0 -6.83030099495825,43.2090265614962,0 -6.83032438429841,43.2087315195236,0 -6.830348848387,43.2085609168316,0 -6.83039569425262,43.2084190651278,0 -6.83038891109466,43.2083215534033,0 -6.83048128268,43.2083158149474,0 -6.83067000705325,43.2081920483038,0 -6.83080702998832,43.2080822826094,0 -6.83080210397121,43.2079323691136,0 -6.83082681817808,43.2078129818847,0 -6.83091556894929,43.2076770935574,0 -6.83121131139512,43.2076554727526,0 -6.83143126455333,43.207517315103,0 -6.83163886053782,43.2074388507338,0 -6.83202801316487,43.2074387382627,0 -6.8322830645428,43.2074660464589,0 -6.83243657283696,43.2074689563473,0 -6.83265678779966,43.2073233102839,0 -6.83280324366616,43.2072361939634,0 -6.8331533154697,43.2071828999589,0 -6.8329679397165,43.2075015003058,0</coordinates></LinearRing></outerBoundaryIs></Polygon>
  </Placemark>
  <Placemark>
	<Style><LineStyle><color>ff0000ff</color></LineStyle><PolyStyle><fill>0</fill></PolyStyle></Style>
	<ExtendedData><SchemaData schemaUrl="#PD_Grandas">
		<SimpleData name="tessellate">-1</SimpleData>
		<SimpleData name="extrude">0</SimpleData>
		<SimpleData name="visibility">-1</SimpleData>
		<SimpleData name="Rodal">23</SimpleData>
		<SimpleData name="ha">9.87</SimpleData>
		<SimpleData name="tnCO2/ha">651.799</SimpleData>
		<SimpleData name="tnCO2total">6433.256</SimpleData>
		<SimpleData name="nationalCa">33027A03200485</SimpleData>
		<SimpleData name="Empresa">RIS</SimpleData>
		<SimpleData name="layer">Grandas_RIS_def</SimpleData>
		<SimpleData name="path">C:/Users/AlejandroRodriguezVi/OneDrive - Grupo Sylvestris/SYLVESTRIS/WORKSTREAMS/WS4/PDD_FactorCO2_MV_Spain/PD_Grandas_RIS/Grandas_RIS_def.kml|layername=Grandas_RIS_def|geometrytype=Polygon</SimpleData>
	</SchemaData></ExtendedData>
      <Polygon><outerBoundaryIs><LinearRing><coordinates>-6.83459682708984,43.2152967784888,0 -6.83590909839937,43.2152242379992,0 -6.83651615299416,43.2151458330237,0 -6.83735742456172,43.2151055641602,0 -6.83778981671842,43.2150425764703,0 -6.8380631658769,43.2149878168364,0 -6.83798040017602,43.2148663960629,0 -6.83774040313475,43.2148468761941,0 -6.83757597906108,43.2148624944579,0 -6.83728754199829,43.214909476573,0 -6.83694700218491,43.2149816908807,0 -6.83535754725114,43.2151089245424,0 -6.83512646082646,43.2151270228392,0 -6.83472203857636,43.2151231111049,0 -6.83456289087276,43.2151196254569,0 -6.83457009912373,43.215040208564,0 -6.83455961793628,43.2148116023757,0 -6.83453460892637,43.2145979041842,0 -6.83444575531895,43.2144246807123,0 -6.8343279450003,43.2143021380626,0 -6.83412377621994,43.2141456574562,0 -6.8339255254364,43.2140003279083,0 -6.83367083301806,43.2138176142504,0 -6.83342754339593,43.2136579753935,0 -6.8333978307365,43.2136331402739,0 -6.83363324257759,43.213621144472,0 -6.83405260948706,43.2136365796048,0 -6.83433892252802,43.2136494933926,0 -6.83464385073097,43.2137151959457,0 -6.83480549019688,43.2137781846403,0 -6.83494745489742,43.213818327604,0 -6.83511880009052,43.2138964816135,0 -6.83509488607359,43.2139934118348,0 -6.83484580173533,43.2140860788059,0 -6.83475650247536,43.2142941358549,0 -6.83493940853276,43.2143350540536,0 -6.83496719927088,43.2144179811926,0 -6.83508832627925,43.2143100915986,0 -6.83511461643026,43.2141906903853,0 -6.83523049357552,43.214213218021,0 -6.83543329530404,43.2142456708046,0 -6.8354703103485,43.2142967225512,0 -6.83568312442616,43.2144465158065,0 -6.83618182254821,43.2142462057013,0 -6.8364117387372,43.2141029182456,0 -6.83667107665628,43.2140232417462,0 -6.83682777843702,43.2139363142164,0 -6.83718000318959,43.2138231207583,0 -6.83743190814527,43.2139402499713,0 -6.83750011292964,43.2140389227967,0 -6.83797171767952,43.2140253674249,0 -6.83879660259838,43.2138686676141,0 -6.83943566753022,43.2137533970544,0 -6.84069539938905,43.2136086442668,0 -6.84084469639634,43.213731319361,0 -6.84128005807659,43.2137155025729,0 -6.84138635859155,43.2137640186745,0 -6.84157752194474,43.2138612646242,0 -6.84179608966364,43.2140526649661,0 -6.84154793914022,43.2141191457038,0 -6.8410299702613,43.2141767864752,0 -6.84079624626097,43.2142697564464,0 -6.84072635121492,43.214480667735,0 -6.84072431169978,43.2144877974489,0 -6.84044068578782,43.2146226100064,0 -6.84024489667689,43.2146563672638,0 -6.83993519905014,43.2147254275134,0 -6.83979213384729,43.2148613083981,0 -6.83962868729082,43.2150305135334,0 -6.83937435532476,43.2151268367289,0 -6.83861196438502,43.2151086834605,0 -6.83816042487254,43.2151338572913,0 -6.83811944255014,43.2152791569325,0 -6.83796168065586,43.2153960301549,0 -6.83777766845247,43.2155311342879,0 -6.83706168516424,43.2163004027078,0 -6.83692258079897,43.2163239899343,0 -6.83665513668843,43.2163563855406,0 -6.83652114139115,43.2162221309663,0 -6.83629503628885,43.2162440713568,0 -6.83577131039401,43.2162828517853,0 -6.83558200941044,43.2162911324102,0 -6.83541281261431,43.21644149511,0 -6.83511818911179,43.2165183185838,0 -6.83471715288744,43.2165631623763,0 -6.83440952296002,43.2165645934776,0 -6.83445778519986,43.2164007704716,0 -6.83447201396971,43.2161601486585,0 -6.83449073972979,43.2159042307845,0 -6.83451449539973,43.2156473816557,0 -6.83453634995649,43.2154440543241,0 -6.8345471715071,43.2152992908139,0 -6.83459682708984,43.2152967784888,0</coordinates></LinearRing></outerBoundaryIs></Polygon>
  </Placemark>
  <Placemark>
	<Style><LineStyle><color>ff0000ff</color></LineStyle><PolyStyle><fill>0</fill></PolyStyle></Style>
	<ExtendedData><SchemaData schemaUrl="#PD_Grandas">
		<SimpleData name="tessellate">-1</SimpleData>
		<SimpleData name="extrude">0</SimpleData>
		<SimpleData name="visibility">-1</SimpleData>
		<SimpleData name="Rodal">23</SimpleData>
		<SimpleData name="ha">7.791</SimpleData>
		<SimpleData name="tnCO2/ha">651.799</SimpleData>
		<SimpleData name="tnCO2total">5078.166</SimpleData>
		<SimpleData name="nationalCa">33027A03200489</SimpleData>
		<SimpleData name="Empresa">RIS</SimpleData>
		<SimpleData name="layer">Grandas_RIS_def</SimpleData>
		<SimpleData name="path">C:/Users/AlejandroRodriguezVi/OneDrive - Grupo Sylvestris/SYLVESTRIS/WORKSTREAMS/WS4/PDD_FactorCO2_MV_Spain/PD_Grandas_RIS/Grandas_RIS_def.kml|layername=Grandas_RIS_def|geometrytype=Polygon</SimpleData>
	</SchemaData></ExtendedData>
      <Polygon><outerBoundaryIs><LinearRing><coordinates>-6.83991495889511,43.2117455001072,0 -6.839818485582,43.2118672792102,0 -6.83969166688963,43.2121233229651,0 -6.83948000464558,43.21217176107,0 -6.83919356470317,43.2121626032824,0 -6.83881726032628,43.2120880729097,0 -6.83873291001233,43.2120115686895,0 -6.838406193526,43.2119829201828,0 -6.83812998941434,43.2119739532197,0 -6.83778659857189,43.211982442704,0 -6.83758124352107,43.211997287048,0 -6.83724261617889,43.2118710269729,0 -6.83713771183938,43.2120862818365,0 -6.83704096785199,43.2122155444522,0 -6.83681748045568,43.2123086999399,0 -6.83639511946475,43.2125591488028,0 -6.83619368810436,43.2126077743805,0 -6.83605763707525,43.212545271875,0 -6.83598877421037,43.2124653132207,0 -6.83577424180327,43.2124500166377,0 -6.83568009574112,43.2126504917435,0 -6.83563910946253,43.2127957904634,0 -6.83554249360786,43.2129213087112,0 -6.83575067146154,43.213116269427,0 -6.8357314789658,43.2132245256552,0 -6.8354508994236,43.2133390708591,0 -6.835294197326,43.2134259965009,0 -6.83516520139633,43.2134535184682,0 -6.83497567434075,43.2135997502176,0 -6.83463920109431,43.2135933791913,0 -6.83439396041531,43.2135774985075,0 -6.83402197617453,43.2135255071548,0 -6.8337193836304,43.2135385026629,0 -6.83354499249507,43.2135464353179,0 -6.83341167353441,43.2135514004073,0 -6.83345408744968,43.2134762824339,0 -6.83346538945274,43.2134635242343,0 -6.83359365690476,43.2133359865992,0 -6.83369903294669,43.2132351542431,0 -6.83380143220717,43.2131307320927,0 -6.8338161676129,43.2131119742504,0 -6.8339164222812,43.2129482970072,0 -6.83397178105208,43.2128351948669,0 -6.83397682701781,43.2128223007818,0 -6.83402875608391,43.2126496986755,0 -6.83403122840102,43.2126380758756,0 -6.83405536577678,43.2124613744092,0 -6.83407303830526,43.2123386143639,0 -6.83406370346181,43.212180849824,0 -6.83406308537742,43.2121748718383,0 -6.83403702516712,43.2119909336177,0 -6.833968916679,43.21171143269,0 -6.83395545076145,43.2116810643876,0 -6.83393852463786,43.2116561976454,0 -6.83392739874476,43.2115685650739,0 -6.8338787438488,43.2114964789298,0 -6.83414030609636,43.2113403768475,0 -6.83434398718535,43.2112281239816,0 -6.8341949744788,43.2110979547784,0 -6.83417649306922,43.211041422238,0 -6.83467053100231,43.210972122814,0 -6.83476229308295,43.2108390223569,0 -6.83496923419876,43.2107792670946,0 -6.8351844707877,43.2106297764888,0 -6.83554528412707,43.210381912543,0 -6.8358410224132,43.2104174739402,0 -6.83612061514673,43.2104752020541,0 -6.83604694240345,43.2106760649495,0 -6.8362132499524,43.210896451025,0 -6.83647775823044,43.2109464018323,0 -6.83659999803528,43.2111097710648,0 -6.83666515431306,43.2112945332535,0 -6.83711088687658,43.2112879829147,0 -6.83730997453999,43.2111606558606,0 -6.83754603042876,43.2111463925723,0 -6.83756147209251,43.2112890136038,0 -6.83800958761411,43.2113237053272,0 -6.84019473023747,43.2116534016103,0 -6.83991495889511,43.2117455001072,0</coordinates></LinearRing></outerBoundaryIs></Polygon>
  </Placemark>
  <Placemark>
	<Style><LineStyle><color>ff0000ff</color></LineStyle><PolyStyle><fill>0</fill></PolyStyle></Style>
	<ExtendedData><SchemaData schemaUrl="#PD_Grandas">
		<SimpleData name="tessellate">-1</SimpleData>
		<SimpleData name="extrude">0</SimpleData>
		<SimpleData name="visibility">-1</SimpleData>
		<SimpleData name="Rodal">23</SimpleData>
		<SimpleData name="ha">6.115</SimpleData>
		<SimpleData name="tnCO2/ha">651.799</SimpleData>
		<SimpleData name="tnCO2total">3985.751</SimpleData>
		<SimpleData name="nationalCa">33027A03200495</SimpleData>
		<SimpleData name="Empresa">RIS</SimpleData>
		<SimpleData name="layer">Grandas_RIS_def</SimpleData>
		<SimpleData name="path">C:/Users/AlejandroRodriguezVi/OneDrive - Grupo Sylvestris/SYLVESTRIS/WORKSTREAMS/WS4/PDD_FactorCO2_MV_Spain/PD_Grandas_RIS/Grandas_RIS_def.kml|layername=Grandas_RIS_def|geometrytype=Polygon</SimpleData>
	</SchemaData></ExtendedData>
      <Polygon><outerBoundaryIs><LinearRing><coordinates>-6.83585647328097,43.2048183794732,0 -6.83580048043962,43.2048186669061,0 -6.83572530330084,43.2048073393125,0 -6.83566991161544,43.2047864813565,0 -6.83559319177757,43.2047665703405,0 -6.83549648285396,43.2047619484919,0 -6.83543309349587,43.2047479624351,0 -6.83531817686224,43.2047117506713,0 -6.83524205569081,43.2046749225654,0 -6.83517694983928,43.2046537904321,0 -6.83506825893911,43.2046294919821,0 -6.83481542944059,43.204559963802,0 -6.83471022362776,43.20452762708,0 -6.83462332714584,43.2045240006854,0 -6.83452050947931,43.2044624448576,0 -6.83439100268893,43.204455940371,0 -6.83435255661746,43.2044501698339,0 -6.83423774193415,43.2044145892202,0 -6.83411689803876,43.2043754726409,0 -6.83407424594739,43.204356385945,0 -6.83392911932104,43.2043078048762,0 -6.83378676332915,43.2042922320468,0 -6.83368579764227,43.2042687989722,0 -6.83356262209716,43.2042607927036,0 -6.83302801416744,43.2041538663601,0 -6.83194316516733,43.2040270520211,0 -6.8317033355486,43.2040180926063,0 -6.83161805029115,43.2040059411189,0 -6.83162454764502,43.2040068649341,0 -6.83164347487236,43.2039898490323,0 -6.8318375602659,43.2037702967644,0 -6.83215200663763,43.2034620918879,0 -6.83220405535249,43.2034104231275,0 -6.83230532166376,43.2033688881095,0 -6.83245009200467,43.2031340331522,0 -6.83259500458042,43.2029379346713,0 -6.83277020948352,43.2026722807794,0 -6.83291742107457,43.2024009132034,0 -6.83295028560572,43.2022874627922,0 -6.83300830663297,43.2021686683988,0 -6.83302224134828,43.2020452971839,0 -6.83305549030475,43.2019410181275,0 -6.83308300935835,43.2017647582106,0 -6.83322873698278,43.2017271302404,0 -6.83366721406471,43.2016343090513,0 -6.83429441954745,43.2017061173416,0 -6.83489872927781,43.2019909825048,0 -6.83492685320024,43.2026432328802,0 -6.83481339818226,43.2029557071603,0 -6.83467060663698,43.2031224081211,0 -6.83485576899257,43.2034118033358,0 -6.83523443802414,43.2037548916058,0 -6.83581806096556,43.2043806000874,0 -6.83585657132845,43.204818364291,0 -6.83585647328097,43.2048183794732,0</coordinates></LinearRing></outerBoundaryIs></Polygon>
  </Placemark>
  <Placemark>
	<Style><LineStyle><color>ff0000ff</color></LineStyle><PolyStyle><fill>0</fill></PolyStyle></Style>
	<ExtendedData><SchemaData schemaUrl="#PD_Grandas">
		<SimpleData name="tessellate">-1</SimpleData>
		<SimpleData name="extrude">0</SimpleData>
		<SimpleData name="visibility">-1</SimpleData>
		<SimpleData name="Rodal">23</SimpleData>
		<SimpleData name="ha">10.468</SimpleData>
		<SimpleData name="tnCO2/ha">651.799</SimpleData>
		<SimpleData name="tnCO2total">6823.032</SimpleData>
		<SimpleData name="nationalCa">33027A03200493</SimpleData>
		<SimpleData name="Empresa">RIS</SimpleData>
		<SimpleData name="layer">Grandas_RIS_def</SimpleData>
		<SimpleData name="path">C:/Users/AlejandroRodriguezVi/OneDrive - Grupo Sylvestris/SYLVESTRIS/WORKSTREAMS/WS4/PDD_FactorCO2_MV_Spain/PD_Grandas_RIS/Grandas_RIS_def.kml|layername=Grandas_RIS_def|geometrytype=Polygon</SimpleData>
	</SchemaData></ExtendedData>
      <Polygon><outerBoundaryIs><LinearRing><coordinates>-6.83160253894867,43.2040265995677,0 -6.83171354394392,43.2040461096274,0 -6.83190340242071,43.2040515103281,0 -6.83221736157862,43.2040943803419,0 -6.83236069880333,43.2041065520706,0 -6.83249534204976,43.2041313450126,0 -6.83268018055735,43.2041429523197,0 -6.83328709018838,43.2042172137997,0 -6.83354683647799,43.2042685975593,0 -6.83374543362172,43.2042983824719,0 -6.83385427578846,43.2043288080056,0 -6.83395601198831,43.2043409100395,0 -6.83412500493541,43.2044002981207,0 -6.83439399433454,43.2044792282621,0 -6.83446424647761,43.2044836201548,0 -6.83451379830564,43.2044886104849,0 -6.83455866795552,43.2045076489662,0 -6.83460193618279,43.204533680502,0 -6.8346374246155,43.2045465083902,0 -6.8347460179612,43.2045596400026,0 -6.83486496253613,43.2045933173429,0 -6.83497604340497,43.2046196421932,0 -6.83506357685548,43.2046435401774,0 -6.83519558292906,43.2046768341503,0 -6.83524713676313,43.2046948283334,0 -6.83529081264592,43.2047197868031,0 -6.83536905164027,43.204752422919,0 -6.83545544129976,43.2047738677762,0 -6.83558550125567,43.204789115752,0 -6.83564316021929,43.2048015525682,0 -6.83572376865205,43.204822887801,0 -6.83575651008379,43.2048263888658,0 -6.83576696239579,43.2048274493332,0 -6.8357710560234,43.204831605855,0 -6.83588617998646,43.2050510238477,0 -6.83623217623026,43.205402157624,0 -6.83672356443399,43.2056961128529,0 -6.83729338715672,43.2060889324886,0 -6.83778094107249,43.2062926427945,0 -6.8379182617295,43.2064637868736,0 -6.8376375454478,43.2064924642738,0 -6.83676969981966,43.2065094840541,0 -6.83623330913666,43.2066191918431,0 -6.83613538491693,43.2069809284356,0 -6.83591809163437,43.2070442354716,0 -6.83537516861914,43.2070489415147,0 -6.83465827046358,43.2070503507566,0 -6.83415919761553,43.2069734802958,0 -6.83396405493167,43.2067185596542,0 -6.83365211529564,43.2065443786897,0 -6.83339891589954,43.2064831233417,0 -6.83319769415382,43.2063634758623,0 -6.83303381561639,43.2063825677256,0 -6.83281962387143,43.206213706489,0 -6.83230041970683,43.2059644290484,0 -6.83177903499269,43.2059395622895,0 -6.83147839332032,43.2057540773234,0 -6.83129403706219,43.2054659229186,0 -6.83122131790146,43.2050307926273,0 -6.83122141560883,43.205021939826,0 -6.8312180876924,43.2047537454852,0 -6.83124665997471,43.2044911935979,0 -6.8316016544034,43.2040273639105,0 -6.83160253894867,43.2040265995677,0</coordinates></LinearRing></outerBoundaryIs></Polygon>
  </Placemark>
  <Placemark>
	<Style><LineStyle><color>ff0000ff</color></LineStyle><PolyStyle><fill>0</fill></PolyStyle></Style>
	<ExtendedData><SchemaData schemaUrl="#PD_Grandas">
		<SimpleData name="tessellate">-1</SimpleData>
		<SimpleData name="extrude">0</SimpleData>
		<SimpleData name="visibility">-1</SimpleData>
		<SimpleData name="Rodal">23</SimpleData>
		<SimpleData name="ha">7.844</SimpleData>
		<SimpleData name="tnCO2/ha">651.799</SimpleData>
		<SimpleData name="tnCO2total">5112.711</SimpleData>
		<SimpleData name="nationalCa">33027A03200489</SimpleData>
		<SimpleData name="Empresa">RIS</SimpleData>
		<SimpleData name="layer">Grandas_RIS_def</SimpleData>
		<SimpleData name="path">C:/Users/AlejandroRodriguezVi/OneDrive - Grupo Sylvestris/SYLVESTRIS/WORKSTREAMS/WS4/PDD_FactorCO2_MV_Spain/PD_Grandas_RIS/Grandas_RIS_def.kml|layername=Grandas_RIS_def|geometrytype=Polygon</SimpleData>
	</SchemaData></ExtendedData>
      <Polygon><outerBoundaryIs><LinearRing><coordinates>-6.82972249241083,43.2146820595616,0 -6.82971000935501,43.2146829349253,0 -6.82960270206348,43.2146851302883,0 -6.82957153953458,43.2146877191418,0 -6.82960105448455,43.2146227880892,0 -6.82967660770137,43.2143872136148,0 -6.82973415685554,43.2142366042054,0 -6.82981452969578,43.2139696606866,0 -6.82985604924511,43.2138725012428,0 -6.82989912909443,43.2137362475337,0 -6.82995926492676,43.2135854666211,0 -6.830008903441,43.2134444605771,0 -6.83005028757783,43.2133354811864,0 -6.83007117158012,43.2132922379473,0 -6.83011146142474,43.2132305888956,0 -6.83019108361724,43.2130802379437,0 -6.83019727291128,43.213070927396,0 -6.83027207425042,43.2130189829591,0 -6.83048449820107,43.2128511647422,0 -6.83057702100386,43.2127414180101,0 -6.83063518269454,43.2127024262627,0 -6.83077766839423,43.2125911325246,0 -6.83092623614951,43.2124832441609,0 -6.83102337337782,43.2123893137913,0 -6.83104788647366,43.2123530572372,0 -6.83110711150043,43.2121850303929,0 -6.83107951147588,43.2119960586013,0 -6.8310035986953,43.2118338686759,0 -6.83092107111975,43.2116343058551,0 -6.83084221104029,43.2114774219963,0 -6.83077580027191,43.2113104858798,0 -6.83069870392846,43.2111112771375,0 -6.83060276875432,43.2109709712336,0 -6.83055420766761,43.210923149021,0 -6.83049254434513,43.2108402430996,0 -6.83043665700125,43.2107523430687,0 -6.83034950784018,43.2106470540595,0 -6.83026939732569,43.2105839920485,0 -6.83022409785573,43.2105358551995,0 -6.83014864671373,43.2104093531579,0 -6.83033970200986,43.2104718802677,0 -6.83055629150104,43.2105405543238,0 -6.83075910122415,43.2105953105781,0 -6.83098372302858,43.2106695000863,0 -6.83103535668084,43.2106893066508,0 -6.83117546028232,43.2107430483483,0 -6.83137852807341,43.2108221273341,0 -6.83157663948591,43.2108933439236,0 -6.8318227106268,43.2109861110926,0 -6.83205352415501,43.2110657725841,0 -6.83224365664324,43.2111295108127,0 -6.83248414075652,43.2112063662186,0 -6.83269972474893,43.211254567389,0 -6.83281960328534,43.2112756944916,0 -6.83295958384258,43.2112884024734,0 -6.83305108248118,43.2112924111672,0 -6.83305108248119,43.2112924111672,0 -6.83339324195394,43.2114425498135,0 -6.83357739128978,43.2116103597607,0 -6.83368122050833,43.2117628983534,0 -6.83374391852641,43.2120179573085,0 -6.83377764873008,43.2123283718372,0 -6.8337381952985,43.2126102995994,0 -6.83369034790345,43.2127693022008,0 -6.83364445236991,43.2128639318886,0 -6.83355269931432,43.2130137276901,0 -6.83340497703401,43.213159415697,0 -6.8332610216844,43.2132579210541,0 -6.8331805406681,43.2133909828882,0 -6.83311365386279,43.213471916609,0 -6.83308064354244,43.2135561450757,0 -6.83304926675184,43.2136080208261,0 -6.83268805951765,43.213554307529,0 -6.83217706879443,43.2135081687014,0 -6.83176152526298,43.2133805168906,0 -6.8313703848261,43.2133678921272,0 -6.83146372260652,43.2135467183845,0 -6.83187185474232,43.2136472964391,0 -6.83208200216046,43.2136419169829,0 -6.83219897419056,43.2136647347868,0 -6.83229166532066,43.2137019685808,0 -6.83210766638886,43.2137847324697,0 -6.83184945100255,43.2138451557598,0 -6.8312568575511,43.2139593979268,0 -6.83078884233522,43.214106746688,0 -6.83074850886085,43.2141512978916,0 -6.83075669120614,43.2142102874496,0 -6.83077572206393,43.2142289810328,0 -6.83074713499505,43.2142408716737,0 -6.83053695510129,43.2143667268906,0 -6.8303989631428,43.2144322716582,0 -6.83003126584561,43.2146185235564,0 -6.82992634234873,43.2146578665277,0 -6.8298282435268,43.2146746437987,0 -6.82972249241083,43.2146820595616,0</coordinates></LinearRing></outerBoundaryIs></Polygon>
  </Placemark>
  <Placemark>
	<Style><LineStyle><color>ff0000ff</color></LineStyle><PolyStyle><fill>0</fill></PolyStyle></Style>
	<ExtendedData><SchemaData schemaUrl="#PD_Grandas">
		<SimpleData name="tessellate">-1</SimpleData>
		<SimpleData name="extrude">0</SimpleData>
		<SimpleData name="visibility">-1</SimpleData>
		<SimpleData name="Rodal">27</SimpleData>
		<SimpleData name="ha">3.452</SimpleData>
		<SimpleData name="tnCO2/ha">585.53</SimpleData>
		<SimpleData name="tnCO2total">2021.25</SimpleData>
		<SimpleData name="nationalCa">33027A00100052</SimpleData>
		<SimpleData name="Empresa">Sylvestris SN</SimpleData>
		<SimpleData name="layer">Grandas_Sylvestris_def</SimpleData>
		<SimpleData name="path">C:/Users/AlejandroRodriguezVi/OneDrive - Grupo Sylvestris/SYLVESTRIS/WORKSTREAMS/WS4/PDD_FactorCO2_MV_Spain/PD_Grandas_Sylvestris/Grandas_Sylvestris_def.kml|layername=Grandas_Sylvestris_def|geometrytype=Polygon</SimpleData>
	</SchemaData></ExtendedData>
      <Polygon><outerBoundaryIs><LinearRing><coordinates>-6.83436968858998,43.2232349925281,0 -6.83518968907463,43.2222151554987,0 -6.83518969136497,43.2222151585123,0 -6.83521858081997,43.222253170579,0 -6.8352269617782,43.2222618032183,0 -6.83527589746034,43.222306834642,0 -6.83528591708216,43.2223150543849,0 -6.8353020070503,43.2223254591388,0 -6.83531436051133,43.2223317141943,0 -6.83533382233743,43.2223390393632,0 -6.83538699053472,43.2223555314971,0 -6.83538937713752,43.2223562501994,0 -6.83541526232136,43.2223619447054,0 -6.83542805260258,43.2223630075661,0 -6.83544084288428,43.2223640704254,0 -6.83548773164814,43.2223594131304,0 -6.83555668705895,43.2223440414524,0 -6.8355605296252,43.2223431426191,0 -6.83558413778006,43.2223356296542,0 -6.83560584103095,43.2223250938917,0 -6.83567095209342,43.2222868729228,0 -6.83568187327911,43.2222797086876,0 -6.83569560086632,43.2222684636804,0 -6.83580812715332,43.2221614006178,0 -6.8359282774669,43.222049208792,0 -6.83602177123896,43.2219646995403,0 -6.83602961239127,43.2219569250178,0 -6.83606773204139,43.2219153589075,0 -6.83610585163904,43.2218737927832,0 -6.83611162533383,43.221866962404,0 -6.83619183608802,43.2217636545228,0 -6.83619623232991,43.2217575454333,0 -6.8362990171794,43.2216029212438,0 -6.83639644253419,43.2214612950523,0 -6.83639909567563,43.2214572284719,0 -6.83645371096088,43.2213688335097,0 -6.83651373214333,43.2212769669803,0 -6.83651926269294,43.2212659737785,0 -6.83652307510823,43.2212553442598,0 -6.83652600237747,43.2212357665964,0 -6.83652700636098,43.2211610604338,0 -6.83652671547463,43.2211539343038,0 -6.83652532152133,43.2211459868185,0 -6.83652392756837,43.2211380393332,0 -6.83648717273356,43.221008635089,0 -6.83665802388989,43.2211472683755,0 -6.83676323821892,43.2212438925963,0 -6.83687356128435,43.22133285883,0 -6.83694766635909,43.2214119752425,0 -6.83705160591894,43.2215708481464,0 -6.83707610413815,43.2216168557706,0 -6.83710999444383,43.2216805016027,0 -6.83714747482995,43.2217450651729,0 -6.83731138378403,43.2220563346361,0 -6.8373463465231,43.2221227427539,0 -6.83736265130899,43.222245300892,0 -6.83737098359931,43.2223204143805,0 -6.83738433642293,43.2224083006739,0 -6.83737931163751,43.2224772400516,0 -6.83728730237036,43.2226939530662,0 -6.83715763619648,43.2228555612807,0 -6.83709667345002,43.2229370589368,0 -6.83695884133354,43.223045967831,0 -6.83693100599994,43.2230705108988,0 -6.83685533145685,43.2231314695831,0 -6.83680197123197,43.2231842835312,0 -6.83679049057198,43.2232011367531,0 -6.83656596954941,43.2233926585469,0 -6.83650798338,43.2234203311853,0 -6.83639435117279,43.2234490642335,0 -6.83638491108016,43.2234517742041,0 -6.83637210039847,43.2234562401727,0 -6.83636289745347,43.2234602863691,0 -6.83635063574581,43.2234666365237,0 -6.83627371157028,43.2235148947745,0 -6.8362653365217,43.2235212239188,0 -6.83625603056441,43.223529851361,0 -6.83625002789256,43.2235363631615,0 -6.83624482522555,43.2235432322643,0 -6.83623854704452,43.2235532154225,0 -6.8362350546438,43.2235606409394,0 -6.83623124201895,43.2235712704403,0 -6.8362290817409,43.2235821446104,0 -6.8362285267564,43.2235978295555,0 -6.83622953368458,43.2236061190859,0 -6.83610983169639,43.2236045175622,0 -6.83606111923732,43.2235997238698,0 -6.83598495815154,43.2235842358079,0 -6.83591895147969,43.2235740723396,0 -6.83584623575844,43.22355864939,0 -6.83573575561819,43.2235387298157,0 -6.8356940122903,43.2235353284775,0 -6.83564520756825,43.2235331441171,0 -6.83560364259968,43.2235247036973,0 -6.83552055728761,43.2235065630509,0 -6.83546867644666,43.2235043203878,0 -6.83541104631064,43.2235044900802,0 -6.83534684093069,43.2234956209859,0 -6.83526057046847,43.2234735479929,0 -6.83499113452959,43.2233944313597,0 -6.83492163836747,43.2233854618535,0 -6.83484729289679,43.2233673961555,0 -6.83474044518961,43.2233283651773,0 -6.83464762481342,43.2232895997287,0 -6.83456667061334,43.2232599732036,0 -6.83446445978456,43.2232430003407,0 -6.83440869348374,43.2232461762543,0 -6.83436968858998,43.2232349925281,0</coordinates></LinearRing></outerBoundaryIs></Polygon>
  </Placemark>
  <Placemark>
	<Style><LineStyle><color>ff0000ff</color></LineStyle><PolyStyle><fill>0</fill></PolyStyle></Style>
	<ExtendedData><SchemaData schemaUrl="#PD_Grandas">
		<SimpleData name="tessellate">-1</SimpleData>
		<SimpleData name="extrude">0</SimpleData>
		<SimpleData name="visibility">-1</SimpleData>
		<SimpleData name="Rodal">24</SimpleData>
		<SimpleData name="ha">3.714</SimpleData>
		<SimpleData name="tnCO2/ha">520.716</SimpleData>
		<SimpleData name="tnCO2total">1933.939</SimpleData>
		<SimpleData name="nationalCa">33027A03200483</SimpleData>
		<SimpleData name="Empresa">Sylvestris SN</SimpleData>
		<SimpleData name="layer">Grandas_Sylvestris_def</SimpleData>
		<SimpleData name="path">C:/Users/AlejandroRodriguezVi/OneDrive - Grupo Sylvestris/SYLVESTRIS/WORKSTREAMS/WS4/PDD_FactorCO2_MV_Spain/PD_Grandas_Sylvestris/Grandas_Sylvestris_def.kml|layername=Grandas_Sylvestris_def|geometrytype=Polygon</SimpleData>
	</SchemaData></ExtendedData>
      <Polygon><outerBoundaryIs><LinearRing><coordinates>-6.83390390122804,43.2191581578125,0 -6.83412645376037,43.2192732519072,0 -6.83460278955981,43.219544929584,0 -6.83499086992653,43.2198056598724,0 -6.83512425763982,43.2198982286136,0 -6.83560632985548,43.2202342116074,0 -6.83618957945835,43.2206400341221,0 -6.83618206995951,43.2206434937003,0 -6.8361575981639,43.2206576896738,0 -6.83614083586798,43.2206719676008,0 -6.83612963108506,43.2206853476099,0 -6.83612335316581,43.2206953316722,0 -6.83611864390715,43.220705765921,0 -6.83611437291936,43.220721142838,0 -6.8361131432875,43.2207320940505,0 -6.83611154278467,43.2207773294475,0 -6.8361131223848,43.2207961225689,0 -6.83614516357008,43.2209078720845,0 -6.8361474820246,43.2209147610513,0 -6.83619419578266,43.2210393564516,0 -6.8362314678135,43.2211705858481,0 -6.83623095849893,43.2212088194129,0 -6.83613117004017,43.2213662204625,0 -6.83603423184063,43.221507149708,0 -6.83593262520268,43.2216599878881,0 -6.83585745824329,43.2217567989749,0 -6.83578796153953,43.221832578759,0 -6.83569716125082,43.2219146635102,0 -6.83547220134142,43.2221265237758,0 -6.83546376756735,43.2221314750111,0 -6.83527829665736,43.2218416867934,0 -6.83499630482816,43.2215603490689,0 -6.83495289883858,43.221534888911,0 -6.83495271500432,43.2215347013564,0 -6.83484889873213,43.2214290507955,0 -6.83470304241801,43.2212889981115,0 -6.83454647499381,43.221149814817,0 -6.83444403767726,43.2210742104431,0 -6.83427617588912,43.2209473397085,0 -6.83412300537648,43.2208270527289,0 -6.83399395697931,43.2207354663598,0 -6.83392578639116,43.2206983711165,0 -6.83376558550928,43.220646636432,0 -6.83360069661711,43.2206043843119,0 -6.83355515279192,43.2205924312606,0 -6.8336059992371,43.2204039836812,0 -6.83373201804915,43.2200626741605,0 -6.83334702823613,43.2200762102346,0 -6.83316570529418,43.219968623839,0 -6.83338802748081,43.2197228750586,0 -6.83366579897829,43.2195198365689,0 -6.83389180362648,43.2191700059414,0 -6.83390390122804,43.2191581578125,0</coordinates></LinearRing></outerBoundaryIs></Polygon>
  </Placemark>
  <Placemark>
	<Style><LineStyle><color>ff0000ff</color></LineStyle><PolyStyle><fill>0</fill></PolyStyle></Style>
	<ExtendedData><SchemaData schemaUrl="#PD_Grandas">
		<SimpleData name="tessellate">-1</SimpleData>
		<SimpleData name="extrude">0</SimpleData>
		<SimpleData name="visibility">-1</SimpleData>
		<SimpleData name="Rodal">24</SimpleData>
		<SimpleData name="ha">2.675</SimpleData>
		<SimpleData name="tnCO2/ha">520.716</SimpleData>
		<SimpleData name="tnCO2total">1392.915</SimpleData>
		<SimpleData name="nationalCa">33027A03200483</SimpleData>
		<SimpleData name="Empresa">Sylvestris SN</SimpleData>
		<SimpleData name="layer">Grandas_Sylvestris_def</SimpleData>
		<SimpleData name="path">C:/Users/AlejandroRodriguezVi/OneDrive - Grupo Sylvestris/SYLVESTRIS/WORKSTREAMS/WS4/PDD_FactorCO2_MV_Spain/PD_Grandas_Sylvestris/Grandas_Sylvestris_def.kml|layername=Grandas_Sylvestris_def|geometrytype=Polygon</SimpleData>
	</SchemaData></ExtendedData>
      <Polygon><outerBoundaryIs><LinearRing><coordinates>-6.83301351207005,43.218697680293,0 -6.83390390122804,43.2191581578125,0 -6.83389180362648,43.2191700059414,0 -6.83366579897829,43.2195198365689,0 -6.83338802748081,43.2197228750586,0 -6.83316570529418,43.219968623839,0 -6.83334702823613,43.2200762102346,0 -6.83373201804915,43.2200626741605,0 -6.8336059992371,43.2204039836812,0 -6.83355515279192,43.2205924312606,0 -6.83334637710911,43.2205366795459,0 -6.83325070217458,43.2204945632856,0 -6.83308283533006,43.2204434261431,0 -6.83297871187251,43.220402512744,0 -6.83286778700859,43.2203627572028,0 -6.83276314295977,43.220338125347,0 -6.8326392914153,43.2203135435383,0 -6.83261225820501,43.2203101191476,0 -6.83251960447207,43.2203047891134,0 -6.83234457433532,43.2203061751452,0 -6.83221462769581,43.2203173252283,0 -6.83202311445711,43.2203215787698,0 -6.83178039270345,43.2203535693704,0 -6.8315390298163,43.2204337629024,0 -6.83145235317405,43.2204608069706,0 -6.83138802992808,43.2204748476454,0 -6.83128670710367,43.2204827785613,0 -6.83118410945124,43.2204829459847,0 -6.83108532583142,43.2204778794062,0 -6.83099238199953,43.2204670824038,0 -6.830933966116,43.2204536960273,0 -6.83090981322495,43.2204521334898,0 -6.83122539710682,43.2199781520213,0 -6.83128483364732,43.2199272525638,0 -6.83134627221228,43.2198718726282,0 -6.83137972863741,43.2197316731648,0 -6.83170860810959,43.2194931559941,0 -6.8320849957682,43.2192497473287,0 -6.8323218105712,43.2190762577258,0 -6.8324941937979,43.2191150541818,0 -6.83267104183271,43.2190583465774,0 -6.83283876002139,43.2189160650634,0 -6.83295939174208,43.2187366784822,0 -6.83301351207005,43.218697680293,0</coordinates></LinearRing></outerBoundaryIs></Polygon>
  </Placemark>
  <Placemark>
	<Style><LineStyle><color>ff0000ff</color></LineStyle><PolyStyle><fill>0</fill></PolyStyle></Style>
	<ExtendedData><SchemaData schemaUrl="#PD_Grandas">
		<SimpleData name="tessellate">-1</SimpleData>
		<SimpleData name="extrude">0</SimpleData>
		<SimpleData name="visibility">-1</SimpleData>
		<SimpleData name="Rodal">24</SimpleData>
		<SimpleData name="ha">0.618</SimpleData>
		<SimpleData name="tnCO2/ha">520.716</SimpleData>
		<SimpleData name="tnCO2total">321.802</SimpleData>
		<SimpleData name="nationalCa">33027A03200484</SimpleData>
		<SimpleData name="Empresa">Sylvestris SN</SimpleData>
		<SimpleData name="layer">Grandas_Sylvestris_def</SimpleData>
		<SimpleData name="path">C:/Users/AlejandroRodriguezVi/OneDrive - Grupo Sylvestris/SYLVESTRIS/WORKSTREAMS/WS4/PDD_FactorCO2_MV_Spain/PD_Grandas_Sylvestris/Grandas_Sylvestris_def.kml|layername=Grandas_Sylvestris_def|geometrytype=Polygon</SimpleData>
	</SchemaData></ExtendedData>
      <Polygon><outerBoundaryIs><LinearRing><coordinates>-6.83390390122804,43.2191581578125,0 -6.83301351207005,43.218697680293,0 -6.83336203646181,43.2184465376885,0 -6.83365661370662,43.2181709121605,0 -6.8338140776984,43.2181478575475,0 -6.83439755409936,43.2181589091963,0 -6.83439202637233,43.2183150304428,0 -6.83413549674765,43.2183205869205,0 -6.83376069425317,43.2184488830547,0 -6.83360916598237,43.2187063889259,0 -6.83389822692635,43.218533526359,0 -6.8341961878938,43.2185504643805,0 -6.83426762184938,43.2187137004975,0 -6.83409767949853,43.2188610707064,0 -6.8339977564351,43.2190662378513,0 -6.83390390122804,43.2191581578125,0</coordinates></LinearRing></outerBoundaryIs></Polygon>
  </Placemark>
  <Placemark>
	<Style><LineStyle><color>ff0000ff</color></LineStyle><PolyStyle><fill>0</fill></PolyStyle></Style>
	<ExtendedData><SchemaData schemaUrl="#PD_Grandas">
		<SimpleData name="tessellate">-1</SimpleData>
		<SimpleData name="extrude">0</SimpleData>
		<SimpleData name="visibility">-1</SimpleData>
		<SimpleData name="Rodal">24</SimpleData>
		<SimpleData name="ha">12.726</SimpleData>
		<SimpleData name="tnCO2/ha">520.716</SimpleData>
		<SimpleData name="tnCO2total">6626.632</SimpleData>
		<SimpleData name="nationalCa">33027A03200484</SimpleData>
		<SimpleData name="Empresa">Sylvestris SN</SimpleData>
		<SimpleData name="layer">Grandas_Sylvestris_def</SimpleData>
		<SimpleData name="path">C:/Users/AlejandroRodriguezVi/OneDrive - Grupo Sylvestris/SYLVESTRIS/WORKSTREAMS/WS4/PDD_FactorCO2_MV_Spain/PD_Grandas_Sylvestris/Grandas_Sylvestris_def.kml|layername=Grandas_Sylvestris_def|geometrytype=Polygon</SimpleData>
	</SchemaData></ExtendedData>
      <Polygon><outerBoundaryIs><LinearRing><coordinates>-6.83618957945835,43.2206400341221,0 -6.83560632985548,43.2202342116074,0 -6.83512425763982,43.2198982286136,0 -6.83499086992653,43.2198056598724,0 -6.83460278955981,43.219544929584,0 -6.83412645376037,43.2192732519072,0 -6.83390390122804,43.2191581578125,0 -6.8339977564351,43.2190662378513,0 -6.83409767949853,43.2188610707064,0 -6.83426762184938,43.2187137004975,0 -6.8341961878938,43.2185504643805,0 -6.83389822692635,43.218533526359,0 -6.83360916598237,43.2187063889259,0 -6.83376069425317,43.2184488830547,0 -6.83413549674765,43.2183205869205,0 -6.83439202637233,43.2183150304428,0 -6.83603998081465,43.2179018001514,0 -6.83634916181393,43.2177983329045,0 -6.83658395212947,43.2177748356627,0 -6.83665449882711,43.2180526964791,0 -6.8363117352802,43.2181484588397,0 -6.83631575354188,43.2183734803509,0 -6.8365616878106,43.2184190323823,0 -6.83618864440496,43.2188063581209,0 -6.8363984972303,43.2189779337593,0 -6.83688070741225,43.219476917112,0 -6.83682588376384,43.2197073278877,0 -6.83756896160733,43.2195844062114,0 -6.83703913399601,43.2201134484619,0 -6.83710995196411,43.220254564091,0 -6.83754203842346,43.2202493547886,0 -6.8383764296919,43.2202130556448,0 -6.83894771859867,43.2201665708745,0 -6.83973022255779,43.2203896577548,0 -6.84017177305796,43.2203875835645,0 -6.84061298443604,43.2204463208413,0 -6.84093980449306,43.2204546669125,0 -6.84108534546928,43.2204595896377,0 -6.84126724446227,43.2204639911711,0 -6.84157926210305,43.2205488215254,0 -6.84198881115896,43.2207084362173,0 -6.84248089809825,43.2208465935755,0 -6.84331424156344,43.2209405574832,0 -6.84354959348265,43.2215973135518,0 -6.84340722899866,43.2218007424076,0 -6.84328672601336,43.2221739819452,0 -6.84320269479488,43.2223706499387,0 -6.84273467084524,43.2226469930555,0 -6.84265420067501,43.2226945494191,0 -6.84271123961835,43.222425079522,0 -6.84271655979862,43.2222869669718,0 -6.84271253682275,43.2222469263957,0 -6.84269836745191,43.2221058986721,0 -6.84264738703352,43.221882489293,0 -6.842515406594,43.2215732296487,0 -6.84249682242092,43.2215460343863,0 -6.84243296587219,43.2214879734705,0 -6.84241601950089,43.2214750818683,0 -6.84234690249887,43.2214314897608,0 -6.84231512127562,43.221418797254,0 -6.8422798266634,43.2214122307231,0 -6.84224983262162,43.2214116647432,0 -6.84222444236009,43.2214147234325,0 -6.8421932966871,43.2214224746207,0 -6.84215260661036,43.2214392580258,0 -6.84212140683476,43.2214641749374,0 -6.84208750816616,43.2215016532802,0 -6.8420732535947,43.2215216953545,0 -6.84206604078518,43.2215394265393,0 -6.84205575883604,43.2215758855471,0 -6.84204079754128,43.2216289358757,0 -6.84199910343125,43.2215493556999,0 -6.84198671526506,43.2215310889281,0 -6.84192103753099,43.2214536124277,0 -6.84182626205842,43.2213590034312,0 -6.84180122422787,43.2213396893045,0 -6.84167043677515,43.2212609837728,0 -6.84152730228139,43.2211950959097,0 -6.84145997449582,43.221122814112,0 -6.84126743059887,43.2209451786729,0 -6.84108494146332,43.2208216561037,0 -6.84106467321585,43.2208104871433,0 -6.84099351103716,43.2207778976197,0 -6.84096605810902,43.2207681723492,0 -6.84089828120855,43.2207502156983,0 -6.84088617159214,43.2207474739377,0 -6.84087736661539,43.2207459174144,0 -6.8408624974027,43.2207443382298,0 -6.8408517864895,43.2207437929208,0 -6.84083676727016,43.2207441261225,0 -6.84081554993433,43.220746450202,0 -6.84080105689496,43.2207493514662,0 -6.84078710006169,43.220753420811,0 -6.84076824893458,43.2207609121282,0 -6.84075598695599,43.2207672636561,0 -6.84074477444111,43.2207745786542,0 -6.84073056348002,43.220786333796,0 -6.84072801315631,43.2207888572759,0 -6.84071680933681,43.2208022377554,0 -6.84071053214374,43.2208122220852,0 -6.84070317491525,43.2208304781119,0 -6.84068440373688,43.2208994156058,0 -6.84068169377429,43.2209241056429,0 -6.84068255363218,43.2209330199638,0 -6.84069566905319,43.2210152746081,0 -6.84069658182847,43.2210226445319,0 -6.84071269841512,43.2211527727161,0 -6.84071418764272,43.2212786436152,0 -6.84068071115683,43.2214551248897,0 -6.84068041824974,43.2214566690317,0 -6.84065450593305,43.2215441835693,0 -6.84063460785276,43.2215182373076,0 -6.84062780755584,43.2215114411811,0 -6.84049146124568,43.2213892464488,0 -6.84047944376671,43.2213797081129,0 -6.84029952441615,43.2212530867147,0 -6.84022448000859,43.2211906541609,0 -6.84021850755223,43.221185974357,0 -6.84007108113764,43.2210770763448,0 -6.84001809106512,43.2210232541799,0 -6.84000378584302,43.2210108992447,0 -6.83998771222961,43.2210005062639,0 -6.83997535730327,43.2209942516844,0 -6.83996212311609,43.2209890475081,0 -6.83994215962334,43.2209833029145,0 -6.83992762486359,43.2209805152413,0 -6.83990204345097,43.2209783905106,0 -6.83988702543598,43.2209787227097,0 -6.83986122361427,43.2209818622422,0 -6.83985063659616,43.2209841177269,0 -6.83983587185999,43.2209878509278,0 -6.83982400167805,43.2209908522512,0 -6.83979736675429,43.2209975867693,0 -6.83978421829283,43.221001493877,0 -6.83977511602616,43.2210047633783,0 -6.8397623360412,43.2210105431426,0 -6.83974555018312,43.2210203153857,0 -6.83972567731276,43.2210367537435,0 -6.83971256035766,43.2210529442505,0 -6.83970490575997,43.22106688692,0 -6.83967561233126,43.2211344683974,0 -6.83966917301755,43.2211514414716,0 -6.83966609706966,43.2211761281699,0 -6.83967298222485,43.2213457684367,0 -6.83967018922941,43.2216071646035,0 -6.83966562072221,43.2217364939759,0 -6.83966105218473,43.2218658233449,0 -6.83962928938158,43.2219807092345,0 -6.83955244777006,43.2221113113971,0 -6.83945486721988,43.2222047758763,0 -6.83935671130152,43.2222765307579,0 -6.83918436683749,43.2223255965136,0 -6.8391021455814,43.2223462452024,0 -6.83901992427185,43.2223668938308,0 -6.83882310232356,43.2224154910541,0 -6.8386962523199,43.2224516293697,0 -6.83857493878688,43.2224794522442,0 -6.8385499663225,43.2224872894073,0 -6.83852994137749,43.2224968597743,0 -6.83825346951374,43.2226644706821,0 -6.83818475159643,43.2227303942928,0 -6.83808864255796,43.2227690850475,0 -6.83795035215698,43.2228342892189,0 -6.83777341757804,43.2229120060708,0 -6.83756809122156,43.2229927343422,0 -6.83744272682661,43.2230563742664,0 -6.83731203456568,43.22308505482,0 -6.83733818069386,43.2230625639681,0 -6.83734788185915,43.2230513893825,0 -6.83741343693037,43.22296362769,0 -6.83748219437815,43.2228781631964,0 -6.83755219996275,43.2227899876481,0 -6.83758204914562,43.2227390590549,0 -6.8376210952511,43.2226681598815,0 -6.83762655103114,43.222655832123,0 -6.83764622698504,43.222594154003,0 -6.83767363975245,43.2224977695664,0 -6.83767927122722,43.2223932412213,0 -6.83766490587523,43.222298808574,0 -6.83764762217896,43.2221425050975,0 -6.83763562706431,43.2220772192664,0 -6.83759403876421,43.221978852864,0 -6.83755149175645,43.2218922819993,0 -6.83750760336376,43.2218128333896,0 -6.83744572301477,43.2217060116937,0 -6.83737652222994,43.2215868492418,0 -6.83732046927046,43.2214812664314,0 -6.83720920746871,43.2213112033577,0 -6.83711149940542,43.2212046159636,0 -6.83699127727307,43.2211065232064,0 -6.83654290839479,43.2207452376969,0 -6.83649630415066,43.2207132316111,0 -6.83639093044799,43.2206418918951,0 -6.83637663237245,43.2206334301162,0 -6.83634468492527,43.2206206454638,0 -6.83630939145373,43.2206140780122,0 -6.83628368078847,43.2206133177844,0 -6.83625817926136,43.2206158336829,0 -6.83624368729058,43.2206187343888,0 -6.83621187372169,43.2206297632923,0 -6.83618960766307,43.2206400211284,0 -6.83618957945835,43.2206400341221,0</coordinates></LinearRing></outerBoundaryIs></Polygon>
  </Placemark>
  <Placemark>
	<Style><LineStyle><color>ff0000ff</color></LineStyle><PolyStyle><fill>0</fill></PolyStyle></Style>
	<ExtendedData><SchemaData schemaUrl="#PD_Grandas">
		<SimpleData name="tessellate">-1</SimpleData>
		<SimpleData name="extrude">0</SimpleData>
		<SimpleData name="visibility">-1</SimpleData>
		<SimpleData name="Rodal">31</SimpleData>
		<SimpleData name="ha">0.201</SimpleData>
		<SimpleData name="tnCO2/ha">651.799</SimpleData>
		<SimpleData name="tnCO2total">131.012</SimpleData>
		<SimpleData name="nationalCa">33027A00100053</SimpleData>
		<SimpleData name="Empresa">Sylvestris SN</SimpleData>
		<SimpleData name="layer">Grandas_Sylvestris_def</SimpleData>
		<SimpleData name="path">C:/Users/AlejandroRodriguezVi/OneDrive - Grupo Sylvestris/SYLVESTRIS/WORKSTREAMS/WS4/PDD_FactorCO2_MV_Spain/PD_Grandas_Sylvestris/Grandas_Sylvestris_def.kml|layername=Grandas_Sylvestris_def|geometrytype=Polygon</SimpleData>
	</SchemaData></ExtendedData>
      <Polygon><outerBoundaryIs><LinearRing><coordinates>-6.84409091500796,43.2335011653927,0 -6.84479283111349,43.2336769522958,0 -6.84508538094827,43.2337517991838,0 -6.84523450699788,43.233790446636,0 -6.84533079534015,43.2338153121317,0 -6.84555428118891,43.2339559385769,0 -6.8457160826828,43.2340577644135,0 -6.84580100387312,43.2341640845273,0 -6.84587350199097,43.2342548044399,0 -6.84575912242243,43.2342461994629,0 -6.84559820925535,43.2341607670474,0 -6.84541827086729,43.2340337755439,0 -6.8452635334173,43.2339184951119,0 -6.84512323052392,43.2338297049156,0 -6.84496677878201,43.2337630831314,0 -6.8446233975118,43.2337678475232,0 -6.84447507315445,43.2337613060869,0 -6.84441142744762,43.2336777055359,0 -6.84430313280319,43.2336981369094,0 -6.84420913964638,43.2337488017207,0 -6.84409001357091,43.2336668854236,0 -6.84409091500796,43.2335011653927,0</coordinates></LinearRing></outerBoundaryIs></Polygon>
  </Placemark>
  <Placemark>
	<Style><LineStyle><color>ff0000ff</color></LineStyle><PolyStyle><fill>0</fill></PolyStyle></Style>
	<ExtendedData><SchemaData schemaUrl="#PD_Grandas">
		<SimpleData name="tessellate">-1</SimpleData>
		<SimpleData name="extrude">0</SimpleData>
		<SimpleData name="visibility">-1</SimpleData>
		<SimpleData name="Rodal">31</SimpleData>
		<SimpleData name="ha">4.085</SimpleData>
		<SimpleData name="tnCO2/ha">651.799</SimpleData>
		<SimpleData name="tnCO2total">2662.599</SimpleData>
		<SimpleData name="nationalCa">33027A00100053</SimpleData>
		<SimpleData name="Empresa">Sylvestris SN</SimpleData>
		<SimpleData name="layer">Grandas_Sylvestris_def</SimpleData>
		<SimpleData name="path">C:/Users/AlejandroRodriguezVi/OneDrive - Grupo Sylvestris/SYLVESTRIS/WORKSTREAMS/WS4/PDD_FactorCO2_MV_Spain/PD_Grandas_Sylvestris/Grandas_Sylvestris_def.kml|layername=Grandas_Sylvestris_def|geometrytype=Polygon</SimpleData>
	</SchemaData></ExtendedData>
      <Polygon><outerBoundaryIs><LinearRing><coordinates>-6.84587350199097,43.2342548044399,0 -6.84580100387312,43.2341640845273,0 -6.8457160826828,43.2340577644135,0 -6.84555428118891,43.2339559385769,0 -6.84533079534015,43.2338153121317,0 -6.84523450699788,43.233790446636,0 -6.84508538094827,43.2337517991838,0 -6.84479283111349,43.2336769522958,0 -6.84409091500796,43.2335011653927,0 -6.844087851149,43.2334036340707,0 -6.84406695679767,43.2332368195911,0 -6.84403197040383,43.23296375766,0 -6.8439452032041,43.2324375155609,0 -6.84383016584646,43.231887907129,0 -6.84378378641223,43.231763794926,0 -6.84373197793721,43.2316463794886,0 -6.84369953170978,43.2315447796682,0 -6.84368477755994,43.231427963007,0 -6.84364309109091,43.2312854704738,0 -6.84358650073605,43.2311197250315,0 -6.84352013058275,43.2309750669308,0 -6.84486509347228,43.2307667755823,0 -6.8448902512238,43.2308618873859,0 -6.84500231364825,43.2310250554778,0 -6.84525798671338,43.2311692011422,0 -6.84534324091381,43.2312252452606,0 -6.84538267569279,43.2312690614704,0 -6.84539984117147,43.2313591486725,0 -6.84556802958164,43.2315328654942,0 -6.84565072816652,43.2317983526582,0 -6.84580176818694,43.2320184366577,0 -6.84534944570878,43.2320623512318,0 -6.84498809057545,43.2321455613573,0 -6.84480813212296,43.2321646426,0 -6.84447432553741,43.2321844409794,0 -6.8443762182257,43.2322108107165,0 -6.84416546658574,43.232227309684,0 -6.84419694424254,43.2323515043042,0 -6.84423763278018,43.2323597623876,0 -6.84458113808684,43.232351255983,0 -6.84501863371722,43.2322920830739,0 -6.84542908219449,43.2322735992437,0 -6.84577757416132,43.2322689286902,0 -6.84582979520814,43.2323860226797,0 -6.84566793830809,43.2324728651051,0 -6.84542549475152,43.2325207339753,0 -6.84509196279612,43.2325369218486,0 -6.84488667169325,43.2325480348244,0 -6.84455773070858,43.2325792896224,0 -6.84431581389491,43.2326121841043,0 -6.84423298457392,43.2326368409839,0 -6.84424425013251,43.2327531635458,0 -6.84467399054617,43.2327687555505,0 -6.84510637000815,43.2327094858812,0 -6.84562511376629,43.2326705692231,0 -6.84580441403677,43.2326702017469,0 -6.84586254590641,43.2327649341323,0 -6.84583969540598,43.2328319224703,0 -6.84554632322455,43.2328713411616,0 -6.84460741454641,43.232913574722,0 -6.8442881817484,43.2329599936898,0 -6.84422358452331,43.2330486675966,0 -6.84430783785784,43.233128911272,0 -6.84478982793818,43.2331155239475,0 -6.84527706894873,43.2330984880469,0 -6.84561506353482,43.2331011111692,0 -6.84585579466064,43.2331019010098,0 -6.84595553956484,43.2331786898263,0 -6.84579972312496,43.2332394277869,0 -6.84539465119852,43.233250523261,0 -6.84493300470496,43.2332680420385,0 -6.84457859609601,43.233295071407,0 -6.84453959467217,43.233384227965,0 -6.84471153441186,43.2334473967764,0 -6.84506251331906,43.2335176850811,0 -6.84540839974043,43.2334418022744,0 -6.8456598981393,43.233427813458,0 -6.84572879640546,43.2335077667887,0 -6.84581727311739,43.233468233264,0 -6.84599356676883,43.2334078810257,0 -6.8461898092002,43.2333628862253,0 -6.84639549848877,43.2333405419463,0 -6.84654841387681,43.2333621493068,0 -6.84654511755059,43.2334557244635,0 -6.8464898383403,43.2335707935609,0 -6.8463488514588,43.2336467935104,0 -6.84633006536288,43.2337438224026,0 -6.84651842049263,43.2337773337612,0 -6.84664158469354,43.233811617906,0 -6.84667182697177,43.2338983336728,0 -6.84668198803515,43.2339734348045,0 -6.84662247243763,43.2340227501177,0 -6.84636374263248,43.2340965326723,0 -6.84615042582755,43.2341898975015,0 -6.8459583766677,43.2342611896364,0 -6.84587350199097,43.2342548044399,0</coordinates></LinearRing></outerBoundaryIs></Polygon>
  </Placemark>
  <Placemark>
	<Style><LineStyle><color>ff0000ff</color></LineStyle><PolyStyle><fill>0</fill></PolyStyle></Style>
	<ExtendedData><SchemaData schemaUrl="#PD_Grandas">
		<SimpleData name="tessellate">-1</SimpleData>
		<SimpleData name="extrude">0</SimpleData>
		<SimpleData name="visibility">-1</SimpleData>
		<SimpleData name="Rodal">27</SimpleData>
		<SimpleData name="ha">14.221</SimpleData>
		<SimpleData name="tnCO2/ha">585.53</SimpleData>
		<SimpleData name="tnCO2total">8326.822</SimpleData>
		<SimpleData name="nationalCa">33027A00100057</SimpleData>
		<SimpleData name="Empresa">Sylvestris SN</SimpleData>
		<SimpleData name="layer">Grandas_Sylvestris_def</SimpleData>
		<SimpleData name="path">C:/Users/AlejandroRodriguezVi/OneDrive - Grupo Sylvestris/SYLVESTRIS/WORKSTREAMS/WS4/PDD_FactorCO2_MV_Spain/PD_Grandas_Sylvestris/Grandas_Sylvestris_def.kml|layername=Grandas_Sylvestris_def|geometrytype=Polygon</SimpleData>
	</SchemaData></ExtendedData>
      <Polygon><outerBoundaryIs><LinearRing><coordinates>-6.83094495276816,43.2223777105407,0 -6.83107796491257,43.2224058848069,0 -6.83116778774398,43.2224283885054,0 -6.83123463659743,43.2224494659272,0 -6.83132966287007,43.222478011046,0 -6.83141231505636,43.2225152357005,0 -6.8314961804341,43.2225564452072,0 -6.83155707778838,43.2225891152037,0 -6.83163951969184,43.2226322785635,0 -6.83174853689892,43.2226899024939,0 -6.83183525009166,43.2227272038467,0 -6.83192020612858,43.222772395627,0 -6.83199872843789,43.2228115225059,0 -6.83207076411775,43.2228426025413,0 -6.83213968684039,43.2228711923457,0 -6.83224737195502,43.2229247385978,0 -6.83231583542961,43.2229419741353,0 -6.832380064393,43.2229605700538,0 -6.83249493833652,43.2230023666321,0 -6.83262246773383,43.2230344982081,0 -6.8327237190786,43.223075045874,0 -6.8328587556086,43.223121186138,0 -6.83297028902665,43.2231460808336,0 -6.8331230578953,43.2231817516381,0 -6.83326266429252,43.2232170827853,0 -6.83342424245161,43.2232439157821,0 -6.83356268822323,43.2232703102868,0 -6.83364752580905,43.2232737184533,0 -6.83389816870534,43.223271533337,0 -6.83403103923639,43.2232641454715,0 -6.83408816668744,43.2232573037495,0 -6.83412775280983,43.2232485990131,0 -6.83423259565411,43.223236448001,0 -6.834400152588,43.2232648335497,0 -6.83443592303829,43.2232595681312,0 -6.83449840023362,43.223265073407,0 -6.83456250204809,43.2232803340902,0 -6.83464195985438,43.2233035392079,0 -6.83467796274447,43.2233195283325,0 -6.83471222905825,43.2233393564236,0 -6.83486536822808,43.2233854769347,0 -6.83502989395558,43.2234229885821,0 -6.83506938690378,43.2234377830551,0 -6.83513684195941,43.2234557181581,0 -6.83520761174209,43.2234774077496,0 -6.83526982050068,43.2234939828472,0 -6.83531301885543,43.2235049755216,0 -6.83537019669927,43.2235175834643,0 -6.83540115854195,43.2235229418679,0 -6.83551629580321,43.2235226001354,0 -6.83558552151134,43.2235392178409,0 -6.83563931264139,43.2235466290765,0 -6.83568581337198,43.2235512910431,0 -6.83577282699329,43.2235593310269,0 -6.83581765578823,43.2235729656251,0 -6.83584712841041,43.2235786558957,0 -6.83591145700718,43.2235875270411,0 -6.83597023784881,43.2236000749779,0 -6.83609134474573,43.2236189348194,0 -6.83614359167293,43.223621274171,0 -6.83623424681301,43.2236230031462,0 -6.83626773715706,43.2237035124721,0 -6.83628477358116,43.2237303687976,0 -6.83635692885624,43.2238040974029,0 -6.83655643594361,43.2240209299497,0 -6.83657534050215,43.224039940407,0 -6.83670335724265,43.2241872557294,0 -6.836850614568,43.2244436912176,0 -6.83699932960574,43.2248314087557,0 -6.83699821150211,43.2250296890214,0 -6.83697003447076,43.2251923774711,0 -6.83697135359431,43.225403416138,0 -6.83699682987837,43.2255140760496,0 -6.83699659480208,43.2255261984014,0 -6.83501222099846,43.2254436988083,0 -6.83406204485223,43.2253732679162,0 -6.83366633493866,43.2252933950153,0 -6.83319509253392,43.2252669512684,0 -6.83278906694292,43.2251618738619,0 -6.83248222688119,43.2251485669764,0 -6.83179662397539,43.2251280779744,0 -6.83079341451288,43.2251090511903,0 -6.8296641758948,43.2251775154045,0 -6.8292331661269,43.2251992978743,0 -6.82886891817486,43.2252273347168,0 -6.82888811573109,43.2251844914788,0 -6.828934552549,43.2250385180304,0 -6.82895755097471,43.2249934351258,0 -6.82901474575367,43.2249062732451,0 -6.82904272517927,43.2248370038274,0 -6.82921551951382,43.2244552368353,0 -6.82921734751335,43.2244508107952,0 -6.82926694307695,43.2243207402695,0 -6.82927928058952,43.22430076427,0 -6.8293244339594,43.2242316920344,0 -6.82938609561454,43.2241344767789,0 -6.82942743614387,43.2240744724142,0 -6.8295115646579,43.2239567268869,0 -6.82956976791478,43.2238713162851,0 -6.82963112231258,43.2237919992615,0 -6.82971125273531,43.2236932461579,0 -6.82980183491389,43.2235691757976,0 -6.82989849635185,43.2234577475552,0 -6.82990276267053,43.2234525267257,0 -6.8300862369779,43.2232297145489,0 -6.83016517295977,43.2231569132331,0 -6.83022161567659,43.2230990945962,0 -6.83022933828991,43.2230916434211,0 -6.83023643125601,43.2230855418957,0 -6.83024209344135,43.2230806711582,0 -6.83031349867123,43.2230192467017,0 -6.83038842859239,43.2229467627044,0 -6.83040219307395,43.2229326725162,0 -6.83044667136674,43.2228871416838,0 -6.8305165124992,43.2228265863299,0 -6.83058026742267,43.2227714774381,0 -6.83063661145881,43.2227150429445,0 -6.83069762785381,43.2226505958673,0 -6.83073888425942,43.222608343248,0 -6.83081495565741,43.2225251015362,0 -6.83088518819146,43.2224507812551,0 -6.83093075995148,43.2224008901124,0 -6.8309497893405,43.222378735754,0 -6.83094495276816,43.2223777105407,0</coordinates></LinearRing></outerBoundaryIs></Polygon>
  </Placemark>
</Folder>
</Document></kml>
