<?xml version="1.0" encoding="utf-8" ?>
<kml xmlns="http://www.opengis.net/kml/2.2">
<Document id="root_doc">
<Schema name="roa_parcels_selection_v1" id="roa_parcels_selection_v1">
	<SimpleField name="Seq" type="float"></SimpleField>
	<SimpleField name="Category" type="string"></SimpleField>
	<SimpleField name="Area_ha" type="float"></SimpleField>
	<SimpleField name="X_coord" type="float"></SimpleField>
	<SimpleField name="Y_coord" type="float"></SimpleField>
	<SimpleField name="ID" type="float"></SimpleField>
</Schema>
<Folder><name>roa_parcels_selection_v1</name>
  <Placemark>
	<Style><LineStyle><color>ff0000ff</color></LineStyle><PolyStyle><fill>0</fill></PolyStyle></Style>
	<ExtendedData><SchemaData schemaUrl="#roa_parcels_selection_v1">
		<SimpleData name="Seq">16</SimpleData>
		<SimpleData name="Category">Risk Abandonment</SimpleData>
		<SimpleData name="Area_ha">10207.512708000000202</SimpleData>
		<SimpleData name="X_coord">-89.091258931599995</SimpleData>
		<SimpleData name="Y_coord">17.369342870299999</SimpleData>
		<SimpleData name="ID">1</SimpleData>
	</SchemaData></ExtendedData>
      <MultiGeometry><Polygon><outerBoundaryIs><LinearRing><coordinates>-89.0189536568298,17.3681637622499 -89.0201787291645,17.3671691860017 -89.0208238190763,17.3668069884157 -89.0212805759355,17.3661799434465 -89.0217373284002,17.3655528552707 -89.0232734681185,17.3650209113539 -89.0235664583597,17.3649581367306 -89.0238431935311,17.3647653877767 -89.0241872933967,17.3646349542508 -89.0245245155334,17.3646698231467 -89.0249409339234,17.3643529221292 -89.0252802555147,17.3639830387796 -89.0256120542029,17.3634819589416 -89.027717577446,17.3613129659536 -89.0290067005106,17.3604996244915 -89.0299308921162,17.3602234487692 -89.0308520681059,17.3596805853764 -89.0314024505391,17.3591414451275 -89.0323246708561,17.3586874849517 -89.0331550987286,17.3583233679345 -89.0336646725386,17.3579602064683 -89.0338253185776,17.357697171431 -89.0340396056669,17.3573551752904 -89.0343074589294,17.3569342168759 -89.0344680999594,17.3566712230785 -89.0346832500496,17.3564076319763 -89.0349526193933,17.3561173790328 -89.0384087240266,17.3539882196205 -89.0535598444435,17.3461718171859 -89.0721915646722,17.3364260651803 -89.0806482021859,17.3318479773755 -89.097649904193,17.3296595321996 -89.1228715229935,17.3263673668872 -89.1370972299932,17.324541078361 -89.1498417179778,17.3229038164782 -89.149751265827,17.3370830795273 -89.1498372110232,17.3955356960797 -89.149865476647,17.4034526905728 -89.1376293898529,17.4035451787979 -89.1236278494167,17.4037194927639 -89.0839143259897,17.4036045899665 -89.0758827241542,17.4036855734921 -89.0580554316013,17.403864185416 -89.0408831004761,17.4040306272115 -89.0192418982689,17.4042419691813 -89.0191279628902,17.3811298844946 -89.0189536568298,17.3681637622499</coordinates></LinearRing></outerBoundaryIs></Polygon></MultiGeometry>
  </Placemark>
  <Placemark>
	<Style><LineStyle><color>ff0000ff</color></LineStyle><PolyStyle><fill>0</fill></PolyStyle></Style>
	<ExtendedData><SchemaData schemaUrl="#roa_parcels_selection_v1">
		<SimpleData name="Seq">47</SimpleData>
		<SimpleData name="Category">Risk Abandonment</SimpleData>
		<SimpleData name="Area_ha">2959.714253069999813</SimpleData>
		<SimpleData name="X_coord">-88.887938851000001</SimpleData>
		<SimpleData name="Y_coord">17.852592438599999</SimpleData>
		<SimpleData name="ID">2</SimpleData>
	</SchemaData></ExtendedData>
      <MultiGeometry><Polygon><outerBoundaryIs><LinearRing><coordinates>-88.8897858835604,17.8942810236251 -88.8973238031419,17.8951591655239 -88.8976362338776,17.8924853869691 -88.8979000630527,17.8902275229444 -88.8903623528414,17.889349382777 -88.8905046198655,17.8881322796702 -88.8883982438088,17.8859549581025 -88.885321454691,17.8827743982786 -88.8840388364309,17.881448930381 -88.883616924978,17.8818232335587 -88.8848994747052,17.8831486362291 -88.8839370032419,17.8831369904391 -88.8825196264671,17.8830939858188 -88.8825603119806,17.8817523460099 -88.8826038557323,17.8803614416071 -88.8825319904854,17.8803593813061 -88.8824684160581,17.8803575570894 -88.8678888524346,17.87987878131 -88.8680213907872,17.8759489184252 -88.8699314344692,17.8193237884042 -88.8700080898689,17.8170515559806 -88.8700544259101,17.8170683050901 -88.8702438158153,17.8172127187777 -88.8703970083497,17.8173826571144 -88.8705645603525,17.8175242202296 -88.8707414185174,17.817616135945 -88.8710771204143,17.8176587931023 -88.871413521602,17.8176824046698 -88.8717197936897,17.8177245402219 -88.8718546870063,17.8178316730838 -88.8720962999616,17.8180711130262 -88.8723397891925,17.8183667767425 -88.8728024968469,17.818801199301 -88.8731070417666,17.8189866800731 -88.873448885257,17.8191674551468 -88.8738140389163,17.8193002937917 -88.8745425786985,17.8193335476361 -88.8749605721223,17.819496744755 -88.8754479192633,17.8196229985066 -88.8758612898599,17.8196190306658 -88.8764001027169,17.8195708153562 -88.8766622548884,17.8194754303567 -88.8769428242258,17.8194615378104 -88.8773797009288,17.8195585449276 -88.8776638529459,17.8196272596256 -88.8781576119326,17.8196503164953 -88.8784492919121,17.8196728934725 -88.87875882831,17.8197438624432 -88.8792667320147,17.8196381043769 -88.879513383375,17.8193798255283 -88.8798283445611,17.818903163997 -88.8800678019512,17.8185120349668 -88.8803674628719,17.8182064456582 -88.880582011695,17.8180214101873 -88.8806891618426,17.8179648111348 -88.8809575469858,17.8180007327616 -88.8812421559716,17.8178927282335 -88.8814585616726,17.8175749305571 -88.8815797504001,17.8174564888578 -88.8816395925629,17.8174238814709 -88.8819241438851,17.8174211414978 -88.8822901416512,17.8174301398455 -88.8826738642777,17.817535033235 -88.8831602390085,17.8175303470319 -88.8834371052601,17.8174612069347 -88.8838292488502,17.8172154473902 -88.8839900065685,17.8170583378289 -88.8842036403361,17.81707486468 -88.8844765727982,17.8171157339387 -88.8847978086249,17.8170763946818 -88.885095993162,17.8168334570472 -88.8853259303366,17.8166212163852 -88.885491830059,17.8165524166966 -88.885550121209,17.8165720868946 -88.8857199598041,17.8166915536799 -88.885910932158,17.816755992162 -88.8861323658881,17.8168067531833 -88.8864134617088,17.8167462109366 -88.886638105841,17.8165772081945 -88.8866961133057,17.816520513981 -88.8868914064388,17.8164196431006 -88.8871955838101,17.8164283528751 -88.8874435323663,17.8164259584385 -88.88761956973,17.8163627140079 -88.8879116429404,17.8162897672963 -88.8880548425523,17.8160490824846 -88.8881402991829,17.8158383095575 -88.8881944337015,17.815722917962 -88.8884051898958,17.8156134216599 -88.8886052098709,17.8153961731364 -88.8885821897594,17.8150925883243 -88.8885368513842,17.8148862837362 -88.8885161741458,17.8147314344205 -88.888623820151,17.8145733412568 -88.8887603974784,17.8142913117304 -88.8888973006629,17.8140998981364 -88.8888203613016,17.8138172566899 -88.8887929781521,17.8135900807758 -88.8888009867811,17.8134543791249 -88.8888669897111,17.8133620930961 -88.8889778052713,17.8132129967671 -88.8890923357057,17.813052860991 -88.8891760891824,17.8127867298842 -88.889186711318,17.8124279850062 -88.8892292535014,17.8122242391133 -88.8892987460613,17.8121290344436 -88.88963115466,17.8120785729612 -88.889988475643,17.811887372482 -88.8901788325964,17.8117156125013 -88.8903966597949,17.8115585971421 -88.8906330890063,17.8115253853868 -88.8911640084759,17.8115821978274 -88.8916233515164,17.8117360774631 -88.8919445134205,17.8119678109097 -88.8921172834745,17.8121992120678 -88.892390150466,17.8127486166045 -88.8925850050769,17.8130074345258 -88.8928119347278,17.8131899788546 -88.8932365575337,17.8134418520072 -88.8935816598968,17.8137158690287 -88.8939779247732,17.8141673920925 -88.8942960790737,17.8144361394574 -88.8946292422164,17.8145667172128 -88.8949805627337,17.814563311357 -88.8953724512763,17.8145438677462 -88.895591590429,17.8144072824218 -88.8958473515128,17.8141215189483 -88.895859421132,17.8137343157293 -88.895909530615,17.8134676614307 -88.8959804358134,17.8131541579346 -88.8959764841602,17.8127803578033 -88.8958065253752,17.8123233040467 -88.8955812228091,17.8121118172925 -88.8955116509867,17.8119094875705 -88.8955812166197,17.8116516179975 -88.8957342576807,17.8114820417493 -88.8960385450036,17.8113439194298 -88.8963287775426,17.8112946861862 -88.8967239088824,17.811313778489 -88.8969274323928,17.8114302224888 -88.8974905482393,17.8118528502692 -88.8981698897416,17.8122815727058 -88.8987116208038,17.8128551935169 -88.8995196562752,17.8136136400922 -88.8998664579899,17.8139891712501 -88.8999933835842,17.8142495941552 -88.9001154628302,17.8146133205435 -88.9001699741985,17.8149692092321 -88.9003638280606,17.8151055508858 -88.9005755685561,17.8151952661695 -88.9009035977481,17.8151920760449 -88.9011899127352,17.8149866397387 -88.901493221684,17.8145339769079 -88.9017509392138,17.8142288955365 -88.9020517871979,17.8138645960015 -88.9022410956494,17.8135463575383 -88.9025253889075,17.8132552048876 -88.9027362523616,17.8129801203523 -88.9029574561859,17.8127277639809 -88.9033532343548,17.8125333722002 -88.904018153473,17.8123574471956 -88.90448843074,17.8122474918223 -88.904864993786,17.8118793791401 -88.9031423851804,17.8497498926356 -88.9029344410712,17.8542891016101 -88.902730130838,17.8588317080198 -88.9020485727987,17.8738160884631 -88.9077508994516,17.8740538146623 -88.90763149259,17.87854520359 -88.9075643208457,17.8808191475447 -88.907498911408,17.8831909185076 -88.9074264887196,17.885440949599 -88.9072139857541,17.8901164951658 -88.9067083379677,17.8906416314776 -88.9058336506967,17.8915500204467 -88.9056049059366,17.8916917265009 -88.9051357795479,17.8918003548566 -88.9044529013204,17.8919396883775 -88.9035172623191,17.8922158788814 -88.9027591013923,17.8929512399186 -88.9025490169524,17.8936358525433 -88.9023395262946,17.8944356162531 -88.9021207727443,17.8949367890024 -88.9018591395332,17.8953677969743 -88.9014494464491,17.89609958182 -88.9013706382792,17.8966968253187 -88.9013878680497,17.8970523744155 -88.9014033234992,17.8974616421071 -88.901334656711,17.8978087208117 -88.9013069347552,17.8978527185641 -88.9011214430992,17.8980193129803 -88.9007271956827,17.8981618634594 -88.9001956190665,17.8982026218707 -88.8995936839983,17.898274065158 -88.899207187445,17.8984311371333 -88.898755697287,17.8986909751243 -88.898404857843,17.8990178700014 -88.8981709666833,17.8994081172417 -88.8980339612164,17.8997374526239 -88.897673654269,17.9001855272505 -88.8973790667287,17.9003333347248 -88.8971034368577,17.9003994793455 -88.8966054830234,17.9004545840497 -88.896145951245,17.9005382721565 -88.8958062182306,17.9005600637873 -88.8953522517703,17.9003825421075 -88.8950462104832,17.9002022790467 -88.8946685323391,17.8999737057712 -88.8943193586476,17.8995799038358 -88.8940641675267,17.8992983193942 -88.8937466627607,17.8991072010121 -88.8932376742799,17.8989846840278 -88.8925500892006,17.8988686526062 -88.8916400067563,17.8986939799795 -88.8910986868405,17.8985900829469 -88.8911361726251,17.8977969066392 -88.8911772029197,17.8969287681166 -88.8911352304056,17.8965149207212 -88.8909608206521,17.8962253170102 -88.8907048762822,17.8960604036859 -88.8902336324288,17.8959382097117 -88.8895957330272,17.8958194978331 -88.889622341565,17.8956299789372 -88.8897047331128,17.8949131616401 -88.8897858835604,17.8942810236251</coordinates></LinearRing></outerBoundaryIs></Polygon></MultiGeometry>
  </Placemark>
  <Placemark>
	<Style><LineStyle><color>ff0000ff</color></LineStyle><PolyStyle><fill>0</fill></PolyStyle></Style>
	<ExtendedData><SchemaData schemaUrl="#roa_parcels_selection_v1">
		<SimpleData name="Seq">54</SimpleData>
		<SimpleData name="Category">Risk Abandonment</SimpleData>
		<SimpleData name="Area_ha">1210.925815520000015</SimpleData>
		<SimpleData name="X_coord">-89.098239000700005</SimpleData>
		<SimpleData name="Y_coord">17.901111466800000</SimpleData>
		<SimpleData name="ID">3</SimpleData>
	</SchemaData></ExtendedData>
      <MultiGeometry><Polygon><outerBoundaryIs><LinearRing><coordinates>-89.0584293211004,17.8963030837365 -89.0584346400169,17.8963030826008 -89.0657695229603,17.8963007572249 -89.0714086756712,17.8962987799395 -89.0795355420377,17.89629564998 -89.0882304665715,17.8962919239418 -89.0974042655545,17.8962875740751 -89.1049084739358,17.8962836893212 -89.1127683358701,17.8962793091107 -89.1206566390515,17.8962745983052 -89.1271609924449,17.8962704690668 -89.134219472375,17.8962657441387 -89.1422440287789,17.896260063167 -89.146322046036,17.8962570492723 -89.1499343128111,17.8962543083893 -89.1499432211646,17.90665066992 -89.1486680793295,17.9066610317828 -89.1472723139656,17.9066374468444 -89.1457944378986,17.9066274179869 -89.1435222415228,17.9066662767693 -89.1433709489271,17.906661516135 -89.1424953335057,17.906631046657 -89.1413598951534,17.9066250015919 -89.1388042810217,17.906595216521 -89.1384988415155,17.9065759745692 -89.137830751186,17.906581283129 -89.1375144207138,17.9066183248452 -89.1368390995741,17.9065974496423 -89.1362798811369,17.9066017477423 -89.1360530708118,17.9066267696063 -89.1347947581494,17.906596609961 -89.1330415837769,17.9065923174511 -89.1324418429473,17.9065992574791 -89.1321164503041,17.9066386102999 -89.131787707735,17.9066429984689 -89.1306688340791,17.9066111640261 -89.128741034384,17.9065824597228 -89.1270972289621,17.9065619733859 -89.1266524390715,17.9065509092528 -89.125791668165,17.9065492911725 -89.1249232821472,17.9065309714985 -89.1238403010194,17.9065189653454 -89.1228925228794,17.9064866021179 -89.1215288551951,17.9064649575775 -89.1213978956048,17.9064440515244 -89.1212355402324,17.906373926154 -89.1210011092621,17.9062925336071 -89.120765302265,17.906299652487 -89.120514725959,17.9063788185442 -89.1203698350927,17.9064337704614 -89.1195461560558,17.9064417848459 -89.1181825501323,17.9063967214835 -89.117166088411,17.9063855211466 -89.1148519114256,17.906360653008 -89.1127413797574,17.9063264229272 -89.1111863071293,17.9062909928543 -89.1098076327783,17.9062715984568 -89.1067511189981,17.9062300836543 -89.1050638125671,17.9062152834484 -89.104415983674,17.9061888862263 -89.1010303815992,17.9061164711519 -89.0915239925014,17.9058659084396 -89.0731296550601,17.9054569882634 -89.052001238379,17.9049665997217 -89.045355286432,17.9047307624151 -89.0423540814038,17.9046169591547 -89.0423625599004,17.9045265621134 -89.0423734314365,17.9041826858511 -89.04249258975,17.9013979098748 -89.0425389408306,17.9000339452847 -89.0426737820959,17.8967336487733 -89.0426832440016,17.8964468517027 -89.0427416057761,17.8963276012706 -89.0427516243177,17.8963071234265 -89.0515103332053,17.8963050208182 -89.0584293211004,17.8963030837365</coordinates></LinearRing></outerBoundaryIs></Polygon></MultiGeometry>
  </Placemark>
  <Placemark>
	<Style><LineStyle><color>ff0000ff</color></LineStyle><PolyStyle><fill>0</fill></PolyStyle></Style>
	<ExtendedData><SchemaData schemaUrl="#roa_parcels_selection_v1">
		<SimpleData name="Seq">82</SimpleData>
		<SimpleData name="Category">Risk Abandonment</SimpleData>
		<SimpleData name="Area_ha">2125.623518079999940</SimpleData>
		<SimpleData name="X_coord">-89.093272335899997</SimpleData>
		<SimpleData name="Y_coord">17.913822948300002</SimpleData>
		<SimpleData name="ID">4</SimpleData>
	</SchemaData></ExtendedData>
      <MultiGeometry><Polygon><outerBoundaryIs><LinearRing><coordinates>-89.1228777308067,17.9281697327007 -89.1228756480526,17.9251641012818 -89.1228710464525,17.9185030688163 -89.1136325507208,17.918508788628 -89.106050201313,17.918513155566 -89.0996350326402,17.9185166176026 -89.0925800937046,17.9185201812897 -89.0853862026088,17.918523553199 -89.0760697551762,17.9185275223803 -89.069082294466,17.9185302035132 -89.0606263619039,17.9185331157471 -89.050140751004,17.9185362155578 -89.047333931639,17.9185369496299 -89.0416135594039,17.9185383171821 -89.0342091576527,17.918539842252 -89.0270646336683,17.9185410429268 -89.0262511580916,17.9185411625816 -89.026691438782,17.9094837196766 -89.0269534878935,17.9040928541896 -89.0269744393851,17.9040918626317 -89.0420468142271,17.904878817258 -89.042190457493,17.9048852859464 -89.042334100799,17.9048917581408 -89.0453442675107,17.9050058998212 -89.0519924189813,17.9052418172643 -89.0731226957682,17.9057322435773 -89.0915167011674,17.9061411508964 -89.1010232126547,17.9063917175979 -89.1044066547959,17.9064640852065 -89.10505158172,17.9064903647057 -89.106748239082,17.9065054059031 -89.1098034872843,17.9065469015105 -89.1111807754607,17.9065662728371 -89.1127355230277,17.9066016990315 -89.1148478577527,17.9066359571498 -89.1171628225896,17.9066608363019 -89.1181759346715,17.9066719952852 -89.1195426587538,17.9067171609354 -89.1204261308704,17.9067085652705 -89.1206128339532,17.9066377614557 -89.1208159305449,17.906573588376 -89.1209549746121,17.9065693951171 -89.1211272235432,17.906629193045 -89.1213137101433,17.906709740431 -89.1215026717953,17.906739908677 -89.1228850094701,17.906761846347 -89.1238335085166,17.9067942440616 -89.1249184476095,17.9068062675556 -89.125788219514,17.9068246108269 -89.1266484208755,17.906826228699 -89.1270916266637,17.906837251376 -89.1287369286145,17.9068577599913 -89.1306623256649,17.9068864298398 -89.1317854382652,17.9069183821225 -89.132136540043,17.9069136973905 -89.1324616674494,17.9068743754013 -89.1330429493904,17.9068676484376 -89.1347907931302,17.9068719278029 -89.1360659981983,17.906902493531 -89.1362975469756,17.9068769480361 -89.1368356185281,17.9068728106931 -89.1375273115223,17.9068941943017 -89.1378494666356,17.9068564706189 -89.1384905851246,17.9068513716344 -89.1387930770478,17.9068704327636 -89.1413573452696,17.9069003156777 -89.1424893071506,17.9069063473825 -89.143361000681,17.906936675679 -89.1435200848266,17.9069416801826 -89.1457959857181,17.9069027639751 -89.1472687569246,17.9069127549944 -89.1486667668548,17.9069363763922 -89.149943458021,17.9069260044568 -89.1499618663598,17.9281502820495 -89.1463491830908,17.9281530950188 -89.137171636995,17.9281599403479 -89.1314999847282,17.9281639521161 -89.1228777308067,17.9281697327007</coordinates></LinearRing></outerBoundaryIs></Polygon></MultiGeometry>
  </Placemark>
  <Placemark>
	<Style><LineStyle><color>ff0000ff</color></LineStyle><PolyStyle><fill>0</fill></PolyStyle></Style>
	<ExtendedData><SchemaData schemaUrl="#roa_parcels_selection_v1">
		<SimpleData name="Seq">84</SimpleData>
		<SimpleData name="Category">Risk Abandonment</SimpleData>
		<SimpleData name="Area_ha">6289.141986210000141</SimpleData>
		<SimpleData name="X_coord">-89.068183247299999</SimpleData>
		<SimpleData name="Y_coord">17.965008251299999</SimpleData>
		<SimpleData name="ID">5</SimpleData>
	</SchemaData></ExtendedData>
      <MultiGeometry><Polygon><outerBoundaryIs><LinearRing><coordinates>-89.0413370500327,18.0021378920069 -89.0409161401742,18.0021101343633 -89.0404332451142,18.0021696602435 -89.0401270205867,18.0021093275073 -89.039492388793,18.001989190428 -89.03890856545,18.0019072793878 -89.0385533195788,18.0019419511988 -89.038200571942,18.0020161523403 -89.0378656117821,18.0020598015335 -89.037274865503,18.0020923215887 -89.0368744193173,18.0019946470035 -89.0365875445662,18.0018906984409 -89.0364261247519,18.0017288160861 -89.0362767811671,18.0014823567121 -89.0363044895253,18.0012913259039 -89.0364200866526,18.0010523237614 -89.0366327922456,18.0008581354454 -89.0368942969374,18.0003897124565 -89.0370710955689,17.9999934773276 -89.0370460337547,17.9994392445341 -89.036645888589,17.9991182902603 -89.0362498928936,17.9989851978819 -89.0357345267371,17.9990399864794 -89.0354261731929,17.9991915878912 -89.0351185936504,17.9994209735194 -89.0347531236087,17.9996218836431 -89.0343594134102,17.9999357845852 -89.0338015500016,18.0002724044747 -89.0336168961546,18.0003930168376 -89.0332881189034,18.0004414858433 -89.0331806704467,18.0004169769954 -89.0327762592821,18.000165092583 -89.032426661033,18.0001160259445 -89.0322557032946,18.0001451376818 -89.0320760463276,18.0001127113086 -89.0318041779395,18.0000472994518 -89.0314456721225,17.999957767056 -89.0311575467917,17.9999976058837 -89.0308746223595,18.0001366927511 -89.0306062467881,18.0003700377907 -89.0303315890887,18.0005455709211 -89.0299576412781,18.0005494903434 -89.0298328081375,18.0004815581124 -89.0296890775544,18.000387511277 -89.0295219766824,18.0002871848098 -89.0294459308514,18.0001542733006 -89.0294342999106,18.0000192893026 -89.0295094864176,17.9995701385766 -89.0296733834445,17.9991652782248 -89.0298510628003,17.9986963674818 -89.029911308588,17.9982754700089 -89.0298733690733,17.9979935321811 -89.0296648953829,17.9974595020322 -89.0294182390513,17.9970425723572 -89.0291452964651,17.9966039097416 -89.0289075027393,17.9962863159389 -89.0285643471306,17.9961085680789 -89.028068309329,17.996097395277 -89.0276788633691,17.9961949027485 -89.0274041207579,17.9963089935809 -89.0270219905069,17.9963985446453 -89.0267954172254,17.9963596972739 -89.0266414239509,17.9962568601311 -89.0264428565248,17.9960462105141 -89.0261993058199,17.9957047761941 -89.0257467273682,17.9953221374694 -89.0254836410037,17.9948992889534 -89.0249710911282,17.994375847636 -89.0245545265682,17.9940727481077 -89.0242228442835,17.9938706650675 -89.0240679020785,17.9937377113387 -89.0238978015674,17.9935417830118 -89.0237396992951,17.9932472912419 -89.0234366080026,17.9927803153885 -89.0231523036519,17.9923748147541 -89.0228514710575,17.9919530567441 -89.0226755439937,17.9917390817663 -89.0223312570745,17.9915577187058 -89.0219193018173,17.9914528361917 -89.0213603621749,17.9914175524289 -89.0205312308389,17.9914058628912 -89.0200908845191,17.9914949198774 -89.0196846254986,17.9916161740626 -89.0194527285717,17.9916527885611 -89.0192345384348,17.9916376771009 -89.0190146557399,17.991607648767 -89.0188676987305,17.9915160998125 -89.0186279258447,17.9913478930706 -89.018458713326,17.9912121314631 -89.018306848026,17.9911654395596 -89.0181471374195,17.9911019038529 -89.0178767763925,17.9910649792384 -89.0178263804126,17.9910462948041 -89.0175732865965,17.9908275756267 -89.0173777275182,17.9906969629564 -89.0171430028088,17.9906744713452 -89.0169912497882,17.990659935863 -89.016925286081,17.9906292271053 -89.0168278285236,17.9905379833371 -89.016753572993,17.9903770330134 -89.0164011203513,17.9901891414562 -89.0160967763744,17.9900570754601 -89.0158473243109,17.9899016629757 -89.0157544585703,17.9896863117108 -89.0157311826643,17.9893992953215 -89.0156481128282,17.9891444253448 -89.0154234333408,17.9889106961649 -89.015137836482,17.9886815506964 -89.0148331761664,17.9883150070303 -89.014333275692,17.9880586331263 -89.0139938435521,17.9880917229857 -89.0137846971424,17.9882509019969 -89.0136405847769,17.9883139930757 -89.0134588132396,17.9883507496574 -89.0132248872146,17.9883905602369 -89.0129003388196,17.9884133564525 -89.012597403496,17.9884506596387 -89.0124997601473,17.988410338855 -89.0124524029389,17.9883571417011 -89.012393698994,17.9881423587245 -89.0122390801194,17.9878543020065 -89.011846621477,17.9877647338961 -89.0115744295427,17.9878722141086 -89.0114017163463,17.9879647011504 -89.0112882413482,17.9879418037143 -89.0108809713737,17.9878488459433 -89.0103280853107,17.9877038740849 -89.0100804504985,17.9875718465062 -89.0098401416221,17.9873468210776 -89.0094776208009,17.9870859049733 -89.0094728110723,17.9870876044731 -89.0094713395799,17.9726166073708 -89.0094702871432,17.9614075121989 -89.0094690104436,17.9465074799779 -89.0094686732537,17.9422746500094 -89.0094659753728,17.9318193968759 -89.0094626469895,17.9185428814588 -89.0139107636766,17.9185425690863 -89.0188109612539,17.9185421046418 -89.0209363681212,17.9185418643613 -89.0209266392629,17.9523473162201 -89.1228847059975,17.9523464430723 -89.1228777308067,17.9281697327007 -89.1314999847282,17.9281639521161 -89.137171636995,17.9281599403479 -89.1463491830908,17.9281530950188 -89.1499618663598,17.9281502820495 -89.1501517130217,17.9281501313521 -89.1501562389824,17.9281501300635 -89.1501571171211,17.9416285812953 -89.1497163486306,17.9417604840586 -89.14915431619,17.9419657745733 -89.148571661653,17.9422104475268 -89.1482032101119,17.9423531669226 -89.1479378131265,17.9426131358523 -89.147875771374,17.9428466205578 -89.1477548020949,17.9430487718833 -89.1475401626201,17.9432853459513 -89.1470705987299,17.9437452937319 -89.1468260937008,17.9440901516799 -89.1466671859376,17.9443715340458 -89.1465777432297,17.9447159605156 -89.1465236548046,17.9449223314465 -89.146330323332,17.945069721177 -89.1461495266068,17.9451529244444 -89.1459127398297,17.9452090196202 -89.145676195226,17.9452874011987 -89.145414898458,17.9454076517976 -89.1451909538179,17.9456453139459 -89.1451037346814,17.9458878631932 -89.1450234014173,17.9462623209124 -89.1451429233989,17.9467133614996 -89.1452882014041,17.947128000398 -89.1453059764308,17.9474370139328 -89.1453952807398,17.9478781322503 -89.1453624120419,17.9480813100818 -89.1452460442192,17.9483890865588 -89.1451045863683,17.9486421250291 -89.1449166081353,17.9488570038505 -89.1448488417176,17.949112024908 -89.1447894715335,17.9493982950728 -89.1447791956412,17.9498270961142 -89.1448325628902,17.9506453092588 -89.1448101169439,17.9509022542586 -89.1447320492087,17.9511125204374 -89.1445778936487,17.951276107981 -89.1443528469026,17.9515703247529 -89.1441724064705,17.95184284605 -89.1439212005205,17.9521018594741 -89.1435428717722,17.9523800218081 -89.1427930666936,17.9527424036066 -89.1423091183784,17.9529531595638 -89.1419265615357,17.9530887115731 -89.1415423137293,17.953145583033 -89.1410678372807,17.9531921479545 -89.1402482020814,17.9532572773752 -89.1395205784946,17.9533507068351 -89.1388348910445,17.9535013111563 -89.1383365969179,17.9536518436421 -89.1376901600427,17.9539337808199 -89.1371368426317,17.9542658407421 -89.1367740727614,17.9546365875229 -89.1365288931229,17.9550333037278 -89.1360489072778,17.9555604578182 -89.1357564878207,17.9561220220597 -89.1355781738456,17.9563992471203 -89.1353228320302,17.9570999771867 -89.1352942242531,17.9574814908903 -89.1353919800084,17.9580328232066 -89.1354678570361,17.9584649776563 -89.1354744815149,17.9590164498143 -89.1354419421232,17.9594785844328 -89.1353635105553,17.9595630884318 -89.1350498019786,17.9597236203645 -89.1346333799407,17.9598313755949 -89.1340945927672,17.9598902597709 -89.1338560557273,17.959878621464 -89.1335808677262,17.9599222422581 -89.1333331233264,17.9601851042359 -89.1332216549509,17.9605754242257 -89.1333811836427,17.9610165284824 -89.1336468614039,17.9615107843338 -89.1337931901499,17.9620320101936 -89.1338646845685,17.9623301922003 -89.1338713519694,17.9628855269665 -89.1338929475507,17.9634802682237 -89.133859183242,17.9640981426115 -89.1337400880894,17.9643727597474 -89.1336151846659,17.9647741773384 -89.1334080354368,17.9651823395002 -89.1331660181027,17.9656591995579 -89.1328822839574,17.9662040386674 -89.132697300003,17.9665348631324 -89.1327393892244,17.9668295538142 -89.1328588798622,17.9672262571072 -89.132874457897,17.967497359805 -89.1327954765076,17.9677739087125 -89.1327493126474,17.9680762128905 -89.1328068393874,17.9684790138762 -89.1330575981428,17.9688301743062 -89.1334230407961,17.9690940634071 -89.1336500775255,17.9691932798295 -89.1338947238553,17.9694872739149 -89.1339112045653,17.9698029344261 -89.1339887686309,17.9702317242734 -89.1339917335745,17.9704785494439 -89.1339280317198,17.9708027218182 -89.1337571850162,17.9709052381021 -89.1334782898389,17.9709929099769 -89.1331389879683,17.9712093248049 -89.1329014793124,17.9715197568773 -89.132699681483,17.9718042870327 -89.132624756268,17.9718371475823 -89.132197191118,17.9719830803725 -89.1314665275218,17.9719911115228 -89.1311560718085,17.9720998258076 -89.130926842713,17.9722898122064 -89.1307191318727,17.9725515379981 -89.130511708127,17.9727659479426 -89.130215166235,17.9728062818502 -89.130039913421,17.9728848512966 -89.1297352297246,17.972981326459 -89.1294410890891,17.9730588666275 -89.1292439586586,17.9731646002497 -89.1290474932254,17.9733295343877 -89.1288344103563,17.973422975498 -89.1281199897153,17.9735362031727 -89.1277687090687,17.9735260545567 -89.1272091076183,17.9736192131865 -89.1267898356962,17.97369561879 -89.1263342628885,17.9738276304299 -89.1259389147074,17.9739195175463 -89.1252823374386,17.9742427341504 -89.1248099584382,17.9744609889626 -89.1245198014974,17.9746373143219 -89.1242058069137,17.9747219146904 -89.1240778196883,17.9747058446558 -89.1238647569241,17.9745866552516 -89.1237926147149,17.9744524396803 -89.1238009200385,17.9740705535995 -89.1238394410648,17.9736061469239 -89.1238331293899,17.9730782930407 -89.1237467766239,17.9726588979155 -89.1235372878058,17.9722838970609 -89.1233098830198,17.9719204328335 -89.122961003397,17.9716431516478 -89.1224911340047,17.971504268238 -89.1219131341515,17.9714807056346 -89.1213733413401,17.9715297079489 -89.120821729146,17.9715899530121 -89.12042477377,17.9715575650717 -89.120192467516,17.9714437766319 -89.1198790824753,17.9712241488092 -89.1196720651366,17.9709222359004 -89.1195249329515,17.9705417567558 -89.11930383799,17.9701303873994 -89.1189903985117,17.9697204013808 -89.1186407721701,17.9693784990757 -89.1181326613498,17.9690672595925 -89.1176716283579,17.9689163434544 -89.1172674610466,17.9687071906273 -89.1167422369761,17.96858403034 -89.1162799821283,17.9684185554015 -89.1158441468632,17.9683539166509 -89.1155022921793,17.9685405821441 -89.1152491266569,17.9687884569378 -89.1150386409468,17.9691545242209 -89.1149239484486,17.9696008065672 -89.1148289606588,17.9698358042338 -89.1146947693956,17.9699671912441 -89.1144444231956,17.9699699203783 -89.1139474041022,17.9700150108164 -89.1137019577785,17.9699474524124 -89.1133330406601,17.9697893502123 -89.1128832142028,17.969594390391 -89.1124242069958,17.969453494796 -89.1119437881432,17.9693551584754 -89.1114651621432,17.9693445780811 -89.111112144032,17.9694734267159 -89.1108626144942,17.9697340368303 -89.1105955536402,17.9700391639364 -89.110407785486,17.9702940390756 -89.1101408152117,17.9706105805765 -89.1098729217426,17.9709004941917 -89.1095950753049,17.9711725170382 -89.1093525940718,17.9714659297643 -89.1089715613465,17.9718123336633 -89.1086002632515,17.9720366093848 -89.1082117441502,17.9723439630545 -89.1078485642596,17.9726568917979 -89.1073598697749,17.9730650620323 -89.1070958590226,17.9732751564189 -89.1067807392194,17.9739591246969 -89.1067424916527,17.9743493118847 -89.1070597196121,17.9746036050525 -89.1073066687855,17.9746598494834 -89.1074787038606,17.9747642180923 -89.1074745663363,17.9748246677776 -89.1074433996518,17.9749609663327 -89.1073486956101,17.9751003131427 -89.1072740895325,17.975204817166 -89.1072431446648,17.975221713099 -89.1071870203022,17.9750917363305 -89.106954649969,17.9748576369174 -89.1064698950062,17.9745611701458 -89.1060746384248,17.9745256885405 -89.105768019315,17.9747403526869 -89.1056293579049,17.9750933887056 -89.1056924221933,17.975378300931 -89.106184635371,17.9755738796398 -89.1061887360571,17.975576114305 -89.1059628454425,17.9755658517572 -89.1056257903565,17.9756413849305 -89.1054127893088,17.9758309609465 -89.105180702085,17.9761724406926 -89.1050482558241,17.9763021056724 -89.1048487853899,17.9764325134711 -89.1046229237685,17.9765710388525 -89.1044087895048,17.9766893873134 -89.1039603636978,17.9768471624769 -89.1037068346046,17.9769791548998 -89.1034017284287,17.9771145449083 -89.1031505159691,17.9773038458277 -89.1030709429807,17.9775412197058 -89.1030236459132,17.97790375886 -89.1031531538667,17.9783196115413 -89.1031932669006,17.9785460464377 -89.1031609306101,17.9787696076369 -89.1030664840508,17.9789556073423 -89.1029403458477,17.9791287172641 -89.1027256223356,17.9793389146031 -89.1026602054498,17.979624930497 -89.1027809202783,17.9799278605857 -89.1028165767367,17.9800787271608 -89.1028017046544,17.9801870988215 -89.1027050401715,17.9802912011419 -89.1025533431723,17.980414988494 -89.1023155307049,17.9805523504567 -89.1020577183838,17.980720900208 -89.1018638384279,17.9808235303804 -89.1015645669356,17.981046903893 -89.1014290016407,17.9811085750071 -89.1010986226244,17.9811238725859 -89.1008575389572,17.9810723334849 -89.1004832713911,17.9810601191223 -89.1003161329905,17.9811154520334 -89.1001112992288,17.9813342076614 -89.0999514797522,17.981601070654 -89.0998568768652,17.9818282032592 -89.0997166048171,17.9820030879692 -89.0995043313447,17.9822499291446 -89.0993607075723,17.9823473965617 -89.099198928307,17.9823969567749 -89.0989613288061,17.9824715969936 -89.0987839740508,17.982452330392 -89.0985518062659,17.9823897087881 -89.0982501175354,17.9823014274428 -89.0980044517167,17.9821726707205 -89.0975454337024,17.982096453412 -89.0971376780412,17.982166029744 -89.096724518147,17.9823539542257 -89.096359463471,17.9825874568921 -89.096049888564,17.982920819746 -89.0958069894419,17.9832287531489 -89.0954302390059,17.9836117176459 -89.0952871870251,17.9838028759923 -89.0946407772195,17.9841809224389 -89.0942918454744,17.9843728946366 -89.0938188250526,17.9845548332133 -89.0935621681558,17.9845446889713 -89.0929773265139,17.984639538269 -89.0925481727556,17.984761901403 -89.0921759765288,17.9849150393824 -89.0918282596525,17.9851227628229 -89.0914350732909,17.9853706797268 -89.0911293362884,17.9854942358936 -89.0906592517591,17.9856971120353 -89.0902186482792,17.9859060000732 -89.0900001992137,17.9862190406369 -89.0898495554564,17.9864705472209 -89.0897245981168,17.9867305097209 -89.0895823589597,17.9869280219288 -89.0893722557799,17.9870613562008 -89.0891134710601,17.9872012062154 -89.0887578684166,17.9872732629088 -89.0882565902477,17.9874895934128 -89.0878771402908,17.9877529816939 -89.0876697122699,17.9879729257691 -89.0875354316215,17.9882710514761 -89.0874568240292,17.9886536034098 -89.0874937976301,17.9889712357725 -89.0875661390143,17.9892670002805 -89.0877125910484,17.9894659987157 -89.0877103863198,17.9895040835831 -89.0876789882488,17.9895181495606 -89.0875163867104,17.9895406815689 -89.087353485836,17.9895165029909 -89.0871133333381,17.9895190895526 -89.0869084233731,17.9896309293776 -89.0867563296054,17.9898129528696 -89.0865545264134,17.9900528868735 -89.0863763647203,17.9902676031218 -89.0861403711775,17.9904742802372 -89.086005143801,17.9905221416134 -89.0855106759375,17.9905143241224 -89.0847433109881,17.9905359375333 -89.0846337226434,17.9904936169556 -89.0845364259145,17.9904127126545 -89.0844211008629,17.9902808844969 -89.0842827241357,17.9900710335899 -89.0839885680111,17.9899168447173 -89.0836781388301,17.9898215192879 -89.0833907232119,17.9898246094512 -89.0831078409652,17.9899396469905 -89.0829576435737,17.9900031610656 -89.0827209440631,17.9903179015557 -89.0825912998806,17.9905300236602 -89.0824789462838,17.9906841769803 -89.082434360604,17.9907061077839 -89.0822572473538,17.9907279793377 -89.0821505725999,17.9907000493732 -89.0820185620188,17.9905355023241 -89.0818022483817,17.9901870553727 -89.0812267313647,17.9902136445503 -89.0809376541448,17.9904612201228 -89.0807009222428,17.9907122226183 -89.0807403411539,17.9910661623009 -89.0807198028365,17.9912391580633 -89.0806476084077,17.9913812852819 -89.0804446082962,17.9915799358112 -89.0802107241222,17.9917685035423 -89.0800197897918,17.9919021306828 -89.0796428810812,17.9921213580725 -89.0791646946828,17.9923429905101 -89.0786217804055,17.992541031544 -89.0782009233342,17.9926849675249 -89.0777894645475,17.9928305797251 -89.0774954910451,17.9929467739459 -89.0771267003811,17.9930925353233 -89.0768698949531,17.9932123267818 -89.076551694814,17.9932645452312 -89.0762873444137,17.9932553378747 -89.0760680130616,17.9931961568579 -89.0758283696908,17.9931099245725 -89.0756178495078,17.992987136259 -89.0754068429003,17.9928292790407 -89.074976141671,17.9924959008379 -89.0746376248634,17.9922658202549 -89.0741423846983,17.9920127958257 -89.0738228855484,17.9919680190875 -89.073569260599,17.99195557907 -89.0732830484375,17.9919730651007 -89.0719261569965,17.992029484013 -89.0713382617117,17.9920632286246 -89.0710254831663,17.992043568077 -89.0708428151825,17.9919154933732 -89.0706102002294,17.9917123514701 -89.0700020362736,17.9914150667195 -89.0694747559798,17.9911420808013 -89.0687302214416,17.9907612149306 -89.0683211407079,17.9905208026915 -89.0680018598083,17.9904120917675 -89.0672086234821,17.9903378438334 -89.0670560059893,17.9902668439883 -89.0666904635042,17.9901314304603 -89.0661819114763,17.9898875598651 -89.0655538184208,17.9898326760976 -89.0650882092985,17.9898971390919 -89.0645021337199,17.9900158121338 -89.0638996880191,17.9901208549384 -89.0633597809993,17.9902594730212 -89.0630739157794,17.9902268805854 -89.0627799962045,17.9901498995922 -89.0622696439162,17.9900162229227 -89.0615688256046,17.9898148131632 -89.0610477116626,17.9896641563375 -89.0604209778348,17.9895425981083 -89.0599037948041,17.9894609252366 -89.0593036212537,17.9894673037427 -89.0588748862857,17.989670475993 -89.0585717816817,17.9898048837596 -89.058034318981,17.9901607667368 -89.0577998042958,17.9902694291586 -89.0573678764604,17.9904746468544 -89.0568920205588,17.9907715644163 -89.0566295543402,17.9908865370241 -89.0562581966727,17.9911239452354 -89.0560497755162,17.9913789955122 -89.0559204408352,17.991691352485 -89.055788051382,17.9918681850595 -89.0555697393485,17.9920551021201 -89.0550699467456,17.992515318588 -89.0548069630873,17.9928048200997 -89.0545677305055,17.9935638545849 -89.0544856225509,17.9939223857213 -89.0543567358359,17.9942539804173 -89.0540185197314,17.9947234135628 -89.053876790911,17.994984631652 -89.0538813530974,17.9953786686557 -89.0538069795193,17.9958505639488 -89.0534631083472,17.9964585998911 -89.0529607409959,17.9974472298967 -89.0526974350126,17.9979947094413 -89.0525432216013,17.9984974775333 -89.0523420358636,17.9988934038316 -89.0521413041321,17.9991761389966 -89.0518938611793,17.9993305150725 -89.0516111986,17.9993551688716 -89.0514006535307,17.9992983312418 -89.0511225390961,17.99920848517 -89.0505873469586,17.9989663215712 -89.0500486429741,17.9987375429818 -89.049573584499,17.9986669350827 -89.0488870264417,17.9986450112009 -89.0479569449309,17.9987822008969 -89.0471966844261,17.9988484935296 -89.0466901061874,17.9990975837868 -89.046439431713,17.9992555513433 -89.046187375825,17.999692341174 -89.0459931900685,17.9998704254937 -89.045838676314,17.9999570888068 -89.0455179071379,18.0000117298046 -89.0449459627746,18.0001363930349 -89.0447041385032,18.0002720235302 -89.0444409585811,18.0004812892061 -89.0442710629086,18.0007142626033 -89.044115146333,18.0010680207091 -89.0440223947325,18.0014283067965 -89.0439165434517,18.0014463336422 -89.0437167075269,18.0013939783571 -89.0433643469763,18.001435207832 -89.0429605980554,18.0017392151731 -89.0427529478043,18.0018413121115 -89.0421853846882,18.001862390441 -89.0419048053999,18.0021826789976 -89.0416701196157,18.0022635689616 -89.0415554509508,18.0022395196117 -89.0413370500327,18.0021378920069</coordinates></LinearRing></outerBoundaryIs></Polygon></MultiGeometry>
  </Placemark>
  <Placemark>
	<Style><LineStyle><color>ff0000ff</color></LineStyle><PolyStyle><fill>0</fill></PolyStyle></Style>
	<ExtendedData><SchemaData schemaUrl="#roa_parcels_selection_v1">
		<SimpleData name="Seq">89</SimpleData>
		<SimpleData name="Category">Risk Abandonment</SimpleData>
		<SimpleData name="Area_ha">4045.014180740000029</SimpleData>
		<SimpleData name="X_coord">-89.071914915299999</SimpleData>
		<SimpleData name="Y_coord">17.935437499599999</SimpleData>
		<SimpleData name="ID">6</SimpleData>
	</SchemaData></ExtendedData>
      <MultiGeometry><Polygon><outerBoundaryIs><LinearRing><coordinates>-89.0209266392629,17.9523473162201 -89.0209363681212,17.9185418643613 -89.0262511580916,17.9185411625816 -89.0270646336683,17.9185410429268 -89.0342091576527,17.918539842252 -89.0416135594039,17.9185383171821 -89.047333931639,17.9185369496299 -89.050140751004,17.9185362155578 -89.0606263619039,17.9185331157471 -89.069082294466,17.9185302035132 -89.0760697551762,17.9185275223803 -89.0853862026088,17.918523553199 -89.0925800937046,17.9185201812897 -89.0996350326402,17.9185166176026 -89.106050201313,17.918513155566 -89.1136325507208,17.918508788628 -89.1228710464525,17.9185030688163 -89.1228756480526,17.9251641012818 -89.1228777308067,17.9281697327007 -89.1228847059975,17.9523464430723 -89.0209266392629,17.9523473162201</coordinates></LinearRing></outerBoundaryIs></Polygon></MultiGeometry>
  </Placemark>
  <Placemark>
	<Style><LineStyle><color>ff0000ff</color></LineStyle><PolyStyle><fill>0</fill></PolyStyle></Style>
	<ExtendedData><SchemaData schemaUrl="#roa_parcels_selection_v1">
		<SimpleData name="Seq">96</SimpleData>
		<SimpleData name="Category">Risk Abandonment</SimpleData>
		<SimpleData name="Area_ha">1812.977546549999943</SimpleData>
		<SimpleData name="X_coord">-88.856921294299994</SimpleData>
		<SimpleData name="Y_coord">17.854335180300001</SimpleData>
		<SimpleData name="ID">7</SimpleData>
	</SchemaData></ExtendedData>
      <MultiGeometry><Polygon><outerBoundaryIs><LinearRing><coordinates>-88.8632618583312,17.8869064483912 -88.8466508668409,17.8854316330484 -88.8463949755994,17.8854089010773 -88.8464324004831,17.8852200126309 -88.8464275137188,17.8847473866441 -88.8463816615102,17.8845386337146 -88.846389673628,17.8839641891421 -88.8464561188654,17.8834996653165 -88.846514000088,17.883195256584 -88.8466420586132,17.8830791183935 -88.8469681727066,17.8829763516354 -88.8471642875911,17.8827848192126 -88.8474054151355,17.882616423769 -88.847707231158,17.8826261208609 -88.8480272809649,17.8825422224798 -88.8482930219549,17.8824301764642 -88.8484908769984,17.8821641903231 -88.8484020831118,17.881837897173 -88.8483035136002,17.8816537257128 -88.8481826685151,17.8815402803858 -88.8482830136289,17.8814313719186 -88.848319509414,17.8810857279983 -88.8482358014233,17.8807929800833 -88.8481709642794,17.8804697454329 -88.8480406602913,17.8801920913115 -88.847757750628,17.8799421471024 -88.847532849468,17.8797545137926 -88.8474399264861,17.8794130261487 -88.8473301367396,17.8790513977479 -88.847120575806,17.8785417823361 -88.8469414579702,17.8783233350452 -88.8467161410823,17.8781471345617 -88.8464594153483,17.8780795250556 -88.8463613582331,17.8780660290484 -88.8463844758009,17.8779815754785 -88.8464153700463,17.8776529667054 -88.8463271408835,17.8773287103288 -88.846168886271,17.8769685005201 -88.8458752080008,17.8767273184892 -88.8456592498734,17.8766392793443 -88.8455814093699,17.8765388984277 -88.8454836513813,17.8763449911699 -88.8454371956504,17.8759040949942 -88.8453094200482,17.8752808079253 -88.8451720921307,17.8748714393137 -88.8450601260186,17.8743895300964 -88.8448780404417,17.8740798066302 -88.844589856308,17.8736675710316 -88.844432619516,17.8734464913172 -88.8440688686425,17.8730640651042 -88.8440108722092,17.8729556875664 -88.8440072128327,17.8726010452739 -88.8438320946394,17.8722939876342 -88.8435537348562,17.8721860021603 -88.8431770266447,17.8722015940113 -88.8431513234892,17.8721654533108 -88.8430113700909,17.8719297473765 -88.84284952125,17.8715531250163 -88.8425424161586,17.8712779196716 -88.8424812561266,17.870831663103 -88.8421299948194,17.8703766982326 -88.8420145285227,17.8702682901856 -88.8419427938632,17.8698675853743 -88.8418401515288,17.8696488348935 -88.8417970813765,17.8692511731442 -88.8417979289288,17.869245979068 -88.8418476217206,17.8692418458824 -88.8422404239723,17.8691816231869 -88.8423896496072,17.8689183273494 -88.8423411435903,17.8686764500604 -88.8422163564061,17.8684288887211 -88.8422100681984,17.8684095175556 -88.8423142868063,17.8683149973425 -88.8426535625998,17.8681128147682 -88.8428043435322,17.8679655607734 -88.8428245296948,17.8677508827348 -88.8428217392684,17.867480195522 -88.8425884573153,17.867321079459 -88.8424956696952,17.8672418957996 -88.8424954965372,17.8672250951187 -88.8425494778222,17.8670647745561 -88.8425812827767,17.8667451883779 -88.8425064116707,17.866469976369 -88.8424315473474,17.8663300709333 -88.8424519707553,17.8660885640273 -88.8425271554987,17.86582681539 -88.8426369371317,17.8656234227548 -88.8429114867152,17.8653284267124 -88.843083061377,17.8651468709628 -88.8433011108038,17.864933908403 -88.8433721568883,17.8647228784785 -88.8433353407064,17.864523499715 -88.8434095652431,17.8644582459187 -88.8437477819667,17.8641135383808 -88.8438724668046,17.8639917652481 -88.8438842240029,17.8639386297052 -88.8439031848531,17.8638529254895 -88.8439696396211,17.8637694166735 -88.8441684548734,17.8635890969277 -88.8446025571523,17.8631211931428 -88.8446484994623,17.8630594265477 -88.8447441299245,17.863083433953 -88.8450735205694,17.8629585236196 -88.845173037645,17.8626831208454 -88.8453003807428,17.8623479089594 -88.8453927531574,17.862126910836 -88.8455614463947,17.8618793314555 -88.8456757533956,17.8616691139556 -88.8458408149498,17.8614404210932 -88.8459504005954,17.8613011734375 -88.8459905199539,17.8612867723315 -88.846027666586,17.8613011820031 -88.8460922103748,17.8614415523888 -88.8464220062205,17.8614384300791 -88.8466480614458,17.861291001299 -88.8469717008076,17.8610608800128 -88.8470968664112,17.8609730087405 -88.8471929115033,17.8609103722685 -88.8473267699308,17.8607468529446 -88.8472542566755,17.8605655434609 -88.8471999897231,17.860430835034 -88.8470021299527,17.860463415192 -88.8468203559571,17.8605379736955 -88.8465854190527,17.8606532545113 -88.8463788988804,17.8608405718327 -88.846317393954,17.860873457699 -88.8462484869236,17.8608180174712 -88.8459563895517,17.8607808733683 -88.8456038201975,17.8608476374963 -88.8454368954612,17.8611385073624 -88.8450512763018,17.8616460084785 -88.8448591722918,17.8621417606518 -88.8446696757946,17.8625138293003 -88.8446208657106,17.8625751694645 -88.8443784116729,17.8626291743918 -88.8441593609767,17.862807519053 -88.843933806535,17.8630425199832 -88.8436299193753,17.8633528241413 -88.8436105189392,17.8633215984331 -88.8435635515871,17.8630147580722 -88.8433593345477,17.8626644986752 -88.8431463651414,17.8624075652375 -88.8429988278378,17.8621938670275 -88.8428498039272,17.8618063960883 -88.8426218007695,17.8614253759156 -88.8423251681948,17.8611159490118 -88.8420199054001,17.8609155937109 -88.8417855300464,17.8607214566755 -88.841497682895,17.8604084469662 -88.841192182908,17.8600398648444 -88.8409184829783,17.8597116763897 -88.8406788924779,17.8595017233903 -88.8405222822143,17.8593968190745 -88.8402786792935,17.8593835767487 -88.8400781618617,17.8593137156013 -88.8397776894638,17.8591863299927 -88.8395363495979,17.8590355204371 -88.8393155414084,17.8588628112825 -88.838911485684,17.858866621353 -88.8387701977366,17.8589132042515 -88.8387691148395,17.8588078701658 -88.8385141618064,17.8585684775679 -88.8382511824709,17.8583765550494 -88.8380349909546,17.8581735624574 -88.8378568440126,17.8579506864927 -88.8375175127515,17.8579376441246 -88.8374176851465,17.857891015348 -88.8373251225958,17.8577780970205 -88.8373209388742,17.8577590482063 -88.8373544951933,17.8577139366249 -88.8375125394053,17.8576540103713 -88.8377634319241,17.8574787973264 -88.8379249154309,17.8572304290367 -88.8378556148491,17.8569552257442 -88.8377402755645,17.856739651608 -88.8375825278441,17.8564690652992 -88.8375701374373,17.8562792330911 -88.8376286310651,17.8560936002633 -88.8377378563999,17.8558165857311 -88.8377338007111,17.8554217876228 -88.837686663037,17.8551397698676 -88.8376730018659,17.854930461139 -88.8376994541539,17.8548752276998 -88.8377616437875,17.8549336222549 -88.838019856126,17.8552188030514 -88.8381765359067,17.8553290506704 -88.8384063596719,17.855406638519 -88.8386152233475,17.8553796322447 -88.8388711878852,17.8552008782581 -88.8390532210423,17.8550093949875 -88.839209069651,17.8549155122223 -88.8394135358426,17.8548227845714 -88.8396681180878,17.8545932561475 -88.8397491622984,17.8541498110943 -88.8397887502181,17.853681696653 -88.8398385511269,17.852985797964 -88.8398790717095,17.8528132749871 -88.8399414950954,17.8527523018683 -88.84004670782,17.852686783532 -88.8402529204439,17.8526601242312 -88.840510784622,17.8525802691734 -88.8408396386042,17.8524365695906 -88.8409771062184,17.8521862042739 -88.8410683870005,17.8519150777637 -88.8410000245064,17.8516235803753 -88.8407520512457,17.8513741223692 -88.8405899682603,17.8512409814551 -88.8406006968623,17.8511695174364 -88.8407519032129,17.8506219027909 -88.8410161375102,17.8496232081854 -88.8413347291686,17.8486345831221 -88.8415177763715,17.848232972014 -88.8415905997181,17.8480314326219 -88.8419018496844,17.8471787135788 -88.8420268084881,17.846793414648 -88.8421711681548,17.8464574415124 -88.8423585863619,17.8462036839951 -88.8425104163025,17.8458210124393 -88.8424689946297,17.8454439030895 -88.8422940091224,17.8451815600895 -88.8420724447252,17.8448957571848 -88.8420243451661,17.8447619748207 -88.8420775963948,17.8445157279507 -88.8422664362546,17.8441699937544 -88.8426927272481,17.843740581895 -88.8433605232766,17.8433138623301 -88.8434749926653,17.8432761154774 -88.8435583079805,17.843281023309 -88.8436992817903,17.8434438780238 -88.8439627884558,17.8437222111311 -88.844269631981,17.8438569760661 -88.8445103734574,17.8438930708379 -88.8447698377831,17.8438241745442 -88.8454228670521,17.843628334643 -88.8456307951677,17.8434875435905 -88.8459025918691,17.8433212588018 -88.8460525657688,17.8430267668695 -88.8459988215712,17.8427357113658 -88.8456939342105,17.8424972254162 -88.8455488470022,17.842336261472 -88.8453967550788,17.8421341695772 -88.8451948661693,17.8414560971917 -88.8450379763833,17.8409811805405 -88.8450326140419,17.8404607896898 -88.8450010066557,17.8400655020593 -88.845084546525,17.8397066402423 -88.8452815922995,17.8394174204762 -88.8455682597788,17.8391617295866 -88.8459941527658,17.8390041616963 -88.8466657025143,17.8387733051427 -88.8473243911713,17.8384712867534 -88.8479345569529,17.8381865920719 -88.8483965275089,17.8377041636753 -88.8485922118962,17.8372709909561 -88.848618659529,17.8369094125801 -88.8487969103345,17.8362534319095 -88.8488760828536,17.8358955473939 -88.8490315100182,17.835590314793 -88.849280226445,17.835218767416 -88.8495891570324,17.834979727151 -88.8498779439226,17.8348240260096 -88.8501016449528,17.8346491229895 -88.8502917118478,17.8345189931499 -88.85040436939,17.8341842899911 -88.8502573392602,17.8338869405691 -88.8499892166207,17.8337435491791 -88.8496126032084,17.8336007386909 -88.8494700045928,17.8334874708977 -88.8493247526189,17.8332607228003 -88.8492149018042,17.8328447417706 -88.8491834789678,17.8324982684422 -88.8491370599968,17.8320099399925 -88.84922998486,17.8315408683305 -88.8492847120008,17.831053864348 -88.8493068287483,17.8303122919151 -88.849282060057,17.8300868375638 -88.8493407750929,17.830082261956 -88.8499878234011,17.830061010489 -88.8501774624911,17.8299311733687 -88.8508246593473,17.8294994840335 -88.8512179299186,17.8291152858991 -88.8517758763534,17.8286704544943 -88.8520248005657,17.8283357164979 -88.8523002829398,17.8278667642479 -88.8525670941249,17.8274164336689 -88.8526278384449,17.8272235684724 -88.852776708919,17.8270974949254 -88.8530978798726,17.8269821746281 -88.8533661036003,17.8267375953532 -88.8534770026103,17.8265197856567 -88.8534518078697,17.8263307949217 -88.8536363754051,17.8263643350457 -88.8538723534403,17.8263319198618 -88.8538958722851,17.8263316966596 -88.8542051790876,17.8262602317994 -88.854304681863,17.825989829061 -88.8543184192916,17.8257757926908 -88.8543509748888,17.8255288838323 -88.8544575885197,17.8254073365703 -88.8549025823419,17.8252268644263 -88.8553923134482,17.8250522077901 -88.8559331071172,17.8250197898572 -88.856209624578,17.8249507766551 -88.8564734832708,17.8249693171813 -88.8566036167043,17.825058090143 -88.8567571415931,17.8251297977541 -88.8571551674936,17.8252021200807 -88.8572459363934,17.8249783562808 -88.8572934985157,17.8247715976933 -88.8574488570324,17.8229168350078 -88.8575543843944,17.8222278764953 -88.8577488515687,17.8216358718993 -88.8578372502489,17.8212669842607 -88.8578776602557,17.8207057283954 -88.857819111711,17.8203067041838 -88.8576285763613,17.8201277834754 -88.8573645601433,17.8200829636869 -88.857131740492,17.8199742121519 -88.8570730962248,17.8199421913156 -88.8570733627818,17.8199402417528 -88.8572215338938,17.8198243743898 -88.8574791067418,17.8196702259064 -88.8577846232479,17.8194418040704 -88.8578904234825,17.819000287183 -88.8578427158524,17.8186103754405 -88.8578878271492,17.8184063921267 -88.8579760444779,17.8182079033105 -88.8582300127139,17.8177652124548 -88.8584221788154,17.8173877522301 -88.8584140305368,17.8166015797172 -88.8584664025057,17.816370252619 -88.8585596883766,17.8162856152729 -88.8587264280404,17.8163057820758 -88.8589700246018,17.8165345237111 -88.8592015818198,17.8169138753082 -88.8593812744441,17.8171162956118 -88.8596698573079,17.8172706301588 -88.8599471778264,17.8172366967484 -88.8601166657924,17.8172691977091 -88.8601627814827,17.8173340514921 -88.8601921381733,17.81765753512 -88.8602662371473,17.8180110107124 -88.8606070861315,17.8183470625305 -88.8608280759438,17.8185129781353 -88.8609904075473,17.8186654063832 -88.8611886977599,17.8188085212185 -88.8614049554283,17.8189708960841 -88.8616604328467,17.8189139537897 -88.8617689159242,17.8188396633215 -88.8618508824617,17.8189089183809 -88.8619856768686,17.8190101225687 -88.8624279132294,17.8189809736676 -88.8624674803581,17.8188767699932 -88.8625956098949,17.8188755487652 -88.8629617689458,17.8189304212143 -88.8632367985761,17.8188783093967 -88.8638213769234,17.8186998958998 -88.8641525767135,17.8185555328111 -88.864372450805,17.8184405024656 -88.8646428367306,17.8182815799004 -88.8648251197001,17.8182097169795 -88.8649642693467,17.8181775538377 -88.8653109758153,17.8182018979342 -88.8655526794677,17.8181221561319 -88.8657631094908,17.8179393578354 -88.8657797546053,17.8177218642784 -88.8657892339815,17.8176872125533 -88.865959542543,17.8176364980447 -88.8662760690337,17.8175750540468 -88.8665983109703,17.8176404221501 -88.8668857818437,17.8177622882328 -88.8672149530478,17.8179234538697 -88.8675942568006,17.8179371230501 -88.8678364273928,17.8178388877675 -88.8679560457175,17.817837744433 -88.8682586398784,17.8179603402148 -88.8685976990658,17.8180380962967 -88.8688918629762,17.818153434403 -88.8692600062737,17.818133875509 -88.8695927185126,17.8180597119337 -88.8698493656476,17.8177508987403 -88.8698818638761,17.8174238094446 -88.8698481750933,17.8170912422228 -88.8698331383071,17.8170034522314 -88.8698679606759,17.8170008946681 -88.8700080898689,17.8170515559806 -88.8699314344692,17.8193237884042 -88.8680213907872,17.8759489184252 -88.8678888524346,17.87987878131 -88.8676382096214,17.8872947667243 -88.8632618583312,17.8869064483912</coordinates></LinearRing></outerBoundaryIs></Polygon></MultiGeometry>
  </Placemark>
  <Placemark>
	<Style><LineStyle><color>ff0000ff</color></LineStyle><PolyStyle><fill>0</fill></PolyStyle></Style>
	<ExtendedData><SchemaData schemaUrl="#roa_parcels_selection_v1">
		<SimpleData name="Seq">247</SimpleData>
		<SimpleData name="Category">Risk Abandonment</SimpleData>
		<SimpleData name="Area_ha">1902.964987560000054</SimpleData>
		<SimpleData name="X_coord">-88.759539592799996</SimpleData>
		<SimpleData name="Y_coord">17.758462667900002</SimpleData>
		<SimpleData name="ID">8</SimpleData>
	</SchemaData></ExtendedData>
      <MultiGeometry><Polygon><outerBoundaryIs><LinearRing><coordinates>-88.7449460827864,17.7840403112044 -88.7441477314695,17.7216149352228 -88.7441026398048,17.7180828445754 -88.7440796199193,17.7162794344662 -88.7440794307876,17.7162645519915 -88.75340860441,17.715965929979 -88.7541618293932,17.7440621041662 -88.7788393539965,17.7438862310385 -88.7778799836466,17.7567089083629 -88.778745352424,17.7633834890217 -88.7785542421398,17.7765198600109 -88.7784602872308,17.7841654427646 -88.7449460827864,17.7840403112044</coordinates></LinearRing></outerBoundaryIs></Polygon></MultiGeometry>
  </Placemark>
  <Placemark>
	<Style><LineStyle><color>ff0000ff</color></LineStyle><PolyStyle><fill>0</fill></PolyStyle></Style>
	<ExtendedData><SchemaData schemaUrl="#roa_parcels_selection_v1">
		<SimpleData name="Seq">248</SimpleData>
		<SimpleData name="Category">Risk Abandonment</SimpleData>
		<SimpleData name="Area_ha">4717.806813889999830</SimpleData>
		<SimpleData name="X_coord">-88.714648034800007</SimpleData>
		<SimpleData name="Y_coord">17.749926396599999</SimpleData>
		<SimpleData name="ID">9</SimpleData>
	</SchemaData></ExtendedData>
      <MultiGeometry><Polygon><outerBoundaryIs><LinearRing><coordinates>-88.7440601634896,17.7162651405247 -88.7440794307876,17.7162645519915 -88.7440796199193,17.7162794344662 -88.7441026398048,17.7180828445754 -88.7441477314695,17.7216149352228 -88.7449460827864,17.7840403112044 -88.7248597460366,17.7845385467497 -88.7153431893136,17.7847738835475 -88.7139636378568,17.7848079601393 -88.71332025163,17.784819687894 -88.7070477677024,17.7849339177797 -88.702046315995,17.7850248558625 -88.6957932713056,17.78073243056 -88.6864078661864,17.7742439830941 -88.684697694222,17.7730612360184 -88.6834678691173,17.7487207037336 -88.6832722492165,17.7485856774954 -88.6829574056986,17.7423658152804 -88.682948228918,17.7421840351996 -88.6828567988443,17.7403736142954 -88.6827654635803,17.7385650941062 -88.6826741355852,17.7367565733683 -88.6825828073074,17.734948051243 -88.6825738099404,17.7347730118681 -88.6824906700479,17.73313955906 -88.6823988361436,17.7313310674027 -88.6819397073353,17.7223446473178 -88.6819266906091,17.7220900843314 -88.6817399258318,17.7184443685097 -88.6817249089949,17.7181512164658 -88.681723448378,17.7181226751803 -88.6817234106305,17.7181219634884 -88.6817240308436,17.7181219473346 -88.6835906634309,17.7180668385666 -88.6851867239749,17.7180197039289 -88.6937848865166,17.7177655610037 -88.7063116910289,17.7173946214669 -88.7072952069733,17.7173654638292 -88.7099755010504,17.7172859791159 -88.7155289297167,17.7171211734641 -88.7173637785732,17.7170666260616 -88.7245525794108,17.7168524984147 -88.7440601634896,17.7162651405247</coordinates></LinearRing></outerBoundaryIs></Polygon></MultiGeometry>
  </Placemark>
  <Placemark>
	<Style><LineStyle><color>ff0000ff</color></LineStyle><PolyStyle><fill>0</fill></PolyStyle></Style>
	<ExtendedData><SchemaData schemaUrl="#roa_parcels_selection_v1">
		<SimpleData name="Seq">405</SimpleData>
		<SimpleData name="Category">Risk Abandonment</SimpleData>
		<SimpleData name="Area_ha">2819.970078559999820</SimpleData>
		<SimpleData name="X_coord">-88.704610886899999</SimpleData>
		<SimpleData name="Y_coord">17.689052137600001</SimpleData>
		<SimpleData name="ID">10</SimpleData>
	</SchemaData></ExtendedData>
      <MultiGeometry><Polygon><outerBoundaryIs><LinearRing><coordinates>-88.6816744106164,17.7171504986758 -88.6816350356377,17.7163796022699 -88.6815666032099,17.715039779616 -88.6814802799689,17.7133617796071 -88.6813832965774,17.7114486757487 -88.6813275656258,17.710356287248 -88.681191709468,17.7077053362591 -88.6811370228365,17.7066211553118 -88.6810682043334,17.7052720750879 -88.6810076555023,17.7040972440473 -88.6810068932737,17.7040823063582 -88.6808780056037,17.7015555076318 -88.680821283319,17.7004480381116 -88.6807372227192,17.6987946709311 -88.6805697275518,17.6955365477426 -88.6805690038194,17.6955217813847 -88.6805607007988,17.6953524844889 -88.6805599441368,17.6953377247371 -88.6804110427108,17.6924312624033 -88.680410277025,17.6924163382714 -88.6800336055696,17.6850758873818 -88.6797629682323,17.6799240771372 -88.6796006155652,17.6766520833505 -88.6793126830335,17.6708486168278 -88.6792989995989,17.6705728027219 -88.6790299498586,17.6657033737843 -88.6790298117622,17.6656884903234 -88.6790079533495,17.6654459856339 -88.6789982966833,17.6653507495437 -88.678982291833,17.6651929053562 -88.6789799254328,17.6651695707553 -88.6789645324188,17.6650425179919 -88.6787625598471,17.6648911676337 -88.6787551301799,17.6647294426146 -88.6787544967731,17.664715011548 -88.6788254527274,17.6646534322393 -88.678957712697,17.6645385657634 -88.6800861282234,17.6643519355423 -88.6800870737609,17.6643518542849 -88.6805981732717,17.664006282975 -88.680646536606,17.6639735826698 -88.6806548492699,17.6639679619489 -88.6803294008991,17.6636112275596 -88.6803244912862,17.6635380308779 -88.6803213701771,17.6634914898332 -88.6803182709729,17.6634452775035 -88.6803174972971,17.663433312606 -88.6803166206158,17.6634190851255 -88.6806310441753,17.6631625969098 -88.6813037878575,17.6629080262007 -88.6818947133452,17.6629356742098 -88.6818956298156,17.6629357115612 -88.6825211591626,17.6624450063011 -88.6831547636479,17.6624335306755 -88.6831913885225,17.6629919378726 -88.6834558740178,17.663145779778 -88.6834563491788,17.6631454901858 -88.6834568324784,17.6631457715843 -88.6837744590705,17.6629523019812 -88.6839498473588,17.6626746178525 -88.6843257719578,17.6626654194082 -88.6844132220153,17.6628998767911 -88.6844141571241,17.6628997901814 -88.684608413487,17.6628761797204 -88.6846093648524,17.6628761182709 -88.685116673425,17.6624764064332 -88.6856060756921,17.6624528534606 -88.6860236420089,17.6628416456604 -88.6870833593736,17.6632114188556 -88.6875579522329,17.6633661645979 -88.6875586904221,17.6633660850822 -88.6880345605343,17.6632268072197 -88.6883641590939,17.6632217560609 -88.6891974845557,17.6638815023573 -88.6891984001353,17.663881443903 -88.6897461140416,17.6638354350536 -88.6901582999657,17.6643286905948 -88.6901592182054,17.6643286140415 -88.690420469573,17.6643000196098 -88.6904214228767,17.6642999635365 -88.6906948133703,17.6638958188721 -88.6911600920641,17.6638868944551 -88.6919927732362,17.6645941360263 -88.6929964165905,17.6654465715236 -88.6931329532298,17.6655623206767 -88.6931339088288,17.6655623079415 -88.6937316027188,17.6655545217569 -88.6937662079233,17.6655540704686 -88.6938930277241,17.665672441674 -88.6939745887187,17.665711582101 -88.6939983728759,17.6662231011054 -88.6942574649751,17.6664491149666 -88.6942583584476,17.6664490096924 -88.6944835188357,17.6664201356375 -88.6945269824191,17.6663858044359 -88.6945659682196,17.6663548134166 -88.6946827436054,17.6662623406561 -88.6946836952228,17.6662624056546 -88.6953048002553,17.6663144544402 -88.6953630922659,17.6663193423169 -88.6955182863293,17.6662231399452 -88.6955861067207,17.6661810991347 -88.6955865235545,17.6661814262522 -88.6963940019555,17.6668148397826 -88.6963949575594,17.6668148270311 -88.7187740757727,17.6665179868272 -88.7187750341907,17.6665179739426 -88.7368669031341,17.6662761388324 -88.7368678615411,17.66627612586 -88.7368686176308,17.6662902860366 -88.7368693347924,17.6663037291336 -88.7370595899497,17.669869726012 -88.7373477751077,17.6752707205125 -88.7375066812631,17.6782485920962 -88.7351976741581,17.6781514599306 -88.7349898509345,17.6833109318463 -88.7349609157976,17.6840292890165 -88.7348981533611,17.6855874615616 -88.7348343589805,17.6871712660493 -88.7348027880362,17.6879550699571 -88.7347477665048,17.689645843612 -88.7055412942316,17.6882721354192 -88.705535744764,17.6883738925287 -88.7055210732601,17.6886429290813 -88.7055063398486,17.6889130974307 -88.7054846324249,17.6893111690662 -88.7054641357618,17.6896870133174 -88.7053946721061,17.6909607876993 -88.7053365266504,17.6920270214273 -88.705299122794,17.6927128990929 -88.7052089635518,17.6943661631862 -88.7042808596146,17.6943224412703 -88.7042667553095,17.6945975050507 -88.7059088603004,17.6946748597142 -88.7064579928633,17.6947007244013 -88.7089746096723,17.6948192401446 -88.7122646516411,17.6949741307529 -88.7129582411663,17.6950067769773 -88.7129478703288,17.6952092129061 -88.7129337793861,17.6954842806745 -88.7129271454862,17.6956137728803 -88.7128950570042,17.6962401371369 -88.7131820269747,17.6962536432707 -88.7132141064684,17.6956274309216 -88.7132207481474,17.6954977868559 -88.7132348386501,17.6952227191048 -88.7132389381822,17.6951426955297 -88.7132593012195,17.6947451810806 -88.7136081223771,17.694761621097 -88.7143978532036,17.6947988023256 -88.7199686783233,17.695060874688 -88.721713809753,17.6951429497727 -88.7217613225485,17.6951451838342 -88.7233939020799,17.6952219434227 -88.7238394425605,17.6952428889427 -88.7246644743422,17.6952816725223 -88.7267588298863,17.6953801103321 -88.7320223477787,17.6956274025889 -88.731729572627,17.696092309968 -88.7283166343792,17.701511633288 -88.7282219173762,17.7037797335301 -88.7280457148102,17.7079990879219 -88.7356237436492,17.7082423169225 -88.7358136649369,17.7082484088074 -88.7439804429433,17.7085101980121 -88.7439839616716,17.7087857664409 -88.7439885520973,17.7091454078231 -88.714586021041,17.7082044670461 -88.7099755010504,17.7172859791159 -88.7072952069733,17.7173654638292 -88.7063116910289,17.7173946214669 -88.6937848865166,17.7177655610037 -88.6851867239749,17.7180197039289 -88.6835906634309,17.7180668385666 -88.6817240308436,17.7181219473346 -88.6816744106164,17.7171504986758</coordinates></LinearRing></outerBoundaryIs></Polygon></MultiGeometry>
  </Placemark>
</Folder>
</Document></kml>
