<?xml version="1.0" encoding="utf-8" ?>
<kml xmlns="http://www.opengis.net/kml/2.2">
<Document id="root_doc">
<Schema name="ParcelsPolygons" id="ParcelsPolygons">
	<SimpleField name="id" type="float"></SimpleField>
	<SimpleField name="Cod" type="string"></SimpleField>
	<SimpleField name="Intance" type="string"></SimpleField>
	<SimpleField name="AreaCor_ha" type="float"></SimpleField>
	<SimpleField name="Prod_Name" type="string"></SimpleField>
	<SimpleField name="TecSubPack" type="string"></SimpleField>
</Schema>
<Folder><name>ParcelsPolygons</name>
  <Placemark>
	<Style><LineStyle><color>ff0000ff</color></LineStyle><PolyStyle><fill>0</fill></PolyStyle></Style>
	<ExtendedData><SchemaData schemaUrl="#ParcelsPolygons">
		<SimpleData name="Cod">FDPR02-7</SimpleData>
		<SimpleData name="Intance">Instance 3</SimpleData>
		<SimpleData name="AreaCor_ha">1.000</SimpleData>
		<SimpleData name="Prod_Name">Neila Guerrero Bayona</SimpleData>
		<SimpleData name="TecSubPack">Beekeeping</SimpleData>
	</SchemaData></ExtendedData>
      <MultiGeometry><Polygon><outerBoundaryIs><LinearRing><coordinates>-73.9021978263024,10.4786424147834 -73.9017315326532,10.4788066439932 -73.9016520142432,10.4780135590837 -73.9017862054758,10.4772084116877 -73.9022832100413,10.4773773932399 -73.9021978263024,10.4786424147834</coordinates></LinearRing></outerBoundaryIs></Polygon></MultiGeometry>
  </Placemark>
  <Placemark>
	<Style><LineStyle><color>ff0000ff</color></LineStyle><PolyStyle><fill>0</fill></PolyStyle></Style>
	<ExtendedData><SchemaData schemaUrl="#ParcelsPolygons">
		<SimpleData name="Cod">FDSC23-7</SimpleData>
		<SimpleData name="Intance">Instance 1</SimpleData>
		<SimpleData name="AreaCor_ha">1.000</SimpleData>
		<SimpleData name="Prod_Name">Jose Antonio Almanza Gonzalez</SimpleData>
		<SimpleData name="TecSubPack">Coffee-zoca enrichment (1 year)</SimpleData>
	</SchemaData></ExtendedData>
      <MultiGeometry><Polygon><outerBoundaryIs><LinearRing><coordinates>-73.9325158676277,10.4645726304999 -73.9321822812404,10.4649638363542 -73.9320154880467,10.4649062168873 -73.9317668145579,10.4648122061781 -73.9311057069903,10.4648819560591 -73.9312512719593,10.4641692942316 -73.9322338355002,10.4643724786675 -73.9325128350242,10.4645726304999 -73.9325158676277,10.4645726304999</coordinates></LinearRing></outerBoundaryIs></Polygon></MultiGeometry>
  </Placemark>
  <Placemark>
	<Style><LineStyle><color>ff0000ff</color></LineStyle><PolyStyle><fill>0</fill></PolyStyle></Style>
	<ExtendedData><SchemaData schemaUrl="#ParcelsPolygons">
		<SimpleData name="Cod">SICO13-1-2</SimpleData>
		<SimpleData name="Intance">Instance 2</SimpleData>
		<SimpleData name="AreaCor_ha">0.500</SimpleData>
		<SimpleData name="Prod_Name">Victor Enrique Cordero Ardila</SimpleData>
		<SimpleData name="TecSubPack">Cocoa reconversion (1 year)</SimpleData>
	</SchemaData></ExtendedData>
      <MultiGeometry><Polygon><outerBoundaryIs><LinearRing><coordinates>-74.0694423439962,11.0021538166053 -74.0695418822316,11.0024432100439 -74.0695957155477,11.0028102636086 -74.0696788211139,11.0030584647253 -74.0696023471974,11.0032841022471 -74.0693842890226,11.0033229046762 -74.0692498504216,11.0031102399103 -74.069290715966,11.0030023072438 -74.0691682968893,11.0026893724383 -74.0692919764143,11.0026437151578 -74.0692865250782,11.0023803334577 -74.0694423439962,11.0021538166053</coordinates></LinearRing></outerBoundaryIs></Polygon></MultiGeometry>
  </Placemark>
  <Placemark>
	<Style><LineStyle><color>ff0000ff</color></LineStyle><PolyStyle><fill>0</fill></PolyStyle></Style>
	<ExtendedData><SchemaData schemaUrl="#ParcelsPolygons">
		<SimpleData name="Cod">SING19-4</SimpleData>
		<SimpleData name="Intance">Instance 2</SimpleData>
		<SimpleData name="AreaCor_ha">0.500</SimpleData>
		<SimpleData name="Prod_Name">Jaime Alberto García Florez</SimpleData>
		<SimpleData name="TecSubPack">Cocoa establishment</SimpleData>
	</SchemaData></ExtendedData>
      <MultiGeometry><Polygon><outerBoundaryIs><LinearRing><coordinates>-74.0598067792089,10.975349450387 -74.0595514266019,10.9754545242362 -74.0595361993322,10.9755885242096 -74.0593297245093,10.9758667950914 -74.0590746478117,10.9758945198198 -74.0588479267416,10.9757621150842 -74.0591646539514,10.9753357515325 -74.0592225175763,10.9750921152173 -74.0598067792089,10.975349450387</coordinates></LinearRing></outerBoundaryIs></Polygon></MultiGeometry>
  </Placemark>
  <Placemark>
	<Style><LineStyle><color>ff0000ff</color></LineStyle><PolyStyle><fill>0</fill></PolyStyle></Style>
	<ExtendedData><SchemaData schemaUrl="#ParcelsPolygons">
		<SimpleData name="Cod">SISI10-6</SimpleData>
		<SimpleData name="Intance">Instance 1</SimpleData>
		<SimpleData name="AreaCor_ha">1.000</SimpleData>
		<SimpleData name="Prod_Name">Carlos Ortiz GUerrero</SimpleData>
		<SimpleData name="TecSubPack">Coffee-planting enrichment (1 year)</SimpleData>
	</SchemaData></ExtendedData>
      <MultiGeometry><Polygon><outerBoundaryIs><LinearRing><coordinates>-74.0190654916207,10.9704226003008 -74.0184498074652,10.9710885939198 -74.0181444966126,10.9714171567588 -74.0177602437658,10.9715631766395 -74.0181546053215,10.9706675050278 -74.0185068964899,10.9699340454584 -74.0190654916207,10.9704226003008</coordinates></LinearRing></outerBoundaryIs></Polygon></MultiGeometry>
  </Placemark>
  <Placemark>
	<Style><LineStyle><color>ff0000ff</color></LineStyle><PolyStyle><fill>0</fill></PolyStyle></Style>
	<ExtendedData><SchemaData schemaUrl="#ParcelsPolygons">
		<SimpleData name="Cod">SISI13-6</SimpleData>
		<SimpleData name="Intance">Instance 1</SimpleData>
		<SimpleData name="AreaCor_ha">1.000</SimpleData>
		<SimpleData name="Prod_Name">Dario Andres Jimenez Rangel</SimpleData>
		<SimpleData name="TecSubPack">Coffee-planting enrichment (1 year)</SimpleData>
	</SchemaData></ExtendedData>
      <MultiGeometry><Polygon><outerBoundaryIs><LinearRing><coordinates>-74.017997134716,10.9816091427951 -74.0175687655019,10.9814180637545 -74.0174182562628,10.9813679208524 -74.0173448223128,10.9813227912429 -74.0171657992689,10.981194378916 -74.0171166384725,10.980974400219 -74.0172355037663,10.9808760540882 -74.0174180365788,10.980788195971 -74.0181814933213,10.980715485805 -74.0182809248723,10.9808104974753 -74.018402607286,10.980996620402 -74.017997134716,10.9816091427951</coordinates></LinearRing></outerBoundaryIs></Polygon></MultiGeometry>
  </Placemark>
  <Placemark>
	<Style><LineStyle><color>ff0000ff</color></LineStyle><PolyStyle><fill>0</fill></PolyStyle></Style>
	<ExtendedData><SchemaData schemaUrl="#ParcelsPolygons">
		<SimpleData name="Cod">PLSF22-3</SimpleData>
		<SimpleData name="Intance">Instance 2</SimpleData>
		<SimpleData name="AreaCor_ha">1.000</SimpleData>
		<SimpleData name="Prod_Name">Celina Torres Becerra</SimpleData>
		<SimpleData name="TecSubPack">Cocoa establishment</SimpleData>
	</SchemaData></ExtendedData>
      <MultiGeometry><Polygon><outerBoundaryIs><LinearRing><coordinates>-74.0222973063995,10.7467819316987 -74.0222810874968,10.7470772176977 -74.0228408240785,10.747729281963 -74.0231870528919,10.7479485602115 -74.0229793156039,10.748219772782 -74.0227023325532,10.7483524938271 -74.0223791856606,10.7481909203808 -74.0220098749263,10.7469387261724 -74.0222233826946,10.7468175460877 -74.0222973063995,10.7467819316987</coordinates></LinearRing></outerBoundaryIs></Polygon></MultiGeometry>
  </Placemark>
  <Placemark>
	<Style><LineStyle><color>ff0000ff</color></LineStyle><PolyStyle><fill>0</fill></PolyStyle></Style>
	<ExtendedData><SchemaData schemaUrl="#ParcelsPolygons">
		<SimpleData name="Cod">PLPL19-5</SimpleData>
		<SimpleData name="Intance">Instance 2</SimpleData>
		<SimpleData name="AreaCor_ha">1.000</SimpleData>
		<SimpleData name="Prod_Name">Jedutin Antonio Luna Gutierrez</SimpleData>
		<SimpleData name="TecSubPack">Cocoa establishment</SimpleData>
	</SchemaData></ExtendedData>
      <MultiGeometry><Polygon><outerBoundaryIs><LinearRing><coordinates>-74.0348086338065,10.7548613531325 -74.034515699781,10.7552336524703 -74.0340999367535,10.755697024691 -74.0336497838229,10.755754468721 -74.0331069624636,10.7558978469939 -74.0328837264333,10.7556319117304 -74.0333052116693,10.7554268980167 -74.0341184149051,10.7551687875729 -74.0344006150606,10.7549993039403 -74.0348086338065,10.7548613531325</coordinates></LinearRing></outerBoundaryIs></Polygon></MultiGeometry>
  </Placemark>
  <Placemark>
	<Style><LineStyle><color>ff0000ff</color></LineStyle><PolyStyle><fill>0</fill></PolyStyle></Style>
	<ExtendedData><SchemaData schemaUrl="#ParcelsPolygons">
		<SimpleData name="Cod">ARLF10</SimpleData>
		<SimpleData name="Intance">Instance 1</SimpleData>
		<SimpleData name="AreaCor_ha">1.000</SimpleData>
		<SimpleData name="Prod_Name">Antonio Carrascal German</SimpleData>
		<SimpleData name="TecSubPack">Coffee-zoca enrichment</SimpleData>
	</SchemaData></ExtendedData>
      <MultiGeometry><Polygon><outerBoundaryIs><LinearRing><coordinates>-73.9891143336972,10.6588213218691 -73.9888402964788,10.659544088954 -73.9890196106261,10.6598093931596 -73.9889539701215,10.6600780661584 -73.9884496393379,10.6600616736376 -73.9881791380253,10.6589535561453 -73.9891143336972,10.6588213218691</coordinates></LinearRing></outerBoundaryIs></Polygon></MultiGeometry>
  </Placemark>
  <Placemark>
	<Style><LineStyle><color>ff0000ff</color></LineStyle><PolyStyle><fill>0</fill></PolyStyle></Style>
	<ExtendedData><SchemaData schemaUrl="#ParcelsPolygons">
		<SimpleData name="Cod">FDSR30-4</SimpleData>
		<SimpleData name="Intance">Instance 2</SimpleData>
		<SimpleData name="AreaCor_ha">2.000</SimpleData>
		<SimpleData name="Prod_Name">Ricardo Segundo Toscano Larios</SimpleData>
		<SimpleData name="TecSubPack">Cocoa establishment</SimpleData>
	</SchemaData></ExtendedData>
      <MultiGeometry><Polygon><outerBoundaryIs><LinearRing><coordinates>-73.951341468362,10.4137748210744 -73.9506710757512,10.4141567417133 -73.9502391118819,10.4133639121325 -73.9502669744717,10.4131313685406 -73.9503275654595,10.41305564597 -73.9500005754547,10.412759460098 -73.9499851726319,10.4124533336083 -73.9501641493522,10.4124255391912 -73.9507167909219,10.4122394742217 -73.9511573766455,10.4119569723567 -73.9510513016959,10.412501881188 -73.9509916605894,10.41327525257 -73.951341468362,10.4137748210744</coordinates></LinearRing></outerBoundaryIs></Polygon></MultiGeometry>
  </Placemark>
  <Placemark>
	<Style><LineStyle><color>ff0000ff</color></LineStyle><PolyStyle><fill>0</fill></PolyStyle></Style>
	<ExtendedData><SchemaData schemaUrl="#ParcelsPolygons">
		<SimpleData name="Cod">SING26-3</SimpleData>
		<SimpleData name="Intance">Instance 2</SimpleData>
		<SimpleData name="AreaCor_ha">1.000</SimpleData>
		<SimpleData name="Prod_Name">Nalder Enrique Camacho Cala</SimpleData>
		<SimpleData name="TecSubPack">Cocoa reconversion</SimpleData>
	</SchemaData></ExtendedData>
      <MultiGeometry><Polygon><outerBoundaryIs><LinearRing><coordinates>-74.0652584357389,10.9816849457124 -74.0643964655164,10.9813947222995 -74.0632106080279,10.9808361971839 -74.0629119190396,10.9805343976411 -74.0631041329677,10.9803704849388 -74.0633348282799,10.9804766496124 -74.0653083333333,10.9815194444444 -74.0652584357389,10.9816849457124</coordinates></LinearRing></outerBoundaryIs></Polygon></MultiGeometry>
  </Placemark>
  <Placemark>
	<Style><LineStyle><color>ff0000ff</color></LineStyle><PolyStyle><fill>0</fill></PolyStyle></Style>
	<ExtendedData><SchemaData schemaUrl="#ParcelsPolygons">
		<SimpleData name="Cod">SING30-3</SimpleData>
		<SimpleData name="Intance">Instance 2</SimpleData>
		<SimpleData name="AreaCor_ha">1.000</SimpleData>
		<SimpleData name="Prod_Name">Yudis Camacho Cala</SimpleData>
		<SimpleData name="TecSubPack">Cocoa reconversion (1 year)</SimpleData>
	</SchemaData></ExtendedData>
      <MultiGeometry><Polygon><outerBoundaryIs><LinearRing><coordinates>-74.0631739754857,10.9773431093035 -74.0633289322819,10.9776521461463 -74.0634120350863,10.9778778353462 -74.0633119153801,10.9781576834067 -74.0630511634091,10.9782263122751 -74.0628971903766,10.9784266003388 -74.062661802303,10.9781682442163 -74.061938711251,10.9780703738393 -74.0618431635361,10.9778556535475 -74.0619033493519,10.9774663866503 -74.0622890245234,10.977912701303 -74.062732450165,10.9778432927547 -74.0629182580127,10.9776675545831 -74.0631739754857,10.9773431093035</coordinates></LinearRing></outerBoundaryIs></Polygon></MultiGeometry>
  </Placemark>
  <Placemark>
	<Style><LineStyle><color>ff0000ff</color></LineStyle><PolyStyle><fill>0</fill></PolyStyle></Style>
	<ExtendedData><SchemaData schemaUrl="#ParcelsPolygons">
		<SimpleData name="Cod">PLPC09-6</SimpleData>
		<SimpleData name="Intance">Instance 1</SimpleData>
		<SimpleData name="AreaCor_ha">1.000</SimpleData>
		<SimpleData name="Prod_Name">Marelbis Padilla Ramirez</SimpleData>
		<SimpleData name="TecSubPack">Coffee-planting enrichment</SimpleData>
	</SchemaData></ExtendedData>
      <MultiGeometry><Polygon><outerBoundaryIs><LinearRing><coordinates>-74.0066319785851,10.787600918205 -74.0063472041807,10.7877520010207 -74.005876129487,10.7875961179844 -74.0056931843363,10.7869621996959 -74.0056394727759,10.7866897950333 -74.0055681433814,10.7864337520101 -74.0057954725868,10.7863557604206 -74.0061712961908,10.7867154181119 -74.0064569080822,10.7872172123563 -74.0066319785851,10.787600918205</coordinates></LinearRing></outerBoundaryIs></Polygon></MultiGeometry>
  </Placemark>
  <Placemark>
	<Style><LineStyle><color>ff0000ff</color></LineStyle><PolyStyle><fill>0</fill></PolyStyle></Style>
	<ExtendedData><SchemaData schemaUrl="#ParcelsPolygons">
		<SimpleData name="Cod">FDSR33-1</SimpleData>
		<SimpleData name="Intance">Instance 1</SimpleData>
		<SimpleData name="AreaCor_ha">1.000</SimpleData>
		<SimpleData name="Prod_Name">Denis Esther Torres Rodriguez</SimpleData>
		<SimpleData name="TecSubPack">Coffee establishment</SimpleData>
	</SchemaData></ExtendedData>
      <MultiGeometry><Polygon><outerBoundaryIs><LinearRing><coordinates>-73.9421747229553,10.4149925794091 -73.9418140968572,10.4149780192076 -73.9412184659682,10.4148358780091 -73.9410944643197,10.4146764995926 -73.9411056563699,10.4145117616266 -73.9411852485468,10.4143407131886 -73.9413508663047,10.4142126276444 -73.9417912301914,10.4141879935405 -73.9418511795219,10.4141739147702 -73.9419814197716,10.4141907352091 -73.9420308766549,10.4143399827542 -73.9420970257061,10.4145716994781 -73.9420992423098,10.4146545057909 -73.9421236180742,10.414721754749 -73.9422487090774,10.4147836797031 -73.9421747229553,10.4149925794091</coordinates></LinearRing></outerBoundaryIs></Polygon></MultiGeometry>
  </Placemark>
  <Placemark>
	<Style><LineStyle><color>ff0000ff</color></LineStyle><PolyStyle><fill>0</fill></PolyStyle></Style>
	<ExtendedData><SchemaData schemaUrl="#ParcelsPolygons">
		<SimpleData name="Cod">SPPL09-1</SimpleData>
		<SimpleData name="Intance">Instance 2</SimpleData>
		<SimpleData name="AreaCor_ha">1.000</SimpleData>
		<SimpleData name="Prod_Name">Luis Alfredo Nuñez Coca</SimpleData>
		<SimpleData name="TecSubPack">Cocoa reconversion</SimpleData>
	</SchemaData></ExtendedData>
      <MultiGeometry><Polygon><outerBoundaryIs><LinearRing><coordinates>-74.0627842440828,10.9306488878171 -74.0626537127098,10.9308585409771 -74.0624767032584,10.9308046569716 -74.0624209573821,10.9310190460151 -74.0623510147827,10.9310260103327 -74.062118824443,10.9310789356149 -74.0621495792077,10.9315783674707 -74.0619454737155,10.9316436385619 -74.0618803704109,10.9317761883284 -74.0616687210564,10.9317944202043 -74.0615762892923,10.9317124650314 -74.0617328580333,10.9315252399868 -74.0617007412445,10.9310572030677 -74.061629181001,10.9307944330498 -74.0617829499489,10.9305437794481 -74.0618589526123,10.930321781997 -74.0619529982588,10.9303910663155 -74.0622375280245,10.9305194966194 -74.0623883420394,10.9303634942554 -74.0627842440828,10.9306488878171</coordinates></LinearRing></outerBoundaryIs></Polygon></MultiGeometry>
  </Placemark>
  <Placemark>
	<Style><LineStyle><color>ff0000ff</color></LineStyle><PolyStyle><fill>0</fill></PolyStyle></Style>
	<ExtendedData><SchemaData schemaUrl="#ParcelsPolygons">
		<SimpleData name="Cod">SICR01-1y2</SimpleData>
		<SimpleData name="Intance">Instance 1</SimpleData>
		<SimpleData name="AreaCor_ha">1.000</SimpleData>
		<SimpleData name="Prod_Name">Luis Aurelio Ardila Gonzalez</SimpleData>
		<SimpleData name="TecSubPack">Coffee establishment</SimpleData>
	</SchemaData></ExtendedData>
      <MultiGeometry><Polygon><outerBoundaryIs><LinearRing><coordinates>-74.058558068599,11.0142317127295 -74.0583817765732,11.013989679168 -74.0582531622808,11.0139208633427 -74.0581877860899,11.0137261779329 -74.058065998299,11.0136819185701 -74.0580540380095,11.0135857126067 -74.0579625549347,11.0134207471467 -74.0580315070991,11.0133286183801 -74.0579396809434,11.0131334119563 -74.057979687347,11.0127681306874 -74.0583487638093,11.0127493484539 -74.0584989855537,11.012970641383 -74.0586336127982,11.0136106206044 -74.0587129142823,11.0138838752661 -74.0588059760402,11.0140486903549 -74.058558068599,11.0142317127295</coordinates></LinearRing></outerBoundaryIs></Polygon></MultiGeometry>
  </Placemark>
  <Placemark>
	<Style><LineStyle><color>ff0000ff</color></LineStyle><PolyStyle><fill>0</fill></PolyStyle></Style>
	<ExtendedData><SchemaData schemaUrl="#ParcelsPolygons">
		<SimpleData name="Cod">SIRE06-1</SimpleData>
		<SimpleData name="Intance">Instance 1</SimpleData>
		<SimpleData name="AreaCor_ha">0.500</SimpleData>
		<SimpleData name="Prod_Name">Noel Mora</SimpleData>
		<SimpleData name="TecSubPack">Coffee-planting enrichment</SimpleData>
	</SchemaData></ExtendedData>
      <MultiGeometry><Polygon><outerBoundaryIs><LinearRing><coordinates>-74.0029886895362,10.9836587365586 -74.0028551281792,10.9839124690929 -74.0026620360881,10.9841526369943 -74.0024817663131,10.9843774496849 -74.0024157366093,10.9843874713451 -74.0026080519766,10.9845754589857 -74.0024514958699,10.9845354781068 -74.0023841412831,10.9844281727277 -74.0023205927985,10.9844179547577 -74.0022873956962,10.9844549551129 -74.0022917668342,10.9845002072833 -74.0022430209524,10.9844904839054 -74.0022089408179,10.98445651401 -74.0021864314655,10.9843818995859 -74.0020347671409,10.9843218250358 -74.0022317189742,10.9840128975928 -74.0024647299327,10.9837728638995 -74.0025594788134,10.9837154940441 -74.0027733798094,10.9835575111159 -74.0029886895362,10.9836587365586</coordinates></LinearRing></outerBoundaryIs></Polygon></MultiGeometry>
  </Placemark>
  <Placemark>
	<Style><LineStyle><color>ff0000ff</color></LineStyle><PolyStyle><fill>0</fill></PolyStyle></Style>
	<ExtendedData><SchemaData schemaUrl="#ParcelsPolygons">
		<SimpleData name="Cod">SICO09-1</SimpleData>
		<SimpleData name="Intance">Instance 1</SimpleData>
		<SimpleData name="AreaCor_ha">1.000</SimpleData>
		<SimpleData name="Prod_Name">Yanett Celeste Santiago Fernandez</SimpleData>
		<SimpleData name="TecSubPack">Coffee-planting enrichment (1 year)</SimpleData>
	</SchemaData></ExtendedData>
      <MultiGeometry><Polygon><outerBoundaryIs><LinearRing><coordinates>-74.0713376749959,11.0024539694818 -74.071118202444,11.002380801619 -74.0708569516609,11.0022138932758 -74.0707067357045,11.0021685639133 -74.07028184864,11.0020508547517 -74.0701010470219,11.0020376414167 -74.0699674855642,11.00167558583 -74.0698949345111,11.0015549268918 -74.0698427992665,11.0014285917976 -74.069767068504,11.0012903258332 -74.0698230883296,11.0010632962809 -74.0700837997249,11.0011423665506 -74.0702600672864,11.0014199333391 -74.0703838109632,11.0014999537126 -74.0703464202333,11.00154736896 -74.0704324650926,11.0016365113908 -74.0704885157212,11.0017271198883 -74.0706444266683,11.0017870314064 -74.0707869964938,11.0018168578958 -74.0709097503648,11.0017961636201 -74.0713097188306,11.002132642971 -74.0714920960276,11.0024025690485 -74.0713376749959,11.0024539694818</coordinates></LinearRing></outerBoundaryIs></Polygon></MultiGeometry>
  </Placemark>
  <Placemark>
	<Style><LineStyle><color>ff0000ff</color></LineStyle><PolyStyle><fill>0</fill></PolyStyle></Style>
	<ExtendedData><SchemaData schemaUrl="#ParcelsPolygons">
		<SimpleData name="Cod">RS_01</SimpleData>
		<SimpleData name="Intance">Instance 3</SimpleData>
		<SimpleData name="AreaCor_ha">1.500</SimpleData>
		<SimpleData name="Prod_Name">RioSierra SAS</SimpleData>
		<SimpleData name="TecSubPack">Beekeeping</SimpleData>
	</SchemaData></ExtendedData>
      <MultiGeometry><Polygon><outerBoundaryIs><LinearRing><coordinates>-74.1800601975366,10.6266000253775 -74.1780645096569,10.625682622096 -74.1782353614628,10.625588942001 -74.1784324865375,10.6254458399921 -74.1784508798581,10.625417226335 -74.1787873180628,10.6252090616972 -74.1788425055887,10.6251466269962 -74.1789292869005,10.6252246201163 -74.1790265694873,10.625258397846 -74.1790686517124,10.6253155997357 -74.1792132779661,10.6254169804053 -74.1792790449918,10.6255469943129 -74.1793711051325,10.6256874024961 -74.1794815508393,10.6257757905996 -74.1795446493807,10.6257861729247 -74.1796419417171,10.6258485582022 -74.1797024337967,10.625926559649 -74.1797734339755,10.6259811513257 -74.1798023525766,10.6259811419089 -74.1798260236387,10.6260123426475 -74.1799206949375,10.6260981350267 -74.1799575004436,10.6260981230238 -74.1800389879399,10.6260668879856 -74.1801730520969,10.6260278336335 -74.1804148776129,10.6259107228164 -74.1804516717733,10.6258769016072 -74.1804937526048,10.625928901893 -74.1803519025811,10.6262696405943 -74.1800601975366,10.6266000253775</coordinates></LinearRing></outerBoundaryIs></Polygon></MultiGeometry>
  </Placemark>
</Folder>
</Document></kml>
