<?xml version="1.0" encoding="utf-8" ?>
<kml xmlns="http://www.opengis.net/kml/2.2">
<Document id="root_doc">
<Schema name="CA_GMF_20_21_counties_centroid_Merge" id="CA_GMF_20_21_counties_centroid_Merge">
	<SimpleField name="CNTY_FIPS" type="string"></SimpleField>
	<SimpleField name="Centroid_X" type="float"></SimpleField>
	<SimpleField name="Centroid_Y" type="float"></SimpleField>
	<SimpleField name="FIPS" type="int"></SimpleField>
	<SimpleField name="Field_1" type="string"></SimpleField>
	<SimpleField name="NAME2" type="string"></SimpleField>
	<SimpleField name="Number of Stands" type="int"></SimpleField>
	<SimpleField name="OBJECTID_1" type="int"></SimpleField>
	<SimpleField name="ORIG_FID" type="int"></SimpleField>
	<SimpleField name="STATE_FIPS" type="int"></SimpleField>
	<SimpleField name="STATE_NAME" type="string"></SimpleField>
	<SimpleField name="cohort" type="string"></SimpleField>
</Schema>
<Folder><name>CA_GMF_20_21_counties_centroid_Merge</name>
  <Placemark>
	<name>Allegany</name>
	<ExtendedData><SchemaData schemaUrl="#CA_GMF_20_21_counties_centroid_Merge">
		<SimpleData name="CNTY_FIPS">001</SimpleData>
		<SimpleData name="Centroid_X">-78.69806</SimpleData>
		<SimpleData name="Centroid_Y">39.622007</SimpleData>
		<SimpleData name="FIPS">24001</SimpleData>
		<SimpleData name="Field_1">Allegany</SimpleData>
		<SimpleData name="NAME2">Allegany</SimpleData>
		<SimpleData name="Number of Stands">2</SimpleData>
		<SimpleData name="OBJECTID_1">1</SimpleData>
		<SimpleData name="ORIG_FID">1</SimpleData>
		<SimpleData name="STATE_FIPS">24</SimpleData>
		<SimpleData name="STATE_NAME">Maryland</SimpleData>
		<SimpleData name="cohort">CA-GMF-21</SimpleData>
	</SchemaData></ExtendedData>
      <Point><coordinates>-78.8759930103691,39.6222515270587</coordinates></Point>
  </Placemark>
  <Placemark>
	<name>Carroll</name>
	<ExtendedData><SchemaData schemaUrl="#CA_GMF_20_21_counties_centroid_Merge">
		<SimpleData name="CNTY_FIPS">013</SimpleData>
		<SimpleData name="Centroid_X">-77.025011</SimpleData>
		<SimpleData name="Centroid_Y">39.559563</SimpleData>
		<SimpleData name="FIPS">24013</SimpleData>
		<SimpleData name="Field_1">Carroll</SimpleData>
		<SimpleData name="NAME2">Carroll</SimpleData>
		<SimpleData name="Number of Stands">2</SimpleData>
		<SimpleData name="OBJECTID_1">2</SimpleData>
		<SimpleData name="ORIG_FID">2</SimpleData>
		<SimpleData name="STATE_FIPS">24</SimpleData>
		<SimpleData name="STATE_NAME">Maryland</SimpleData>
		<SimpleData name="cohort">CA-GMF-21</SimpleData>
	</SchemaData></ExtendedData>
      <Point><coordinates>-77.0250111225652,39.5595629942096</coordinates></Point>
  </Placemark>
  <Placemark>
	<name>Garrett</name>
	<ExtendedData><SchemaData schemaUrl="#CA_GMF_20_21_counties_centroid_Merge">
		<SimpleData name="CNTY_FIPS">023</SimpleData>
		<SimpleData name="Centroid_X">-79.274962</SimpleData>
		<SimpleData name="Centroid_Y">39.528104</SimpleData>
		<SimpleData name="FIPS">24023</SimpleData>
		<SimpleData name="Field_1">Garrett</SimpleData>
		<SimpleData name="NAME2">Garrett</SimpleData>
		<SimpleData name="Number of Stands">6</SimpleData>
		<SimpleData name="OBJECTID_1">3</SimpleData>
		<SimpleData name="ORIG_FID">3</SimpleData>
		<SimpleData name="STATE_FIPS">24</SimpleData>
		<SimpleData name="STATE_NAME">Maryland</SimpleData>
		<SimpleData name="cohort">CA-GMF-21</SimpleData>
	</SchemaData></ExtendedData>
      <Point><coordinates>-79.2749619988971,39.5281042027198</coordinates></Point>
  </Placemark>
  <Placemark>
	<name>Bedford</name>
	<ExtendedData><SchemaData schemaUrl="#CA_GMF_20_21_counties_centroid_Merge">
		<SimpleData name="CNTY_FIPS">009</SimpleData>
		<SimpleData name="Centroid_X">-78.491427</SimpleData>
		<SimpleData name="Centroid_Y">40.007293</SimpleData>
		<SimpleData name="FIPS">42009</SimpleData>
		<SimpleData name="Field_1">Bedford</SimpleData>
		<SimpleData name="NAME2">Bedford</SimpleData>
		<SimpleData name="Number of Stands">3</SimpleData>
		<SimpleData name="OBJECTID_1">4</SimpleData>
		<SimpleData name="ORIG_FID">4</SimpleData>
		<SimpleData name="STATE_FIPS">42</SimpleData>
		<SimpleData name="STATE_NAME">Pennsylvania</SimpleData>
		<SimpleData name="cohort">CA-GMF-21</SimpleData>
	</SchemaData></ExtendedData>
      <Point><coordinates>-78.4914272939344,40.0072929992427</coordinates></Point>
  </Placemark>
  <Placemark>
	<name>Carbon</name>
	<ExtendedData><SchemaData schemaUrl="#CA_GMF_20_21_counties_centroid_Merge">
		<SimpleData name="CNTY_FIPS">025</SimpleData>
		<SimpleData name="Centroid_X">-75.711433</SimpleData>
		<SimpleData name="Centroid_Y">40.919278</SimpleData>
		<SimpleData name="FIPS">42025</SimpleData>
		<SimpleData name="Field_1">Carbon</SimpleData>
		<SimpleData name="NAME2">Carbon</SimpleData>
		<SimpleData name="Number of Stands">1</SimpleData>
		<SimpleData name="OBJECTID_1">6</SimpleData>
		<SimpleData name="ORIG_FID">6</SimpleData>
		<SimpleData name="STATE_FIPS">42</SimpleData>
		<SimpleData name="STATE_NAME">Pennsylvania</SimpleData>
		<SimpleData name="cohort">CA-GMF-21</SimpleData>
	</SchemaData></ExtendedData>
      <Point><coordinates>-75.7114334316075,40.9192781031674</coordinates></Point>
  </Placemark>
  <Placemark>
	<name>Centre</name>
	<ExtendedData><SchemaData schemaUrl="#CA_GMF_20_21_counties_centroid_Merge">
		<SimpleData name="CNTY_FIPS">027</SimpleData>
		<SimpleData name="Centroid_X">-77.82528</SimpleData>
		<SimpleData name="Centroid_Y">40.919249</SimpleData>
		<SimpleData name="FIPS">42027</SimpleData>
		<SimpleData name="Field_1">Centre</SimpleData>
		<SimpleData name="NAME2">Centre</SimpleData>
		<SimpleData name="Number of Stands">3</SimpleData>
		<SimpleData name="OBJECTID_1">7</SimpleData>
		<SimpleData name="ORIG_FID">7</SimpleData>
		<SimpleData name="STATE_FIPS">42</SimpleData>
		<SimpleData name="STATE_NAME">Pennsylvania</SimpleData>
		<SimpleData name="cohort">CA-GMF-21</SimpleData>
	</SchemaData></ExtendedData>
      <Point><coordinates>-77.8252804472348,40.919249263708</coordinates></Point>
  </Placemark>
  <Placemark>
	<name>Dauphin</name>
	<ExtendedData><SchemaData schemaUrl="#CA_GMF_20_21_counties_centroid_Merge">
		<SimpleData name="CNTY_FIPS">043</SimpleData>
		<SimpleData name="Centroid_X">-76.779912</SimpleData>
		<SimpleData name="Centroid_Y">40.419657</SimpleData>
		<SimpleData name="FIPS">42043</SimpleData>
		<SimpleData name="Field_1">Dauphin</SimpleData>
		<SimpleData name="NAME2">Dauphin</SimpleData>
		<SimpleData name="Number of Stands">3</SimpleData>
		<SimpleData name="OBJECTID_1">9</SimpleData>
		<SimpleData name="ORIG_FID">9</SimpleData>
		<SimpleData name="STATE_FIPS">42</SimpleData>
		<SimpleData name="STATE_NAME">Pennsylvania</SimpleData>
		<SimpleData name="cohort">CA-GMF-21</SimpleData>
	</SchemaData></ExtendedData>
      <Point><coordinates>-76.7799122348617,40.4196569184</coordinates></Point>
  </Placemark>
  <Placemark>
	<name>Fayette</name>
	<ExtendedData><SchemaData schemaUrl="#CA_GMF_20_21_counties_centroid_Merge">
		<SimpleData name="CNTY_FIPS">051</SimpleData>
		<SimpleData name="Centroid_X">-79.65213</SimpleData>
		<SimpleData name="Centroid_Y">39.919373</SimpleData>
		<SimpleData name="FIPS">42051</SimpleData>
		<SimpleData name="Field_1">Fayette</SimpleData>
		<SimpleData name="NAME2">Fayette</SimpleData>
		<SimpleData name="Number of Stands">2</SimpleData>
		<SimpleData name="OBJECTID_1">10</SimpleData>
		<SimpleData name="ORIG_FID">10</SimpleData>
		<SimpleData name="STATE_FIPS">42</SimpleData>
		<SimpleData name="STATE_NAME">Pennsylvania</SimpleData>
		<SimpleData name="cohort">CA-GMF-21</SimpleData>
	</SchemaData></ExtendedData>
      <Point><coordinates>-79.6521300981255,39.9193729449761</coordinates></Point>
  </Placemark>
  <Placemark>
	<name>Franklin</name>
	<ExtendedData><SchemaData schemaUrl="#CA_GMF_20_21_counties_centroid_Merge">
		<SimpleData name="CNTY_FIPS">055</SimpleData>
		<SimpleData name="Centroid_X">-77.724273</SimpleData>
		<SimpleData name="Centroid_Y">39.927772</SimpleData>
		<SimpleData name="FIPS">42055</SimpleData>
		<SimpleData name="Field_1">Franklin</SimpleData>
		<SimpleData name="NAME2">Franklin</SimpleData>
		<SimpleData name="Number of Stands">1</SimpleData>
		<SimpleData name="OBJECTID_1">11</SimpleData>
		<SimpleData name="ORIG_FID">11</SimpleData>
		<SimpleData name="STATE_FIPS">42</SimpleData>
		<SimpleData name="STATE_NAME">Pennsylvania</SimpleData>
		<SimpleData name="cohort">CA-GMF-21</SimpleData>
	</SchemaData></ExtendedData>
      <Point><coordinates>-77.724272623083,39.9277717792148</coordinates></Point>
  </Placemark>
  <Placemark>
	<name>Fulton</name>
	<ExtendedData><SchemaData schemaUrl="#CA_GMF_20_21_counties_centroid_Merge">
		<SimpleData name="CNTY_FIPS">057</SimpleData>
		<SimpleData name="Centroid_X">-78.115122</SimpleData>
		<SimpleData name="Centroid_Y">39.924788</SimpleData>
		<SimpleData name="FIPS">42057</SimpleData>
		<SimpleData name="Field_1">Fulton</SimpleData>
		<SimpleData name="NAME2">Fulton</SimpleData>
		<SimpleData name="Number of Stands">2</SimpleData>
		<SimpleData name="OBJECTID_1">12</SimpleData>
		<SimpleData name="ORIG_FID">12</SimpleData>
		<SimpleData name="STATE_FIPS">42</SimpleData>
		<SimpleData name="STATE_NAME">Pennsylvania</SimpleData>
		<SimpleData name="cohort">CA-GMF-21</SimpleData>
	</SchemaData></ExtendedData>
      <Point><coordinates>-78.1151224125692,39.924787585849</coordinates></Point>
  </Placemark>
  <Placemark>
	<name>Huntingdon</name>
	<ExtendedData><SchemaData schemaUrl="#CA_GMF_20_21_counties_centroid_Merge">
		<SimpleData name="CNTY_FIPS">061</SimpleData>
		<SimpleData name="Centroid_X">-77.983041</SimpleData>
		<SimpleData name="Centroid_Y">40.416032</SimpleData>
		<SimpleData name="FIPS">42061</SimpleData>
		<SimpleData name="Field_1">Huntingdon</SimpleData>
		<SimpleData name="NAME2">Huntingdon</SimpleData>
		<SimpleData name="Number of Stands">3</SimpleData>
		<SimpleData name="OBJECTID_1">13</SimpleData>
		<SimpleData name="ORIG_FID">13</SimpleData>
		<SimpleData name="STATE_FIPS">42</SimpleData>
		<SimpleData name="STATE_NAME">Pennsylvania</SimpleData>
		<SimpleData name="cohort">CA-GMF-21</SimpleData>
	</SchemaData></ExtendedData>
      <Point><coordinates>-77.9830413866507,40.4160322368662</coordinates></Point>
  </Placemark>
  <Placemark>
	<name>Indiana</name>
	<ExtendedData><SchemaData schemaUrl="#CA_GMF_20_21_counties_centroid_Merge">
		<SimpleData name="CNTY_FIPS">063</SimpleData>
		<SimpleData name="Centroid_X">-79.093578</SimpleData>
		<SimpleData name="Centroid_Y">40.652888</SimpleData>
		<SimpleData name="FIPS">42063</SimpleData>
		<SimpleData name="Field_1">Indiana</SimpleData>
		<SimpleData name="NAME2">Indiana</SimpleData>
		<SimpleData name="Number of Stands">2</SimpleData>
		<SimpleData name="OBJECTID_1">14</SimpleData>
		<SimpleData name="ORIG_FID">14</SimpleData>
		<SimpleData name="STATE_FIPS">42</SimpleData>
		<SimpleData name="STATE_NAME">Pennsylvania</SimpleData>
		<SimpleData name="cohort">CA-GMF-21</SimpleData>
	</SchemaData></ExtendedData>
      <Point><coordinates>-79.0935782453397,40.6528881788131</coordinates></Point>
  </Placemark>
  <Placemark>
	<name>Luzerne</name>
	<ExtendedData><SchemaData schemaUrl="#CA_GMF_20_21_counties_centroid_Merge">
		<SimpleData name="CNTY_FIPS">079</SimpleData>
		<SimpleData name="Centroid_X">-75.992349</SimpleData>
		<SimpleData name="Centroid_Y">41.178282</SimpleData>
		<SimpleData name="FIPS">42079</SimpleData>
		<SimpleData name="Field_1">Luzerne</SimpleData>
		<SimpleData name="NAME2">Luzerne</SimpleData>
		<SimpleData name="Number of Stands">1</SimpleData>
		<SimpleData name="OBJECTID_1">15</SimpleData>
		<SimpleData name="ORIG_FID">15</SimpleData>
		<SimpleData name="STATE_FIPS">42</SimpleData>
		<SimpleData name="STATE_NAME">Pennsylvania</SimpleData>
		<SimpleData name="cohort">CA-GMF-21</SimpleData>
	</SchemaData></ExtendedData>
      <Point><coordinates>-75.9923489745255,41.1782823434197</coordinates></Point>
  </Placemark>
  <Placemark>
	<name>McKean</name>
	<ExtendedData><SchemaData schemaUrl="#CA_GMF_20_21_counties_centroid_Merge">
		<SimpleData name="CNTY_FIPS">083</SimpleData>
		<SimpleData name="Centroid_X">-78.571475</SimpleData>
		<SimpleData name="Centroid_Y">41.810308</SimpleData>
		<SimpleData name="FIPS">42083</SimpleData>
		<SimpleData name="Field_1">McKean</SimpleData>
		<SimpleData name="NAME2">McKean</SimpleData>
		<SimpleData name="Number of Stands">1</SimpleData>
		<SimpleData name="OBJECTID_1">16</SimpleData>
		<SimpleData name="ORIG_FID">16</SimpleData>
		<SimpleData name="STATE_FIPS">42</SimpleData>
		<SimpleData name="STATE_NAME">Pennsylvania</SimpleData>
		<SimpleData name="cohort">CA-GMF-21</SimpleData>
	</SchemaData></ExtendedData>
      <Point><coordinates>-78.5714747603519,41.8103077605565</coordinates></Point>
  </Placemark>
  <Placemark>
	<name>Monroe</name>
	<ExtendedData><SchemaData schemaUrl="#CA_GMF_20_21_counties_centroid_Merge">
		<SimpleData name="CNTY_FIPS">089</SimpleData>
		<SimpleData name="Centroid_X">-75.34121</SimpleData>
		<SimpleData name="Centroid_Y">41.060827</SimpleData>
		<SimpleData name="FIPS">42089</SimpleData>
		<SimpleData name="Field_1">Monroe</SimpleData>
		<SimpleData name="NAME2">Monroe</SimpleData>
		<SimpleData name="Number of Stands">2</SimpleData>
		<SimpleData name="OBJECTID_1">17</SimpleData>
		<SimpleData name="ORIG_FID">17</SimpleData>
		<SimpleData name="STATE_FIPS">42</SimpleData>
		<SimpleData name="STATE_NAME">Pennsylvania</SimpleData>
		<SimpleData name="cohort">CA-GMF-21</SimpleData>
	</SchemaData></ExtendedData>
      <Point><coordinates>-75.341209729945,41.060826746422</coordinates></Point>
  </Placemark>
  <Placemark>
	<name>Perry</name>
	<ExtendedData><SchemaData schemaUrl="#CA_GMF_20_21_counties_centroid_Merge">
		<SimpleData name="CNTY_FIPS">099</SimpleData>
		<SimpleData name="Centroid_X">-77.25937</SimpleData>
		<SimpleData name="Centroid_Y">40.404068</SimpleData>
		<SimpleData name="FIPS">42099</SimpleData>
		<SimpleData name="Field_1">Perry</SimpleData>
		<SimpleData name="NAME2">Perry</SimpleData>
		<SimpleData name="Number of Stands">9</SimpleData>
		<SimpleData name="OBJECTID_1">18</SimpleData>
		<SimpleData name="ORIG_FID">18</SimpleData>
		<SimpleData name="STATE_FIPS">42</SimpleData>
		<SimpleData name="STATE_NAME">Pennsylvania</SimpleData>
		<SimpleData name="cohort">CA-GMF-21</SimpleData>
	</SchemaData></ExtendedData>
      <Point><coordinates>-77.2593701382212,40.4040684450707</coordinates></Point>
  </Placemark>
  <Placemark>
	<name>Schuylkill</name>
	<ExtendedData><SchemaData schemaUrl="#CA_GMF_20_21_counties_centroid_Merge">
		<SimpleData name="CNTY_FIPS">107</SimpleData>
		<SimpleData name="Centroid_X">-76.22366</SimpleData>
		<SimpleData name="Centroid_Y">40.707423</SimpleData>
		<SimpleData name="FIPS">42107</SimpleData>
		<SimpleData name="Field_1">Schuylkill</SimpleData>
		<SimpleData name="NAME2">Schuylkill</SimpleData>
		<SimpleData name="Number of Stands">1</SimpleData>
		<SimpleData name="OBJECTID_1">19</SimpleData>
		<SimpleData name="ORIG_FID">19</SimpleData>
		<SimpleData name="STATE_FIPS">42</SimpleData>
		<SimpleData name="STATE_NAME">Pennsylvania</SimpleData>
		<SimpleData name="cohort">CA-GMF-21</SimpleData>
	</SchemaData></ExtendedData>
      <Point><coordinates>-76.2236600007084,40.707423347376</coordinates></Point>
  </Placemark>
  <Placemark>
	<name>Somerset</name>
	<ExtendedData><SchemaData schemaUrl="#CA_GMF_20_21_counties_centroid_Merge">
		<SimpleData name="CNTY_FIPS">111</SimpleData>
		<SimpleData name="Centroid_X">-79.031253</SimpleData>
		<SimpleData name="Centroid_Y">39.971384</SimpleData>
		<SimpleData name="FIPS">42111</SimpleData>
		<SimpleData name="Field_1">Somerset</SimpleData>
		<SimpleData name="NAME2">Somerset</SimpleData>
		<SimpleData name="Number of Stands">4</SimpleData>
		<SimpleData name="OBJECTID_1">20</SimpleData>
		<SimpleData name="ORIG_FID">20</SimpleData>
		<SimpleData name="STATE_FIPS">42</SimpleData>
		<SimpleData name="STATE_NAME">Pennsylvania</SimpleData>
		<SimpleData name="cohort">CA-GMF-21</SimpleData>
	</SchemaData></ExtendedData>
      <Point><coordinates>-79.0312531123412,39.9713840448082</coordinates></Point>
  </Placemark>
  <Placemark>
	<name>Sullivan</name>
	<ExtendedData><SchemaData schemaUrl="#CA_GMF_20_21_counties_centroid_Merge">
		<SimpleData name="CNTY_FIPS">113</SimpleData>
		<SimpleData name="Centroid_X">-76.515124</SimpleData>
		<SimpleData name="Centroid_Y">41.448021</SimpleData>
		<SimpleData name="FIPS">42113</SimpleData>
		<SimpleData name="Field_1">Sullivan</SimpleData>
		<SimpleData name="NAME2">Sullivan</SimpleData>
		<SimpleData name="Number of Stands">1</SimpleData>
		<SimpleData name="OBJECTID_1">21</SimpleData>
		<SimpleData name="ORIG_FID">21</SimpleData>
		<SimpleData name="STATE_FIPS">42</SimpleData>
		<SimpleData name="STATE_NAME">Pennsylvania</SimpleData>
		<SimpleData name="cohort">CA-GMF-21</SimpleData>
	</SchemaData></ExtendedData>
      <Point><coordinates>-76.5151237143879,41.4480214096235</coordinates></Point>
  </Placemark>
  <Placemark>
	<name>Tioga</name>
	<ExtendedData><SchemaData schemaUrl="#CA_GMF_20_21_counties_centroid_Merge">
		<SimpleData name="CNTY_FIPS">117</SimpleData>
		<SimpleData name="Centroid_X">-77.258184</SimpleData>
		<SimpleData name="Centroid_Y">41.773266</SimpleData>
		<SimpleData name="FIPS">42117</SimpleData>
		<SimpleData name="Field_1">Tioga</SimpleData>
		<SimpleData name="NAME2">Tioga</SimpleData>
		<SimpleData name="Number of Stands">1</SimpleData>
		<SimpleData name="OBJECTID_1">22</SimpleData>
		<SimpleData name="ORIG_FID">22</SimpleData>
		<SimpleData name="STATE_FIPS">42</SimpleData>
		<SimpleData name="STATE_NAME">Pennsylvania</SimpleData>
		<SimpleData name="cohort">CA-GMF-21</SimpleData>
	</SchemaData></ExtendedData>
      <Point><coordinates>-77.258183947731,41.7732660092808</coordinates></Point>
  </Placemark>
  <Placemark>
	<name>Washington</name>
	<ExtendedData><SchemaData schemaUrl="#CA_GMF_20_21_counties_centroid_Merge">
		<SimpleData name="CNTY_FIPS">125</SimpleData>
		<SimpleData name="Centroid_X">-80.252018</SimpleData>
		<SimpleData name="Centroid_Y">40.191025</SimpleData>
		<SimpleData name="FIPS">42125</SimpleData>
		<SimpleData name="Field_1">Washington</SimpleData>
		<SimpleData name="NAME2">Washington</SimpleData>
		<SimpleData name="Number of Stands">2</SimpleData>
		<SimpleData name="OBJECTID_1">23</SimpleData>
		<SimpleData name="ORIG_FID">23</SimpleData>
		<SimpleData name="STATE_FIPS">42</SimpleData>
		<SimpleData name="STATE_NAME">Pennsylvania</SimpleData>
		<SimpleData name="cohort">CA-GMF-21</SimpleData>
	</SchemaData></ExtendedData>
      <Point><coordinates>-80.2520183993296,40.1910254159593</coordinates></Point>
  </Placemark>
  <Placemark>
	<name>Wayne</name>
	<ExtendedData><SchemaData schemaUrl="#CA_GMF_20_21_counties_centroid_Merge">
		<SimpleData name="CNTY_FIPS">127</SimpleData>
		<SimpleData name="Centroid_X">-75.305532</SimpleData>
		<SimpleData name="Centroid_Y">41.649611</SimpleData>
		<SimpleData name="FIPS">42127</SimpleData>
		<SimpleData name="Field_1">Wayne</SimpleData>
		<SimpleData name="NAME2">Wayne</SimpleData>
		<SimpleData name="Number of Stands">1</SimpleData>
		<SimpleData name="OBJECTID_1">24</SimpleData>
		<SimpleData name="ORIG_FID">24</SimpleData>
		<SimpleData name="STATE_FIPS">42</SimpleData>
		<SimpleData name="STATE_NAME">Pennsylvania</SimpleData>
		<SimpleData name="cohort">CA-GMF-21</SimpleData>
	</SchemaData></ExtendedData>
      <Point><coordinates>-75.3055323149644,41.6496111902666</coordinates></Point>
  </Placemark>
  <Placemark>
	<name>Westmoreland</name>
	<ExtendedData><SchemaData schemaUrl="#CA_GMF_20_21_counties_centroid_Merge">
		<SimpleData name="CNTY_FIPS">129</SimpleData>
		<SimpleData name="Centroid_X">-79.47158</SimpleData>
		<SimpleData name="Centroid_Y">40.310245</SimpleData>
		<SimpleData name="FIPS">42129</SimpleData>
		<SimpleData name="Field_1">Westmoreland</SimpleData>
		<SimpleData name="NAME2">Westmoreland</SimpleData>
		<SimpleData name="Number of Stands">5</SimpleData>
		<SimpleData name="OBJECTID_1">25</SimpleData>
		<SimpleData name="ORIG_FID">25</SimpleData>
		<SimpleData name="STATE_FIPS">42</SimpleData>
		<SimpleData name="STATE_NAME">Pennsylvania</SimpleData>
		<SimpleData name="cohort">CA-GMF-21</SimpleData>
	</SchemaData></ExtendedData>
      <Point><coordinates>-79.4715799702394,40.3102447543604</coordinates></Point>
  </Placemark>
  <Placemark>
	<name>Greenbrier</name>
	<ExtendedData><SchemaData schemaUrl="#CA_GMF_20_21_counties_centroid_Merge">
		<SimpleData name="CNTY_FIPS">025</SimpleData>
		<SimpleData name="Centroid_X">-80.448345</SimpleData>
		<SimpleData name="Centroid_Y">37.947497</SimpleData>
		<SimpleData name="FIPS">54025</SimpleData>
		<SimpleData name="Field_1">Greenbrier</SimpleData>
		<SimpleData name="NAME2">Greenbrier</SimpleData>
		<SimpleData name="Number of Stands">1</SimpleData>
		<SimpleData name="OBJECTID_1">26</SimpleData>
		<SimpleData name="ORIG_FID">26</SimpleData>
		<SimpleData name="STATE_FIPS">54</SimpleData>
		<SimpleData name="STATE_NAME">West Virginia</SimpleData>
		<SimpleData name="cohort">CA-GMF-21</SimpleData>
	</SchemaData></ExtendedData>
      <Point><coordinates>-80.4483448797124,37.9474968744654</coordinates></Point>
  </Placemark>
  <Placemark>
	<name>Hampshire</name>
	<ExtendedData><SchemaData schemaUrl="#CA_GMF_20_21_counties_centroid_Merge">
		<SimpleData name="CNTY_FIPS">027</SimpleData>
		<SimpleData name="Centroid_X">-78.614139</SimpleData>
		<SimpleData name="Centroid_Y">39.318513</SimpleData>
		<SimpleData name="FIPS">54027</SimpleData>
		<SimpleData name="Field_1">Hampshire</SimpleData>
		<SimpleData name="NAME2">Hampshire</SimpleData>
		<SimpleData name="Number of Stands">1</SimpleData>
		<SimpleData name="OBJECTID_1">27</SimpleData>
		<SimpleData name="ORIG_FID">27</SimpleData>
		<SimpleData name="STATE_FIPS">54</SimpleData>
		<SimpleData name="STATE_NAME">West Virginia</SimpleData>
		<SimpleData name="cohort">CA-GMF-21</SimpleData>
	</SchemaData></ExtendedData>
      <Point><coordinates>-78.6141391665892,39.318513390355</coordinates></Point>
  </Placemark>
  <Placemark>
	<name>Hardy</name>
	<ExtendedData><SchemaData schemaUrl="#CA_GMF_20_21_counties_centroid_Merge">
		<SimpleData name="CNTY_FIPS">031</SimpleData>
		<SimpleData name="Centroid_X">-78.854119</SimpleData>
		<SimpleData name="Centroid_Y">39.008737</SimpleData>
		<SimpleData name="FIPS">54031</SimpleData>
		<SimpleData name="Field_1">Hardy</SimpleData>
		<SimpleData name="NAME2">Hardy</SimpleData>
		<SimpleData name="Number of Stands">1</SimpleData>
		<SimpleData name="OBJECTID_1">28</SimpleData>
		<SimpleData name="ORIG_FID">28</SimpleData>
		<SimpleData name="STATE_FIPS">54</SimpleData>
		<SimpleData name="STATE_NAME">West Virginia</SimpleData>
		<SimpleData name="cohort">CA-GMF-21</SimpleData>
	</SchemaData></ExtendedData>
      <Point><coordinates>-78.8541187112095,39.0087365282445</coordinates></Point>
  </Placemark>
  <Placemark>
	<name>Kanawha</name>
	<ExtendedData><SchemaData schemaUrl="#CA_GMF_20_21_counties_centroid_Merge">
		<SimpleData name="CNTY_FIPS">039</SimpleData>
		<SimpleData name="Centroid_X">-81.529361</SimpleData>
		<SimpleData name="Centroid_Y">38.337459</SimpleData>
		<SimpleData name="FIPS">54039</SimpleData>
		<SimpleData name="Field_1">Kanawha</SimpleData>
		<SimpleData name="NAME2">Kanawha</SimpleData>
		<SimpleData name="Number of Stands">1</SimpleData>
		<SimpleData name="OBJECTID_1">29</SimpleData>
		<SimpleData name="ORIG_FID">29</SimpleData>
		<SimpleData name="STATE_FIPS">54</SimpleData>
		<SimpleData name="STATE_NAME">West Virginia</SimpleData>
		<SimpleData name="cohort">CA-GMF-21</SimpleData>
	</SchemaData></ExtendedData>
      <Point><coordinates>-81.529360752097,38.3374594584684</coordinates></Point>
  </Placemark>
  <Placemark>
	<name>Lewis</name>
	<ExtendedData><SchemaData schemaUrl="#CA_GMF_20_21_counties_centroid_Merge">
		<SimpleData name="CNTY_FIPS">041</SimpleData>
		<SimpleData name="Centroid_X">-80.504606</SimpleData>
		<SimpleData name="Centroid_Y">38.993476</SimpleData>
		<SimpleData name="FIPS">54041</SimpleData>
		<SimpleData name="Field_1">Lewis</SimpleData>
		<SimpleData name="NAME2">Lewis</SimpleData>
		<SimpleData name="Number of Stands">1</SimpleData>
		<SimpleData name="OBJECTID_1">30</SimpleData>
		<SimpleData name="ORIG_FID">30</SimpleData>
		<SimpleData name="STATE_FIPS">54</SimpleData>
		<SimpleData name="STATE_NAME">West Virginia</SimpleData>
		<SimpleData name="cohort">CA-GMF-21</SimpleData>
	</SchemaData></ExtendedData>
      <Point><coordinates>-80.5046060307437,38.9934762220265</coordinates></Point>
  </Placemark>
  <Placemark>
	<name>Nicholas</name>
	<ExtendedData><SchemaData schemaUrl="#CA_GMF_20_21_counties_centroid_Merge">
		<SimpleData name="CNTY_FIPS">067</SimpleData>
		<SimpleData name="Centroid_X">-80.801177</SimpleData>
		<SimpleData name="Centroid_Y">38.293323</SimpleData>
		<SimpleData name="FIPS">54067</SimpleData>
		<SimpleData name="Field_1">Nicholas</SimpleData>
		<SimpleData name="NAME2">Nicholas</SimpleData>
		<SimpleData name="Number of Stands">2</SimpleData>
		<SimpleData name="OBJECTID_1">31</SimpleData>
		<SimpleData name="ORIG_FID">31</SimpleData>
		<SimpleData name="STATE_FIPS">54</SimpleData>
		<SimpleData name="STATE_NAME">West Virginia</SimpleData>
		<SimpleData name="cohort">CA-GMF-21</SimpleData>
	</SchemaData></ExtendedData>
      <Point><coordinates>-80.801177293797,38.2933233881454</coordinates></Point>
  </Placemark>
  <Placemark>
	<name>Pendleton</name>
	<ExtendedData><SchemaData schemaUrl="#CA_GMF_20_21_counties_centroid_Merge">
		<SimpleData name="CNTY_FIPS">071</SimpleData>
		<SimpleData name="Centroid_X">-79.351339</SimpleData>
		<SimpleData name="Centroid_Y">38.681014</SimpleData>
		<SimpleData name="FIPS">54071</SimpleData>
		<SimpleData name="Field_1">Pendleton</SimpleData>
		<SimpleData name="NAME2">Pendleton</SimpleData>
		<SimpleData name="Number of Stands">1</SimpleData>
		<SimpleData name="OBJECTID_1">32</SimpleData>
		<SimpleData name="ORIG_FID">32</SimpleData>
		<SimpleData name="STATE_FIPS">54</SimpleData>
		<SimpleData name="STATE_NAME">West Virginia</SimpleData>
		<SimpleData name="cohort">CA-GMF-21</SimpleData>
	</SchemaData></ExtendedData>
      <Point><coordinates>-79.3513390064899,38.6810141434666</coordinates></Point>
  </Placemark>
  <Placemark>
	<name>Randolph</name>
	<ExtendedData><SchemaData schemaUrl="#CA_GMF_20_21_counties_centroid_Merge">
		<SimpleData name="CNTY_FIPS">083</SimpleData>
		<SimpleData name="Centroid_X">-79.877833</SimpleData>
		<SimpleData name="Centroid_Y">38.774126</SimpleData>
		<SimpleData name="FIPS">54083</SimpleData>
		<SimpleData name="Field_1">Randolph</SimpleData>
		<SimpleData name="NAME2">Randolph</SimpleData>
		<SimpleData name="Number of Stands">2</SimpleData>
		<SimpleData name="OBJECTID_1">33</SimpleData>
		<SimpleData name="ORIG_FID">33</SimpleData>
		<SimpleData name="STATE_FIPS">54</SimpleData>
		<SimpleData name="STATE_NAME">West Virginia</SimpleData>
		<SimpleData name="cohort">CA-GMF-21</SimpleData>
	</SchemaData></ExtendedData>
      <Point><coordinates>-79.8778331229003,38.7741256664443</coordinates></Point>
  </Placemark>
  <Placemark>
	<name>Summers</name>
	<ExtendedData><SchemaData schemaUrl="#CA_GMF_20_21_counties_centroid_Merge">
		<SimpleData name="CNTY_FIPS">089</SimpleData>
		<SimpleData name="Centroid_X">-80.853236</SimpleData>
		<SimpleData name="Centroid_Y">37.660509</SimpleData>
		<SimpleData name="FIPS">54089</SimpleData>
		<SimpleData name="Field_1">Summers</SimpleData>
		<SimpleData name="NAME2">Summers</SimpleData>
		<SimpleData name="Number of Stands">2</SimpleData>
		<SimpleData name="OBJECTID_1">34</SimpleData>
		<SimpleData name="ORIG_FID">34</SimpleData>
		<SimpleData name="STATE_FIPS">54</SimpleData>
		<SimpleData name="STATE_NAME">West Virginia</SimpleData>
		<SimpleData name="cohort">CA-GMF-21</SimpleData>
	</SchemaData></ExtendedData>
      <Point><coordinates>-80.759633925765,37.7102776783583</coordinates></Point>
  </Placemark>
  <Placemark>
	<name>Tucker</name>
	<ExtendedData><SchemaData schemaUrl="#CA_GMF_20_21_counties_centroid_Merge">
		<SimpleData name="CNTY_FIPS">093</SimpleData>
		<SimpleData name="Centroid_X">-79.565622</SimpleData>
		<SimpleData name="Centroid_Y">39.112624</SimpleData>
		<SimpleData name="FIPS">54093</SimpleData>
		<SimpleData name="Field_1">Tucker</SimpleData>
		<SimpleData name="NAME2">Tucker</SimpleData>
		<SimpleData name="Number of Stands">1</SimpleData>
		<SimpleData name="OBJECTID_1">35</SimpleData>
		<SimpleData name="ORIG_FID">35</SimpleData>
		<SimpleData name="STATE_FIPS">54</SimpleData>
		<SimpleData name="STATE_NAME">West Virginia</SimpleData>
		<SimpleData name="cohort">CA-GMF-21</SimpleData>
	</SchemaData></ExtendedData>
      <Point><coordinates>-79.565622488487,39.112623939319</coordinates></Point>
  </Placemark>
  <Placemark>
	<name>Wyoming</name>
	<ExtendedData><SchemaData schemaUrl="#CA_GMF_20_21_counties_centroid_Merge">
		<SimpleData name="CNTY_FIPS">109</SimpleData>
		<SimpleData name="Centroid_X">-81.547882</SimpleData>
		<SimpleData name="Centroid_Y">37.60812</SimpleData>
		<SimpleData name="FIPS">54109</SimpleData>
		<SimpleData name="Field_1">Wyoming</SimpleData>
		<SimpleData name="NAME2">Wyoming</SimpleData>
		<SimpleData name="Number of Stands">1</SimpleData>
		<SimpleData name="OBJECTID_1">36</SimpleData>
		<SimpleData name="ORIG_FID">36</SimpleData>
		<SimpleData name="STATE_FIPS">54</SimpleData>
		<SimpleData name="STATE_NAME">West Virginia</SimpleData>
		<SimpleData name="cohort">CA-GMF-21</SimpleData>
	</SchemaData></ExtendedData>
      <Point><coordinates>-81.5367144104417,37.6342339118523</coordinates></Point>
  </Placemark>
  <Placemark>
	<name>Cameron</name>
	<ExtendedData><SchemaData schemaUrl="#CA_GMF_20_21_counties_centroid_Merge">
		<SimpleData name="CNTY_FIPS">023</SimpleData>
		<SimpleData name="Centroid_X">-78.209439</SimpleData>
		<SimpleData name="Centroid_Y">41.43874</SimpleData>
		<SimpleData name="FIPS">42023</SimpleData>
		<SimpleData name="Field_1">Cameron</SimpleData>
		<SimpleData name="NAME2">Cameron</SimpleData>
		<SimpleData name="Number of Stands">4</SimpleData>
		<SimpleData name="OBJECTID_1">37</SimpleData>
		<SimpleData name="ORIG_FID">1</SimpleData>
		<SimpleData name="STATE_FIPS">42</SimpleData>
		<SimpleData name="STATE_NAME">Pennsylvania</SimpleData>
		<SimpleData name="cohort">CA-GMF-20</SimpleData>
	</SchemaData></ExtendedData>
      <Point><coordinates>-78.1028145356623,41.3710700230266</coordinates></Point>
  </Placemark>
  <Placemark>
	<name>Centre</name>
	<ExtendedData><SchemaData schemaUrl="#CA_GMF_20_21_counties_centroid_Merge">
		<SimpleData name="CNTY_FIPS">027</SimpleData>
		<SimpleData name="Centroid_X">-77.82528</SimpleData>
		<SimpleData name="Centroid_Y">40.919249</SimpleData>
		<SimpleData name="FIPS">42027</SimpleData>
		<SimpleData name="Field_1">Centre</SimpleData>
		<SimpleData name="NAME2">Centre</SimpleData>
		<SimpleData name="Number of Stands">8</SimpleData>
		<SimpleData name="OBJECTID_1">38</SimpleData>
		<SimpleData name="ORIG_FID">2</SimpleData>
		<SimpleData name="STATE_FIPS">42</SimpleData>
		<SimpleData name="STATE_NAME">Pennsylvania</SimpleData>
		<SimpleData name="cohort">CA-GMF-20</SimpleData>
	</SchemaData></ExtendedData>
      <Point><coordinates>-77.8252804472348,40.919249263708</coordinates></Point>
  </Placemark>
  <Placemark>
	<name>Cumberland</name>
	<ExtendedData><SchemaData schemaUrl="#CA_GMF_20_21_counties_centroid_Merge">
		<SimpleData name="CNTY_FIPS">041</SimpleData>
		<SimpleData name="Centroid_X">-77.268959</SimpleData>
		<SimpleData name="Centroid_Y">40.167509</SimpleData>
		<SimpleData name="FIPS">42041</SimpleData>
		<SimpleData name="Field_1">Cumberland</SimpleData>
		<SimpleData name="NAME2">Cumberland</SimpleData>
		<SimpleData name="Number of Stands">1</SimpleData>
		<SimpleData name="OBJECTID_1">39</SimpleData>
		<SimpleData name="ORIG_FID">4</SimpleData>
		<SimpleData name="STATE_FIPS">42</SimpleData>
		<SimpleData name="STATE_NAME">Pennsylvania</SimpleData>
		<SimpleData name="cohort">CA-GMF-20</SimpleData>
	</SchemaData></ExtendedData>
      <Point><coordinates>-77.2689585120257,40.167509458364</coordinates></Point>
  </Placemark>
  <Placemark>
	<name>Dauphin</name>
	<ExtendedData><SchemaData schemaUrl="#CA_GMF_20_21_counties_centroid_Merge">
		<SimpleData name="CNTY_FIPS">043</SimpleData>
		<SimpleData name="Centroid_X">-76.779912</SimpleData>
		<SimpleData name="Centroid_Y">40.419657</SimpleData>
		<SimpleData name="FIPS">42043</SimpleData>
		<SimpleData name="Field_1">Dauphin</SimpleData>
		<SimpleData name="NAME2">Dauphin</SimpleData>
		<SimpleData name="Number of Stands">3</SimpleData>
		<SimpleData name="OBJECTID_1">40</SimpleData>
		<SimpleData name="ORIG_FID">5</SimpleData>
		<SimpleData name="STATE_FIPS">42</SimpleData>
		<SimpleData name="STATE_NAME">Pennsylvania</SimpleData>
		<SimpleData name="cohort">CA-GMF-20</SimpleData>
	</SchemaData></ExtendedData>
      <Point><coordinates>-76.7799122348617,40.4196569184</coordinates></Point>
  </Placemark>
  <Placemark>
	<name>Elk</name>
	<ExtendedData><SchemaData schemaUrl="#CA_GMF_20_21_counties_centroid_Merge">
		<SimpleData name="CNTY_FIPS">047</SimpleData>
		<SimpleData name="Centroid_X">-78.649731</SimpleData>
		<SimpleData name="Centroid_Y">41.428133</SimpleData>
		<SimpleData name="FIPS">42047</SimpleData>
		<SimpleData name="Field_1">Elk</SimpleData>
		<SimpleData name="NAME2">Elk</SimpleData>
		<SimpleData name="Number of Stands">4</SimpleData>
		<SimpleData name="OBJECTID_1">41</SimpleData>
		<SimpleData name="ORIG_FID">6</SimpleData>
		<SimpleData name="STATE_FIPS">42</SimpleData>
		<SimpleData name="STATE_NAME">Pennsylvania</SimpleData>
		<SimpleData name="cohort">CA-GMF-20</SimpleData>
	</SchemaData></ExtendedData>
      <Point><coordinates>-78.6497308788769,41.428132713717</coordinates></Point>
  </Placemark>
  <Placemark>
	<name>Huntingdon</name>
	<ExtendedData><SchemaData schemaUrl="#CA_GMF_20_21_counties_centroid_Merge">
		<SimpleData name="CNTY_FIPS">061</SimpleData>
		<SimpleData name="Centroid_X">-77.983041</SimpleData>
		<SimpleData name="Centroid_Y">40.416032</SimpleData>
		<SimpleData name="FIPS">42061</SimpleData>
		<SimpleData name="Field_1">Huntingdon</SimpleData>
		<SimpleData name="NAME2">Huntingdon</SimpleData>
		<SimpleData name="Number of Stands">17</SimpleData>
		<SimpleData name="OBJECTID_1">42</SimpleData>
		<SimpleData name="ORIG_FID">7</SimpleData>
		<SimpleData name="STATE_FIPS">42</SimpleData>
		<SimpleData name="STATE_NAME">Pennsylvania</SimpleData>
		<SimpleData name="cohort">CA-GMF-20</SimpleData>
	</SchemaData></ExtendedData>
      <Point><coordinates>-77.9830413866507,40.4160322368662</coordinates></Point>
  </Placemark>
  <Placemark>
	<name>Juniata</name>
	<ExtendedData><SchemaData schemaUrl="#CA_GMF_20_21_counties_centroid_Merge">
		<SimpleData name="CNTY_FIPS">067</SimpleData>
		<SimpleData name="Centroid_X">-77.406067</SimpleData>
		<SimpleData name="Centroid_Y">40.53425</SimpleData>
		<SimpleData name="FIPS">42067</SimpleData>
		<SimpleData name="Field_1">Juniata</SimpleData>
		<SimpleData name="NAME2">Juniata</SimpleData>
		<SimpleData name="Number of Stands">7</SimpleData>
		<SimpleData name="OBJECTID_1">43</SimpleData>
		<SimpleData name="ORIG_FID">8</SimpleData>
		<SimpleData name="STATE_FIPS">42</SimpleData>
		<SimpleData name="STATE_NAME">Pennsylvania</SimpleData>
		<SimpleData name="cohort">CA-GMF-20</SimpleData>
	</SchemaData></ExtendedData>
      <Point><coordinates>-77.3475158485775,40.5866756795061</coordinates></Point>
  </Placemark>
  <Placemark>
	<name>McKean</name>
	<ExtendedData><SchemaData schemaUrl="#CA_GMF_20_21_counties_centroid_Merge">
		<SimpleData name="CNTY_FIPS">083</SimpleData>
		<SimpleData name="Centroid_X">-78.571475</SimpleData>
		<SimpleData name="Centroid_Y">41.810308</SimpleData>
		<SimpleData name="FIPS">42083</SimpleData>
		<SimpleData name="Field_1">McKean</SimpleData>
		<SimpleData name="NAME2">McKean</SimpleData>
		<SimpleData name="Number of Stands">6</SimpleData>
		<SimpleData name="OBJECTID_1">44</SimpleData>
		<SimpleData name="ORIG_FID">9</SimpleData>
		<SimpleData name="STATE_FIPS">42</SimpleData>
		<SimpleData name="STATE_NAME">Pennsylvania</SimpleData>
		<SimpleData name="cohort">CA-GMF-20</SimpleData>
	</SchemaData></ExtendedData>
      <Point><coordinates>-78.5714747603519,41.8103077605565</coordinates></Point>
  </Placemark>
  <Placemark>
	<name>Mifflin</name>
	<ExtendedData><SchemaData schemaUrl="#CA_GMF_20_21_counties_centroid_Merge">
		<SimpleData name="CNTY_FIPS">087</SimpleData>
		<SimpleData name="Centroid_X">-77.620315</SimpleData>
		<SimpleData name="Centroid_Y">40.612677</SimpleData>
		<SimpleData name="FIPS">42087</SimpleData>
		<SimpleData name="Field_1">Mifflin</SimpleData>
		<SimpleData name="NAME2">Mifflin</SimpleData>
		<SimpleData name="Number of Stands">9</SimpleData>
		<SimpleData name="OBJECTID_1">45</SimpleData>
		<SimpleData name="ORIG_FID">10</SimpleData>
		<SimpleData name="STATE_FIPS">42</SimpleData>
		<SimpleData name="STATE_NAME">Pennsylvania</SimpleData>
		<SimpleData name="cohort">CA-GMF-20</SimpleData>
	</SchemaData></ExtendedData>
      <Point><coordinates>-77.6203153301883,40.6126766635641</coordinates></Point>
  </Placemark>
  <Placemark>
	<name>Northumberland</name>
	<ExtendedData><SchemaData schemaUrl="#CA_GMF_20_21_counties_centroid_Merge">
		<SimpleData name="CNTY_FIPS">097</SimpleData>
		<SimpleData name="Centroid_X">-76.7122</SimpleData>
		<SimpleData name="Centroid_Y">40.851425</SimpleData>
		<SimpleData name="FIPS">42097</SimpleData>
		<SimpleData name="Field_1">Northumberland</SimpleData>
		<SimpleData name="NAME2">Northumberland</SimpleData>
		<SimpleData name="Number of Stands">2</SimpleData>
		<SimpleData name="OBJECTID_1">46</SimpleData>
		<SimpleData name="ORIG_FID">11</SimpleData>
		<SimpleData name="STATE_FIPS">42</SimpleData>
		<SimpleData name="STATE_NAME">Pennsylvania</SimpleData>
		<SimpleData name="cohort">CA-GMF-20</SimpleData>
	</SchemaData></ExtendedData>
      <Point><coordinates>-76.6670791666702,40.8197446770411</coordinates></Point>
  </Placemark>
  <Placemark>
	<name>Perry</name>
	<ExtendedData><SchemaData schemaUrl="#CA_GMF_20_21_counties_centroid_Merge">
		<SimpleData name="CNTY_FIPS">099</SimpleData>
		<SimpleData name="Centroid_X">-77.25937</SimpleData>
		<SimpleData name="Centroid_Y">40.404068</SimpleData>
		<SimpleData name="FIPS">42099</SimpleData>
		<SimpleData name="Field_1">Perry</SimpleData>
		<SimpleData name="NAME2">Perry</SimpleData>
		<SimpleData name="Number of Stands">14</SimpleData>
		<SimpleData name="OBJECTID_1">47</SimpleData>
		<SimpleData name="ORIG_FID">12</SimpleData>
		<SimpleData name="STATE_FIPS">42</SimpleData>
		<SimpleData name="STATE_NAME">Pennsylvania</SimpleData>
		<SimpleData name="cohort">CA-GMF-20</SimpleData>
	</SchemaData></ExtendedData>
      <Point><coordinates>-77.2593701382212,40.4040684450707</coordinates></Point>
  </Placemark>
  <Placemark>
	<name>Potter</name>
	<ExtendedData><SchemaData schemaUrl="#CA_GMF_20_21_counties_centroid_Merge">
		<SimpleData name="CNTY_FIPS">105</SimpleData>
		<SimpleData name="Centroid_X">-77.899072</SimpleData>
		<SimpleData name="Centroid_Y">41.74414</SimpleData>
		<SimpleData name="FIPS">42105</SimpleData>
		<SimpleData name="Field_1">Potter</SimpleData>
		<SimpleData name="NAME2">Potter</SimpleData>
		<SimpleData name="Number of Stands">12</SimpleData>
		<SimpleData name="OBJECTID_1">48</SimpleData>
		<SimpleData name="ORIG_FID">13</SimpleData>
		<SimpleData name="STATE_FIPS">42</SimpleData>
		<SimpleData name="STATE_NAME">Pennsylvania</SimpleData>
		<SimpleData name="cohort">CA-GMF-20</SimpleData>
	</SchemaData></ExtendedData>
      <Point><coordinates>-77.8990722771638,41.7441400618764</coordinates></Point>
  </Placemark>
  <Placemark>
	<name>Snyder</name>
	<ExtendedData><SchemaData schemaUrl="#CA_GMF_20_21_counties_centroid_Merge">
		<SimpleData name="CNTY_FIPS">109</SimpleData>
		<SimpleData name="Centroid_X">-77.07286</SimpleData>
		<SimpleData name="Centroid_Y">40.771056</SimpleData>
		<SimpleData name="FIPS">42109</SimpleData>
		<SimpleData name="Field_1">Snyder</SimpleData>
		<SimpleData name="NAME2">Snyder</SimpleData>
		<SimpleData name="Number of Stands">2</SimpleData>
		<SimpleData name="OBJECTID_1">49</SimpleData>
		<SimpleData name="ORIG_FID">14</SimpleData>
		<SimpleData name="STATE_FIPS">42</SimpleData>
		<SimpleData name="STATE_NAME">Pennsylvania</SimpleData>
		<SimpleData name="cohort">CA-GMF-20</SimpleData>
	</SchemaData></ExtendedData>
      <Point><coordinates>-77.0728596599453,40.7710557996516</coordinates></Point>
  </Placemark>
  <Placemark>
	<name>Tioga</name>
	<ExtendedData><SchemaData schemaUrl="#CA_GMF_20_21_counties_centroid_Merge">
		<SimpleData name="CNTY_FIPS">117</SimpleData>
		<SimpleData name="Centroid_X">-77.258184</SimpleData>
		<SimpleData name="Centroid_Y">41.773266</SimpleData>
		<SimpleData name="FIPS">42117</SimpleData>
		<SimpleData name="Field_1">Tioga</SimpleData>
		<SimpleData name="NAME2">Tioga</SimpleData>
		<SimpleData name="Number of Stands">3</SimpleData>
		<SimpleData name="OBJECTID_1">50</SimpleData>
		<SimpleData name="ORIG_FID">15</SimpleData>
		<SimpleData name="STATE_FIPS">42</SimpleData>
		<SimpleData name="STATE_NAME">Pennsylvania</SimpleData>
		<SimpleData name="cohort">CA-GMF-20</SimpleData>
	</SchemaData></ExtendedData>
      <Point><coordinates>-77.258183947731,41.7732660092808</coordinates></Point>
  </Placemark>
  <Placemark>
	<name>Warren</name>
	<ExtendedData><SchemaData schemaUrl="#CA_GMF_20_21_counties_centroid_Merge">
		<SimpleData name="CNTY_FIPS">123</SimpleData>
		<SimpleData name="Centroid_X">-79.278816</SimpleData>
		<SimpleData name="Centroid_Y">41.816693</SimpleData>
		<SimpleData name="FIPS">42123</SimpleData>
		<SimpleData name="Field_1">Warren</SimpleData>
		<SimpleData name="NAME2">Warren</SimpleData>
		<SimpleData name="Number of Stands">2</SimpleData>
		<SimpleData name="OBJECTID_1">51</SimpleData>
		<SimpleData name="ORIG_FID">16</SimpleData>
		<SimpleData name="STATE_FIPS">42</SimpleData>
		<SimpleData name="STATE_NAME">Pennsylvania</SimpleData>
		<SimpleData name="cohort">CA-GMF-20</SimpleData>
	</SchemaData></ExtendedData>
      <Point><coordinates>-79.2788157719303,41.8166933796575</coordinates></Point>
  </Placemark>
</Folder>
</Document></kml>
