<?xml version="1.0" encoding="utf-8" ?>
<kml xmlns="http://www.opengis.net/kml/2.2">
<Document id="root_doc">
<Schema name="abci1_proxy_areas" id="abci1_proxy_areas">
	<SimpleField name="Name" type="string"></SimpleField>
	<SimpleField name="PROXY_ID" type="int"></SimpleField>
	<SimpleField name="Farm" type="string"></SimpleField>
	<SimpleField name="Area_ha" type="float"></SimpleField>
	<SimpleField name="Dist_km" type="float"></SimpleField>
	<SimpleField name="NLR_ha" type="float"></SimpleField>
	<SimpleField name="DHRP_ha" type="float"></SimpleField>
	<SimpleField name="DHRP_perc" type="float"></SimpleField>
	<SimpleField name="Yrs" type="float"></SimpleField>
	<SimpleField name="D_ha_yr" type="float"></SimpleField>
	<SimpleField name="D_perc_yr" type="float"></SimpleField>
</Schema>
<Folder><name>abci1_proxy_areas</name>
  <Placemark>
	<name>4152</name>
	<Style><LineStyle><color>ff0000ff</color></LineStyle><PolyStyle><fill>0</fill></PolyStyle></Style>
	<ExtendedData><SchemaData schemaUrl="#abci1_proxy_areas">
		<SimpleData name="PROXY_ID">1</SimpleData>
		<SimpleData name="Farm">FAZENDA FELICIDADE - Parcela 1</SimpleData>
		<SimpleData name="Area_ha">1479.781</SimpleData>
		<SimpleData name="Dist_km">352.580</SimpleData>
		<SimpleData name="NLR_ha">295.938</SimpleData>
		<SimpleData name="DHRP_ha">184.680</SimpleData>
		<SimpleData name="DHRP_perc">0.624</SimpleData>
		<SimpleData name="Yrs">6.000</SimpleData>
		<SimpleData name="D_ha_yr">30.780</SimpleData>
		<SimpleData name="D_perc_yr">0.104</SimpleData>
	</SchemaData></ExtendedData>
      <MultiGeometry><Polygon><outerBoundaryIs><LinearRing><coordinates>-60.4691432498569,0.227051802027869,60 -60.4670074224088,0.226097643161683,60 -60.4667424227271,0.225620973731927,60 -60.4657646438973,0.224779304736521,60 -60.4638829761442,0.224239585374747,60 -60.4632088069489,0.22413541549643,60 -60.4623988079165,0.223815415876324,60 -60.4618576985615,0.223932085733855,60 -60.4611793693674,0.224643474877571,60 -60.4608835397171,0.225337084044402,60 -60.4592574316531,0.226167363041026,60 -60.458386592697,0.225059304365585,60 -60.4571704841481,0.225006524423155,60 -60.4563610451096,0.225894023354968,60 -60.4557593758258,0.22624541293066,60 -60.4510452117733,0.225908193093503,64.03 -60.4509352129577,0.224105974542993,77.12 -60.4297952366277,0.216733204371851,57.2 -60.4209774777709,0.213197098164566,64.751 -60.3916591726889,0.214715426265343,63.72 -60.4032519413866,0.189075455438973,94.26 -60.4429455031008,0.205669326261286,83.75 -60.4541968800319,0.210677380046936,88.47 -60.4556699377339,0.211488209446914,81.74 -60.4646604757783,0.218354592070986,66.7 -60.4729799146279,0.223565416681693,51.62 -60.4734110247819,0.22377014598277,60 -60.4725379658164,0.225240974215162,60 -60.4718943565811,0.225867363461108,60 -60.4706699180398,0.226237083012029,60 -60.46976157912,0.226915142194661,60 -60.4691432498569,0.227051802027869,60</coordinates></LinearRing></outerBoundaryIs></Polygon></MultiGeometry>
  </Placemark>
  <Placemark>
	<name>12432</name>
	<Style><LineStyle><color>ff0000ff</color></LineStyle><PolyStyle><fill>0</fill></PolyStyle></Style>
	<ExtendedData><SchemaData schemaUrl="#abci1_proxy_areas">
		<SimpleData name="PROXY_ID">2</SimpleData>
		<SimpleData name="Farm">FAZENDA ÁGUA BRANCA - Parcela 1</SimpleData>
		<SimpleData name="Area_ha">771.331</SimpleData>
		<SimpleData name="Dist_km">605.150</SimpleData>
		<SimpleData name="NLR_ha">154.242</SimpleData>
		<SimpleData name="DHRP_ha">87.570</SimpleData>
		<SimpleData name="DHRP_perc">0.568</SimpleData>
		<SimpleData name="Yrs">8.000</SimpleData>
		<SimpleData name="D_ha_yr">10.946</SimpleData>
		<SimpleData name="D_perc_yr">0.071</SimpleData>
	</SchemaData></ExtendedData>
      <MultiGeometry><Polygon><outerBoundaryIs><LinearRing><coordinates>-53.7066039367802,-2.36393057975361,3.13 -53.7069656084255,-2.3823827771128,42.93 -53.7023139450799,-2.38296222652661,49.93 -53.7023425549357,-2.38335250593112,48.71 -53.7120908817218,-2.39049943671487,48.94 -53.7151869866421,-2.37699445387897,27.68 -53.7237861338049,-2.38357444446671,11.9 -53.7264266907105,-2.38062000878753,15.69 -53.7272400192279,-2.37760834247455,8.4 -53.7359030679385,-2.38762137981405,16.89 -53.7364027874723,-2.38754750008543,19.52 -53.7367316775454,-2.38745944061139,26.41 -53.7370291775741,-2.3870727714622,31.95 -53.7373763973245,-2.38681527198009,34.67 -53.7375088966558,-2.38675944167595,27.91 -53.737630566288,-2.38658472175077,24.99 -53.7377825066315,-2.38534305381586,31.69 -53.7379677862565,-2.38419888522979,29.25 -53.7382600059321,-2.38289583700707,29.34 -53.7386486162105,-2.38201166880475,39.64 -53.7393969543309,-2.38116444926265,27.03 -53.7407808427241,-2.37897973237574,28.84 -53.742293890681,-2.37675084534648,27.01 -53.7425158404705,-2.37579695667708,27.59 -53.7428091700701,-2.37308418025261,25.84 -53.7428505600933,-2.37290640054909,26.8 -53.7444583379182,-2.37005807433425,24.52 -53.7453630560757,-2.36805863650584,14.57 -53.7455119457847,-2.36786724669146,13.18 -53.7428219489412,-2.3666333578831,6.9 -53.7388794544465,-2.36636057829059,10.58 -53.7194055901138,-2.36615029761725,8.55 -53.7066039367802,-2.36393057975361,3.13</coordinates></LinearRing></outerBoundaryIs></Polygon></MultiGeometry>
  </Placemark>
  <Placemark>
	<name>12709</name>
	<Style><LineStyle><color>ff0000ff</color></LineStyle><PolyStyle><fill>0</fill></PolyStyle></Style>
	<ExtendedData><SchemaData schemaUrl="#abci1_proxy_areas">
		<SimpleData name="PROXY_ID">3</SimpleData>
		<SimpleData name="Farm">FAZENDA ITAPEMERIM - Parte 1</SimpleData>
		<SimpleData name="Area_ha">878.905</SimpleData>
		<SimpleData name="Dist_km">610.710</SimpleData>
		<SimpleData name="NLR_ha">175.752</SimpleData>
		<SimpleData name="DHRP_ha">19.800</SimpleData>
		<SimpleData name="DHRP_perc">0.113</SimpleData>
		<SimpleData name="Yrs">3.000</SimpleData>
		<SimpleData name="D_ha_yr">6.600</SimpleData>
		<SimpleData name="D_perc_yr">0.038</SimpleData>
	</SchemaData></ExtendedData>
      <MultiGeometry><Polygon><outerBoundaryIs><LinearRing><coordinates>-61.78971025538,2.20448839671249,97.09 -61.7883683169618,2.20411506708033,97.09 -61.7823810939594,2.20374811722183,97.09 -61.7819797043161,2.20277867842401,95.16 -61.8042733062872,2.11725460559166,145.27 -61.8113860679368,2.11965071311713,145.83 -61.7907010842565,2.20380756754539,97.09 -61.78971025538,2.20448839671249,97.09</coordinates></LinearRing></outerBoundaryIs></Polygon></MultiGeometry>
  </Placemark>
  <Placemark>
	<name>12744</name>
	<Style><LineStyle><color>ff0000ff</color></LineStyle><PolyStyle><fill>0</fill></PolyStyle></Style>
	<ExtendedData><SchemaData schemaUrl="#abci1_proxy_areas">
		<SimpleData name="PROXY_ID">4</SimpleData>
		<SimpleData name="Farm">Fazenda Liberdade - Parcela 1</SimpleData>
		<SimpleData name="Area_ha">1450.459</SimpleData>
		<SimpleData name="Dist_km">611.190</SimpleData>
		<SimpleData name="NLR_ha">290.106</SimpleData>
		<SimpleData name="DHRP_ha">126.810</SimpleData>
		<SimpleData name="DHRP_perc">0.437</SimpleData>
		<SimpleData name="Yrs">4.000</SimpleData>
		<SimpleData name="D_ha_yr">31.702</SimpleData>
		<SimpleData name="D_perc_yr">0.109</SimpleData>
	</SchemaData></ExtendedData>
      <MultiGeometry><Polygon><outerBoundaryIs><LinearRing><coordinates>-61.8487137942565,2.20409396150359,67.61 -61.8639590615583,2.1114918384993,77.89 -61.8496196338135,2.11325767214757,147.4 -61.8440177007063,2.06707272629793,126.83 -61.8522782494603,2.07730576561716,112.29 -61.8638096167079,2.09475102505947,130.06 -61.869933229562,2.10469823358153,135.28 -61.8574987887752,2.19980340391375,123.69 -61.8487137942565,2.20409396150359,67.61</coordinates></LinearRing></outerBoundaryIs></Polygon></MultiGeometry>
  </Placemark>
  <Placemark>
	<name>12821</name>
	<Style><LineStyle><color>ff0000ff</color></LineStyle><PolyStyle><fill>0</fill></PolyStyle></Style>
	<ExtendedData><SchemaData schemaUrl="#abci1_proxy_areas">
		<SimpleData name="PROXY_ID">5</SimpleData>
		<SimpleData name="Farm">FAZENDA UNIÃO - PARTE 1</SimpleData>
		<SimpleData name="Area_ha">1539.687</SimpleData>
		<SimpleData name="Dist_km">612.340</SimpleData>
		<SimpleData name="NLR_ha">307.980</SimpleData>
		<SimpleData name="DHRP_ha">153.630</SimpleData>
		<SimpleData name="DHRP_perc">0.499</SimpleData>
		<SimpleData name="Yrs">6.000</SimpleData>
		<SimpleData name="D_ha_yr">25.605</SimpleData>
		<SimpleData name="D_perc_yr">0.083</SimpleData>
	</SchemaData></ExtendedData>
      <MultiGeometry><Polygon><outerBoundaryIs><LinearRing><coordinates>-61.8170060533972,2.20811145381889,97.09 -61.8142605067379,2.20507339719546,97.09 -61.8092332926037,2.20491672713904,97.09 -61.8048232976609,2.20668784488647,97.09 -61.801546631988,2.20648645464047,103.24 -61.8208263375531,2.12306876909889,155.31 -61.82570022307,2.12378181769952,170.44 -61.8343057729894,2.12504043663791,170.44 -61.8191893917957,2.20170757089383,105.04 -61.8186271629028,2.20466506707152,112.31 -61.8170060533972,2.20811145381889,97.09</coordinates></LinearRing></outerBoundaryIs></Polygon></MultiGeometry>
  </Placemark>
  <Placemark>
	<name>12898</name>
	<Style><LineStyle><color>ff0000ff</color></LineStyle><PolyStyle><fill>0</fill></PolyStyle></Style>
	<ExtendedData><SchemaData schemaUrl="#abci1_proxy_areas">
		<SimpleData name="PROXY_ID">6</SimpleData>
		<SimpleData name="Farm">Fazenda Três Marias - Parcela 1</SimpleData>
		<SimpleData name="Area_ha">1505.966</SimpleData>
		<SimpleData name="Dist_km">613.410</SimpleData>
		<SimpleData name="NLR_ha">301.104</SimpleData>
		<SimpleData name="DHRP_ha">260.910</SimpleData>
		<SimpleData name="DHRP_perc">0.867</SimpleData>
		<SimpleData name="Yrs">3.000</SimpleData>
		<SimpleData name="D_ha_yr">86.970</SimpleData>
		<SimpleData name="D_perc_yr">0.289</SimpleData>
	</SchemaData></ExtendedData>
      <MultiGeometry><Polygon><outerBoundaryIs><LinearRing><coordinates>-61.8423357521271,2.206125068511,74.23 -61.8391446360316,2.20608534828549,76.52 -61.8363927020484,2.20275035027893,109.27 -61.8477368666503,2.12725654507998,163.07 -61.8496196338135,2.11325767214757,147.4 -61.8639590615583,2.1114918384993,77.89 -61.8487137942565,2.20409396150359,67.61 -61.8423357521271,2.206125068511,74.23</coordinates></LinearRing></outerBoundaryIs></Polygon></MultiGeometry>
  </Placemark>
</Folder>
</Document></kml>
