<?xml version="1.0" encoding="utf-8" ?>
<kml xmlns="http://www.opengis.net/kml/2.2">
<Document id="root_doc">
<Schema name="TCL_WADI_coordinates" id="TCL_WADI_coordinates">
	<SimpleField name="" type="string"></SimpleField>
	<SimpleField name="Latitude" type="float"></SimpleField>
	<SimpleField name="Longitude" type="float"></SimpleField>
</Schema>
<Folder><name>TCL_WADI_coordinates</name>
  <Placemark>
	<ExtendedData><SchemaData schemaUrl="#TCL_WADI_coordinates">
		<SimpleData name="Latitude">21.8194</SimpleData>
		<SimpleData name="Longitude">74.235</SimpleData>
	</SchemaData></ExtendedData>
      <Point><coordinates>74.235,21.8194</coordinates></Point>
  </Placemark>
  <Placemark>
	<ExtendedData><SchemaData schemaUrl="#TCL_WADI_coordinates">
		<SimpleData name="Latitude">21.8179</SimpleData>
		<SimpleData name="Longitude">74.2288</SimpleData>
	</SchemaData></ExtendedData>
      <Point><coordinates>74.2288,21.8179</coordinates></Point>
  </Placemark>
  <Placemark>
	<ExtendedData><SchemaData schemaUrl="#TCL_WADI_coordinates">
		<SimpleData name="Latitude">21.8124</SimpleData>
		<SimpleData name="Longitude">74.2288</SimpleData>
	</SchemaData></ExtendedData>
      <Point><coordinates>74.2288,21.8124</coordinates></Point>
  </Placemark>
  <Placemark>
	<ExtendedData><SchemaData schemaUrl="#TCL_WADI_coordinates">
		<SimpleData name="Latitude">21.8215</SimpleData>
		<SimpleData name="Longitude">74.2384</SimpleData>
	</SchemaData></ExtendedData>
      <Point><coordinates>74.2384,21.8215</coordinates></Point>
  </Placemark>
  <Placemark>
	<ExtendedData><SchemaData schemaUrl="#TCL_WADI_coordinates">
		<SimpleData name="Latitude">21.816</SimpleData>
		<SimpleData name="Longitude">74.2394</SimpleData>
	</SchemaData></ExtendedData>
      <Point><coordinates>74.2394,21.816</coordinates></Point>
  </Placemark>
  <Placemark>
	<ExtendedData><SchemaData schemaUrl="#TCL_WADI_coordinates">
		<SimpleData name="Latitude">21.8186</SimpleData>
		<SimpleData name="Longitude">74.2333</SimpleData>
	</SchemaData></ExtendedData>
      <Point><coordinates>74.2333,21.8186</coordinates></Point>
  </Placemark>
  <Placemark>
	<ExtendedData><SchemaData schemaUrl="#TCL_WADI_coordinates">
		<SimpleData name="Latitude">21.8173</SimpleData>
		<SimpleData name="Longitude">74.2334</SimpleData>
	</SchemaData></ExtendedData>
      <Point><coordinates>74.2334,21.8173</coordinates></Point>
  </Placemark>
  <Placemark>
	<ExtendedData><SchemaData schemaUrl="#TCL_WADI_coordinates">
		<SimpleData name="Latitude">21.8144</SimpleData>
		<SimpleData name="Longitude">74.2334</SimpleData>
	</SchemaData></ExtendedData>
      <Point><coordinates>74.2334,21.8144</coordinates></Point>
  </Placemark>
  <Placemark>
	<ExtendedData><SchemaData schemaUrl="#TCL_WADI_coordinates">
		<SimpleData name="Latitude">21.8195</SimpleData>
		<SimpleData name="Longitude">74.2338</SimpleData>
	</SchemaData></ExtendedData>
      <Point><coordinates>74.2338,21.8195</coordinates></Point>
  </Placemark>
  <Placemark>
	<ExtendedData><SchemaData schemaUrl="#TCL_WADI_coordinates">
		<SimpleData name="Latitude">21.8094</SimpleData>
		<SimpleData name="Longitude">74.2357</SimpleData>
	</SchemaData></ExtendedData>
      <Point><coordinates>74.2357,21.8094</coordinates></Point>
  </Placemark>
  <Placemark>
	<ExtendedData><SchemaData schemaUrl="#TCL_WADI_coordinates">
		<SimpleData name="Latitude">21.8223</SimpleData>
		<SimpleData name="Longitude">74.2331</SimpleData>
	</SchemaData></ExtendedData>
      <Point><coordinates>74.2331,21.8223</coordinates></Point>
  </Placemark>
  <Placemark>
	<ExtendedData><SchemaData schemaUrl="#TCL_WADI_coordinates">
		<SimpleData name="Latitude">21.8104</SimpleData>
		<SimpleData name="Longitude">74.2361</SimpleData>
	</SchemaData></ExtendedData>
      <Point><coordinates>74.2361,21.8104</coordinates></Point>
  </Placemark>
  <Placemark>
	<ExtendedData><SchemaData schemaUrl="#TCL_WADI_coordinates">
		<SimpleData name="Latitude">21.8194</SimpleData>
		<SimpleData name="Longitude">74.235</SimpleData>
	</SchemaData></ExtendedData>
      <Point><coordinates>74.235,21.8194</coordinates></Point>
  </Placemark>
  <Placemark>
	<ExtendedData><SchemaData schemaUrl="#TCL_WADI_coordinates">
		<SimpleData name="Latitude">21.811</SimpleData>
		<SimpleData name="Longitude">74.2397</SimpleData>
	</SchemaData></ExtendedData>
      <Point><coordinates>74.2397,21.811</coordinates></Point>
  </Placemark>
  <Placemark>
	<ExtendedData><SchemaData schemaUrl="#TCL_WADI_coordinates">
		<SimpleData name="Latitude">21.8185</SimpleData>
		<SimpleData name="Longitude">74.2352</SimpleData>
	</SchemaData></ExtendedData>
      <Point><coordinates>74.2352,21.8185</coordinates></Point>
  </Placemark>
  <Placemark>
	<ExtendedData><SchemaData schemaUrl="#TCL_WADI_coordinates">
		<SimpleData name="Latitude">21.8171</SimpleData>
		<SimpleData name="Longitude">74.2372</SimpleData>
	</SchemaData></ExtendedData>
      <Point><coordinates>74.2372,21.8171</coordinates></Point>
  </Placemark>
  <Placemark>
	<ExtendedData><SchemaData schemaUrl="#TCL_WADI_coordinates">
		<SimpleData name="Latitude">21.8222</SimpleData>
		<SimpleData name="Longitude">74.2331</SimpleData>
	</SchemaData></ExtendedData>
      <Point><coordinates>74.2331,21.8222</coordinates></Point>
  </Placemark>
  <Placemark>
	<ExtendedData><SchemaData schemaUrl="#TCL_WADI_coordinates">
		<SimpleData name="Latitude">21.8201</SimpleData>
		<SimpleData name="Longitude">74.2266</SimpleData>
	</SchemaData></ExtendedData>
      <Point><coordinates>74.2266,21.8201</coordinates></Point>
  </Placemark>
  <Placemark>
	<ExtendedData><SchemaData schemaUrl="#TCL_WADI_coordinates">
		<SimpleData name="Latitude">21.8223</SimpleData>
		<SimpleData name="Longitude">74.1839</SimpleData>
	</SchemaData></ExtendedData>
      <Point><coordinates>74.1839,21.8223</coordinates></Point>
  </Placemark>
  <Placemark>
	<ExtendedData><SchemaData schemaUrl="#TCL_WADI_coordinates">
		<SimpleData name="Latitude">21.8223</SimpleData>
		<SimpleData name="Longitude">74.1839</SimpleData>
	</SchemaData></ExtendedData>
      <Point><coordinates>74.1839,21.8223</coordinates></Point>
  </Placemark>
  <Placemark>
	<ExtendedData><SchemaData schemaUrl="#TCL_WADI_coordinates">
		<SimpleData name="Latitude">21.8196</SimpleData>
		<SimpleData name="Longitude">74.1765</SimpleData>
	</SchemaData></ExtendedData>
      <Point><coordinates>74.1765,21.8196</coordinates></Point>
  </Placemark>
  <Placemark>
	<ExtendedData><SchemaData schemaUrl="#TCL_WADI_coordinates">
		<SimpleData name="Latitude">21.8199</SimpleData>
		<SimpleData name="Longitude">74.0185</SimpleData>
	</SchemaData></ExtendedData>
      <Point><coordinates>74.0185,21.8199</coordinates></Point>
  </Placemark>
  <Placemark>
	<ExtendedData><SchemaData schemaUrl="#TCL_WADI_coordinates">
		<SimpleData name="Latitude">21.818</SimpleData>
		<SimpleData name="Longitude">74.1777</SimpleData>
	</SchemaData></ExtendedData>
      <Point><coordinates>74.1777,21.818</coordinates></Point>
  </Placemark>
  <Placemark>
	<ExtendedData><SchemaData schemaUrl="#TCL_WADI_coordinates">
		<SimpleData name="Latitude">21.818</SimpleData>
		<SimpleData name="Longitude">74.1773</SimpleData>
	</SchemaData></ExtendedData>
      <Point><coordinates>74.1773,21.818</coordinates></Point>
  </Placemark>
  <Placemark>
	<ExtendedData><SchemaData schemaUrl="#TCL_WADI_coordinates">
		<SimpleData name="Latitude">21.8124</SimpleData>
		<SimpleData name="Longitude">74.1764</SimpleData>
	</SchemaData></ExtendedData>
      <Point><coordinates>74.1764,21.8124</coordinates></Point>
  </Placemark>
  <Placemark>
	<ExtendedData><SchemaData schemaUrl="#TCL_WADI_coordinates">
		<SimpleData name="Latitude">21.8209</SimpleData>
		<SimpleData name="Longitude">74.1806</SimpleData>
	</SchemaData></ExtendedData>
      <Point><coordinates>74.1806,21.8209</coordinates></Point>
  </Placemark>
  <Placemark>
	<ExtendedData><SchemaData schemaUrl="#TCL_WADI_coordinates">
		<SimpleData name="Latitude">21.8194</SimpleData>
		<SimpleData name="Longitude">74.178</SimpleData>
	</SchemaData></ExtendedData>
      <Point><coordinates>74.178,21.8194</coordinates></Point>
  </Placemark>
  <Placemark>
	<ExtendedData><SchemaData schemaUrl="#TCL_WADI_coordinates">
		<SimpleData name="Latitude">21.8192</SimpleData>
		<SimpleData name="Longitude">74.1778</SimpleData>
	</SchemaData></ExtendedData>
      <Point><coordinates>74.1778,21.8192</coordinates></Point>
  </Placemark>
  <Placemark>
	<ExtendedData><SchemaData schemaUrl="#TCL_WADI_coordinates">
		<SimpleData name="Latitude">21.8239</SimpleData>
		<SimpleData name="Longitude">74.1747</SimpleData>
	</SchemaData></ExtendedData>
      <Point><coordinates>74.1747,21.8239</coordinates></Point>
  </Placemark>
  <Placemark>
	<ExtendedData><SchemaData schemaUrl="#TCL_WADI_coordinates">
		<SimpleData name="Latitude">21.8193</SimpleData>
		<SimpleData name="Longitude">74.1778</SimpleData>
	</SchemaData></ExtendedData>
      <Point><coordinates>74.1778,21.8193</coordinates></Point>
  </Placemark>
  <Placemark>
	<ExtendedData><SchemaData schemaUrl="#TCL_WADI_coordinates">
		<SimpleData name="Latitude">21.8267</SimpleData>
		<SimpleData name="Longitude">74.1742</SimpleData>
	</SchemaData></ExtendedData>
      <Point><coordinates>74.1742,21.8267</coordinates></Point>
  </Placemark>
  <Placemark>
	<ExtendedData><SchemaData schemaUrl="#TCL_WADI_coordinates">
		<SimpleData name="Latitude">21.8462</SimpleData>
		<SimpleData name="Longitude">74.2433</SimpleData>
	</SchemaData></ExtendedData>
      <Point><coordinates>74.2433,21.8462</coordinates></Point>
  </Placemark>
  <Placemark>
	<ExtendedData><SchemaData schemaUrl="#TCL_WADI_coordinates">
		<SimpleData name="Latitude">21.8434</SimpleData>
		<SimpleData name="Longitude">74.2531</SimpleData>
	</SchemaData></ExtendedData>
      <Point><coordinates>74.2531,21.8434</coordinates></Point>
  </Placemark>
  <Placemark>
	<ExtendedData><SchemaData schemaUrl="#TCL_WADI_coordinates">
		<SimpleData name="Latitude">21.8523</SimpleData>
		<SimpleData name="Longitude">74.2523</SimpleData>
	</SchemaData></ExtendedData>
      <Point><coordinates>74.2523,21.8523</coordinates></Point>
  </Placemark>
  <Placemark>
	<ExtendedData><SchemaData schemaUrl="#TCL_WADI_coordinates">
		<SimpleData name="Latitude">21.8452</SimpleData>
		<SimpleData name="Longitude">74.2537</SimpleData>
	</SchemaData></ExtendedData>
      <Point><coordinates>74.2537,21.8452</coordinates></Point>
  </Placemark>
  <Placemark>
	<ExtendedData><SchemaData schemaUrl="#TCL_WADI_coordinates">
		<SimpleData name="Latitude">21.8501</SimpleData>
		<SimpleData name="Longitude">74.2387</SimpleData>
	</SchemaData></ExtendedData>
      <Point><coordinates>74.2387,21.8501</coordinates></Point>
  </Placemark>
  <Placemark>
	<ExtendedData><SchemaData schemaUrl="#TCL_WADI_coordinates">
		<SimpleData name="Latitude">21.8495</SimpleData>
		<SimpleData name="Longitude">74.2456</SimpleData>
	</SchemaData></ExtendedData>
      <Point><coordinates>74.2456,21.8495</coordinates></Point>
  </Placemark>
  <Placemark>
	<ExtendedData><SchemaData schemaUrl="#TCL_WADI_coordinates">
		<SimpleData name="Latitude">21.8412</SimpleData>
		<SimpleData name="Longitude">74.2456</SimpleData>
	</SchemaData></ExtendedData>
      <Point><coordinates>74.2456,21.8412</coordinates></Point>
  </Placemark>
  <Placemark>
	<ExtendedData><SchemaData schemaUrl="#TCL_WADI_coordinates">
		<SimpleData name="Latitude">21.8438</SimpleData>
		<SimpleData name="Longitude">74.2458</SimpleData>
	</SchemaData></ExtendedData>
      <Point><coordinates>74.2458,21.8438</coordinates></Point>
  </Placemark>
  <Placemark>
	<ExtendedData><SchemaData schemaUrl="#TCL_WADI_coordinates">
		<SimpleData name="Latitude">21.8506</SimpleData>
		<SimpleData name="Longitude">74.2371</SimpleData>
	</SchemaData></ExtendedData>
      <Point><coordinates>74.2371,21.8506</coordinates></Point>
  </Placemark>
  <Placemark>
	<ExtendedData><SchemaData schemaUrl="#TCL_WADI_coordinates">
		<SimpleData name="Latitude">21.8151</SimpleData>
		<SimpleData name="Longitude">74.177</SimpleData>
	</SchemaData></ExtendedData>
      <Point><coordinates>74.177,21.8151</coordinates></Point>
  </Placemark>
  <Placemark>
	<ExtendedData><SchemaData schemaUrl="#TCL_WADI_coordinates">
		<SimpleData name="Latitude">21.811</SimpleData>
		<SimpleData name="Longitude">74.1634</SimpleData>
	</SchemaData></ExtendedData>
      <Point><coordinates>74.1634,21.811</coordinates></Point>
  </Placemark>
  <Placemark>
	<ExtendedData><SchemaData schemaUrl="#TCL_WADI_coordinates">
		<SimpleData name="Latitude">21.8088</SimpleData>
		<SimpleData name="Longitude">74.164</SimpleData>
	</SchemaData></ExtendedData>
      <Point><coordinates>74.164,21.8088</coordinates></Point>
  </Placemark>
  <Placemark>
	<ExtendedData><SchemaData schemaUrl="#TCL_WADI_coordinates">
		<SimpleData name="Latitude">21.8111</SimpleData>
		<SimpleData name="Longitude">74.1615</SimpleData>
	</SchemaData></ExtendedData>
      <Point><coordinates>74.1615,21.8111</coordinates></Point>
  </Placemark>
  <Placemark>
	<ExtendedData><SchemaData schemaUrl="#TCL_WADI_coordinates">
		<SimpleData name="Latitude">21.8269</SimpleData>
		<SimpleData name="Longitude">74.1477</SimpleData>
	</SchemaData></ExtendedData>
      <Point><coordinates>74.1477,21.8269</coordinates></Point>
  </Placemark>
  <Placemark>
	<ExtendedData><SchemaData schemaUrl="#TCL_WADI_coordinates">
		<SimpleData name="Latitude">21.8114</SimpleData>
		<SimpleData name="Longitude">74.1682</SimpleData>
	</SchemaData></ExtendedData>
      <Point><coordinates>74.1682,21.8114</coordinates></Point>
  </Placemark>
  <Placemark>
	<ExtendedData><SchemaData schemaUrl="#TCL_WADI_coordinates">
		<SimpleData name="Latitude">21.8211</SimpleData>
		<SimpleData name="Longitude">74.1902</SimpleData>
	</SchemaData></ExtendedData>
      <Point><coordinates>74.1902,21.8211</coordinates></Point>
  </Placemark>
  <Placemark>
	<ExtendedData><SchemaData schemaUrl="#TCL_WADI_coordinates">
		<SimpleData name="Latitude">21.8177</SimpleData>
		<SimpleData name="Longitude">74.1916</SimpleData>
	</SchemaData></ExtendedData>
      <Point><coordinates>74.1916,21.8177</coordinates></Point>
  </Placemark>
  <Placemark>
	<ExtendedData><SchemaData schemaUrl="#TCL_WADI_coordinates">
		<SimpleData name="Latitude">21.8179</SimpleData>
		<SimpleData name="Longitude">74.1911</SimpleData>
	</SchemaData></ExtendedData>
      <Point><coordinates>74.1911,21.8179</coordinates></Point>
  </Placemark>
  <Placemark>
	<ExtendedData><SchemaData schemaUrl="#TCL_WADI_coordinates">
		<SimpleData name="Latitude">21.8159</SimpleData>
		<SimpleData name="Longitude">74.1861</SimpleData>
	</SchemaData></ExtendedData>
      <Point><coordinates>74.1861,21.8159</coordinates></Point>
  </Placemark>
  <Placemark>
	<ExtendedData><SchemaData schemaUrl="#TCL_WADI_coordinates">
		<SimpleData name="Latitude">21.7877</SimpleData>
		<SimpleData name="Longitude">74.1385</SimpleData>
	</SchemaData></ExtendedData>
      <Point><coordinates>74.1385,21.7877</coordinates></Point>
  </Placemark>
  <Placemark>
	<ExtendedData><SchemaData schemaUrl="#TCL_WADI_coordinates">
		<SimpleData name="Latitude">21.7841</SimpleData>
		<SimpleData name="Longitude">74.1381</SimpleData>
	</SchemaData></ExtendedData>
      <Point><coordinates>74.1381,21.7841</coordinates></Point>
  </Placemark>
  <Placemark>
	<ExtendedData><SchemaData schemaUrl="#TCL_WADI_coordinates">
		<SimpleData name="Latitude">21.7841</SimpleData>
		<SimpleData name="Longitude">74.1365</SimpleData>
	</SchemaData></ExtendedData>
      <Point><coordinates>74.1365,21.7841</coordinates></Point>
  </Placemark>
  <Placemark>
	<ExtendedData><SchemaData schemaUrl="#TCL_WADI_coordinates">
		<SimpleData name="Latitude">21.774</SimpleData>
		<SimpleData name="Longitude">74.1361</SimpleData>
	</SchemaData></ExtendedData>
      <Point><coordinates>74.1361,21.774</coordinates></Point>
  </Placemark>
  <Placemark>
	<ExtendedData><SchemaData schemaUrl="#TCL_WADI_coordinates">
		<SimpleData name="Latitude">21.7876</SimpleData>
		<SimpleData name="Longitude">74.1385</SimpleData>
	</SchemaData></ExtendedData>
      <Point><coordinates>74.1385,21.7876</coordinates></Point>
  </Placemark>
  <Placemark>
	<ExtendedData><SchemaData schemaUrl="#TCL_WADI_coordinates">
		<SimpleData name="Latitude">21.7835</SimpleData>
		<SimpleData name="Longitude">74.1279</SimpleData>
	</SchemaData></ExtendedData>
      <Point><coordinates>74.1279,21.7835</coordinates></Point>
  </Placemark>
  <Placemark>
	<ExtendedData><SchemaData schemaUrl="#TCL_WADI_coordinates">
		<SimpleData name="Latitude">21.7841</SimpleData>
		<SimpleData name="Longitude">74.1365</SimpleData>
	</SchemaData></ExtendedData>
      <Point><coordinates>74.1365,21.7841</coordinates></Point>
  </Placemark>
  <Placemark>
	<ExtendedData><SchemaData schemaUrl="#TCL_WADI_coordinates">
		<SimpleData name="Latitude">21.7799</SimpleData>
		<SimpleData name="Longitude">74.1246</SimpleData>
	</SchemaData></ExtendedData>
      <Point><coordinates>74.1246,21.7799</coordinates></Point>
  </Placemark>
  <Placemark>
	<ExtendedData><SchemaData schemaUrl="#TCL_WADI_coordinates">
		<SimpleData name="Latitude">21.7746</SimpleData>
		<SimpleData name="Longitude">74.1355</SimpleData>
	</SchemaData></ExtendedData>
      <Point><coordinates>74.1355,21.7746</coordinates></Point>
  </Placemark>
  <Placemark>
	<ExtendedData><SchemaData schemaUrl="#TCL_WADI_coordinates">
		<SimpleData name="Latitude">21.7809</SimpleData>
		<SimpleData name="Longitude">74.1259</SimpleData>
	</SchemaData></ExtendedData>
      <Point><coordinates>74.1259,21.7809</coordinates></Point>
  </Placemark>
  <Placemark>
	<ExtendedData><SchemaData schemaUrl="#TCL_WADI_coordinates">
		<SimpleData name="Latitude">21.7768</SimpleData>
		<SimpleData name="Longitude">74.1335</SimpleData>
	</SchemaData></ExtendedData>
      <Point><coordinates>74.1335,21.7768</coordinates></Point>
  </Placemark>
  <Placemark>
	<ExtendedData><SchemaData schemaUrl="#TCL_WADI_coordinates">
		<SimpleData name="Latitude">21.8436</SimpleData>
		<SimpleData name="Longitude">74.1507</SimpleData>
	</SchemaData></ExtendedData>
      <Point><coordinates>74.1507,21.8436</coordinates></Point>
  </Placemark>
  <Placemark>
	<ExtendedData><SchemaData schemaUrl="#TCL_WADI_coordinates">
		<SimpleData name="Latitude">21.8437</SimpleData>
		<SimpleData name="Longitude">74.1404</SimpleData>
	</SchemaData></ExtendedData>
      <Point><coordinates>74.1404,21.8437</coordinates></Point>
  </Placemark>
  <Placemark>
	<ExtendedData><SchemaData schemaUrl="#TCL_WADI_coordinates">
		<SimpleData name="Latitude">21.8415</SimpleData>
		<SimpleData name="Longitude">74.1503</SimpleData>
	</SchemaData></ExtendedData>
      <Point><coordinates>74.1503,21.8415</coordinates></Point>
  </Placemark>
  <Placemark>
	<ExtendedData><SchemaData schemaUrl="#TCL_WADI_coordinates">
		<SimpleData name="Latitude">21.8438</SimpleData>
		<SimpleData name="Longitude">74.1333</SimpleData>
	</SchemaData></ExtendedData>
      <Point><coordinates>74.1333,21.8438</coordinates></Point>
  </Placemark>
  <Placemark>
	<ExtendedData><SchemaData schemaUrl="#TCL_WADI_coordinates">
		<SimpleData name="Latitude">21.8412</SimpleData>
		<SimpleData name="Longitude">74.1458</SimpleData>
	</SchemaData></ExtendedData>
      <Point><coordinates>74.1458,21.8412</coordinates></Point>
  </Placemark>
  <Placemark>
	<ExtendedData><SchemaData schemaUrl="#TCL_WADI_coordinates">
		<SimpleData name="Latitude">21.8439</SimpleData>
		<SimpleData name="Longitude">74.1498</SimpleData>
	</SchemaData></ExtendedData>
      <Point><coordinates>74.1498,21.8439</coordinates></Point>
  </Placemark>
  <Placemark>
	<ExtendedData><SchemaData schemaUrl="#TCL_WADI_coordinates">
		<SimpleData name="Latitude">21.8453</SimpleData>
		<SimpleData name="Longitude">74.1483</SimpleData>
	</SchemaData></ExtendedData>
      <Point><coordinates>74.1483,21.8453</coordinates></Point>
  </Placemark>
  <Placemark>
	<ExtendedData><SchemaData schemaUrl="#TCL_WADI_coordinates">
		<SimpleData name="Latitude">21.8414</SimpleData>
		<SimpleData name="Longitude">74.1436</SimpleData>
	</SchemaData></ExtendedData>
      <Point><coordinates>74.1436,21.8414</coordinates></Point>
  </Placemark>
  <Placemark>
	<ExtendedData><SchemaData schemaUrl="#TCL_WADI_coordinates">
		<SimpleData name="Latitude">21.8493</SimpleData>
		<SimpleData name="Longitude">74.1424</SimpleData>
	</SchemaData></ExtendedData>
      <Point><coordinates>74.1424,21.8493</coordinates></Point>
  </Placemark>
  <Placemark>
	<ExtendedData><SchemaData schemaUrl="#TCL_WADI_coordinates">
		<SimpleData name="Latitude">21.8486</SimpleData>
		<SimpleData name="Longitude">74.1442</SimpleData>
	</SchemaData></ExtendedData>
      <Point><coordinates>74.1442,21.8486</coordinates></Point>
  </Placemark>
  <Placemark>
	<ExtendedData><SchemaData schemaUrl="#TCL_WADI_coordinates">
		<SimpleData name="Latitude">21.8418</SimpleData>
		<SimpleData name="Longitude">74.1452</SimpleData>
	</SchemaData></ExtendedData>
      <Point><coordinates>74.1452,21.8418</coordinates></Point>
  </Placemark>
  <Placemark>
	<ExtendedData><SchemaData schemaUrl="#TCL_WADI_coordinates">
		<SimpleData name="Latitude">21.8479</SimpleData>
		<SimpleData name="Longitude">74.1347</SimpleData>
	</SchemaData></ExtendedData>
      <Point><coordinates>74.1347,21.8479</coordinates></Point>
  </Placemark>
  <Placemark>
	<ExtendedData><SchemaData schemaUrl="#TCL_WADI_coordinates">
		<SimpleData name="Latitude">21.8354</SimpleData>
		<SimpleData name="Longitude">74.1438</SimpleData>
	</SchemaData></ExtendedData>
      <Point><coordinates>74.1438,21.8354</coordinates></Point>
  </Placemark>
  <Placemark>
	<ExtendedData><SchemaData schemaUrl="#TCL_WADI_coordinates">
		<SimpleData name="Latitude">21.8242</SimpleData>
		<SimpleData name="Longitude">74.1346</SimpleData>
	</SchemaData></ExtendedData>
      <Point><coordinates>74.1346,21.8242</coordinates></Point>
  </Placemark>
  <Placemark>
	<ExtendedData><SchemaData schemaUrl="#TCL_WADI_coordinates">
		<SimpleData name="Latitude">21.8337</SimpleData>
		<SimpleData name="Longitude">74.1466</SimpleData>
	</SchemaData></ExtendedData>
      <Point><coordinates>74.1466,21.8337</coordinates></Point>
  </Placemark>
  <Placemark>
	<ExtendedData><SchemaData schemaUrl="#TCL_WADI_coordinates">
		<SimpleData name="Latitude">21.8367</SimpleData>
		<SimpleData name="Longitude">74.1458</SimpleData>
	</SchemaData></ExtendedData>
      <Point><coordinates>74.1458,21.8367</coordinates></Point>
  </Placemark>
  <Placemark>
	<ExtendedData><SchemaData schemaUrl="#TCL_WADI_coordinates">
		<SimpleData name="Latitude">21.838</SimpleData>
		<SimpleData name="Longitude">74.1436</SimpleData>
	</SchemaData></ExtendedData>
      <Point><coordinates>74.1436,21.838</coordinates></Point>
  </Placemark>
  <Placemark>
	<ExtendedData><SchemaData schemaUrl="#TCL_WADI_coordinates">
		<SimpleData name="Latitude">21.838</SimpleData>
		<SimpleData name="Longitude">74.1436</SimpleData>
	</SchemaData></ExtendedData>
      <Point><coordinates>74.1436,21.838</coordinates></Point>
  </Placemark>
  <Placemark>
	<ExtendedData><SchemaData schemaUrl="#TCL_WADI_coordinates">
		<SimpleData name="Latitude">21.8345</SimpleData>
		<SimpleData name="Longitude">74.1497</SimpleData>
	</SchemaData></ExtendedData>
      <Point><coordinates>74.1497,21.8345</coordinates></Point>
  </Placemark>
  <Placemark>
	<ExtendedData><SchemaData schemaUrl="#TCL_WADI_coordinates">
		<SimpleData name="Latitude">21.8295</SimpleData>
		<SimpleData name="Longitude">74.1355</SimpleData>
	</SchemaData></ExtendedData>
      <Point><coordinates>74.1355,21.8295</coordinates></Point>
  </Placemark>
  <Placemark>
	<ExtendedData><SchemaData schemaUrl="#TCL_WADI_coordinates">
		<SimpleData name="Latitude">21.8322</SimpleData>
		<SimpleData name="Longitude">74.1392</SimpleData>
	</SchemaData></ExtendedData>
      <Point><coordinates>74.1392,21.8322</coordinates></Point>
  </Placemark>
  <Placemark>
	<ExtendedData><SchemaData schemaUrl="#TCL_WADI_coordinates">
		<SimpleData name="Latitude">21.8322</SimpleData>
		<SimpleData name="Longitude">74.1392</SimpleData>
	</SchemaData></ExtendedData>
      <Point><coordinates>74.1392,21.8322</coordinates></Point>
  </Placemark>
  <Placemark>
	<ExtendedData><SchemaData schemaUrl="#TCL_WADI_coordinates">
		<SimpleData name="Latitude">21.8305</SimpleData>
		<SimpleData name="Longitude">74.1375</SimpleData>
	</SchemaData></ExtendedData>
      <Point><coordinates>74.1375,21.8305</coordinates></Point>
  </Placemark>
  <Placemark>
	<ExtendedData><SchemaData schemaUrl="#TCL_WADI_coordinates">
		<SimpleData name="Latitude">21.8035</SimpleData>
		<SimpleData name="Longitude">74.2549</SimpleData>
	</SchemaData></ExtendedData>
      <Point><coordinates>74.2549,21.8035</coordinates></Point>
  </Placemark>
  <Placemark>
	<ExtendedData><SchemaData schemaUrl="#TCL_WADI_coordinates">
		<SimpleData name="Latitude">21.809</SimpleData>
		<SimpleData name="Longitude">74.2654</SimpleData>
	</SchemaData></ExtendedData>
      <Point><coordinates>74.2654,21.809</coordinates></Point>
  </Placemark>
  <Placemark>
	<ExtendedData><SchemaData schemaUrl="#TCL_WADI_coordinates">
		<SimpleData name="Latitude">21.8034</SimpleData>
		<SimpleData name="Longitude">74.2542</SimpleData>
	</SchemaData></ExtendedData>
      <Point><coordinates>74.2542,21.8034</coordinates></Point>
  </Placemark>
  <Placemark>
	<ExtendedData><SchemaData schemaUrl="#TCL_WADI_coordinates">
		<SimpleData name="Latitude">21.8035</SimpleData>
		<SimpleData name="Longitude">74.2553</SimpleData>
	</SchemaData></ExtendedData>
      <Point><coordinates>74.2553,21.8035</coordinates></Point>
  </Placemark>
  <Placemark>
	<ExtendedData><SchemaData schemaUrl="#TCL_WADI_coordinates">
		<SimpleData name="Latitude">21.8031</SimpleData>
		<SimpleData name="Longitude">74.2559</SimpleData>
	</SchemaData></ExtendedData>
      <Point><coordinates>74.2559,21.8031</coordinates></Point>
  </Placemark>
  <Placemark>
	<ExtendedData><SchemaData schemaUrl="#TCL_WADI_coordinates">
		<SimpleData name="Latitude">21.8032</SimpleData>
		<SimpleData name="Longitude">74.2559</SimpleData>
	</SchemaData></ExtendedData>
      <Point><coordinates>74.2559,21.8032</coordinates></Point>
  </Placemark>
  <Placemark>
	<ExtendedData><SchemaData schemaUrl="#TCL_WADI_coordinates">
		<SimpleData name="Latitude">21.8032</SimpleData>
		<SimpleData name="Longitude">74.2558</SimpleData>
	</SchemaData></ExtendedData>
      <Point><coordinates>74.2558,21.8032</coordinates></Point>
  </Placemark>
  <Placemark>
	<ExtendedData><SchemaData schemaUrl="#TCL_WADI_coordinates">
		<SimpleData name="Latitude">21.8028</SimpleData>
		<SimpleData name="Longitude">74.257</SimpleData>
	</SchemaData></ExtendedData>
      <Point><coordinates>74.257,21.8028</coordinates></Point>
  </Placemark>
  <Placemark>
	<ExtendedData><SchemaData schemaUrl="#TCL_WADI_coordinates">
		<SimpleData name="Latitude">21.7992</SimpleData>
		<SimpleData name="Longitude">74.2593</SimpleData>
	</SchemaData></ExtendedData>
      <Point><coordinates>74.2593,21.7992</coordinates></Point>
  </Placemark>
  <Placemark>
	<ExtendedData><SchemaData schemaUrl="#TCL_WADI_coordinates">
		<SimpleData name="Latitude">21.7982</SimpleData>
		<SimpleData name="Longitude">74.259</SimpleData>
	</SchemaData></ExtendedData>
      <Point><coordinates>74.259,21.7982</coordinates></Point>
  </Placemark>
  <Placemark>
	<ExtendedData><SchemaData schemaUrl="#TCL_WADI_coordinates">
		<SimpleData name="Latitude">21.7984</SimpleData>
		<SimpleData name="Longitude">74.259</SimpleData>
	</SchemaData></ExtendedData>
      <Point><coordinates>74.259,21.7984</coordinates></Point>
  </Placemark>
  <Placemark>
	<ExtendedData><SchemaData schemaUrl="#TCL_WADI_coordinates">
		<SimpleData name="Latitude">21.8994</SimpleData>
		<SimpleData name="Longitude">74.259</SimpleData>
	</SchemaData></ExtendedData>
      <Point><coordinates>74.259,21.8994</coordinates></Point>
  </Placemark>
  <Placemark>
	<ExtendedData><SchemaData schemaUrl="#TCL_WADI_coordinates">
		<SimpleData name="Latitude">21.8046</SimpleData>
		<SimpleData name="Longitude">74.2513</SimpleData>
	</SchemaData></ExtendedData>
      <Point><coordinates>74.2513,21.8046</coordinates></Point>
  </Placemark>
  <Placemark>
	<ExtendedData><SchemaData schemaUrl="#TCL_WADI_coordinates">
		<SimpleData name="Latitude">21.8048</SimpleData>
		<SimpleData name="Longitude">74.2517</SimpleData>
	</SchemaData></ExtendedData>
      <Point><coordinates>74.2517,21.8048</coordinates></Point>
  </Placemark>
  <Placemark>
	<ExtendedData><SchemaData schemaUrl="#TCL_WADI_coordinates">
		<SimpleData name="Latitude">21.8048</SimpleData>
		<SimpleData name="Longitude">74.2516</SimpleData>
	</SchemaData></ExtendedData>
      <Point><coordinates>74.2516,21.8048</coordinates></Point>
  </Placemark>
  <Placemark>
	<ExtendedData><SchemaData schemaUrl="#TCL_WADI_coordinates">
		<SimpleData name="Latitude">21.8047</SimpleData>
		<SimpleData name="Longitude">74.2513</SimpleData>
	</SchemaData></ExtendedData>
      <Point><coordinates>74.2513,21.8047</coordinates></Point>
  </Placemark>
  <Placemark>
	<ExtendedData><SchemaData schemaUrl="#TCL_WADI_coordinates">
		<SimpleData name="Latitude">21.8047</SimpleData>
		<SimpleData name="Longitude">74.2517</SimpleData>
	</SchemaData></ExtendedData>
      <Point><coordinates>74.2517,21.8047</coordinates></Point>
  </Placemark>
  <Placemark>
	<ExtendedData><SchemaData schemaUrl="#TCL_WADI_coordinates">
		<SimpleData name="Latitude">21.7937</SimpleData>
		<SimpleData name="Longitude">74.2737</SimpleData>
	</SchemaData></ExtendedData>
      <Point><coordinates>74.2737,21.7937</coordinates></Point>
  </Placemark>
  <Placemark>
	<ExtendedData><SchemaData schemaUrl="#TCL_WADI_coordinates">
		<SimpleData name="Latitude">21.7995</SimpleData>
		<SimpleData name="Longitude">74.2652</SimpleData>
	</SchemaData></ExtendedData>
      <Point><coordinates>74.2652,21.7995</coordinates></Point>
  </Placemark>
  <Placemark>
	<ExtendedData><SchemaData schemaUrl="#TCL_WADI_coordinates">
		<SimpleData name="Latitude">21.8086</SimpleData>
		<SimpleData name="Longitude">74.2681</SimpleData>
	</SchemaData></ExtendedData>
      <Point><coordinates>74.2681,21.8086</coordinates></Point>
  </Placemark>
  <Placemark>
	<ExtendedData><SchemaData schemaUrl="#TCL_WADI_coordinates">
		<SimpleData name="Latitude">21.8047</SimpleData>
		<SimpleData name="Longitude">74.2513</SimpleData>
	</SchemaData></ExtendedData>
      <Point><coordinates>74.2513,21.8047</coordinates></Point>
  </Placemark>
  <Placemark>
	<ExtendedData><SchemaData schemaUrl="#TCL_WADI_coordinates">
		<SimpleData name="Latitude">21.7991</SimpleData>
		<SimpleData name="Longitude">74.2651</SimpleData>
	</SchemaData></ExtendedData>
      <Point><coordinates>74.2651,21.7991</coordinates></Point>
  </Placemark>
  <Placemark>
	<ExtendedData><SchemaData schemaUrl="#TCL_WADI_coordinates">
		<SimpleData name="Latitude">21.7995</SimpleData>
		<SimpleData name="Longitude">74.2652</SimpleData>
	</SchemaData></ExtendedData>
      <Point><coordinates>74.2652,21.7995</coordinates></Point>
  </Placemark>
  <Placemark>
	<ExtendedData><SchemaData schemaUrl="#TCL_WADI_coordinates">
		<SimpleData name="Latitude">21.8045</SimpleData>
		<SimpleData name="Longitude">74.2514</SimpleData>
	</SchemaData></ExtendedData>
      <Point><coordinates>74.2514,21.8045</coordinates></Point>
  </Placemark>
  <Placemark>
	<ExtendedData><SchemaData schemaUrl="#TCL_WADI_coordinates">
		<SimpleData name="Latitude">21.8028</SimpleData>
		<SimpleData name="Longitude">74.2594</SimpleData>
	</SchemaData></ExtendedData>
      <Point><coordinates>74.2594,21.8028</coordinates></Point>
  </Placemark>
  <Placemark>
	<ExtendedData><SchemaData schemaUrl="#TCL_WADI_coordinates">
		<SimpleData name="Latitude">21.7946</SimpleData>
		<SimpleData name="Longitude">74.2697</SimpleData>
	</SchemaData></ExtendedData>
      <Point><coordinates>74.2697,21.7946</coordinates></Point>
  </Placemark>
  <Placemark>
	<ExtendedData><SchemaData schemaUrl="#TCL_WADI_coordinates">
		<SimpleData name="Latitude">21.8215</SimpleData>
		<SimpleData name="Longitude">74.2109</SimpleData>
	</SchemaData></ExtendedData>
      <Point><coordinates>74.2109,21.8215</coordinates></Point>
  </Placemark>
  <Placemark>
	<ExtendedData><SchemaData schemaUrl="#TCL_WADI_coordinates">
		<SimpleData name="Latitude">21.822</SimpleData>
		<SimpleData name="Longitude">74.2062</SimpleData>
	</SchemaData></ExtendedData>
      <Point><coordinates>74.2062,21.822</coordinates></Point>
  </Placemark>
  <Placemark>
	<ExtendedData><SchemaData schemaUrl="#TCL_WADI_coordinates">
		<SimpleData name="Latitude">21.7949</SimpleData>
		<SimpleData name="Longitude">74.269</SimpleData>
	</SchemaData></ExtendedData>
      <Point><coordinates>74.269,21.7949</coordinates></Point>
  </Placemark>
  <Placemark>
	<ExtendedData><SchemaData schemaUrl="#TCL_WADI_coordinates">
		<SimpleData name="Latitude">21.8069</SimpleData>
		<SimpleData name="Longitude">74.1332</SimpleData>
	</SchemaData></ExtendedData>
      <Point><coordinates>74.1332,21.8069</coordinates></Point>
  </Placemark>
  <Placemark>
	<ExtendedData><SchemaData schemaUrl="#TCL_WADI_coordinates">
		<SimpleData name="Latitude">21.8168</SimpleData>
		<SimpleData name="Longitude">74.1471</SimpleData>
	</SchemaData></ExtendedData>
      <Point><coordinates>74.1471,21.8168</coordinates></Point>
  </Placemark>
  <Placemark>
	<ExtendedData><SchemaData schemaUrl="#TCL_WADI_coordinates">
		<SimpleData name="Latitude">21.8111</SimpleData>
		<SimpleData name="Longitude">74.136</SimpleData>
	</SchemaData></ExtendedData>
      <Point><coordinates>74.136,21.8111</coordinates></Point>
  </Placemark>
  <Placemark>
	<ExtendedData><SchemaData schemaUrl="#TCL_WADI_coordinates">
		<SimpleData name="Latitude">21.8176</SimpleData>
		<SimpleData name="Longitude">74.1404</SimpleData>
	</SchemaData></ExtendedData>
      <Point><coordinates>74.1404,21.8176</coordinates></Point>
  </Placemark>
  <Placemark>
	<ExtendedData><SchemaData schemaUrl="#TCL_WADI_coordinates">
		<SimpleData name="Latitude">21.8486</SimpleData>
		<SimpleData name="Longitude">74.1307</SimpleData>
	</SchemaData></ExtendedData>
      <Point><coordinates>74.1307,21.8486</coordinates></Point>
  </Placemark>
  <Placemark>
	<ExtendedData><SchemaData schemaUrl="#TCL_WADI_coordinates">
		<SimpleData name="Latitude">21.8482</SimpleData>
		<SimpleData name="Longitude">74.1305</SimpleData>
	</SchemaData></ExtendedData>
      <Point><coordinates>74.1305,21.8482</coordinates></Point>
  </Placemark>
  <Placemark>
	<ExtendedData><SchemaData schemaUrl="#TCL_WADI_coordinates">
		<SimpleData name="Latitude">21.8451</SimpleData>
		<SimpleData name="Longitude">74.1306</SimpleData>
	</SchemaData></ExtendedData>
      <Point><coordinates>74.1306,21.8451</coordinates></Point>
  </Placemark>
  <Placemark>
	<ExtendedData><SchemaData schemaUrl="#TCL_WADI_coordinates">
		<SimpleData name="Latitude">21.8456</SimpleData>
		<SimpleData name="Longitude">74.1331</SimpleData>
	</SchemaData></ExtendedData>
      <Point><coordinates>74.1331,21.8456</coordinates></Point>
  </Placemark>
  <Placemark>
	<ExtendedData><SchemaData schemaUrl="#TCL_WADI_coordinates">
		<SimpleData name="Latitude">21.8456</SimpleData>
		<SimpleData name="Longitude">74.1346</SimpleData>
	</SchemaData></ExtendedData>
      <Point><coordinates>74.1346,21.8456</coordinates></Point>
  </Placemark>
  <Placemark>
	<ExtendedData><SchemaData schemaUrl="#TCL_WADI_coordinates">
		<SimpleData name="Latitude">21.8475</SimpleData>
		<SimpleData name="Longitude">74.1302</SimpleData>
	</SchemaData></ExtendedData>
      <Point><coordinates>74.1302,21.8475</coordinates></Point>
  </Placemark>
  <Placemark>
	<ExtendedData><SchemaData schemaUrl="#TCL_WADI_coordinates">
		<SimpleData name="Latitude">21.8486</SimpleData>
		<SimpleData name="Longitude">74.1307</SimpleData>
	</SchemaData></ExtendedData>
      <Point><coordinates>74.1307,21.8486</coordinates></Point>
  </Placemark>
  <Placemark>
	<ExtendedData><SchemaData schemaUrl="#TCL_WADI_coordinates">
		<SimpleData name="Latitude">21.825</SimpleData>
		<SimpleData name="Longitude">74.11</SimpleData>
	</SchemaData></ExtendedData>
      <Point><coordinates>74.11,21.825</coordinates></Point>
  </Placemark>
  <Placemark>
	<ExtendedData><SchemaData schemaUrl="#TCL_WADI_coordinates">
		<SimpleData name="Latitude">21.82</SimpleData>
		<SimpleData name="Longitude">74.11</SimpleData>
	</SchemaData></ExtendedData>
      <Point><coordinates>74.11,21.82</coordinates></Point>
  </Placemark>
  <Placemark>
	<ExtendedData><SchemaData schemaUrl="#TCL_WADI_coordinates">
		<SimpleData name="Latitude">21.8236</SimpleData>
		<SimpleData name="Longitude">74.1203</SimpleData>
	</SchemaData></ExtendedData>
      <Point><coordinates>74.1203,21.8236</coordinates></Point>
  </Placemark>
  <Placemark>
	<ExtendedData><SchemaData schemaUrl="#TCL_WADI_coordinates">
		<SimpleData name="Latitude">21.8147</SimpleData>
		<SimpleData name="Longitude">74.1309</SimpleData>
	</SchemaData></ExtendedData>
      <Point><coordinates>74.1309,21.8147</coordinates></Point>
  </Placemark>
  <Placemark>
	<ExtendedData><SchemaData schemaUrl="#TCL_WADI_coordinates">
		<SimpleData name="Latitude">21.8137</SimpleData>
		<SimpleData name="Longitude">74.1272</SimpleData>
	</SchemaData></ExtendedData>
      <Point><coordinates>74.1272,21.8137</coordinates></Point>
  </Placemark>
  <Placemark>
	<ExtendedData><SchemaData schemaUrl="#TCL_WADI_coordinates">
		<SimpleData name="Latitude">21.8194</SimpleData>
		<SimpleData name="Longitude">74.11</SimpleData>
	</SchemaData></ExtendedData>
      <Point><coordinates>74.11,21.8194</coordinates></Point>
  </Placemark>
  <Placemark>
	<ExtendedData><SchemaData schemaUrl="#TCL_WADI_coordinates">
		<SimpleData name="Latitude">21.8213</SimpleData>
		<SimpleData name="Longitude">74.11</SimpleData>
	</SchemaData></ExtendedData>
      <Point><coordinates>74.11,21.8213</coordinates></Point>
  </Placemark>
  <Placemark>
	<ExtendedData><SchemaData schemaUrl="#TCL_WADI_coordinates">
		<SimpleData name="Latitude">21.8117</SimpleData>
		<SimpleData name="Longitude">74.1227</SimpleData>
	</SchemaData></ExtendedData>
      <Point><coordinates>74.1227,21.8117</coordinates></Point>
  </Placemark>
  <Placemark>
	<ExtendedData><SchemaData schemaUrl="#TCL_WADI_coordinates">
		<SimpleData name="Latitude">21.824</SimpleData>
		<SimpleData name="Longitude">74.1174</SimpleData>
	</SchemaData></ExtendedData>
      <Point><coordinates>74.1174,21.824</coordinates></Point>
  </Placemark>
  <Placemark>
	<ExtendedData><SchemaData schemaUrl="#TCL_WADI_coordinates">
		<SimpleData name="Latitude">21.8194</SimpleData>
		<SimpleData name="Longitude">74.1168</SimpleData>
	</SchemaData></ExtendedData>
      <Point><coordinates>74.1168,21.8194</coordinates></Point>
  </Placemark>
  <Placemark>
	<ExtendedData><SchemaData schemaUrl="#TCL_WADI_coordinates">
		<SimpleData name="Latitude">21.7089</SimpleData>
		<SimpleData name="Longitude">74.0939</SimpleData>
	</SchemaData></ExtendedData>
      <Point><coordinates>74.0939,21.7089</coordinates></Point>
  </Placemark>
  <Placemark>
	<ExtendedData><SchemaData schemaUrl="#TCL_WADI_coordinates">
		<SimpleData name="Latitude">21.7088</SimpleData>
		<SimpleData name="Longitude">74.0938</SimpleData>
	</SchemaData></ExtendedData>
      <Point><coordinates>74.0938,21.7088</coordinates></Point>
  </Placemark>
  <Placemark>
	<ExtendedData><SchemaData schemaUrl="#TCL_WADI_coordinates">
		<SimpleData name="Latitude">21.71</SimpleData>
		<SimpleData name="Longitude">74.0926</SimpleData>
	</SchemaData></ExtendedData>
      <Point><coordinates>74.0926,21.71</coordinates></Point>
  </Placemark>
  <Placemark>
	<ExtendedData><SchemaData schemaUrl="#TCL_WADI_coordinates">
		<SimpleData name="Latitude">21.7117</SimpleData>
		<SimpleData name="Longitude">74.0931</SimpleData>
	</SchemaData></ExtendedData>
      <Point><coordinates>74.0931,21.7117</coordinates></Point>
  </Placemark>
  <Placemark>
	<ExtendedData><SchemaData schemaUrl="#TCL_WADI_coordinates">
		<SimpleData name="Latitude">21.7117</SimpleData>
		<SimpleData name="Longitude">74.0974</SimpleData>
	</SchemaData></ExtendedData>
      <Point><coordinates>74.0974,21.7117</coordinates></Point>
  </Placemark>
  <Placemark>
	<ExtendedData><SchemaData schemaUrl="#TCL_WADI_coordinates">
		<SimpleData name="Latitude">21.7194</SimpleData>
		<SimpleData name="Longitude">74.1003</SimpleData>
	</SchemaData></ExtendedData>
      <Point><coordinates>74.1003,21.7194</coordinates></Point>
  </Placemark>
  <Placemark>
	<ExtendedData><SchemaData schemaUrl="#TCL_WADI_coordinates">
		<SimpleData name="Latitude">21.7158</SimpleData>
		<SimpleData name="Longitude">74.0876</SimpleData>
	</SchemaData></ExtendedData>
      <Point><coordinates>74.0876,21.7158</coordinates></Point>
  </Placemark>
  <Placemark>
	<ExtendedData><SchemaData schemaUrl="#TCL_WADI_coordinates">
		<SimpleData name="Latitude">21.7342</SimpleData>
		<SimpleData name="Longitude">74.0294</SimpleData>
	</SchemaData></ExtendedData>
      <Point><coordinates>74.0294,21.7342</coordinates></Point>
  </Placemark>
  <Placemark>
	<ExtendedData><SchemaData schemaUrl="#TCL_WADI_coordinates">
		<SimpleData name="Latitude">21.7332</SimpleData>
		<SimpleData name="Longitude">74.0343</SimpleData>
	</SchemaData></ExtendedData>
      <Point><coordinates>74.0343,21.7332</coordinates></Point>
  </Placemark>
  <Placemark>
	<ExtendedData><SchemaData schemaUrl="#TCL_WADI_coordinates">
		<SimpleData name="Latitude">21.7279</SimpleData>
		<SimpleData name="Longitude">74.038</SimpleData>
	</SchemaData></ExtendedData>
      <Point><coordinates>74.038,21.7279</coordinates></Point>
  </Placemark>
  <Placemark>
	<ExtendedData><SchemaData schemaUrl="#TCL_WADI_coordinates">
		<SimpleData name="Latitude">21.7311</SimpleData>
		<SimpleData name="Longitude">74.0331</SimpleData>
	</SchemaData></ExtendedData>
      <Point><coordinates>74.0331,21.7311</coordinates></Point>
  </Placemark>
  <Placemark>
	<ExtendedData><SchemaData schemaUrl="#TCL_WADI_coordinates">
		<SimpleData name="Latitude">21.7284</SimpleData>
		<SimpleData name="Longitude">74.0373</SimpleData>
	</SchemaData></ExtendedData>
      <Point><coordinates>74.0373,21.7284</coordinates></Point>
  </Placemark>
  <Placemark>
	<ExtendedData><SchemaData schemaUrl="#TCL_WADI_coordinates">
		<SimpleData name="Latitude">21.7255</SimpleData>
		<SimpleData name="Longitude">74.2624</SimpleData>
	</SchemaData></ExtendedData>
      <Point><coordinates>74.2624,21.7255</coordinates></Point>
  </Placemark>
  <Placemark>
	<ExtendedData><SchemaData schemaUrl="#TCL_WADI_coordinates">
		<SimpleData name="Latitude">21.7259</SimpleData>
		<SimpleData name="Longitude">74.0268</SimpleData>
	</SchemaData></ExtendedData>
      <Point><coordinates>74.0268,21.7259</coordinates></Point>
  </Placemark>
  <Placemark>
	<ExtendedData><SchemaData schemaUrl="#TCL_WADI_coordinates">
		<SimpleData name="Latitude">21.7269</SimpleData>
		<SimpleData name="Longitude">74.0349</SimpleData>
	</SchemaData></ExtendedData>
      <Point><coordinates>74.0349,21.7269</coordinates></Point>
  </Placemark>
  <Placemark>
	<ExtendedData><SchemaData schemaUrl="#TCL_WADI_coordinates">
		<SimpleData name="Latitude">21.7396</SimpleData>
		<SimpleData name="Longitude">74.0337</SimpleData>
	</SchemaData></ExtendedData>
      <Point><coordinates>74.0337,21.7396</coordinates></Point>
  </Placemark>
  <Placemark>
	<ExtendedData><SchemaData schemaUrl="#TCL_WADI_coordinates">
		<SimpleData name="Latitude">21.7281</SimpleData>
		<SimpleData name="Longitude">74.0324</SimpleData>
	</SchemaData></ExtendedData>
      <Point><coordinates>74.0324,21.7281</coordinates></Point>
  </Placemark>
  <Placemark>
	<ExtendedData><SchemaData schemaUrl="#TCL_WADI_coordinates">
		<SimpleData name="Latitude">21.7295</SimpleData>
		<SimpleData name="Longitude">74.0316</SimpleData>
	</SchemaData></ExtendedData>
      <Point><coordinates>74.0316,21.7295</coordinates></Point>
  </Placemark>
  <Placemark>
	<ExtendedData><SchemaData schemaUrl="#TCL_WADI_coordinates">
		<SimpleData name="Latitude">21.7163</SimpleData>
		<SimpleData name="Longitude">74.0727</SimpleData>
	</SchemaData></ExtendedData>
      <Point><coordinates>74.0727,21.7163</coordinates></Point>
  </Placemark>
  <Placemark>
	<ExtendedData><SchemaData schemaUrl="#TCL_WADI_coordinates">
		<SimpleData name="Latitude">21.7171</SimpleData>
		<SimpleData name="Longitude">74.0673</SimpleData>
	</SchemaData></ExtendedData>
      <Point><coordinates>74.0673,21.7171</coordinates></Point>
  </Placemark>
  <Placemark>
	<ExtendedData><SchemaData schemaUrl="#TCL_WADI_coordinates">
		<SimpleData name="Latitude">21.7163</SimpleData>
		<SimpleData name="Longitude">74.074</SimpleData>
	</SchemaData></ExtendedData>
      <Point><coordinates>74.074,21.7163</coordinates></Point>
  </Placemark>
  <Placemark>
	<ExtendedData><SchemaData schemaUrl="#TCL_WADI_coordinates">
		<SimpleData name="Latitude">21.7127</SimpleData>
		<SimpleData name="Longitude">74.0755</SimpleData>
	</SchemaData></ExtendedData>
      <Point><coordinates>74.0755,21.7127</coordinates></Point>
  </Placemark>
  <Placemark>
	<ExtendedData><SchemaData schemaUrl="#TCL_WADI_coordinates">
		<SimpleData name="Latitude">21.713</SimpleData>
		<SimpleData name="Longitude">74.0758</SimpleData>
	</SchemaData></ExtendedData>
      <Point><coordinates>74.0758,21.713</coordinates></Point>
  </Placemark>
  <Placemark>
	<ExtendedData><SchemaData schemaUrl="#TCL_WADI_coordinates">
		<SimpleData name="Latitude">21.71533</SimpleData>
		<SimpleData name="Longitude">74.0757</SimpleData>
	</SchemaData></ExtendedData>
      <Point><coordinates>74.0757,21.71533</coordinates></Point>
  </Placemark>
  <Placemark>
	<ExtendedData><SchemaData schemaUrl="#TCL_WADI_coordinates">
		<SimpleData name="Latitude">21.7166</SimpleData>
		<SimpleData name="Longitude">74.0784</SimpleData>
	</SchemaData></ExtendedData>
      <Point><coordinates>74.0784,21.7166</coordinates></Point>
  </Placemark>
  <Placemark>
	<ExtendedData><SchemaData schemaUrl="#TCL_WADI_coordinates">
		<SimpleData name="Latitude">21.726</SimpleData>
		<SimpleData name="Longitude">74.079</SimpleData>
	</SchemaData></ExtendedData>
      <Point><coordinates>74.079,21.726</coordinates></Point>
  </Placemark>
  <Placemark>
	<ExtendedData><SchemaData schemaUrl="#TCL_WADI_coordinates">
		<SimpleData name="Latitude">21.7211</SimpleData>
		<SimpleData name="Longitude">74.8643</SimpleData>
	</SchemaData></ExtendedData>
      <Point><coordinates>74.8643,21.7211</coordinates></Point>
  </Placemark>
  <Placemark>
	<ExtendedData><SchemaData schemaUrl="#TCL_WADI_coordinates">
		<SimpleData name="Latitude">21.7173</SimpleData>
		<SimpleData name="Longitude">74.0762</SimpleData>
	</SchemaData></ExtendedData>
      <Point><coordinates>74.0762,21.7173</coordinates></Point>
  </Placemark>
  <Placemark>
	<ExtendedData><SchemaData schemaUrl="#TCL_WADI_coordinates">
		<SimpleData name="Latitude">21.7211</SimpleData>
		<SimpleData name="Longitude">74.0793</SimpleData>
	</SchemaData></ExtendedData>
      <Point><coordinates>74.0793,21.7211</coordinates></Point>
  </Placemark>
  <Placemark>
	<ExtendedData><SchemaData schemaUrl="#TCL_WADI_coordinates">
		<SimpleData name="Latitude">21.7211</SimpleData>
		<SimpleData name="Longitude">74.0864</SimpleData>
	</SchemaData></ExtendedData>
      <Point><coordinates>74.0864,21.7211</coordinates></Point>
  </Placemark>
  <Placemark>
	<ExtendedData><SchemaData schemaUrl="#TCL_WADI_coordinates">
		<SimpleData name="Latitude">21.7199</SimpleData>
		<SimpleData name="Longitude">74.0863</SimpleData>
	</SchemaData></ExtendedData>
      <Point><coordinates>74.0863,21.7199</coordinates></Point>
  </Placemark>
  <Placemark>
	<ExtendedData><SchemaData schemaUrl="#TCL_WADI_coordinates">
		<SimpleData name="Latitude">21.7199</SimpleData>
		<SimpleData name="Longitude">74.0864</SimpleData>
	</SchemaData></ExtendedData>
      <Point><coordinates>74.0864,21.7199</coordinates></Point>
  </Placemark>
  <Placemark>
	<ExtendedData><SchemaData schemaUrl="#TCL_WADI_coordinates">
		<SimpleData name="Latitude">21.72</SimpleData>
		<SimpleData name="Longitude">74.074</SimpleData>
	</SchemaData></ExtendedData>
      <Point><coordinates>74.074,21.72</coordinates></Point>
  </Placemark>
  <Placemark>
	<ExtendedData><SchemaData schemaUrl="#TCL_WADI_coordinates">
		<SimpleData name="Latitude">21.7202</SimpleData>
		<SimpleData name="Longitude">74.0734</SimpleData>
	</SchemaData></ExtendedData>
      <Point><coordinates>74.0734,21.7202</coordinates></Point>
  </Placemark>
  <Placemark>
	<ExtendedData><SchemaData schemaUrl="#TCL_WADI_coordinates">
		<SimpleData name="Latitude">21.7161</SimpleData>
		<SimpleData name="Longitude">74.0692</SimpleData>
	</SchemaData></ExtendedData>
      <Point><coordinates>74.0692,21.7161</coordinates></Point>
  </Placemark>
  <Placemark>
	<ExtendedData><SchemaData schemaUrl="#TCL_WADI_coordinates">
		<SimpleData name="Latitude">21.7203</SimpleData>
		<SimpleData name="Longitude">74.0735</SimpleData>
	</SchemaData></ExtendedData>
      <Point><coordinates>74.0735,21.7203</coordinates></Point>
  </Placemark>
  <Placemark>
	<ExtendedData><SchemaData schemaUrl="#TCL_WADI_coordinates">
		<SimpleData name="Latitude">21.7211</SimpleData>
		<SimpleData name="Longitude">74.0795</SimpleData>
	</SchemaData></ExtendedData>
      <Point><coordinates>74.0795,21.7211</coordinates></Point>
  </Placemark>
  <Placemark>
	<ExtendedData><SchemaData schemaUrl="#TCL_WADI_coordinates">
		<SimpleData name="Latitude">21.721</SimpleData>
		<SimpleData name="Longitude">74.0788</SimpleData>
	</SchemaData></ExtendedData>
      <Point><coordinates>74.0788,21.721</coordinates></Point>
  </Placemark>
  <Placemark>
	<ExtendedData><SchemaData schemaUrl="#TCL_WADI_coordinates">
		<SimpleData name="Latitude">21.7176</SimpleData>
		<SimpleData name="Longitude">74.0745</SimpleData>
	</SchemaData></ExtendedData>
      <Point><coordinates>74.0745,21.7176</coordinates></Point>
  </Placemark>
  <Placemark>
	<ExtendedData><SchemaData schemaUrl="#TCL_WADI_coordinates">
		<SimpleData name="Latitude">21.7842</SimpleData>
		<SimpleData name="Longitude">74.0726</SimpleData>
	</SchemaData></ExtendedData>
      <Point><coordinates>74.0726,21.7842</coordinates></Point>
  </Placemark>
  <Placemark>
	<ExtendedData><SchemaData schemaUrl="#TCL_WADI_coordinates">
		<SimpleData name="Latitude">21.784</SimpleData>
		<SimpleData name="Longitude">74.0727</SimpleData>
	</SchemaData></ExtendedData>
      <Point><coordinates>74.0727,21.784</coordinates></Point>
  </Placemark>
  <Placemark>
	<ExtendedData><SchemaData schemaUrl="#TCL_WADI_coordinates">
		<SimpleData name="Latitude">21.7845</SimpleData>
		<SimpleData name="Longitude">74.0726</SimpleData>
	</SchemaData></ExtendedData>
      <Point><coordinates>74.0726,21.7845</coordinates></Point>
  </Placemark>
  <Placemark>
	<ExtendedData><SchemaData schemaUrl="#TCL_WADI_coordinates">
		<SimpleData name="Latitude">21.7549</SimpleData>
		<SimpleData name="Longitude">74.0726</SimpleData>
	</SchemaData></ExtendedData>
      <Point><coordinates>74.0726,21.7549</coordinates></Point>
  </Placemark>
  <Placemark>
	<ExtendedData><SchemaData schemaUrl="#TCL_WADI_coordinates">
		<SimpleData name="Latitude">21.7865</SimpleData>
		<SimpleData name="Longitude">74.0704</SimpleData>
	</SchemaData></ExtendedData>
      <Point><coordinates>74.0704,21.7865</coordinates></Point>
  </Placemark>
  <Placemark>
	<ExtendedData><SchemaData schemaUrl="#TCL_WADI_coordinates">
		<SimpleData name="Latitude">21.8033</SimpleData>
		<SimpleData name="Longitude">74.0705</SimpleData>
	</SchemaData></ExtendedData>
      <Point><coordinates>74.0705,21.8033</coordinates></Point>
  </Placemark>
  <Placemark>
	<ExtendedData><SchemaData schemaUrl="#TCL_WADI_coordinates">
		<SimpleData name="Latitude">21.7874</SimpleData>
		<SimpleData name="Longitude">74.0325</SimpleData>
	</SchemaData></ExtendedData>
      <Point><coordinates>74.0325,21.7874</coordinates></Point>
  </Placemark>
  <Placemark>
	<ExtendedData><SchemaData schemaUrl="#TCL_WADI_coordinates">
		<SimpleData name="Latitude">21.7694</SimpleData>
		<SimpleData name="Longitude">74.0326</SimpleData>
	</SchemaData></ExtendedData>
      <Point><coordinates>74.0326,21.7694</coordinates></Point>
  </Placemark>
  <Placemark>
	<ExtendedData><SchemaData schemaUrl="#TCL_WADI_coordinates">
		<SimpleData name="Latitude">21.7861</SimpleData>
		<SimpleData name="Longitude">74.0712</SimpleData>
	</SchemaData></ExtendedData>
      <Point><coordinates>74.0712,21.7861</coordinates></Point>
  </Placemark>
  <Placemark>
	<ExtendedData><SchemaData schemaUrl="#TCL_WADI_coordinates">
		<SimpleData name="Latitude">21.7869</SimpleData>
		<SimpleData name="Longitude">74.0569</SimpleData>
	</SchemaData></ExtendedData>
      <Point><coordinates>74.0569,21.7869</coordinates></Point>
  </Placemark>
  <Placemark>
	<ExtendedData><SchemaData schemaUrl="#TCL_WADI_coordinates">
		<SimpleData name="Latitude">21.7869</SimpleData>
		<SimpleData name="Longitude">74.0566</SimpleData>
	</SchemaData></ExtendedData>
      <Point><coordinates>74.0566,21.7869</coordinates></Point>
  </Placemark>
  <Placemark>
	<ExtendedData><SchemaData schemaUrl="#TCL_WADI_coordinates">
		<SimpleData name="Latitude">21.7876</SimpleData>
		<SimpleData name="Longitude">74.057</SimpleData>
	</SchemaData></ExtendedData>
      <Point><coordinates>74.057,21.7876</coordinates></Point>
  </Placemark>
  <Placemark>
	<ExtendedData><SchemaData schemaUrl="#TCL_WADI_coordinates">
		<SimpleData name="Latitude">21.7882</SimpleData>
		<SimpleData name="Longitude">74.0531</SimpleData>
	</SchemaData></ExtendedData>
      <Point><coordinates>74.0531,21.7882</coordinates></Point>
  </Placemark>
  <Placemark>
	<ExtendedData><SchemaData schemaUrl="#TCL_WADI_coordinates">
		<SimpleData name="Latitude">21.7864</SimpleData>
		<SimpleData name="Longitude">74.0362</SimpleData>
	</SchemaData></ExtendedData>
      <Point><coordinates>74.0362,21.7864</coordinates></Point>
  </Placemark>
  <Placemark>
	<ExtendedData><SchemaData schemaUrl="#TCL_WADI_coordinates">
		<SimpleData name="Latitude">21.7778</SimpleData>
		<SimpleData name="Longitude">74.0352</SimpleData>
	</SchemaData></ExtendedData>
      <Point><coordinates>74.0352,21.7778</coordinates></Point>
  </Placemark>
  <Placemark>
	<ExtendedData><SchemaData schemaUrl="#TCL_WADI_coordinates">
		<SimpleData name="Latitude">21.7813</SimpleData>
		<SimpleData name="Longitude">74.0352</SimpleData>
	</SchemaData></ExtendedData>
      <Point><coordinates>74.0352,21.7813</coordinates></Point>
  </Placemark>
  <Placemark>
	<ExtendedData><SchemaData schemaUrl="#TCL_WADI_coordinates">
		<SimpleData name="Latitude">21.7791</SimpleData>
		<SimpleData name="Longitude">74.036</SimpleData>
	</SchemaData></ExtendedData>
      <Point><coordinates>74.036,21.7791</coordinates></Point>
  </Placemark>
  <Placemark>
	<ExtendedData><SchemaData schemaUrl="#TCL_WADI_coordinates">
		<SimpleData name="Latitude">21.7906</SimpleData>
		<SimpleData name="Longitude">74.0496</SimpleData>
	</SchemaData></ExtendedData>
      <Point><coordinates>74.0496,21.7906</coordinates></Point>
  </Placemark>
  <Placemark>
	<ExtendedData><SchemaData schemaUrl="#TCL_WADI_coordinates">
		<SimpleData name="Latitude">21.7813</SimpleData>
		<SimpleData name="Longitude">74.0453</SimpleData>
	</SchemaData></ExtendedData>
      <Point><coordinates>74.0453,21.7813</coordinates></Point>
  </Placemark>
  <Placemark>
	<ExtendedData><SchemaData schemaUrl="#TCL_WADI_coordinates">
		<SimpleData name="Latitude">21.7791</SimpleData>
		<SimpleData name="Longitude">74.0601</SimpleData>
	</SchemaData></ExtendedData>
      <Point><coordinates>74.0601,21.7791</coordinates></Point>
  </Placemark>
  <Placemark>
	<ExtendedData><SchemaData schemaUrl="#TCL_WADI_coordinates">
		<SimpleData name="Latitude">21.7531</SimpleData>
		<SimpleData name="Longitude">74.0601</SimpleData>
	</SchemaData></ExtendedData>
      <Point><coordinates>74.0601,21.7531</coordinates></Point>
  </Placemark>
  <Placemark>
	<ExtendedData><SchemaData schemaUrl="#TCL_WADI_coordinates">
		<SimpleData name="Latitude">21.7585</SimpleData>
		<SimpleData name="Longitude">74.0602</SimpleData>
	</SchemaData></ExtendedData>
      <Point><coordinates>74.0602,21.7585</coordinates></Point>
  </Placemark>
  <Placemark>
	<ExtendedData><SchemaData schemaUrl="#TCL_WADI_coordinates">
		<SimpleData name="Latitude">21.7532</SimpleData>
		<SimpleData name="Longitude">74.0433</SimpleData>
	</SchemaData></ExtendedData>
      <Point><coordinates>74.0433,21.7532</coordinates></Point>
  </Placemark>
  <Placemark>
	<ExtendedData><SchemaData schemaUrl="#TCL_WADI_coordinates">
		<SimpleData name="Latitude">21.7907</SimpleData>
		<SimpleData name="Longitude">74.0928</SimpleData>
	</SchemaData></ExtendedData>
      <Point><coordinates>74.0928,21.7907</coordinates></Point>
  </Placemark>
  <Placemark>
	<ExtendedData><SchemaData schemaUrl="#TCL_WADI_coordinates">
		<SimpleData name="Latitude">21.7526</SimpleData>
		<SimpleData name="Longitude">74.0706</SimpleData>
	</SchemaData></ExtendedData>
      <Point><coordinates>74.0706,21.7526</coordinates></Point>
  </Placemark>
  <Placemark>
	<ExtendedData><SchemaData schemaUrl="#TCL_WADI_coordinates">
		<SimpleData name="Latitude">21.8005</SimpleData>
		<SimpleData name="Longitude">74.0794</SimpleData>
	</SchemaData></ExtendedData>
      <Point><coordinates>74.0794,21.8005</coordinates></Point>
  </Placemark>
  <Placemark>
	<ExtendedData><SchemaData schemaUrl="#TCL_WADI_coordinates">
		<SimpleData name="Latitude">21.7945</SimpleData>
		<SimpleData name="Longitude">74.0622</SimpleData>
	</SchemaData></ExtendedData>
      <Point><coordinates>74.0622,21.7945</coordinates></Point>
  </Placemark>
  <Placemark>
	<ExtendedData><SchemaData schemaUrl="#TCL_WADI_coordinates">
		<SimpleData name="Latitude">21.7862</SimpleData>
		<SimpleData name="Longitude">74.0677</SimpleData>
	</SchemaData></ExtendedData>
      <Point><coordinates>74.0677,21.7862</coordinates></Point>
  </Placemark>
  <Placemark>
	<ExtendedData><SchemaData schemaUrl="#TCL_WADI_coordinates">
		<SimpleData name="Latitude">21.786</SimpleData>
		<SimpleData name="Longitude">74.0657</SimpleData>
	</SchemaData></ExtendedData>
      <Point><coordinates>74.0657,21.786</coordinates></Point>
  </Placemark>
  <Placemark>
	<ExtendedData><SchemaData schemaUrl="#TCL_WADI_coordinates">
		<SimpleData name="Latitude">21.7883</SimpleData>
		<SimpleData name="Longitude">74.0648</SimpleData>
	</SchemaData></ExtendedData>
      <Point><coordinates>74.0648,21.7883</coordinates></Point>
  </Placemark>
  <Placemark>
	<ExtendedData><SchemaData schemaUrl="#TCL_WADI_coordinates">
		<SimpleData name="Latitude">21.7854</SimpleData>
		<SimpleData name="Longitude">74.0578</SimpleData>
	</SchemaData></ExtendedData>
      <Point><coordinates>74.0578,21.7854</coordinates></Point>
  </Placemark>
  <Placemark>
	<ExtendedData><SchemaData schemaUrl="#TCL_WADI_coordinates">
		<SimpleData name="Latitude">21.7852</SimpleData>
		<SimpleData name="Longitude">74.0576</SimpleData>
	</SchemaData></ExtendedData>
      <Point><coordinates>74.0576,21.7852</coordinates></Point>
  </Placemark>
  <Placemark>
	<ExtendedData><SchemaData schemaUrl="#TCL_WADI_coordinates">
		<SimpleData name="Latitude">21.7854</SimpleData>
		<SimpleData name="Longitude">74.0571</SimpleData>
	</SchemaData></ExtendedData>
      <Point><coordinates>74.0571,21.7854</coordinates></Point>
  </Placemark>
  <Placemark>
	<ExtendedData><SchemaData schemaUrl="#TCL_WADI_coordinates">
		<SimpleData name="Latitude">21.7863</SimpleData>
		<SimpleData name="Longitude">74.0625</SimpleData>
	</SchemaData></ExtendedData>
      <Point><coordinates>74.0625,21.7863</coordinates></Point>
  </Placemark>
</Folder>
</Document></kml>
