<?xml version="1.0" encoding="utf-8" ?>
<kml xmlns="http://www.opengis.net/kml/2.2">
<Document id="root_doc">
<Schema name="project_instance_boundary_20231212" id="project_instance_boundary_20231212">
	<SimpleField name="OBJECTID" type="float"></SimpleField>
	<SimpleField name="area_ha" type="float"></SimpleField>
	<SimpleField name="Shape_Leng" type="float"></SimpleField>
	<SimpleField name="Shape_Area" type="float"></SimpleField>
</Schema>
<Folder><name>project_instance_boundary_20231212</name>
  <Placemark>
	<Style><LineStyle><color>ff0000ff</color></LineStyle><PolyStyle><fill>0</fill></PolyStyle></Style>
	<ExtendedData><SchemaData schemaUrl="#project_instance_boundary_20231212">
		<SimpleData name="OBJECTID">1</SimpleData>
		<SimpleData name="area_ha">4.06447221680</SimpleData>
		<SimpleData name="Shape_Leng">1706.08188810000</SimpleData>
		<SimpleData name="Shape_Area">50019.01892580000</SimpleData>
	</SchemaData></ExtendedData>
      <MultiGeometry><Polygon><outerBoundaryIs><LinearRing><coordinates>-0.925353652959815,6.93315717376194 -0.925269886444876,6.93300531225577 -0.92512949561445,6.93294389129304 -0.924989104830423,6.93288247029945 -0.924614729344487,6.93276547796009 -0.924614729344486,6.93276547796009 -0.923969610690656,6.93267965856437 -0.92407522307237,6.93260310676024 -0.924080824420808,6.93261021423643 -0.924086759591959,6.93261752838435 -0.924092395234596,6.93262320856484 -0.924092808522257,6.93262365514897 -0.924093164856472,6.93262409244391 -0.924099114186253,6.93263189211175 -0.924099261682291,6.93263209073672 -0.924099397441602,6.93263228388625 -0.924105937798216,6.93264187971128 -0.924106500339791,6.93264282453927 -0.924106944295622,6.93264383046408 -0.92411328702017,6.93266095951744 -0.924124973480049,6.93267171600077 -0.924138542964312,6.93268134617291 -0.924152574536802,6.93268234317755 -0.924169834576477,6.93267824207003 -0.924179847573331,6.93267284184438 -0.924185684427543,6.93266335256433 -0.92418578590244,6.93264017486973 -0.924185838780496,6.93263923890625 -0.924185988555632,6.93263831347697 -0.924190135781483,6.93261904527059 -0.924185866909024,6.93261175377655 -0.924176742865289,6.9326085525341 -0.924152968211545,6.93261846150688 -0.924151516389926,6.93261892743567 -0.924150006880956,6.93261914308284 -0.924148482569941,6.93261910232185 -0.924146986762707,6.93261880631071 -0.924145561955292,6.93261826345913 -0.924144248626616,6.93261748918957 -0.924143084088482,6.93261650549913 -0.924142101425528,6.93261534033453 -0.924136153810486,6.93260694221415 -0.924135426879001,6.93260572278624 -0.924134900193903,6.93260440457683 -0.924129696468787,6.9325876836957 -0.924118196417447,6.93257195773278 -0.925404266946862,6.9316397623273 -0.926871979255173,6.93360456834507 -0.925394862739551,6.93457139219478 -0.924810264944361,6.93381146243088 -0.925066932711196,6.93367374827985 -0.92509531844761,6.93366298097588 -0.925096548269387,6.9336578581445 -0.925150759023166,6.93362877152513 -0.9251398075777,6.93346672986538 -0.925226838405575,6.93329450016249 -0.925362877017894,6.93324710832821 -0.925353652959815,6.93315717376194</coordinates></LinearRing></outerBoundaryIs><innerBoundaryIs><LinearRing><coordinates>-0.925375635182837,6.93437701178856 -0.925419127415641,6.93436851695006 -0.925450555926557,6.93435545380886 -0.925456601650052,6.93433172892666 -0.925446242271274,6.93429844195455 -0.925430947437626,6.93426753539334 -0.925408931472412,6.9342579930793 -0.925394201874995,6.93425792870703 -0.9253721287488,6.93427136902748 -0.925355225028452,6.9342864383813 -0.925346545709887,6.93431039041217 -0.925338087245703,6.93435333233522 -0.925375635182837,6.93437701178856</coordinates></LinearRing></innerBoundaryIs><innerBoundaryIs><LinearRing><coordinates>-0.925659649364049,6.93405051602754 -0.925644296463405,6.93405044894134 -0.925616426829136,6.93405589230502 -0.925615866440214,6.93405598297032 -0.925615552362729,6.93405601866268 -0.925602941385047,6.93405722375969 -0.925595591785661,6.93409031040014 -0.925618721697249,6.93411673742523 -0.925663281040842,6.93412011338001 -0.92567650325071,6.93409975658555 -0.925679814272895,6.93406504223656 -0.925659649364049,6.93405051602754</coordinates></LinearRing></innerBoundaryIs><innerBoundaryIs><LinearRing><coordinates>-0.92511330311813,6.93406565823935 -0.925131307557193,6.93406573693202 -0.925134476310524,6.93406064126471 -0.925130768706824,6.9340416849517 -0.925122033652167,6.93402669881439 -0.925121683733249,6.93402603554287 -0.925121437426237,6.93402546945428 -0.925112408379327,6.93400262339239 -0.925104554104068,6.93399206266305 -0.925104099137171,6.93399138908625 -0.925103706156184,6.93399067761544 -0.925095164699389,6.93397341871583 -0.925094730292297,6.93397238270263 -0.925094427373402,6.93397130097569 -0.925094260589131,6.93397019012744 -0.925092437578806,6.93394913026278 -0.925092422992272,6.93394777259668 -0.925092612094602,6.93394642806644 -0.925093000618289,6.93394512701428 -0.925102123112461,6.93392140745144 -0.925083295917648,6.93388835377246 -0.925057546519313,6.93386865655549 -0.925040891948244,6.93385904997523 -0.925026468799665,6.93386172972896 -0.925015417927686,6.93387130742431 -0.925012309126706,6.93389019507025 -0.925019128845084,6.93391885426332 -0.925033221113919,6.93394464424604 -0.925043795932623,6.93395619320775 -0.925071309546478,6.93398392763671 -0.925072276472752,6.9339850806194 -0.925073038845446,6.9339863777675 -0.925073575586825,6.93398778321805 -0.925073871857304,6.9339892581138 -0.925073919465728,6.93399076167749 -0.92507308877204,6.93400672302681 -0.925090135335695,6.93402308976896 -0.925090815790945,6.93402381945242 -0.925091410556059,6.93402462042317 -0.925099020014666,6.93403613472712 -0.925099257189524,6.93403651364381 -0.925099625090713,6.93403720230646 -0.92511330311813,6.93406565823935</coordinates></LinearRing></innerBoundaryIs><innerBoundaryIs><LinearRing><coordinates>-0.925896058692609,6.93405230022208 -0.925930210293742,6.93404315339758 -0.92593293088039,6.93402469706464 -0.925921479625738,6.93399655642877 -0.925916225739491,6.93399231803045 -0.925908129981216,6.93399228265986 -0.925892170522989,6.93400017011372 -0.925881530694526,6.93401070969822 -0.925874629896435,6.93403778567475 -0.925874590286901,6.93404683835502 -0.925896058692609,6.93405230022208</coordinates></LinearRing></innerBoundaryIs><innerBoundaryIs><LinearRing><coordinates>-0.92604534364444,6.9337165965019 -0.926075097734589,6.93372665262167 -0.92610815204973,6.93370796899758 -0.92611086107603,6.93369215234825 -0.926099554910395,6.93366930809767 -0.926055719597943,6.93367062722118 -0.926046871408567,6.93369245409479 -0.92604534364444,6.9337165965019</coordinates></LinearRing></innerBoundaryIs><innerBoundaryIs><LinearRing><coordinates>-0.925864776767774,6.93344691783145 -0.925849292417151,6.9334545677996 -0.92584904764244,6.9334546851568 -0.925847719990624,6.93345521750782 -0.9258463248196,6.93345553345006 -0.925844897211462,6.93345562503905 -0.925843473063949,6.93345548997173 -0.925842088187776,6.93345513164443 -0.925840777406174,6.93345455906742 -0.925839573679228,6.93345378663837 -0.925838507275101,6.93345283378029 -0.925838195680759,6.93345250877992 -0.92580125388245,6.93341394553315 -0.925762180712244,6.93341507570895 -0.92576147328873,6.93341506900214 -0.92576121100634,6.93341505248791 -0.92572350458168,6.93341209613482 -0.925680433511608,6.93341884539907 -0.925617618772742,6.93343492737352 -0.925607953383049,6.93344689233041 -0.925606922489015,6.93344797230772 -0.92560572783783,6.93344886809053 -0.925604401986049,6.93344955526703 -0.925602981065697,6.93345001511033 -0.925601503799598,6.93345023508881 -0.925600010446114,6.93345020920763 -0.925598541702012,6.93344993817211 -0.925597137593407,6.93344942936848 -0.925595836384974,6.93344869666264 -0.925594673537157,6.93344776002224 -0.925568929808531,6.93342324985817 -0.9255688901699,6.93342321171617 -0.925568360654326,6.93342265614253 -0.925554241475569,6.93340652459852 -0.925540193102372,6.93342507155327 -0.925526752014288,6.93346609599036 -0.925531557601489,6.93350207526934 -0.925545981432117,6.93351350272405 -0.925579356781783,6.93351117877514 -0.925617968083867,6.93349072589235 -0.925619202964283,6.93349018509941 -0.925620504613963,6.93348983390336 -0.925621844063524,6.93348968012039 -0.925623191502314,6.93348972717307 -0.925650466020893,6.93349271660575 -0.925651578679788,6.93349290877676 -0.925652658468647,6.93349323876426 -0.925689854501177,6.93350719029341 -0.925707179530466,6.93350726598953 -0.925739534907681,6.93348725404421 -0.925740860592322,6.93348657767501 -0.925742279433878,6.93348612803971 -0.925743752905834,6.93348591734749 -0.925788068117478,6.93348325516348 -0.925813732045683,6.93348051872178 -0.925814325700453,6.9334804752104 -0.925814429751489,6.93348047204892 -0.925857520181647,6.93347922472215 -0.925858227601355,6.93347923233284 -0.92585973636481,6.93347943478075 -0.925861189794959,6.93347988717116 -0.925862546734401,6.93348057669355 -0.925863768758108,6.93348148382241 -0.92586482126151,6.93348258287019 -0.925865674440421,6.93348384271469 -0.925866304135009,6.93348522768036 -0.925866692513938,6.93348669854853 -0.925872126112801,6.93351788927079 -0.92590165094059,6.93351231298992 -0.925907172657326,6.93348428176422 -0.925897139032417,6.93346627234575 -0.925864776767774,6.93344691783145</coordinates></LinearRing></innerBoundaryIs><innerBoundaryIs><LinearRing><coordinates>-0.926572882375267,6.93328696993576 -0.926553883930103,6.93330835473093 -0.926553018428544,6.93330920579921 -0.926552046885568,6.93330993366927 -0.926550986725885,6.93331052528668 -0.926523403279372,6.9333235601222 -0.92652200448157,6.93332408442828 -0.92652053843203,6.93332437167073 -0.926519045069383,6.93332441402441 -0.926517565076332,6.9333242103355 -0.926516138771361,6.93332376615296 -0.926487886144811,6.93331232985609 -0.926454755902329,6.93331218516215 -0.926424601439941,6.93331900085669 -0.926423813762205,6.93331914115568 -0.926394153994564,6.93332309778525 -0.926385366124326,6.93334334290034 -0.926375437326809,6.93336837614595 -0.926380768298103,6.93340235532541 -0.926392072280737,6.93343790465936 -0.92642554904001,6.93349616489746 -0.926444025479743,6.93351656615799 -0.926454161969606,6.93350796076631 -0.92645528659075,6.93350714625241 -0.926456522699853,6.93350651330774 -0.926457841178394,6.93350607684232 -0.926459210967505,6.93350584713779 -0.926460599799623,6.93350582960521 -0.926461974958592,6.93350602465758 -0.926463304050348,6.93350642770014 -0.926476309177677,6.93351149096378 -0.926510324108245,6.93350421119117 -0.92654466414714,6.93348154912567 -0.926569536936384,6.93346278452599 -0.926656740602168,6.93339212113123 -0.926572882375267,6.93328696993576</coordinates></LinearRing></innerBoundaryIs><innerBoundaryIs><LinearRing><coordinates>-0.925962754769157,6.93330913028294 -0.926037074995225,6.93330713432601 -0.926038386175469,6.93330719429619 -0.926039674856306,6.93330744330937 -0.926040913888446,6.93330787611948 -0.92606475110671,6.93331820742418 -0.926083572808816,6.93332027125394 -0.926138443464303,6.93329429707513 -0.926138826931696,6.93329411613815 -0.926140050733385,6.93329363851976 -0.926141331160448,6.93329334437602 -0.92614264082767,6.93329323999797 -0.926143951724454,6.93329332761799 -0.926145316497095,6.93329362720629 -0.926146618640346,6.93329413370415 -0.926147826945436,6.93329483497219 -0.926148912452637,6.93329571420297 -0.926148978231374,6.93329577415561 -0.926167875590709,6.9333136324439 -0.926195158639687,6.93333783561172 -0.926225780177519,6.93333902526166 -0.926253803481598,6.93333484181859 -0.926278664266682,6.93331613232798 -0.926279546694287,6.93330218986642 -0.92627483845246,6.93329171792693 -0.926259566457689,6.93326860865682 -0.926234805014639,6.93325157815286 -0.926211084659593,6.93323562526715 -0.926175903162034,6.9332266736739 -0.926143978366213,6.93322995051652 -0.926143708668672,6.93322997465103 -0.926112581738775,6.93323222981801 -0.926111069692957,6.93323221302956 -0.926109581579546,6.93323194473951 -0.926108158996182,6.93323143244744 -0.926106841708726,6.93323069047359 -0.926105666539675,6.93322973955858 -0.926104666338846,6.93322860628357 -0.926097527052185,6.93321900695188 -0.926096701338196,6.93321766735208 -0.92609612061686,6.93321620495742 -0.926095802486493,6.93321466408467 -0.926095756587788,6.93321309142881 -0.926095984311671,6.93321153464798 -0.92609647875714,6.93321004091922 -0.926097224940396,6.93320865550887 -0.926103978972959,6.93319837014483 -0.92606920836803,6.93319744622803 -0.926060766035603,6.93320301698517 -0.92605960994091,6.93320366038057 -0.926058372294186,6.93320412838062 -0.926057079570365,6.93320441097418 -0.926055759422557,6.9332045021162 -0.926017461815148,6.93320433482162 -0.926017055665212,6.93320432400722 -0.926016897390372,6.93320431427563 -0.925997754723757,6.93320303463576 -0.925996317191769,6.9332028219015 -0.925994932303574,6.93320238187314 -0.925993635804688,6.9332017259083 -0.925992461159199,6.93320087093816 -0.925991438686028,6.93319983903048 -0.925990594776348,6.93319865681994 -0.925989951212414,6.93319735482072 -0.92598952460533,6.93319596663888 -0.925989325966301,6.93319452810495 -0.92598936042242,6.93319307634911 -0.925993619691007,6.93315231914203 -0.925987100879155,6.9331499881272 -0.925961920458916,6.93319357935001 -0.925949378428224,6.9332150113029 -0.925943767343028,6.93324134619951 -0.925943661531558,6.93326553278622 -0.925943646786157,6.9332660082362 -0.925942350524248,6.93328872511037 -0.925942335096669,6.93328894291173 -0.925941563538823,6.9332984263246 -0.925962754769157,6.93330913028294</coordinates></LinearRing></innerBoundaryIs><innerBoundaryIs><LinearRing><coordinates>-0.925428837787188,6.93280303813134 -0.925449805107442,6.93280122587853 -0.92547895507427,6.93278785623007 -0.925485417288305,6.93277417410452 -0.925488878200899,6.93274965051964 -0.925488936989754,6.93274924035164 -0.925489202045443,6.93274798470432 -0.925489644163253,6.93274677987385 -0.925490254245181,6.93274565065349 -0.925491019736827,6.93274462028059 -0.925491924885731,6.9327437099584 -0.925492275430364,6.93274340321932 -0.925532035430573,6.93270851363211 -0.925541765410358,6.93267661261132 -0.925540849597969,6.93265434712838 -0.925530637455296,6.93263889259417 -0.925512739814785,6.93263881439913 -0.925497639359262,6.93263874842451 -0.925487978952179,6.93264544387508 -0.925486654484458,6.93264620504664 -0.925485220703989,6.93264673259152 -0.9254837185214,6.93264701145706 -0.925482190799063,6.93264703368628 -0.925480681128085,6.9326467986449 -0.925479232584505,6.93264631303947 -0.925477886500193,6.93264559072594 -0.925476681283505,6.93264465231439 -0.925468736931995,6.93263731131876 -0.925434019941061,6.93267170131592 -0.925433392279563,6.9326722674094 -0.92543271434011,6.93267277229868 -0.925408892791503,6.93268885106935 -0.925401790898036,6.93271082116134 -0.925401631544318,6.93274723979403 -0.925403702577844,6.93276889287758 -0.925416291317267,6.93279219655118 -0.925428837787188,6.93280303813134</coordinates></LinearRing></innerBoundaryIs><innerBoundaryIs><LinearRing><coordinates>-0.925821815174481,6.93280395133563 -0.925849009941263,6.93280407013473 -0.925861125687822,6.9328006688019 -0.925879081750558,6.93277105742418 -0.92587351436404,6.93274645913511 -0.925863185716321,6.93273778062743 -0.925834200061003,6.93273096335692 -0.925833439268907,6.93273074849283 -0.925833374228833,6.93273072651224 -0.925829060804558,6.93272926937402 -0.925819076102218,6.93273254622095 -0.925808452836506,6.93274096234221 -0.925794921188144,6.93275245027307 -0.925794845200042,6.93276981977569 -0.925794772612913,6.93278641183622 -0.925821815174481,6.93280395133563</coordinates></LinearRing></innerBoundaryIs><innerBoundaryIs><LinearRing><coordinates>-0.924760739862655,6.93235334233483 -0.924748109247306,6.9323580124413 -0.924742314916898,6.93237701219987 -0.924739951778686,6.93239192722756 -0.924739910925521,6.93239216661408 -0.924739733889111,6.9323929297365 -0.924733599411043,6.93241502788966 -0.924739081001326,6.93242262933543 -0.924757026761862,6.93243010535615 -0.924757137832196,6.93243015194656 -0.924757372582606,6.93243025783875 -0.92477109823498,6.93243666132878 -0.924782694961987,6.9324367120118 -0.924796254112966,6.93242596914626 -0.924805972214837,6.93240009700495 -0.924796667014383,6.93238413023215 -0.924775280453891,6.93235916358136 -0.924769450150603,6.93235496424409 -0.924760739862655,6.93235334233483</coordinates></LinearRing></innerBoundaryIs><innerBoundaryIs><LinearRing><coordinates>-0.925305785139977,6.93223083924827 -0.925305195351817,6.93222943790271 -0.925304848699824,6.93222795765773 -0.925304754971865,6.9322264403087 -0.925305939805949,6.93217398794894 -0.925305945953742,6.93217382344427 -0.925306051874352,6.93217260928474 -0.925306328278921,6.93217142223101 -0.925306520024897,6.93217081195165 -0.925314096467345,6.93214562291162 -0.925314303580494,6.93214501541144 -0.925314590583782,6.93214434407492 -0.925320710797241,6.93213149486583 -0.925313796527924,6.9321120336623 -0.925309725431102,6.93210564434603 -0.925288779739239,6.93211347927357 -0.925287480138602,6.93211385769234 -0.92528613856071,6.93211403794317 -0.925284785089111,6.93211401598411 -0.92526277244513,6.93211200599707 -0.925261463509217,6.93211178902024 -0.925260200465358,6.93211138288838 -0.925259010531566,6.93211079635345 -0.925257919350365,6.93211004205499 -0.925250842679648,6.9321043338933 -0.925243869629025,6.93210430342621 -0.925226985543029,6.93212421119575 -0.925223107729467,6.93213133329359 -0.925229099594729,6.93214161467014 -0.925248578823221,6.93215590192585 -0.925249570742371,6.9321567459492 -0.925250431164242,6.93215772349911 -0.925251142271846,6.9321588143332 -0.925251689340091,6.93215999586327 -0.925252061040687,6.93216124362308 -0.925260510390714,6.93219955129894 -0.925260585612889,6.93219993402783 -0.925265257567375,6.93222675590486 -0.925265359097261,6.93222753561321 -0.925265382857151,6.93222789461273 -0.925266230667606,6.93224647139617 -0.925268345388846,6.9322587599319 -0.925271922834859,6.93226156627083 -0.9252905777261,6.93226245778084 -0.925303859826857,6.93226168682788 -0.925308974339176,6.93225952325536 -0.925318487413777,6.93225507093936 -0.925305785139977,6.93223083924827</coordinates></LinearRing></innerBoundaryIs><innerBoundaryIs><LinearRing><coordinates>-0.92539052663624,6.93212987342921 -0.925390353866188,6.93213137098144 -0.925389933856771,6.93213281884694 -0.925382313083626,6.93215263329985 -0.925381019038452,6.93216202221673 -0.925379499724111,6.93218671339131 -0.925378720011267,6.93220550364589 -0.925379843491364,6.93222351933471 -0.925382841823364,6.9322269749408 -0.925382900333014,6.93222704209388 -0.925405376951899,6.9322534798071 -0.925412794531017,6.93225240027061 -0.925427841000134,6.93224247116869 -0.925449365904554,6.93222321376778 -0.925470546892932,6.93220026646313 -0.925475627788468,6.93217849184555 -0.925475717707591,6.93215793935404 -0.925471825968717,6.93213102505828 -0.925432003344644,6.93212213813917 -0.925430624205705,6.9321217123428 -0.92542933038126,6.93212107279766 -0.925428154802512,6.93212023578184 -0.925427127391,6.93211922259958 -0.925426274297028,6.93211805903901 -0.925425617234053,6.93211677471576 -0.925416379459157,6.93209449005267 -0.925416254208119,6.93209416948254 -0.925416074710743,6.9320936344228 -0.925409585760605,6.93207207594452 -0.92539137626295,6.93206532834087 -0.925386590905872,6.93207310821819 -0.925387084694306,6.93208451729354 -0.925391103972957,6.93210088947034 -0.925391315712462,6.93210209941782 -0.925391360185738,6.93210332692228 -0.92539052663624,6.93212987342921</coordinates></LinearRing></innerBoundaryIs></Polygon></MultiGeometry>
  </Placemark>
</Folder>
</Document></kml>
