<?xml version="1.0" encoding="utf-8" ?>
<kml xmlns="http://www.opengis.net/kml/2.2">
<Document id="root_doc">
<Schema name="project_area_20240703" id="project_area_20240703">
	<SimpleField name="id" type="float"></SimpleField>
	<SimpleField name="area_ha" type="float"></SimpleField>
</Schema>
<Folder><name>project_area_20240703</name>
  <Placemark>
	<Style><LineStyle><color>ff0000ff</color></LineStyle><PolyStyle><fill>0</fill></PolyStyle></Style>
	<ExtendedData><SchemaData schemaUrl="#project_area_20240703">
		<SimpleData name="id">1</SimpleData>
		<SimpleData name="area_ha">0.35</SimpleData>
	</SchemaData></ExtendedData>
      <MultiGeometry><Polygon><outerBoundaryIs><LinearRing><coordinates>11.9442924538063,4.67317452239413 11.944144759326,4.67230779784751 11.9439483329682,4.67236174548805 11.9439177869383,4.672613865374 11.9439169126843,4.67267362962736 11.9439084723784,4.67269074566098 11.9438824867361,4.67290522546489 11.9438735013396,4.67296550545187 11.9438829704786,4.67302107384571 11.9438835509857,4.67316009190201 11.9438698745818,4.6732728879943 11.9442924538063,4.67317452239413</coordinates></LinearRing></outerBoundaryIs><innerBoundaryIs><LinearRing><coordinates>11.9440795923529,4.6728960898953 11.9440947657834,4.67286703929935 11.9441203135335,4.67288057274992 11.9441068181296,4.6729045009725 11.9440795923529,4.6728960898953</coordinates></LinearRing></innerBoundaryIs></Polygon></MultiGeometry>
  </Placemark>
  <Placemark>
	<Style><LineStyle><color>ff0000ff</color></LineStyle><PolyStyle><fill>0</fill></PolyStyle></Style>
	<ExtendedData><SchemaData schemaUrl="#project_area_20240703">
		<SimpleData name="id">1</SimpleData>
		<SimpleData name="area_ha">2.74</SimpleData>
	</SchemaData></ExtendedData>
      <MultiGeometry><Polygon><outerBoundaryIs><LinearRing><coordinates>11.9438402087699,4.67299072233194 11.9438495756698,4.67293407381876 11.9438518256128,4.6728979308685 11.9438735806554,4.67281497329005 11.943874602507,4.6728093757994 11.9438777467841,4.67278099028376 11.9438859795923,4.67273011456369 11.9438997996765,4.67262711169667 11.9439044483426,4.6725906641566 11.9439008950002,4.67257493208125 11.9439090305698,4.67255473753198 11.9439153784142,4.67250496772046 11.943920675852,4.67242489494963 11.9439252813635,4.67237790205404 11.9439187241017,4.6723698774292 11.9436770516867,4.67243625161841 11.9434670056981,4.6717324157321 11.9420712423562,4.67212690254831 11.9418561765205,4.67218768670795 11.9418318536257,4.67219456109522 11.9418550391373,4.67221906558535 11.9419225531724,4.67226644531655 11.9420328673774,4.67237350674162 11.9421332078363,4.67246434577424 11.9421947573331,4.67253908348346 11.9422680590812,4.67262461463998 11.9422800365128,4.67266013138865 11.9426228719657,4.67333296601184 11.9426429805687,4.67341745462491 11.942672258566,4.67345194106368 11.9426787309461,4.67348784450539 11.9429880393201,4.67347815582992 11.9431107890902,4.67344958300614 11.9433561564337,4.67339246806883 11.9438396308081,4.67327992795946 11.9438565383156,4.6731640944507 11.943856462874,4.6731460280218 11.9438578362097,4.67306960696975 11.9438402087699,4.67299072233194</coordinates></LinearRing></outerBoundaryIs><innerBoundaryIs><LinearRing><coordinates>11.9431216825631,4.67339167141322 11.9431511589153,4.67331863796622 11.943195854972,4.67332442630337 11.9431872326295,4.67339916495724 11.9431216825631,4.67339167141322</coordinates></LinearRing></innerBoundaryIs><innerBoundaryIs><LinearRing><coordinates>11.9427783047066,4.67217875162936 11.9427685753603,4.6721309829419 11.9428257542997,4.67213074271212 11.9428356033665,4.67220719663009 11.942783169381,4.67220263597273 11.9427690941224,4.67225528562899 11.9427404647415,4.67224584399993 11.9427402851706,4.67220281614566 11.9427783047066,4.67217875162936</coordinates></LinearRing></innerBoundaryIs><innerBoundaryIs><LinearRing><coordinates>11.9432426415299,4.6719761200574 11.9432424020753,4.67191874961061 11.943285366068,4.6719376928995 11.9432712509364,4.6719807807982 11.9432426415299,4.6719761200574</coordinates></LinearRing></innerBoundaryIs></Polygon></MultiGeometry>
  </Placemark>
</Folder>
</Document></kml>
