<?xml version="1.0" encoding="UTF-8"?>
<kml xmlns="http://www.opengis.net/kml/2.2" xmlns:gx="http://www.google.com/kml/ext/2.2" xmlns:kml="http://www.opengis.net/kml/2.2" xmlns:atom="http://www.w3.org/2005/Atom">
<Document>
	<name>data</name>
	<Schema name="kml_schema_ft_poi84" id="kml_schema_ft_poi84">
		<SimpleField type="xsd:int" name="FID">
			<displayName>FID</displayName>
		</SimpleField>
		<SimpleField type="xsd:string" name="Field1">
			<displayName>Field1</displayName>
		</SimpleField>
		<SimpleField type="xsd:int" name="Y">
			<displayName>Y</displayName>
		</SimpleField>
		<SimpleField type="xsd:int" name="X">
			<displayName>X</displayName>
		</SimpleField>
	</Schema>
	<Folder id="kml_ft_poi84">
		<name>poi84</name>
		<open>1</open>
		<Placemark id="kml_1">
			<name>kml_1</name>
			<snippet></snippet>
			<description><![CDATA[<center><table><tr><th colspan='2' align='center'><em>Attributes</em></th></tr><tr bgcolor="#E3E3F3">
<th>FID</th>
<td>0</td>
</tr><tr bgcolor="">
<th>Field1</th>
<td>A1</td>
</tr><tr bgcolor="#E3E3F3">
<th>Y</th>
<td>4264000</td>
</tr><tr bgcolor="">
<th>X</th>
<td>26470000</td>
</tr></table></center>]]></description>
			<Style>
				<LineStyle>
					<color>ff8e3900</color>
				</LineStyle>
			</Style>
			<ExtendedData>
				<SchemaData schemaUrl="#kml_schema_ft_poi84">
					<SimpleData name="FID">0</SimpleData>
					<SimpleData name="Field1">A1</SimpleData>
					<SimpleData name="Y">4264000</SimpleData>
					<SimpleData name="X">26470000</SimpleData>
				</SchemaData>
			</ExtendedData>
			<Point>
				<coordinates>77.655506102521,38.5081066001655,0</coordinates>
			</Point>
		</Placemark>
		<Placemark id="kml_2">
			<name>kml_2</name>
			<snippet></snippet>
			<description><![CDATA[<center><table><tr><th colspan='2' align='center'><em>Attributes</em></th></tr><tr bgcolor="#E3E3F3">
<th>FID</th>
<td>1</td>
</tr><tr bgcolor="">
<th>Field1</th>
<td>A2</td>
</tr><tr bgcolor="#E3E3F3">
<th>Y</th>
<td>4264000</td>
</tr><tr bgcolor="">
<th>X</th>
<td>26480000</td>
</tr></table></center>]]></description>
			<Style>
				<LineStyle>
					<color>ff8e3900</color>
				</LineStyle>
			</Style>
			<ExtendedData>
				<SchemaData schemaUrl="#kml_schema_ft_poi84">
					<SimpleData name="FID">1</SimpleData>
					<SimpleData name="Field1">A2</SimpleData>
					<SimpleData name="Y">4264000</SimpleData>
					<SimpleData name="X">26480000</SimpleData>
				</SchemaData>
			</ExtendedData>
			<Point>
				<coordinates>77.7701545898868,38.50838772346,0</coordinates>
			</Point>
		</Placemark>
		<Placemark id="kml_3">
			<name>kml_3</name>
			<snippet></snippet>
			<description><![CDATA[<center><table><tr><th colspan='2' align='center'><em>Attributes</em></th></tr><tr bgcolor="#E3E3F3">
<th>FID</th>
<td>2</td>
</tr><tr bgcolor="">
<th>Field1</th>
<td>A3</td>
</tr><tr bgcolor="#E3E3F3">
<th>Y</th>
<td>4250000</td>
</tr><tr bgcolor="">
<th>X</th>
<td>26480000</td>
</tr></table></center>]]></description>
			<Style>
				<LineStyle>
					<color>ff8e3900</color>
				</LineStyle>
			</Style>
			<ExtendedData>
				<SchemaData schemaUrl="#kml_schema_ft_poi84">
					<SimpleData name="FID">2</SimpleData>
					<SimpleData name="Field1">A3</SimpleData>
					<SimpleData name="Y">4250000</SimpleData>
					<SimpleData name="X">26480000</SimpleData>
				</SchemaData>
			</ExtendedData>
			<Point>
				<coordinates>77.7705542440488,38.3822670565337,0</coordinates>
			</Point>
		</Placemark>
		<Placemark id="kml_4">
			<name>kml_4</name>
			<snippet></snippet>
			<description><![CDATA[<center><table><tr><th colspan='2' align='center'><em>Attributes</em></th></tr><tr bgcolor="#E3E3F3">
<th>FID</th>
<td>3</td>
</tr><tr bgcolor="">
<th>Field1</th>
<td>A4</td>
</tr><tr bgcolor="#E3E3F3">
<th>Y</th>
<td>4250000</td>
</tr><tr bgcolor="">
<th>X</th>
<td>26500000</td>
</tr></table></center>]]></description>
			<Style>
				<LineStyle>
					<color>ff8e3900</color>
				</LineStyle>
			</Style>
			<ExtendedData>
				<SchemaData schemaUrl="#kml_schema_ft_poi84">
					<SimpleData name="FID">3</SimpleData>
					<SimpleData name="Field1">A4</SimpleData>
					<SimpleData name="Y">4250000</SimpleData>
					<SimpleData name="X">26500000</SimpleData>
				</SchemaData>
			</ExtendedData>
			<Point>
				<coordinates>77.99945571266289,38.3824915878063,0</coordinates>
			</Point>
		</Placemark>
		<Placemark id="kml_5">
			<name>kml_5</name>
			<snippet></snippet>
			<description><![CDATA[<center><table><tr><th colspan='2' align='center'><em>Attributes</em></th></tr><tr bgcolor="#E3E3F3">
<th>FID</th>
<td>4</td>
</tr><tr bgcolor="">
<th>Field1</th>
<td>A5</td>
</tr><tr bgcolor="#E3E3F3">
<th>Y</th>
<td>4319200</td>
</tr><tr bgcolor="">
<th>X</th>
<td>26500000</td>
</tr></table></center>]]></description>
			<Style>
				<LineStyle>
					<color>ff8e3900</color>
				</LineStyle>
			</Style>
			<ExtendedData>
				<SchemaData schemaUrl="#kml_schema_ft_poi84">
					<SimpleData name="FID">4</SimpleData>
					<SimpleData name="Field1">A5</SimpleData>
					<SimpleData name="Y">4319200</SimpleData>
					<SimpleData name="X">26500000</SimpleData>
				</SchemaData>
			</ExtendedData>
			<Point>
				<coordinates>77.99945096816791,39.0058664453262,0</coordinates>
			</Point>
		</Placemark>
		<Placemark id="kml_6">
			<name>kml_6</name>
			<snippet></snippet>
			<description><![CDATA[<center><table><tr><th colspan='2' align='center'><em>Attributes</em></th></tr><tr bgcolor="#E3E3F3">
<th>FID</th>
<td>5</td>
</tr><tr bgcolor="">
<th>Field1</th>
<td>A6</td>
</tr><tr bgcolor="#E3E3F3">
<th>Y</th>
<td>4315400</td>
</tr><tr bgcolor="">
<th>X</th>
<td>26490000</td>
</tr></table></center>]]></description>
			<Style>
				<LineStyle>
					<color>ff8e3900</color>
				</LineStyle>
			</Style>
			<ExtendedData>
				<SchemaData schemaUrl="#kml_schema_ft_poi84">
					<SimpleData name="FID">5</SimpleData>
					<SimpleData name="Field1">A6</SimpleData>
					<SimpleData name="Y">4315400</SimpleData>
					<SimpleData name="X">26490000</SimpleData>
				</SchemaData>
			</ExtendedData>
			<Point>
				<coordinates>77.8840581143386,38.9715790169101,0</coordinates>
			</Point>
		</Placemark>
		<Placemark id="kml_7">
			<name>kml_7</name>
			<snippet></snippet>
			<description><![CDATA[<center><table><tr><th colspan='2' align='center'><em>Attributes</em></th></tr><tr bgcolor="#E3E3F3">
<th>FID</th>
<td>6</td>
</tr><tr bgcolor="">
<th>Field1</th>
<td>A7</td>
</tr><tr bgcolor="#E3E3F3">
<th>Y</th>
<td>4304000</td>
</tr><tr bgcolor="">
<th>X</th>
<td>26490000</td>
</tr></table></center>]]></description>
			<Style>
				<LineStyle>
					<color>ff8e3900</color>
				</LineStyle>
			</Style>
			<ExtendedData>
				<SchemaData schemaUrl="#kml_schema_ft_poi84">
					<SimpleData name="FID">6</SimpleData>
					<SimpleData name="Field1">A7</SimpleData>
					<SimpleData name="Y">4304000</SimpleData>
					<SimpleData name="X">26490000</SimpleData>
				</SchemaData>
			</ExtendedData>
			<Point>
				<coordinates>77.8842251071101,38.8688885094191,0</coordinates>
			</Point>
		</Placemark>
		<Placemark id="kml_10">
			<name>kml_8</name>
			<snippet></snippet>
			<description><![CDATA[<center><table><tr><th colspan='2' align='center'><em>Attributes</em></th></tr><tr bgcolor="#E3E3F3">
<th>FID</th>
<td>9</td>
</tr><tr bgcolor="">
<th>Field1</th>
<td>A10</td>
</tr><tr bgcolor="#E3E3F3">
<th>Y</th>
<td>4296000</td>
</tr><tr bgcolor="">
<th>X</th>
<td>26490000</td>
</tr></table></center>]]></description>
			<Style>
				<LineStyle>
					<color>ff8e3900</color>
				</LineStyle>
			</Style>
			<ExtendedData>
				<SchemaData schemaUrl="#kml_schema_ft_poi84">
					<SimpleData name="FID">9</SimpleData>
					<SimpleData name="Field1">A10</SimpleData>
					<SimpleData name="Y">4296000</SimpleData>
					<SimpleData name="X">26490000</SimpleData>
				</SchemaData>
			</ExtendedData>
			<Point>
				<coordinates>77.8843417873922,38.7968239131579,0</coordinates>
			</Point>
		</Placemark>
		<Placemark id="kml_11">
			<name>kml_9</name>
			<snippet></snippet>
			<description><![CDATA[<center><table><tr><th colspan='2' align='center'><em>Attributes</em></th></tr><tr bgcolor="#E3E3F3">
<th>FID</th>
<td>10</td>
</tr><tr bgcolor="">
<th>Field1</th>
<td>A11</td>
</tr><tr bgcolor="#E3E3F3">
<th>Y</th>
<td>4281000</td>
</tr><tr bgcolor="">
<th>X</th>
<td>26490000</td>
</tr></table></center>]]></description>
			<Style>
				<LineStyle>
					<color>ff8e3900</color>
				</LineStyle>
			</Style>
			<ExtendedData>
				<SchemaData schemaUrl="#kml_schema_ft_poi84">
					<SimpleData name="FID">10</SimpleData>
					<SimpleData name="Field1">A11</SimpleData>
					<SimpleData name="Y">4281000</SimpleData>
					<SimpleData name="X">26490000</SimpleData>
				</SchemaData>
			</ExtendedData>
			<Point>
				<coordinates>77.8845594407809,38.6617003912891,0</coordinates>
			</Point>
		</Placemark>
		<Placemark id="kml_12">
			<name>kml_10</name>
			<snippet></snippet>
			<description><![CDATA[<center><table><tr><th colspan='2' align='center'><em>Attributes</em></th></tr><tr bgcolor="#E3E3F3">
<th>FID</th>
<td>11</td>
</tr><tr bgcolor="">
<th>Field1</th>
<td>A12</td>
</tr><tr bgcolor="#E3E3F3">
<th>Y</th>
<td>4281000</td>
</tr><tr bgcolor="">
<th>X</th>
<td>26480800</td>
</tr></table></center>]]></description>
			<Style>
				<LineStyle>
					<color>ff8e3900</color>
				</LineStyle>
			</Style>
			<ExtendedData>
				<SchemaData schemaUrl="#kml_schema_ft_poi84">
					<SimpleData name="FID">11</SimpleData>
					<SimpleData name="Field1">A12</SimpleData>
					<SimpleData name="Y">4281000</SimpleData>
					<SimpleData name="X">26480800</SimpleData>
				</SchemaData>
			</ExtendedData>
			<Point>
				<coordinates>77.77885736519841,38.6615483171381,0</coordinates>
			</Point>
		</Placemark>
		<Placemark id="kml_13">
			<name>kml_11</name>
			<snippet></snippet>
			<description><![CDATA[<center><table><tr><th colspan='2' align='center'><em>Attributes</em></th></tr><tr bgcolor="#E3E3F3">
<th>FID</th>
<td>12</td>
</tr><tr bgcolor="">
<th>Field1</th>
<td>A13</td>
</tr><tr bgcolor="#E3E3F3">
<th>Y</th>
<td>4271000</td>
</tr><tr bgcolor="">
<th>X</th>
<td>26470000</td>
</tr></table></center>]]></description>
			<Style>
				<LineStyle>
					<color>ff8e3900</color>
				</LineStyle>
			</Style>
			<ExtendedData>
				<SchemaData schemaUrl="#kml_schema_ft_poi84">
					<SimpleData name="FID">12</SimpleData>
					<SimpleData name="Field1">A13</SimpleData>
					<SimpleData name="Y">4271000</SimpleData>
					<SimpleData name="X">26470000</SimpleData>
				</SchemaData>
			</ExtendedData>
			<Point>
				<coordinates>77.65520519650811,38.5711652791417,0</coordinates>
			</Point>
		</Placemark>
	</Folder>
</Document>
</kml>
