<?xml version="1.0" encoding="UTF-8"?>
<kml xmlns="http://www.opengis.net/kml/2.2">
  <Document>
    <name>Kelleramt Oberlunkhofen</name>
    <Style id="poly-3949AB-1200-77-normal">
      <LineStyle>
        <color>ffab4939</color>
        <width>1.2</width>
      </LineStyle>
      <PolyStyle>
        <color>4dab4939</color>
        <fill>1</fill>
        <outline>1</outline>
      </PolyStyle>
    </Style>
    <Style id="poly-3949AB-1200-77-highlight">
      <LineStyle>
        <color>ffab4939</color>
        <width>1.8</width>
      </LineStyle>
      <PolyStyle>
        <color>4dab4939</color>
        <fill>1</fill>
        <outline>1</outline>
      </PolyStyle>
    </Style>
    <StyleMap id="poly-3949AB-1200-77">
      <Pair>
        <key>normal</key>
        <styleUrl>#poly-3949AB-1200-77-normal</styleUrl>
      </Pair>
      <Pair>
        <key>highlight</key>
        <styleUrl>#poly-3949AB-1200-77-highlight</styleUrl>
      </Pair>
    </StyleMap>
    <Style id="poly-673AB7-1200-77-normal">
      <LineStyle>
        <color>ffb73a67</color>
        <width>1.2</width>
      </LineStyle>
      <PolyStyle>
        <color>4db73a67</color>
        <fill>1</fill>
        <outline>1</outline>
      </PolyStyle>
    </Style>
    <Style id="poly-673AB7-1200-77-highlight">
      <LineStyle>
        <color>ffb73a67</color>
        <width>1.8</width>
      </LineStyle>
      <PolyStyle>
        <color>4db73a67</color>
        <fill>1</fill>
        <outline>1</outline>
      </PolyStyle>
    </Style>
    <StyleMap id="poly-673AB7-1200-77">
      <Pair>
        <key>normal</key>
        <styleUrl>#poly-673AB7-1200-77-normal</styleUrl>
      </Pair>
      <Pair>
        <key>highlight</key>
        <styleUrl>#poly-673AB7-1200-77-highlight</styleUrl>
      </Pair>
    </StyleMap>
    <Style id="poly-880E4F-1200-77-normal">
      <LineStyle>
        <color>ff4f0e88</color>
        <width>1.2</width>
      </LineStyle>
      <PolyStyle>
        <color>4d4f0e88</color>
        <fill>1</fill>
        <outline>1</outline>
      </PolyStyle>
    </Style>
    <Style id="poly-880E4F-1200-77-highlight">
      <LineStyle>
        <color>ff4f0e88</color>
        <width>1.8</width>
      </LineStyle>
      <PolyStyle>
        <color>4d4f0e88</color>
        <fill>1</fill>
        <outline>1</outline>
      </PolyStyle>
    </Style>
    <StyleMap id="poly-880E4F-1200-77">
      <Pair>
        <key>normal</key>
        <styleUrl>#poly-880E4F-1200-77-normal</styleUrl>
      </Pair>
      <Pair>
        <key>highlight</key>
        <styleUrl>#poly-880E4F-1200-77-highlight</styleUrl>
      </Pair>
    </StyleMap>
    <Style id="poly-FFD600-1200-77-normal">
      <LineStyle>
        <color>ff00d6ff</color>
        <width>1.2</width>
      </LineStyle>
      <PolyStyle>
        <color>4d00d6ff</color>
        <fill>1</fill>
        <outline>1</outline>
      </PolyStyle>
    </Style>
    <Style id="poly-FFD600-1200-77-highlight">
      <LineStyle>
        <color>ff00d6ff</color>
        <width>1.8</width>
      </LineStyle>
      <PolyStyle>
        <color>4d00d6ff</color>
        <fill>1</fill>
        <outline>1</outline>
      </PolyStyle>
    </Style>
    <StyleMap id="poly-FFD600-1200-77">
      <Pair>
        <key>normal</key>
        <styleUrl>#poly-FFD600-1200-77-normal</styleUrl>
      </Pair>
      <Pair>
        <key>highlight</key>
        <styleUrl>#poly-FFD600-1200-77-highlight</styleUrl>
      </Pair>
    </StyleMap>
    <Placemark>
      <name>Oberkunkhofen 51</name>
      <description>Pfaffenmatthau</description>
      <styleUrl>#poly-880E4F-1200-77</styleUrl>
      <Polygon>
        <outerBoundaryIs>
          <LinearRing>
            <tessellate>1</tessellate>
            <coordinates>
              8.394313,47.3197315,0
              8.3935137,47.3196703,0
              8.3935565,47.3194739,0
              8.3937657,47.3194194,0
              8.3941788,47.3192121,0
              8.3941681,47.3188848,0
              8.3939535,47.3188048,0
              8.3938892,47.3183248,0
              8.3936209,47.3179247,0
              8.3931489,47.3177356,0
              8.3930523,47.3171319,0
              8.3937604,47.3171392,0
              8.3941681,47.3167537,0
              8.3951015,47.3171028,0
              8.3961974,47.3160344,0
              8.3961652,47.3158308,0
              8.3968143,47.3158126,0
              8.3975171,47.3155252,0
              8.3979784,47.3154161,0
              8.3990781,47.3150561,0
              8.4000062,47.314456,0
              8.399467,47.3138578,0
              8.3984129,47.3136086,0
              8.3984505,47.3133868,0
              8.4010898,47.3139396,0
              8.4033642,47.3149613,0
              8.4046087,47.3155578,0
              8.4055851,47.3156268,0
              8.4055663,47.3160287,0
              8.4058432,47.3161847,0
              8.4062381,47.3161879,0
              8.4065881,47.3161651,0
              8.4069717,47.3162652,0
              8.4071729,47.316547,0
              8.407248,47.3169834,0
              8.4083853,47.3175435,0
              8.4091256,47.3182272,0
              8.4092865,47.3189108,0
              8.4086642,47.3191072,0
              8.410635,47.320681,0
              8.4114075,47.3212774,0
              8.4104848,47.3220702,0
              8.4105974,47.3223356,0
              8.4102005,47.3225502,0
              8.4090954,47.3221138,0
              8.408191,47.3216327,0
              8.4081696,47.3213345,0
              8.4077941,47.3208909,0
              8.4071503,47.3206581,0
              8.4058522,47.3198799,0
              8.4042106,47.3188653,0
              8.402198,47.3173419,0
              8.4020773,47.3170146,0
              8.4017394,47.3167528,0
              8.4012593,47.3165836,0
              8.4008623,47.3163854,0
              8.4006584,47.3164691,0
              8.4008918,47.3166109,0
              8.4010795,47.3168564,0
              8.4009041,47.31708,0
              8.401049,47.31756,0
              8.400872,47.3183055,0
              8.3991945,47.319352,0
              8.3963299,47.3188502,0
              8.395815,47.3192284,0
              8.3950962,47.3196212,0
              8.3947367,47.3196575,0
              8.394313,47.3197315,0
            </coordinates>
          </LinearRing>
        </outerBoundaryIs>
      </Polygon>
    </Placemark>
    <Placemark>
      <name>Oberlunkhofen 508</name>
      <description>Mörgelehau</description>
      <styleUrl>#poly-FFD600-1200-77</styleUrl>
      <Polygon>
        <outerBoundaryIs>
          <LinearRing>
            <tessellate>1</tessellate>
            <coordinates>
              8.4078234,47.309383,0
              8.4061765,47.3082845,0
              8.4062154,47.3081864,0
              8.4064005,47.3081059,0
              8.4067532,47.3079163,0
              8.4072869,47.3075607,0
              8.4076785,47.3075425,0
              8.4082257,47.3073352,0
              8.4088694,47.3072806,0
              8.409084,47.3077426,0
              8.4091323,47.3081572,0
              8.4085476,47.3083282,0
              8.4086602,47.3086046,0
              8.4083545,47.3087501,0
              8.4078234,47.309383,0
            </coordinates>
          </LinearRing>
        </outerBoundaryIs>
      </Polygon>
    </Placemark>
    <Placemark>
      <name>Oberlunkhofen 357</name>
      <description>Schalchmatthau</description>
      <styleUrl>#poly-673AB7-1200-77</styleUrl>
      <Polygon>
        <outerBoundaryIs>
          <LinearRing>
            <tessellate>1</tessellate>
            <coordinates>
              8.4135658,47.3130549,0
              8.4141881,47.3129604,0
              8.4144241,47.3124512,0
              8.4144671,47.3121311,0
              8.4137482,47.3118329,0
              8.4130187,47.3118547,0
              8.4134774,47.3101925,0
              8.4131152,47.3100761,0
              8.4122944,47.3100252,0
              8.4121389,47.3104071,0
              8.4106154,47.3095196,0
              8.4109265,47.3094178,0
              8.4108085,47.3091486,0
              8.411286,47.3087558,0
              8.4115368,47.3088976,0
              8.4117554,47.3089558,0
              8.4120209,47.3089522,0
              8.4123155,47.3088882,0
              8.4131239,47.3086213,0
              8.4140594,47.308974,0
              8.4153695,47.3092133,0
              8.4157867,47.3096869,0
              8.4157342,47.3101444,0
              8.4156913,47.3104572,0
              8.4173531,47.3111782,0
              8.4173638,47.3116255,0
              8.4168971,47.3122911,0
              8.4164143,47.3125439,0
              8.4159476,47.3128258,0
              8.4153656,47.3131204,0
              8.4147943,47.3134296,0
              8.4142632,47.3137169,0
              8.4135658,47.3130549,0
            </coordinates>
          </LinearRing>
        </outerBoundaryIs>
      </Polygon>
    </Placemark>
    <Placemark>
      <name>Oberlunkhofen 499</name>
      <description>Althau</description>
      <styleUrl>#poly-3949AB-1200-77</styleUrl>
      <Polygon>
        <outerBoundaryIs>
          <LinearRing>
            <tessellate>1</tessellate>
            <coordinates>
              8.4058819,47.3114122,0
              8.4040473,47.3109321,0
              8.4023856,47.3103947,0
              8.4026444,47.3102938,0
              8.4023936,47.3101438,0
              8.4024486,47.3099756,0
              8.4032962,47.309419,0
              8.4038595,47.3091062,0
              8.4041867,47.3092735,0
              8.4056915,47.3081932,0
              8.4059409,47.3082042,0
              8.4059945,47.3083752,0
              8.407459,47.3093717,0
              8.4062252,47.310552,0
              8.4061447,47.3110048,0
              8.4058819,47.3114122,0
            </coordinates>
          </LinearRing>
        </outerBoundaryIs>
      </Polygon>
    </Placemark>
  </Document>
</kml>
