<?xml version="1.0" encoding="utf-8" ?>
<kml xmlns="http://www.opengis.net/kml/2.2">
<Document id="root_doc">
<Schema name="RestorationAreas_Final_Merge" id="RestorationAreas_Final_Merge">
	<SimpleField name="Area" type="string"></SimpleField>
	<SimpleField name="Code" type="string"></SimpleField>
</Schema>
<Folder><name>RestorationAreas_Final_Merge</name>
  <Placemark>
	<name>BRSPSOCC0123RF</name>
	<Style><LineStyle><color>ff0000ff</color></LineStyle><PolyStyle><fill>0</fill></PolyStyle></Style>
	<ExtendedData><SchemaData schemaUrl="#RestorationAreas_Final_Merge">
		<SimpleData name="Area">6</SimpleData>
		<SimpleData name="Code">233621</SimpleData>
	</SchemaData></ExtendedData>
      <MultiGeometry><Polygon><outerBoundaryIs><LinearRing><coordinates>-47.8549071242643,-20.8976326097571 -47.8548615709048,-20.8974048492544 -47.8548129562529,-20.8972131659548 -47.8547700936648,-20.8970010833333 -47.8546909910963,-20.8967433709098 -47.8546443990198,-20.8966312137595 -47.8544942742913,-20.8962310694083 -47.8543556096237,-20.8961132753074 -47.8541823327484,-20.8959791432229 -47.8541240189083,-20.895877805816 -47.8541275802236,-20.895691504959 -47.8541059443338,-20.8956003442804 -47.8540509480927,-20.8954649918159 -47.8539407568604,-20.8953205247224 -47.8538510998483,-20.8952291589985 -47.8537216532317,-20.8951425821644 -47.8535476982676,-20.8950091884233 -47.853497528688,-20.8949189909187 -47.8534437681154,-20.8948090011344 -47.8534075901881,-20.8947033137069 -47.8533619361044,-20.8946554508883 -47.8534252987385,-20.8945371225901 -47.8535327407433,-20.8943262612479 -47.853456149082,-20.8941266567198 -47.8534546795897,-20.8940846152128 -47.8534203084005,-20.8940363962626 -47.8534606016254,-20.8940118942335 -47.8536622557085,-20.8938892797664 -47.8537893011353,-20.8941966248743 -47.8538158311357,-20.8942757733083 -47.8538184706459,-20.8943612295871 -47.8537769381551,-20.8944739937797 -47.853729836163,-20.8945664350929 -47.8537419248499,-20.8946832399395 -47.8538204473557,-20.8948010232486 -47.8539632147305,-20.8949188056583 -47.8541202588428,-20.8950401592759 -47.8542416115611,-20.8951543731757 -47.8543094258393,-20.8952543103381 -47.8543871776261,-20.8955413991162 -47.8546364643013,-20.8959868441175 -47.8547924490123,-20.8962114776775 -47.8548181030729,-20.8962514831194 -47.8549277726985,-20.8964754188055 -47.8549684337462,-20.8965895706521 -47.8550370664074,-20.8968219941397 -47.8550808481026,-20.8969837983636 -47.8551170161373,-20.8971608299083 -47.8551760260527,-20.8973997267159 -47.8551969649679,-20.8975139424145 -47.8552388436976,-20.8975786630248 -47.8553054690721,-20.8976186378898 -47.8553892256322,-20.8976357699748 -47.8554825006169,-20.8976452883993 -47.8555795833311,-20.8976452883993 -47.8556871341539,-20.897639576805 -47.8559022375982,-20.8976072156005 -47.8560392951773,-20.8975748561946 -47.8560672622943,-20.8975452289291 -47.8560202592275,-20.89744731704 -47.8560240660578,-20.8973692702755 -47.8560618456776,-20.8972897234419 -47.8561285960578,-20.8972333188625 -47.8561890287007,-20.89719978764 -47.8563051599551,-20.8971532153486 -47.8564038128856,-20.8971394296409 -47.8565231178476,-20.8971227580088 -47.8566934881139,-20.8970789763137 -47.8568463018153,-20.8970253677265 -47.8571526810513,-20.8969964590193 -47.8573099266118,-20.8969619070663 -47.8575712192363,-20.8969227919532 -47.8576133605681,-20.8969206902376 -47.8576553777934,-20.8969244062363 -47.857696362597,-20.8969338617083 -47.8577169399847,-20.8969417559572 -47.8577803080148,-20.8969755740635 -47.8579888113345,-20.8970868480795 -47.8580266961751,-20.8971075153995 -47.8581470209682,-20.897164121427 -47.8582455309065,-20.8971270019095 -47.8583597448063,-20.8970099317629 -47.8584810984239,-20.8969142780714 -47.8587798550063,-20.8966897083633 -47.8588065846561,-20.896662460704 -47.8588370240094,-20.8966388993657 -47.8588706010973,-20.8966194632176 -47.8590375692284,-20.8965376662802 -47.8590870103572,-20.8965134448396 -47.8591284052517,-20.8965015647954 -47.8591712273702,-20.8964956463569 -47.8592145090423,-20.8964958208254 -47.8592572763022,-20.8965020873014 -47.85929856058,-20.8965143009942 -47.8593374328762,-20.896532189409 -47.8593730145529,-20.8965553469516 -47.8595213496305,-20.8966470760017 -47.8596855325612,-20.8966780090828 -47.8598040236367,-20.8966764919265 -47.8599448943414,-20.8966316103605 -47.8600757645848,-20.8965673636928 -47.860189979384,-20.8964912216925 -47.8602811814313,-20.8964357847836 -47.8603187083417,-20.8964104625728 -47.8603763090194,-20.8963715956726 -47.8604784881916,-20.8963026491479 -47.8606985891685,-20.8961682103945 -47.8608521358174,-20.8960776099937 -47.8610535443855,-20.8960047837937 -47.8611173737677,-20.8960149722131 -47.8612720391732,-20.8959923677535 -47.8614707236949,-20.8959186035607 -47.8616462623651,-20.8958338181761 -47.8617562593438,-20.8957594181626 -47.8619263903906,-20.8956321173283 -47.8620500588631,-20.8955741272441 -47.8621762337461,-20.8955403891776 -47.862366591445,-20.8954535389496 -47.8624689082135,-20.8953869135752 -47.8625605167544,-20.8953238576099 -47.8626307915777,-20.8952692876475 -47.8634770653143,-20.8959807107412 -47.8634426068908,-20.8959911527695 -47.8632144947531,-20.8959518011347 -47.8630918200314,-20.8959352778907 -47.8630185891365,-20.895869657059 -47.8628505508122,-20.8958593121575 -47.8627420188291,-20.8959391179959 -47.8626394133782,-20.8960125611308 -47.8624789473455,-20.8960737941702 -47.8622697551451,-20.8962121971351 -47.8621866478954,-20.8963228164448 -47.8621020882408,-20.896378650854 -47.8618829459411,-20.8964692206779 -47.8618034188926,-20.8964934942793 -47.8617256590119,-20.8965283933706 -47.8615847118649,-20.8965157857748 -47.8613848870029,-20.8967124872914 -47.8613619659819,-20.8967982934065 -47.8613858546734,-20.8968669863223 -47.8614888180544,-20.8969304559757 -47.8614395181192,-20.8969741828122 -47.8612514896645,-20.8969802118672 -47.8611692331735,-20.8970180355539 -47.860957228793,-20.8970175301349 -47.8608734650384,-20.8969985382519 -47.8608014653153,-20.8968808313852 -47.8606052098625,-20.8966795352323 -47.8605218283197,-20.8966481875638 -47.8603001787102,-20.8966396763799 -47.8601315153571,-20.8967991063936 -47.8600486095556,-20.8968177340511 -47.8600175586633,-20.8968924470288 -47.8598784919988,-20.8969570048619 -47.8597362039626,-20.8969590283364 -47.859510823066,-20.897022191321 -47.8594108373402,-20.8969915478216 -47.8591916302894,-20.896765742445 -47.8591183103617,-20.8968205858013 -47.8590045766998,-20.8968591900995 -47.8589251009126,-20.8969839737314 -47.858821524194,-20.8970186318044 -47.8588254209564,-20.8971528106537 -47.858920848918,-20.8972527010513 -47.858844202398,-20.8973031781991 -47.858510917245,-20.8972698169484 -47.8584125538962,-20.8974848088768 -47.8583514215808,-20.8974947643719 -47.8580108717043,-20.8974608950043 -47.8579194151488,-20.8974231828336 -47.8578635033979,-20.8973306803666 -47.8576381099108,-20.8972996312729 -47.8576074439284,-20.8971914356362 -47.8573007589229,-20.8972741345936 -47.8569783339829,-20.8972597742192 -47.8568526276466,-20.8973321876303 -47.8567558902721,-20.8975047099743 -47.8564406518146,-20.8977271833628 -47.8563565679012,-20.8978122772148 -47.8561528426795,-20.8979178630189 -47.8561078352084,-20.898087810604 -47.8558993166001,-20.8981133711351 -47.855832298222,-20.8981043707201 -47.8556313438114,-20.8980773838641 -47.8555316953314,-20.8980841548598 -47.8555565283111,-20.8981828626489 -47.8552527921826,-20.8980161382341 -47.8551937031269,-20.8979837032852 -47.8551047610758,-20.8979164609759 -47.8549888987187,-20.8977593368239 -47.8549071242643,-20.8976326097571</coordinates></LinearRing></outerBoundaryIs></Polygon></MultiGeometry>
  </Placemark>
  <Placemark>
	<name>BRSPSOCC0223RF</name>
	<Style><LineStyle><color>ff0000ff</color></LineStyle><PolyStyle><fill>0</fill></PolyStyle></Style>
	<ExtendedData><SchemaData schemaUrl="#RestorationAreas_Final_Merge">
		<SimpleData name="Area">0</SimpleData>
		<SimpleData name="Code">875857</SimpleData>
	</SchemaData></ExtendedData>
      <MultiGeometry><Polygon><outerBoundaryIs><LinearRing><coordinates>-47.8653433204378,-20.8951779021384 -47.8654408779941,-20.8951517282696 -47.8655408160558,-20.8951112767639 -47.8656931009558,-20.8950565494202 -47.865819211987,-20.8950042007832 -47.8659572210489,-20.8949970628641 -47.8661031900102,-20.8949363496328 -47.8661933479446,-20.8950921104125 -47.8660712721714,-20.8951369982738 -47.8659153009503,-20.8951600299114 -47.8659012517413,-20.895194346242 -47.8657311359831,-20.8952276931035 -47.8656690953524,-20.8952642946115 -47.8655873946425,-20.895316145024 -47.8654384408313,-20.8953788628442 -47.865341346426,-20.8954043658188 -47.8651784711095,-20.8954516117025 -47.8650312583858,-20.8955105469741 -47.8648736575932,-20.8955678086074 -47.8643485407525,-20.8957756086573 -47.8641543168682,-20.8958433518891 -47.8639581729313,-20.8958812214412 -47.8638387852317,-20.8958864950657 -47.8637868889537,-20.8958812079513 -47.8636175277267,-20.8959381440301 -47.8635727351935,-20.895951718397 -47.8632388151192,-20.8956815332761 -47.8632553752353,-20.8956837626955 -47.8632665241307,-20.8956854759039 -47.863423247185,-20.895712513122 -47.8635247455705,-20.8956817527107 -47.8636898332192,-20.8956262546479 -47.8637316121242,-20.8956154609847 -47.8637746410868,-20.8956106765914 -47.8638179470406,-20.895612010286 -47.864240033051,-20.8954821463839 -47.8643471090318,-20.8954440735851 -47.8652441647864,-20.8951085698046 -47.8653041927342,-20.8951329711097 -47.8653433204378,-20.8951779021384</coordinates></LinearRing></outerBoundaryIs></Polygon></MultiGeometry>
  </Placemark>
  <Placemark>
	<name>BRSPSOCC0323RF</name>
	<Style><LineStyle><color>ff0000ff</color></LineStyle><PolyStyle><fill>0</fill></PolyStyle></Style>
	<ExtendedData><SchemaData schemaUrl="#RestorationAreas_Final_Merge">
		<SimpleData name="Area">0</SimpleData>
		<SimpleData name="Code">514044</SimpleData>
	</SchemaData></ExtendedData>
      <MultiGeometry><Polygon><outerBoundaryIs><LinearRing><coordinates>-47.8652318800472,-20.8882737618246 -47.865573651203,-20.8886048049677 -47.8656755956522,-20.888753569022 -47.865646661764,-20.8887804353687 -47.8655476760844,-20.8887594955542 -47.8653915843541,-20.8886909681136 -47.8652925815873,-20.8886273977362 -47.8652107450798,-20.888574850349 -47.8651288905858,-20.8884739608046 -47.8650413271955,-20.8883502293795 -47.8649594736008,-20.8882284000206 -47.8648777234281,-20.8880934000903 -47.8648589141076,-20.8880654239801 -47.8647538651987,-20.8879602131932 -47.8646587097316,-20.8878924213981 -47.8644438086348,-20.8877280729921 -47.8641820618526,-20.8874921763228 -47.8644081738981,-20.8873546636867 -47.8644993471671,-20.8874405246605 -47.8646771053641,-20.8875665223771 -47.8648839260523,-20.8877147135631 -47.8650296683845,-20.8878515328219 -47.8651518502776,-20.8880744720592 -47.8652318800472,-20.8882737618246</coordinates></LinearRing></outerBoundaryIs></Polygon></MultiGeometry>
  </Placemark>
  <Placemark>
	<name>BRSPSJRJ0223RF</name>
	<Style><LineStyle><color>ff0000ff</color></LineStyle><PolyStyle><fill>0</fill></PolyStyle></Style>
	<ExtendedData><SchemaData schemaUrl="#RestorationAreas_Final_Merge">
		<SimpleData name="Area">1</SimpleData>
		<SimpleData name="Code">542042</SimpleData>
	</SchemaData></ExtendedData>
      <MultiGeometry><Polygon><outerBoundaryIs><LinearRing><coordinates>-48.1319424675708,-20.5342190971336 -48.1318568062466,-20.5344284898829 -48.1317806642462,-20.5346188466824 -48.1315046461225,-20.5346854711575 -48.1313238077475,-20.5347711315824 -48.1311524859984,-20.5347711315824 -48.1309906826738,-20.5346378817328 -48.1309526116736,-20.5343904179833 -48.1307908083491,-20.5341144007589 -48.1305623796501,-20.5337907941098 -48.130648040075,-20.5337336871599 -48.1311810394733,-20.5337622406349 -48.1317996992967,-20.5336194723607 -48.1323802881197,-20.5333529726615 -48.13236125217,-20.5337527222103 -48.13220896727,-20.534057293809 -48.1319424675708,-20.5342190971336</coordinates></LinearRing></outerBoundaryIs></Polygon></MultiGeometry>
  </Placemark>
  <Placemark>
	<name>BRSPSJRJ0323RF</name>
	<Style><LineStyle><color>ff0000ff</color></LineStyle><PolyStyle><fill>0</fill></PolyStyle></Style>
	<ExtendedData><SchemaData schemaUrl="#RestorationAreas_Final_Merge">
		<SimpleData name="Area">0</SimpleData>
		<SimpleData name="Code">327473</SimpleData>
	</SchemaData></ExtendedData>
      <MultiGeometry><Polygon><outerBoundaryIs><LinearRing><coordinates>-48.1089329128236,-20.5318155807244 -48.1089996533113,-20.5319249886473 -48.108811084364,-20.5320268773385 -48.1084113348152,-20.5323047975284 -48.1082933131858,-20.5324171084628 -48.1082133634559,-20.5326284050768 -48.1081353175908,-20.5327388112471 -48.1080724999459,-20.5327121616369 -48.1080325241816,-20.5325903331773 -48.1080667892509,-20.5323961695475 -48.1081410282858,-20.5321353805433 -48.1082533383209,-20.5320478162537 -48.1084855738501,-20.531971673354 -48.1085144699668,-20.5319547067443 -48.1088471354869,-20.5318278348866 -48.1089329128236,-20.5318155807244</coordinates></LinearRing></outerBoundaryIs></Polygon></MultiGeometry>
  </Placemark>
  <Placemark>
	<name>BRSPSJRJ0123SA</name>
	<Style><LineStyle><color>ff0000ff</color></LineStyle><PolyStyle><fill>0</fill></PolyStyle></Style>
	<ExtendedData><SchemaData schemaUrl="#RestorationAreas_Final_Merge">
		<SimpleData name="Area">0</SimpleData>
		<SimpleData name="Code">93231</SimpleData>
	</SchemaData></ExtendedData>
      <MultiGeometry><Polygon><outerBoundaryIs><LinearRing><coordinates>-48.1065103514715,-20.5317496936934 -48.1071813599318,-20.5319388606898 -48.1071242529819,-20.5321351665047 -48.1072527436192,-20.5322136881112 -48.1069529312327,-20.5329132500464 -48.1061570015443,-20.5326562678724 -48.1065103514715,-20.5317496936934</coordinates></LinearRing></outerBoundaryIs></Polygon></MultiGeometry>
  </Placemark>
  <Placemark>
	<name>BRSPSJRJ0423RF</name>
	<Style><LineStyle><color>ff0000ff</color></LineStyle><PolyStyle><fill>0</fill></PolyStyle></Style>
	<ExtendedData><SchemaData schemaUrl="#RestorationAreas_Final_Merge">
		<SimpleData name="Area">0</SimpleData>
		<SimpleData name="Code">4449</SimpleData>
	</SchemaData></ExtendedData>
      <MultiGeometry><Polygon><outerBoundaryIs><LinearRing><coordinates>-48.1063663538241,-20.5356245801103 -48.1055858906763,-20.5363860073084 -48.1053384269268,-20.5361575795087 -48.1060332296498,-20.5354056698358 -48.1063663538241,-20.5356245801103</coordinates></LinearRing></outerBoundaryIs></Polygon></MultiGeometry>
  </Placemark>
  <Placemark>
	<name>BRSPPRFB0122FR</name>
	<Style><LineStyle><color>ff0000ff</color></LineStyle><PolyStyle><fill>0</fill></PolyStyle></Style>
	<ExtendedData><SchemaData schemaUrl="#RestorationAreas_Final_Merge">
		<SimpleData name="Area">3</SimpleData>
		<SimpleData name="Code">173764</SimpleData>
	</SchemaData></ExtendedData>
      <MultiGeometry><Polygon><outerBoundaryIs><LinearRing><coordinates>-49.8528937630367,-21.4484122534227 -49.8526490449174,-21.448546002396 -49.852355577248,-21.4487931118126 -49.8522225423364,-21.448988179261 -49.8520814378081,-21.4491836738874 -49.8519036751145,-21.4494084423457 -49.8517771908647,-21.4495748232195 -49.8516448466323,-21.4498841720169 -49.8515923693923,-21.4500489916676 -49.85155877162,-21.4502653892363 -49.8515629921383,-21.4504546461649 -49.8506175240794,-21.4498462826797 -49.8508569227088,-21.4489195492977 -49.8511133535984,-21.4484256749049 -49.8512831905667,-21.448472704052 -49.8514241835792,-21.4481996186175 -49.8517504908924,-21.4477095780346 -49.8528937630367,-21.4484122534227</coordinates></LinearRing></outerBoundaryIs></Polygon></MultiGeometry>
  </Placemark>
  <Placemark>
	<name>BRSPPRZC0123SA</name>
	<Style><LineStyle><color>ff0000ff</color></LineStyle><PolyStyle><fill>0</fill></PolyStyle></Style>
	<ExtendedData><SchemaData schemaUrl="#RestorationAreas_Final_Merge">
		<SimpleData name="Area">0</SimpleData>
		<SimpleData name="Code">999847</SimpleData>
	</SchemaData></ExtendedData>
      <MultiGeometry><Polygon><outerBoundaryIs><LinearRing><coordinates>-49.817921000154,-21.4441302052447 -49.8177368621664,-21.4441808973305 -49.8176488949805,-21.4442925247802 -49.8170132352725,-21.4444231656965 -49.8164677910557,-21.4440755327596 -49.8178152290895,-21.4434157559323 -49.8181723453774,-21.4441867483197 -49.817921000154,-21.4441302052447</coordinates></LinearRing></outerBoundaryIs></Polygon></MultiGeometry>
  </Placemark>
  <Placemark>
	<name>BRGOFOMF0122</name>
	<Style><LineStyle><color>ff0000ff</color></LineStyle><PolyStyle><fill>0</fill></PolyStyle></Style>
	<ExtendedData><SchemaData schemaUrl="#RestorationAreas_Final_Merge">
		<SimpleData name="Area">42</SimpleData>
		<SimpleData name="Code">670281</SimpleData>
	</SchemaData></ExtendedData>
      <MultiGeometry><Polygon><outerBoundaryIs><LinearRing><coordinates>-47.3804430653951,-15.5786659139007 -47.386202178088,-15.5877438298139 -47.3829307853275,-15.5895570654062 -47.3798274290925,-15.5845496276631 -47.3805914814117,-15.5841148711044 -47.3777883710364,-15.5795464742903 -47.3804430653951,-15.5786659139007</coordinates></LinearRing></outerBoundaryIs></Polygon></MultiGeometry>
  </Placemark>
</Folder>
</Document></kml>
