<?xml version="1.0" encoding="utf-8" ?>
<kml xmlns="http://www.opengis.net/kml/2.2">
<Document id="root_doc">
<Schema name="nami_pa_vf" id="nami_pa_vf">
	<SimpleField name="FID_APD_Cl" type="float"></SimpleField>
	<SimpleField name="FID_APD_Un" type="float"></SimpleField>
	<SimpleField name="ID" type="int"></SimpleField>
	<SimpleField name="area_ha" type="float"></SimpleField>
	<SimpleField name="fid_1" type="float"></SimpleField>
	<SimpleField name="POLY_ID" type="float"></SimpleField>
	<SimpleField name="UNIQUE_ID" type="string"></SimpleField>
	<SimpleField name="POINTX" type="float"></SimpleField>
	<SimpleField name="POINTY" type="float"></SimpleField>
	<SimpleField name="ID_1" type="int"></SimpleField>
	<SimpleField name="Id_12" type="float"></SimpleField>
	<SimpleField name="gridcode" type="float"></SimpleField>
	<SimpleField name="Shape_Leng" type="float"></SimpleField>
	<SimpleField name="Shape_Area" type="float"></SimpleField>
</Schema>
<Folder><name>nami_pa_vf</name>
  <Placemark>
	<Style><LineStyle><color>ff0000ff</color></LineStyle><PolyStyle><fill>0</fill></PolyStyle></Style>
	<ExtendedData><SchemaData schemaUrl="#nami_pa_vf">
		<SimpleData name="FID_APD_Cl">1</SimpleData>
		<SimpleData name="FID_APD_Un">1</SimpleData>
		<SimpleData name="ID">1</SimpleData>
		<SimpleData name="area_ha">847.47070722300</SimpleData>
		<SimpleData name="fid_1">0.00000000000</SimpleData>
		<SimpleData name="POLY_ID">0.00000000000</SimpleData>
		<SimpleData name="POINTX">0.00000000000</SimpleData>
		<SimpleData name="POINTY">0.00000000000</SimpleData>
		<SimpleData name="ID_1">0</SimpleData>
		<SimpleData name="Id_12">28</SimpleData>
		<SimpleData name="gridcode">1</SimpleData>
		<SimpleData name="Shape_Leng">21423.86191870000</SimpleData>
		<SimpleData name="Shape_Area">8474707.07223000005</SimpleData>
	</SchemaData></ExtendedData>
      <MultiGeometry><Polygon><outerBoundaryIs><LinearRing><coordinates>-68.2767226648401,-7.4367030799465 -68.2775311479137,-7.43670307994324 -68.2775311479618,-7.43751156372643 -68.2767226643148,-7.4375115635887 -68.2767226648401,-7.4367030799465 -68.2753751915499,-7.43670307998971 -68.2753751913891,-7.43562510176388 -68.2756446859025,-7.43562510147755 -68.275644686254,-7.43481661795452 -68.2757351721558,-7.43481661827257 -68.2739461808085,-7.43367285501096 -68.274472616198,-7.43446322211057 -68.2745898797349,-7.43471752656626 -68.2746236243542,-7.43499544049572 -68.2745706168717,-7.43527034344654 -68.272442262991,-7.44117215962089 -68.2733270577365,-7.44451068365126 -68.2733534501924,-7.4448241100468 -68.2729698813469,-7.44902412128515 -68.3020585893463,-7.46761945706204 -68.3038863894047,-7.45281299265761 -68.276722664987,-7.43544795058896 -68.2767226648401,-7.4367030799465</coordinates></LinearRing></outerBoundaryIs><innerBoundaryIs><LinearRing><coordinates>-68.2872329531809,-7.44586589542584 -68.2872329528603,-7.44613538986661 -68.2875024481259,-7.44613539020904 -68.287502447767,-7.44667437911205 -68.2861549744738,-7.44667437922912 -68.286154974578,-7.44640488485588 -68.2858854801306,-7.4464048845838 -68.285885480621,-7.44586589585882 -68.2872329531809,-7.44586589542584</coordinates></LinearRing></innerBoundaryIs><innerBoundaryIs><LinearRing><coordinates>-68.2974737477312,-7.45314224918741 -68.2974737470646,-7.45502871184113 -68.2990907151044,-7.45502871139636 -68.2990907151997,-7.45556770049101 -68.2993602096513,-7.45556770047498 -68.2993602100147,-7.45610668958731 -68.2990907152335,-7.45610668957265 -68.2990907151678,-7.456915173623 -68.2982822312438,-7.45691517336296 -68.2982822313853,-7.45637618439152 -68.2977432425348,-7.45637618466407 -68.2977432424597,-7.45610668975124 -68.2972042530927,-7.45610669030079 -68.2972042526493,-7.45556770052548 -68.2969347583178,-7.45556770103697 -68.2969347586908,-7.45529820616054 -68.2966652636333,-7.45529820652181 -68.2966652641556,-7.45502871165754 -68.2969347581421,-7.45502871127944 -68.2969347584828,-7.45475921730102 -68.2972042532261,-7.45475921674478 -68.2972042526267,-7.45422022784147 -68.2966652638161,-7.45422022794683 -68.296665263814,-7.45368123909209 -68.2969347578828,-7.45368123863844 -68.2969347583956,-7.45314224974135 -68.2972042530564,-7.45314224909421 -68.2972042531241,-7.45287275507764 -68.2974737476342,-7.45287275515548 -68.2974737475232,-7.45260326021577 -68.2977432418838,-7.45260326011409 -68.2977432424974,-7.45233376606171 -68.2982822309354,-7.45233376533521 -68.2982822309402,-7.45314224938531 -68.2974737477312,-7.45314224918741</coordinates></LinearRing></innerBoundaryIs></Polygon><Polygon><outerBoundaryIs><LinearRing><coordinates>-68.2534363921359,-7.43653521512721 -68.2712503687084,-7.44792479609283 -68.2715340264315,-7.44481892665726 -68.2706179494111,-7.44136231239947 -68.2705886726405,-7.441091701549 -68.2706413752246,-7.44082464916836 -68.2727109767678,-7.43508582206752 -68.2704183882065,-7.43164377268817 -68.2702914441713,-7.4313523548968 -68.2702904868109,-7.43133560635672 -68.2605974129562,-7.42513813671152 -68.2534363921359,-7.43653521512721</coordinates></LinearRing></outerBoundaryIs></Polygon></MultiGeometry>
  </Placemark>
  <Placemark>
	<Style><LineStyle><color>ff0000ff</color></LineStyle><PolyStyle><fill>0</fill></PolyStyle></Style>
	<ExtendedData><SchemaData schemaUrl="#nami_pa_vf">
		<SimpleData name="FID_APD_Cl">2</SimpleData>
		<SimpleData name="FID_APD_Un">2</SimpleData>
		<SimpleData name="ID">2</SimpleData>
		<SimpleData name="area_ha">4298.39174199000</SimpleData>
		<SimpleData name="fid_1">1.00000000000</SimpleData>
		<SimpleData name="POLY_ID">10.00000000000</SimpleData>
		<SimpleData name="UNIQUE_ID">3e739943-58ac-4d31-93d7-563045c51062</SimpleData>
		<SimpleData name="POINTX">582614.00000000000</SimpleData>
		<SimpleData name="POINTY">9176210.00000000000</SimpleData>
		<SimpleData name="ID_1">0</SimpleData>
		<SimpleData name="Id_12">28</SimpleData>
		<SimpleData name="gridcode">1</SimpleData>
		<SimpleData name="Shape_Leng">40994.37549380000</SimpleData>
		<SimpleData name="Shape_Area">42983917.41990000010</SimpleData>
	</SchemaData></ExtendedData>
      <MultiGeometry><Polygon><outerBoundaryIs><LinearRing><coordinates>-68.2695259189952,-7.45364204581592 -68.269199719966,-7.45377350097598 -68.2688479457382,-7.45377106469457 -68.2644331056406,-7.45286735223774 -68.2635801305809,-7.45418594043149 -68.2631177590315,-7.46228744348164 -68.2630574803701,-7.46256415869987 -68.2592174947814,-7.4724081672263 -68.2590287146741,-7.47270435224564 -68.2462902780246,-7.48603063521961 -68.2455430217209,-7.48867949314411 -68.2994475203901,-7.4887685274797 -68.3020585893463,-7.46761945706204 -68.2729698813469,-7.44902412128515 -68.2727794632159,-7.45110911319068 -68.2727147508594,-7.45137186765517 -68.2725750707955,-7.45160376191546 -68.2723729220726,-7.4517840435204 -68.2695259189952,-7.45364204581592</coordinates></LinearRing></outerBoundaryIs></Polygon><Polygon><outerBoundaryIs><LinearRing><coordinates>-68.2249100920673,-7.42481870199802 -68.2247978135603,-7.48864347029168 -68.237323564948,-7.48866533739997 -68.2436609051452,-7.48867626525746 -68.2446066479764,-7.48532386499204 -68.2446917016452,-7.48512100644782 -68.2448232892275,-7.48494462819384 -68.2575935469501,-7.47158510353991 -68.2613164116769,-7.46204142952498 -68.2617842592988,-7.45384455685537 -68.2618274138535,-7.45361566957827 -68.2619276954228,-7.453405368386 -68.2632466964163,-7.45136637099117 -68.2634259205337,-7.45116376057722 -68.2636571179348,-7.45102305047028 -68.2639196461366,-7.45095680422718 -68.2641900636814,-7.45097093810503 -68.2688464515005,-7.45192409809188 -68.2710143205611,-7.45050931163338 -68.2712503687084,-7.44792479609283 -68.2534363921359,-7.43653521512721 -68.2605974129562,-7.42513813671152 -68.2601919237442,-7.42487887036259 -68.2249100920673,-7.42481870199802</coordinates></LinearRing></outerBoundaryIs></Polygon></MultiGeometry>
  </Placemark>
  <Placemark>
	<Style><LineStyle><color>ff0000ff</color></LineStyle><PolyStyle><fill>0</fill></PolyStyle></Style>
	<ExtendedData><SchemaData schemaUrl="#nami_pa_vf">
		<SimpleData name="FID_APD_Cl">3</SimpleData>
		<SimpleData name="FID_APD_Un">3</SimpleData>
		<SimpleData name="ID">3</SimpleData>
		<SimpleData name="area_ha">4362.89069516000</SimpleData>
		<SimpleData name="fid_1">12.00000000000</SimpleData>
		<SimpleData name="POLY_ID">11.00000000000</SimpleData>
		<SimpleData name="UNIQUE_ID">f3649904-7451-40aa-a525-2dcc2535f9cd</SimpleData>
		<SimpleData name="POINTX">588663.00000000000</SimpleData>
		<SimpleData name="POINTY">9175686.00000000000</SimpleData>
		<SimpleData name="ID_1">0</SimpleData>
		<SimpleData name="Id_12">28</SimpleData>
		<SimpleData name="gridcode">1</SimpleData>
		<SimpleData name="Shape_Leng">31777.05127170000</SimpleData>
		<SimpleData name="Shape_Area">43628906.95160000026</SimpleData>
	</SchemaData></ExtendedData>
      <MultiGeometry><Polygon><outerBoundaryIs><LinearRing><coordinates>-68.1680535348374,-7.48853994592837 -68.1744046139799,-7.48855189614249 -68.1738419677039,-7.48606307234818 -68.1738287303647,-7.48573694877039 -68.1747489674346,-7.47926328304365 -68.1737764572095,-7.47559453184613 -68.1706567529401,-7.47101019473496 -68.1684316389063,-7.46974693045325 -68.1680890516042,-7.46978569534106 -68.1680535348374,-7.48853994592837</coordinates></LinearRing></outerBoundaryIs></Polygon><Polygon><outerBoundaryIs><LinearRing><coordinates>-68.1681740298245,-7.4247160695645 -68.1680924952265,-7.46796475077737 -68.1685209147285,-7.4679162730669 -68.1688049432367,-7.46792893323837 -68.1690710623935,-7.46802880709769 -68.171736059841,-7.46954180373605 -68.1720376576059,-7.46981980687006 -68.1753626625217,-7.47470580235755 -68.1754890902812,-7.47498266043941 -68.1765480982456,-7.47897765998561 -68.1765692578683,-7.47933604622719 -68.1756466223972,-7.48582677543229 -68.1762634864165,-7.4885553764806 -68.1789825158464,-7.48856045314814 -68.2247978135603,-7.48864347029168 -68.2249100920673,-7.42481870199802 -68.1767401733779,-7.42473202973064 -68.176740173226,-7.42538430724653 -68.1764706783855,-7.42538430688404 -68.176470678833,-7.42565380200942 -68.1767401729332,-7.42565380148377 -68.1767401735267,-7.42592329662396 -68.176470678358,-7.42592329622541 -68.1764706791641,-7.42646228555556 -68.1759316891285,-7.42646228510179 -68.1759316897824,-7.42565380166389 -68.1735062385716,-7.42565380150738 -68.1735062380593,-7.42484531761384 -68.1726977543063,-7.42484531839514 -68.1726977545046,-7.42472451860901 -68.1681740298245,-7.4247160695645</coordinates></LinearRing></outerBoundaryIs></Polygon></MultiGeometry>
  </Placemark>
  <Placemark>
	<Style><LineStyle><color>ff0000ff</color></LineStyle><PolyStyle><fill>0</fill></PolyStyle></Style>
	<ExtendedData><SchemaData schemaUrl="#nami_pa_vf">
		<SimpleData name="FID_APD_Cl">4</SimpleData>
		<SimpleData name="FID_APD_Un">4</SimpleData>
		<SimpleData name="ID">4</SimpleData>
		<SimpleData name="area_ha">4281.26896221000</SimpleData>
		<SimpleData name="fid_1">13.00000000000</SimpleData>
		<SimpleData name="POLY_ID">12.00000000000</SimpleData>
		<SimpleData name="UNIQUE_ID">f62c584c-29e1-49a8-bf83-f287b0ca23b7</SimpleData>
		<SimpleData name="POINTX">594924.00000000000</SimpleData>
		<SimpleData name="POINTY">9175686.00000000000</SimpleData>
		<SimpleData name="ID_1">0</SimpleData>
		<SimpleData name="Id_12">28</SimpleData>
		<SimpleData name="gridcode">1</SimpleData>
		<SimpleData name="Shape_Leng">39906.88491310000</SimpleData>
		<SimpleData name="Shape_Area">42812689.62210000306</SimpleData>
	</SchemaData></ExtendedData>
      <MultiGeometry><Polygon><outerBoundaryIs><LinearRing><coordinates>-68.1571184068598,-7.46410749978123 -68.160422247496,-7.46883259764567 -68.1680924952265,-7.46796475077737 -68.1681740298245,-7.4247160695645 -68.1407263673759,-7.42466381725238 -68.1415381543046,-7.42938357476876 -68.1455976571704,-7.43072964015357 -68.1458741453484,-7.43087861225953 -68.1460830460222,-7.43111287432161 -68.1461992437552,-7.43140426139579 -68.1466874463958,-7.43375307671841 -68.1489477773641,-7.43502041224762 -68.149170919126,-7.43519667800534 -68.1493282899149,-7.43543333100851 -68.1522109918229,-7.44173520641428 -68.1550324622765,-7.44414018807611 -68.1552505133669,-7.44441564096953 -68.1553470637388,-7.44475321449419 -68.1557221158342,-7.44926523485432 -68.1579761742403,-7.4533594032259 -68.1580693488501,-7.45361153886709 -68.1580841880641,-7.45387986946415 -68.1571184068598,-7.46410749978123</coordinates></LinearRing></outerBoundaryIs></Polygon><Polygon><outerBoundaryIs><LinearRing><coordinates>-68.1114388022178,-7.42460619188964 -68.1113100913441,-7.48842911335921 -68.1206423389484,-7.4884478435425 -68.1680535348374,-7.48853994592837 -68.1680890516042,-7.46978569534106 -68.1600900682009,-7.4706907261676 -68.1597679695004,-7.47066941598319 -68.1594737895622,-7.47053677343351 -68.1592448562793,-7.4703096288451 -68.155441862398,-7.46487062308821 -68.1553087077038,-7.46458347576206 -68.1552827926902,-7.46426812364624 -68.1562536753242,-7.45398693119991 -68.1540408312842,-7.44996759073774 -68.1539319275001,-7.44960678254618 -68.1535717875401,-7.44527394846306 -68.1508815361222,-7.44298080690885 -68.1506456987137,-7.44266867122841 -68.1478024878699,-7.43645307970877 -68.1454402197741,-7.43512858367964 -68.1452361171689,-7.4349723527945 -68.1450842148101,-7.43476517351902 -68.1449967513822,-7.43452373727393 -68.144530824323,-7.43228205641627 -68.1404513347171,-7.43092935589327 -68.1401667070573,-7.43077387519388 -68.1399551997027,-7.43052827433237 -68.1398439336046,-7.43022404389723 -68.1388869975753,-7.42466025499256 -68.1114388022178,-7.42460619188964</coordinates></LinearRing></outerBoundaryIs></Polygon></MultiGeometry>
  </Placemark>
  <Placemark>
	<Style><LineStyle><color>ff0000ff</color></LineStyle><PolyStyle><fill>0</fill></PolyStyle></Style>
	<ExtendedData><SchemaData schemaUrl="#nami_pa_vf">
		<SimpleData name="FID_APD_Cl">5</SimpleData>
		<SimpleData name="FID_APD_Un">5</SimpleData>
		<SimpleData name="ID">5</SimpleData>
		<SimpleData name="area_ha">4418.24952165000</SimpleData>
		<SimpleData name="fid_1">1.00000000000</SimpleData>
		<SimpleData name="POLY_ID">13.00000000000</SimpleData>
		<SimpleData name="UNIQUE_ID">f5705d84-fb3c-4631-b612-6275bc13c328</SimpleData>
		<SimpleData name="POINTX">601186.00000000000</SimpleData>
		<SimpleData name="POINTY">9175686.00000000000</SimpleData>
		<SimpleData name="ID_1">0</SimpleData>
		<SimpleData name="Id_12">28</SimpleData>
		<SimpleData name="gridcode">1</SimpleData>
		<SimpleData name="Shape_Leng">26635.47260000000</SimpleData>
		<SimpleData name="Shape_Area">44182495.21649999917</SimpleData>
	</SchemaData></ExtendedData>
      <MultiGeometry><Polygon><outerBoundaryIs><LinearRing><coordinates>-68.0545675400293,-7.4883109731246 -68.0623030952409,-7.48832750916187 -68.1113100913441,-7.48842911335921 -68.1114388022178,-7.42460619188964 -68.0547044661555,-7.42448906950909 -68.0545675400293,-7.4883109731246</coordinates></LinearRing></outerBoundaryIs></Polygon></MultiGeometry>
  </Placemark>
  <Placemark>
	<Style><LineStyle><color>ff0000ff</color></LineStyle><PolyStyle><fill>0</fill></PolyStyle></Style>
	<ExtendedData><SchemaData schemaUrl="#nami_pa_vf">
		<SimpleData name="FID_APD_Cl">6</SimpleData>
		<SimpleData name="FID_APD_Un">6</SimpleData>
		<SimpleData name="ID">6</SimpleData>
		<SimpleData name="area_ha">4285.46425549000</SimpleData>
		<SimpleData name="fid_1">1.00000000000</SimpleData>
		<SimpleData name="POLY_ID">14.00000000000</SimpleData>
		<SimpleData name="UNIQUE_ID">c531041b-1597-4e2a-a382-4b40cb71c69f</SimpleData>
		<SimpleData name="POINTX">607447.00000000000</SimpleData>
		<SimpleData name="POINTY">9175686.00000000000</SimpleData>
		<SimpleData name="ID_1">0</SimpleData>
		<SimpleData name="Id_12">28</SimpleData>
		<SimpleData name="gridcode">1</SimpleData>
		<SimpleData name="Shape_Leng">39947.64982210000</SimpleData>
		<SimpleData name="Shape_Area">42854642.55489999801</SimpleData>
	</SchemaData></ExtendedData>
      <MultiGeometry><Polygon><outerBoundaryIs><LinearRing><coordinates>-67.9978945861193,-7.45806932599779 -67.997825936931,-7.48818552579848 -68.0039648457059,-7.48819945062439 -68.0278595406633,-7.48825283615298 -68.0279504364106,-7.48618189482775 -68.0251249236434,-7.48110840431406 -68.0250433032792,-7.48090908745092 -68.0250112013265,-7.48069616319775 -68.0248862094046,-7.47654416345976 -68.024920300484,-7.47626981868991 -68.025844305452,-7.47302382105457 -68.0260140393749,-7.47269900950781 -68.029481556148,-7.46845989326163 -68.0295095988238,-7.46655828006666 -68.0267649744549,-7.46424912452386 -68.0170903401339,-7.46490437204047 -68.0168286349026,-7.46488406009904 -68.0038286116751,-7.4619420502893 -68.0036787342183,-7.46189414407121 -68.0004587302332,-7.46054714036691 -68.0001663039747,-7.46035058910755 -67.9978945861193,-7.45806932599779</coordinates></LinearRing></outerBoundaryIs></Polygon><Polygon><outerBoundaryIs><LinearRing><coordinates>-67.9979710776354,-7.42436470299175 -67.997900408743,-7.45550920075904 -68.0013250086896,-7.45894819247464 -68.0043064188455,-7.46019538225054 -68.0171000019887,-7.46309066569051 -68.0270076397884,-7.46241962674161 -68.0273508751938,-7.46246242025792 -68.0276530390614,-7.46263046384098 -68.0310060389562,-7.4654514588722 -68.0311822743806,-7.46565084477486 -68.0312928060993,-7.46589276313037 -68.0313280817627,-7.46615630741933 -68.0312890873902,-7.46880130854641 -68.0312343430507,-7.46909786863427 -68.0310849623888,-7.46935998301605 -68.0275364811105,-7.47369810015847 -68.0267020004947,-7.47662963820571 -68.0268161781774,-7.48042190853075 -68.0296590833774,-7.48552658961714 -68.0297489885929,-7.485758246569 -68.0297723524859,-7.48600557764506 -68.0296735522181,-7.48825683608285 -68.0545675400293,-7.4883109731246 -68.0547044661555,-7.42448906950909 -68.0330995596286,-7.42444256319796 -68.0330995593338,-7.42457582369024 -68.0312130969425,-7.42457582371534 -68.0312130968371,-7.42443845255156 -68.0106625862147,-7.42439315349903 -67.9979710776354,-7.42436470299175</coordinates></LinearRing></outerBoundaryIs><innerBoundaryIs><LinearRing><coordinates>-68.0298656239984,-7.42511481301997 -68.0298656239442,-7.42538430759261 -68.030404613484,-7.42538430706431 -68.0304046137367,-7.42565380167622 -68.0298656247747,-7.42565380216403 -68.0298656246778,-7.42592329673025 -68.0295961300645,-7.42592329670754 -68.0295961294195,-7.4256538021606 -68.029057140585,-7.42565380166698 -68.0290571402469,-7.42538430715934 -68.0295961296592,-7.42538430761242 -68.0295961298776,-7.42511481306101 -68.0298656239984,-7.42511481301997</coordinates></LinearRing></innerBoundaryIs><innerBoundaryIs><LinearRing><coordinates>-68.0301351193124,-7.42592329658938 -68.0304046139682,-7.42592329628491 -68.0304046132722,-7.42619279088843 -68.0301351193583,-7.42619279117361 -68.0301351193124,-7.42592329658938</coordinates></LinearRing></innerBoundaryIs></Polygon></MultiGeometry>
  </Placemark>
  <Placemark>
	<Style><LineStyle><color>ff0000ff</color></LineStyle><PolyStyle><fill>0</fill></PolyStyle></Style>
	<ExtendedData><SchemaData schemaUrl="#nami_pa_vf">
		<SimpleData name="FID_APD_Cl">7</SimpleData>
		<SimpleData name="FID_APD_Un">7</SimpleData>
		<SimpleData name="ID">7</SimpleData>
		<SimpleData name="area_ha">4372.59042282000</SimpleData>
		<SimpleData name="fid_1">1.00000000000</SimpleData>
		<SimpleData name="POLY_ID">17.00000000000</SimpleData>
		<SimpleData name="UNIQUE_ID">83bef5b7-1450-4767-93bf-3e0ec9f338ba</SimpleData>
		<SimpleData name="POINTX">602569.00000000000</SimpleData>
		<SimpleData name="POINTY">9180870.00000000000</SimpleData>
		<SimpleData name="ID_1">0</SimpleData>
		<SimpleData name="Id_12">28</SimpleData>
		<SimpleData name="gridcode">1</SimpleData>
		<SimpleData name="Shape_Leng">62325.93967360000</SimpleData>
		<SimpleData name="Shape_Area">43725904.22820000350</SimpleData>
	</SchemaData></ExtendedData>
      <MultiGeometry><Polygon><outerBoundaryIs><LinearRing><coordinates>-68.1403550518906,-7.42250495548923 -68.1407263673759,-7.42466381725238 -68.1681740298245,-7.4247160695645 -68.1726977545046,-7.42472451860901 -68.172697754714,-7.4229588559404 -68.1735062386434,-7.42295885569004 -68.1735062383548,-7.42322835064742 -68.1737757325931,-7.42322835085691 -68.1737757331975,-7.42376733989539 -68.174045227782,-7.42376733997756 -68.1740452277689,-7.42403683405698 -68.1737757330202,-7.4240368339567 -68.1737757328232,-7.42430632891927 -68.1745842167096,-7.42430632878208 -68.1745842164127,-7.42403683466975 -68.1753926999678,-7.42403683391106 -68.1753927007554,-7.4243063289821 -68.1759316899064,-7.42430632890022 -68.1759316891936,-7.42457582309627 -68.1767401730914,-7.42457582360922 -68.1767401733779,-7.42473202973064 -68.2249100920673,-7.42481870199802 -68.2601919237442,-7.42487887036259 -68.2501788682795,-7.41847641199815 -68.1393994460061,-7.41031934250357 -68.1395408266782,-7.41197623787078 -68.1395029420602,-7.4123224930467 -68.1368287666708,-7.42087451288842 -68.1371077186752,-7.4215347126938 -68.1395445636996,-7.42175728328731 -68.1398303418482,-7.42183162413783 -68.1400769928893,-7.42199374672287 -68.1402583164147,-7.42222642885385 -68.1403550518906,-7.42250495548923</coordinates></LinearRing></outerBoundaryIs></Polygon><Polygon><outerBoundaryIs><LinearRing><coordinates>-68.0107152222611,-7.40080916965143 -68.0106625862147,-7.42439315349903 -68.0312130968371,-7.42443845255156 -68.0312130971174,-7.42349784495015 -68.0317520863777,-7.42349784520651 -68.031752086587,-7.42295885572175 -68.0320215813728,-7.42295885601546 -68.0320215808284,-7.42268936124608 -68.0322910754713,-7.42268936135508 -68.0322910752737,-7.42295885614368 -68.0325605701019,-7.42295885611036 -68.0325605700472,-7.42322835091694 -68.0328300650607,-7.42322835074129 -68.0328300651508,-7.4234978446614 -68.0330995594415,-7.42349784524588 -68.0330995596286,-7.42444256319796 -68.0547044661555,-7.42448906950909 -68.1114388022178,-7.42460619188964 -68.1388869975753,-7.42466025499256 -68.1386866589332,-7.42349544140416 -68.1364014311001,-7.42328671438763 -68.1360887355902,-7.42319988597212 -68.1358267557068,-7.42300863162963 -68.1356491032036,-7.42273749116808 -68.1350301056251,-7.42127249044586 -68.1349599430823,-7.42096465356099 -68.1350000460377,-7.420651498613 -68.1377200854888,-7.4119529218257 -68.1375691811564,-7.41018434102686 -68.0107152222611,-7.40080916965143</coordinates></LinearRing></outerBoundaryIs></Polygon></MultiGeometry>
  </Placemark>
  <Placemark>
	<Style><LineStyle><color>ff0000ff</color></LineStyle><PolyStyle><fill>0</fill></PolyStyle></Style>
	<ExtendedData><SchemaData schemaUrl="#nami_pa_vf">
		<SimpleData name="FID_APD_Cl">8</SimpleData>
		<SimpleData name="FID_APD_Un">8</SimpleData>
		<SimpleData name="ID">8</SimpleData>
		<SimpleData name="area_ha">4317.29481341000</SimpleData>
		<SimpleData name="fid_1">1.00000000000</SimpleData>
		<SimpleData name="POLY_ID">15.00000000000</SimpleData>
		<SimpleData name="UNIQUE_ID">0240a1c2-36b7-4d10-bdc2-63f337b8c173</SimpleData>
		<SimpleData name="POINTX">613708.00000000000</SimpleData>
		<SimpleData name="POINTY">9175686.00000000000</SimpleData>
		<SimpleData name="ID_1">0</SimpleData>
		<SimpleData name="Id_12">28</SimpleData>
		<SimpleData name="gridcode">1</SimpleData>
		<SimpleData name="Shape_Leng">36200.36443430000</SimpleData>
		<SimpleData name="Shape_Area">43172948.13409999758</SimpleData>
	</SchemaData></ExtendedData>
      <MultiGeometry><Polygon><outerBoundaryIs><LinearRing><coordinates>-67.996461692586,-7.45406441637467 -67.997900408743,-7.45550920075904 -67.9979710776354,-7.42436470299175 -67.9780860088135,-7.42431939755434 -67.9828456869298,-7.43114531807677 -67.9829496917421,-7.43134254183515 -67.9830022200918,-7.43155916453294 -67.9836462319941,-7.4371761646409 -67.983620533782,-7.43751567617965 -67.9817447251315,-7.44442127242025 -67.9826113173169,-7.44976818743233 -67.984142532782,-7.45071035463084 -67.9960488674797,-7.45382714422831 -67.9962711817412,-7.45391821777819 -67.996461692586,-7.45406441637467</coordinates></LinearRing></outerBoundaryIs></Polygon><Polygon><outerBoundaryIs><LinearRing><coordinates>-67.9456276540385,-7.48806366859399 -67.997825936931,-7.48818552579848 -67.9978945861193,-7.45806932599779 -67.9953503366124,-7.45551434850805 -67.983552111475,-7.45242584626775 -67.9833064939253,-7.45232090152422 -67.981307492434,-7.45109089929927 -67.9811092034358,-7.45092573360082 -67.9809656500377,-7.45071144079273 -67.9808884956095,-7.45046543110122 -67.9799245073166,-7.44451743142129 -67.9799444566111,-7.44413631675047 -67.9818260250611,-7.43720961895013 -67.981227763494,-7.43199145946511 -67.9758745686689,-7.42431430408469 -67.9412386953685,-7.42423309294781 -67.9410853408009,-7.48805277199645 -67.9456276540385,-7.48806366859399</coordinates></LinearRing></outerBoundaryIs></Polygon></MultiGeometry>
  </Placemark>
  <Placemark>
	<Style><LineStyle><color>ff0000ff</color></LineStyle><PolyStyle><fill>0</fill></PolyStyle></Style>
	<ExtendedData><SchemaData schemaUrl="#nami_pa_vf">
		<SimpleData name="FID_APD_Cl">9</SimpleData>
		<SimpleData name="FID_APD_Un">9</SimpleData>
		<SimpleData name="ID">9</SimpleData>
		<SimpleData name="area_ha">4294.65142516000</SimpleData>
		<SimpleData name="fid_1">1.00000000000</SimpleData>
		<SimpleData name="POLY_ID">18.00000000000</SimpleData>
		<SimpleData name="UNIQUE_ID">f68361ca-3b9b-4444-a8d2-02f3a56da6b0</SimpleData>
		<SimpleData name="POINTX">616251.00000000000</SimpleData>
		<SimpleData name="POINTY">9180517.00000000000</SimpleData>
		<SimpleData name="ID_1">0</SimpleData>
		<SimpleData name="Id_12">28</SimpleData>
		<SimpleData name="gridcode">1</SimpleData>
		<SimpleData name="Shape_Leng">46439.26060630000</SimpleData>
		<SimpleData name="Shape_Area">42946514.25159999728</SimpleData>
	</SchemaData></ExtendedData>
      <MultiGeometry><Polygon><outerBoundaryIs><LinearRing><coordinates>-67.9472678539438,-7.40828265716801 -67.9529312960831,-7.41050959203488 -67.9598233109574,-7.4097944155621 -67.9600927485509,-7.40980674503739 -67.9603466117179,-7.40989770213448 -67.9605624023699,-7.41005922737886 -67.9646713575846,-7.41422206880936 -67.9689556619379,-7.41456139768495 -67.969334088955,-7.41467804828675 -67.9725300855944,-7.41650404506571 -67.9728236698342,-7.4167723332012 -67.9780860088135,-7.42431939755434 -67.9979710776354,-7.42436470299175 -68.0106625862147,-7.42439315349903 -68.0107152222611,-7.40080916965143 -67.9355940042369,-7.39524026192285 -67.9357371346507,-7.39546577293801 -67.9368734630729,-7.39860650692715 -67.9437275012824,-7.40320642715283 -67.9439709661382,-7.4034480606496 -67.9472678539438,-7.40828265716801</coordinates></LinearRing></outerBoundaryIs></Polygon><Polygon><outerBoundaryIs><LinearRing><coordinates>-67.8815595492295,-7.39122673159991 -67.8830142719639,-7.42409048771469 -67.9412386953685,-7.42423309294781 -67.9758745686689,-7.42431430408469 -67.971452864501,-7.41797280032162 -67.9686100372147,-7.41634857950944 -67.9641913290691,-7.41599859966843 -67.9638803618306,-7.41591682412732 -67.9636175949719,-7.4157317773604 -67.9595773635026,-7.41163855265895 -67.9528986751978,-7.41233158367364 -67.9526823059818,-7.41232809966223 -67.95247293631,-7.4122734990015 -67.9463439273053,-7.40986349281775 -67.9461103928287,-7.40972855216889 -67.9459270264544,-7.40953094281571 -67.9425714106888,-7.40461020284915 -67.9356164930356,-7.39994256326037 -67.9354077792231,-7.39974847350448 -67.9352698591772,-7.39949922621659 -67.9341010920381,-7.39626880029291 -67.9328747178599,-7.39503843715611 -67.8815595492295,-7.39122673159991</coordinates></LinearRing></outerBoundaryIs></Polygon></MultiGeometry>
  </Placemark>
  <Placemark>
	<Style><LineStyle><color>ff0000ff</color></LineStyle><PolyStyle><fill>0</fill></PolyStyle></Style>
	<ExtendedData><SchemaData schemaUrl="#nami_pa_vf">
		<SimpleData name="FID_APD_Cl">10</SimpleData>
		<SimpleData name="FID_APD_Un">10</SimpleData>
		<SimpleData name="ID">10</SimpleData>
		<SimpleData name="area_ha">4418.24955693000</SimpleData>
		<SimpleData name="fid_1">1.00000000000</SimpleData>
		<SimpleData name="POLY_ID">16.00000000000</SimpleData>
		<SimpleData name="UNIQUE_ID">80da1982-edeb-4952-aee7-e26d8a0d7442</SimpleData>
		<SimpleData name="POINTX">619970.00000000000</SimpleData>
		<SimpleData name="POINTY">9175686.00000000000</SimpleData>
		<SimpleData name="ID_1">0</SimpleData>
		<SimpleData name="Id_12">28</SimpleData>
		<SimpleData name="gridcode">1</SimpleData>
		<SimpleData name="Shape_Leng">26643.16554530000</SimpleData>
		<SimpleData name="Shape_Area">44182495.56930000335</SimpleData>
	</SchemaData></ExtendedData>
      <MultiGeometry><Polygon><outerBoundaryIs><LinearRing><coordinates>-67.8858391270667,-7.4879164922128 -67.9410853408009,-7.48805277199645 -67.9412386953685,-7.42423309294781 -67.8830142719639,-7.42409048771469 -67.8858391270667,-7.4879164922128</coordinates></LinearRing></outerBoundaryIs></Polygon></MultiGeometry>
  </Placemark>
  <Placemark>
	<Style><LineStyle><color>ff0000ff</color></LineStyle><PolyStyle><fill>0</fill></PolyStyle></Style>
	<ExtendedData><SchemaData schemaUrl="#nami_pa_vf">
		<SimpleData name="FID_APD_Cl">11</SimpleData>
		<SimpleData name="FID_APD_Un">11</SimpleData>
		<SimpleData name="ID">11</SimpleData>
		<SimpleData name="area_ha">4221.55669138000</SimpleData>
		<SimpleData name="fid_1">1.00000000000</SimpleData>
		<SimpleData name="POLY_ID">9.00000000000</SimpleData>
		<SimpleData name="UNIQUE_ID">d98715cc-2e08-4bd8-ad0f-061ce846ac1d</SimpleData>
		<SimpleData name="POINTX">619556.00000000000</SimpleData>
		<SimpleData name="POINTY">9168726.00000000000</SimpleData>
		<SimpleData name="ID_1">0</SimpleData>
		<SimpleData name="Id_12">28</SimpleData>
		<SimpleData name="gridcode">1</SimpleData>
		<SimpleData name="Shape_Leng">45199.87677370000</SimpleData>
		<SimpleData name="Shape_Area">42215566.91380000114</SimpleData>
	</SchemaData></ExtendedData>
      <MultiGeometry><Polygon><outerBoundaryIs><LinearRing><coordinates>-67.8861047434264,-7.49391857761388 -67.8885861491316,-7.5499957122617 -67.9454778462058,-7.5501367224644 -67.9455527241384,-7.51917687477232 -67.9430003357427,-7.51867159038144 -67.9351357839767,-7.51956758564471 -67.9348519580943,-7.51955519060417 -67.9242483893849,-7.51739761263618 -67.9141933815763,-7.51884515075558 -67.9138794777178,-7.51883546972718 -67.9135877326043,-7.51871945126743 -67.913353183925,-7.51851102976939 -67.9102652709009,-7.5146145075405 -67.9069444019804,-7.51282805924845 -67.9035281293756,-7.51316295256273 -67.9017336172242,-7.51458942801194 -67.9014565836498,-7.51473966524332 -67.9011447400249,-7.51478608695295 -67.9008358331605,-7.51472307534279 -67.9005672539194,-7.51455825606607 -67.8973171320292,-7.51167787259178 -67.8946062396996,-7.51379344849635 -67.8943544493747,-7.51393213097656 -67.8940717979463,-7.51398509765489 -67.8937867496523,-7.51394701364859 -67.8935280110514,-7.51382171459254 -67.89332164101,-7.51362181948173 -67.8917816432608,-7.51156181640893 -67.8916475471104,-7.51130481771989 -67.8916017705282,-7.51101868744956 -67.8916490129632,-7.51073279466148 -67.8933177443769,-7.5057791311618 -67.8912247322221,-7.5051815216702 -67.8909498532231,-7.5050497815589 -67.8907343207474,-7.50483450588927 -67.8906025373935,-7.50456006964226 -67.890569425869,-7.50425754632874 -67.8906387333875,-7.50396118913362 -67.8908026138755,-7.50370455174869 -67.8915176734866,-7.50291737830356 -67.8899419873838,-7.50282174028156 -67.8896817174095,-7.50276690786452 -67.8894486136364,-7.50263901685272 -67.8892627607704,-7.50244908764921 -67.889140171829,-7.50221348449239 -67.8890914097386,-7.50195250829956 -67.8891206747289,-7.50168864430698 -67.8892254468055,-7.50144462934186 -67.8906184811962,-7.49918788939781 -67.8898184825449,-7.49913977024397 -67.8895319763128,-7.49907492510597 -67.8892813111441,-7.4989220155212 -67.889092831571,-7.49869711166101 -67.8889863462434,-7.49842385249079 -67.8889730463699,-7.49813095424352 -67.8892487998726,-7.49580004090789 -67.8868819856821,-7.4950051776776 -67.8866488823963,-7.49488720271657 -67.8864592101483,-7.49470773813521 -67.8863287487354,-7.49448171233169 -67.8861047434264,-7.49391857761388</coordinates></LinearRing></outerBoundaryIs></Polygon><Polygon><outerBoundaryIs><LinearRing><coordinates>-67.8858391270667,-7.4879164922128 -67.885947541746,-7.49036629691619 -67.8860980321236,-7.49036018577681 -67.88612825914,-7.49036371347236 -67.8864376277153,-7.49045781487076 -67.8866941827475,-7.49065435087669 -67.8868652452991,-7.49092828718595 -67.8878582208629,-7.4934245547634 -67.8905240090927,-7.49431981913728 -67.8907945525597,-7.49446559770202 -67.8910006855739,-7.4946932684092 -67.8911186784561,-7.49497662228956 -67.891134949844,-7.49528304191777 -67.8908854818665,-7.49739184914245 -67.8922385128676,-7.49747322851783 -67.8924988757841,-7.49752794168721 -67.8927320952536,-7.49765576421117 -67.8929180641439,-7.49784567682812 -67.8930407512883,-7.49808130737651 -67.8930895798943,-7.49834234331047 -67.8930603402489,-7.4986062803989 -67.8929555527887,-7.4988503654102 -67.891562039311,-7.50110791116588 -67.8935120063545,-7.50122625828379 -67.8937945330049,-7.50128966574219 -67.8940425928789,-7.50143878073407 -67.8942308567806,-7.50165837624801 -67.8943400988007,-7.50192602883959 -67.8943591661163,-7.50221440718728 -67.8942861093132,-7.50249406502736 -67.8941283887591,-7.50273644433 -67.8931237958871,-7.50384236386467 -67.8947282624891,-7.50430047522979 -67.8949921422053,-7.50442455037026 -67.8952028547855,-7.50462586335046 -67.8953385684777,-7.50488355426281 -67.8953852216025,-7.50517092482312 -67.8953379801067,-7.50545819865542 -67.8935183080238,-7.5108600136988 -67.8942200194587,-7.51179866549111 -67.8967957596045,-7.509788555426 -67.8970721995211,-7.50964142695883 -67.8973823188065,-7.50959703103743 -67.8976890538206,-7.50966067304878 -67.8979557449833,-7.50982474808683 -67.9012007029604,-7.51270055452893 -67.9026083828726,-7.51158157348011 -67.9028324342173,-7.51145088104419 -67.903084413738,-7.51138891961108 -67.9070424056702,-7.51100091877447 -67.9073094738451,-7.51101429855983 -67.9075610038633,-7.51110488120358 -67.9112900003242,-7.51311087729125 -67.9115708116802,-7.51334597321366 -67.9144511082265,-7.51698049967867 -67.9241455977452,-7.51558484873329 -67.9244560612431,-7.51559381638026 -67.9350731147731,-7.51775413500299 -67.9429352002627,-7.51685841347248 -67.9432143395428,-7.51686986294106 -67.9455571720528,-7.51733366251498 -67.9456276540385,-7.48806366859399 -67.9410853408009,-7.48805277199645 -67.8858391270667,-7.4879164922128</coordinates></LinearRing></outerBoundaryIs></Polygon></MultiGeometry>
  </Placemark>
  <Placemark>
	<Style><LineStyle><color>ff0000ff</color></LineStyle><PolyStyle><fill>0</fill></PolyStyle></Style>
	<ExtendedData><SchemaData schemaUrl="#nami_pa_vf">
		<SimpleData name="FID_APD_Cl">12</SimpleData>
		<SimpleData name="FID_APD_Un">12</SimpleData>
		<SimpleData name="ID">12</SimpleData>
		<SimpleData name="area_ha">4272.78258055000</SimpleData>
		<SimpleData name="fid_1">1.00000000000</SimpleData>
		<SimpleData name="POLY_ID">8.00000000000</SimpleData>
		<SimpleData name="UNIQUE_ID">e15b19a8-7d44-4c11-a3f3-c4dc06aed452</SimpleData>
		<SimpleData name="POINTX">613119.00000000000</SimpleData>
		<SimpleData name="POINTY">9168726.00000000000</SimpleData>
		<SimpleData name="ID_1">0</SimpleData>
		<SimpleData name="Id_12">28</SimpleData>
		<SimpleData name="gridcode">1</SimpleData>
		<SimpleData name="Shape_Leng">40716.77224450001</SimpleData>
		<SimpleData name="Shape_Area">42727825.80550000072</SimpleData>
	</SchemaData></ExtendedData>
      <MultiGeometry><Polygon><outerBoundaryIs><LinearRing><coordinates>-67.9455527241384,-7.51917687477232 -67.9454778462058,-7.5501367224644 -67.9594862962066,-7.55017030697663 -68.0038233231271,-7.55027364264078 -68.0038494379746,-7.53885880102332 -67.9998628113227,-7.53729420423539 -67.9954605681739,-7.53957472559902 -67.9951918415986,-7.53966415727775 -67.994908574613,-7.53966643341427 -67.9946384397949,-7.53958133088185 -67.9944078265634,-7.53941716338566 -67.9885723319966,-7.5336957761185 -67.9783740784654,-7.53023323045711 -67.9780444378611,-7.53003521413383 -67.9729553418734,-7.52524916356058 -67.9677103104448,-7.52077243555497 -67.953701985334,-7.5207724261881 -67.953525679455,-7.52075514429482 -67.9455527241384,-7.51917687477232</coordinates></LinearRing></outerBoundaryIs></Polygon><Polygon><outerBoundaryIs><LinearRing><coordinates>-67.9455571720528,-7.51733366251498 -67.9537910184339,-7.51896357494002 -67.9680449858772,-7.51896356909826 -67.9683589618895,-7.5190195756561 -67.9686340509352,-7.51918066893891 -67.9741500507482,-7.52388866160964 -67.9741825596652,-7.5239177917341 -67.9791442911714,-7.52858404811538 -67.9893519047121,-7.53204975986606 -67.9896951698853,-7.53226084287039 -67.9952090827767,-7.53766692700347 -67.9993934261001,-7.53549927753552 -67.9996359940745,-7.53541458290907 -67.9998926319978,-7.53540123727505 -68.0001427070416,-7.53546031410287 -68.0038538768173,-7.53691680653403 -68.0039648457059,-7.48819945062439 -67.997825936931,-7.48818552579848 -67.9456276540385,-7.48806366859399 -67.9455571720528,-7.51733366251498</coordinates></LinearRing></outerBoundaryIs></Polygon></MultiGeometry>
  </Placemark>
  <Placemark>
	<Style><LineStyle><color>ff0000ff</color></LineStyle><PolyStyle><fill>0</fill></PolyStyle></Style>
	<ExtendedData><SchemaData schemaUrl="#nami_pa_vf">
		<SimpleData name="FID_APD_Cl">13</SimpleData>
		<SimpleData name="FID_APD_Un">13</SimpleData>
		<SimpleData name="ID">13</SimpleData>
		<SimpleData name="area_ha">4308.48510888000</SimpleData>
		<SimpleData name="fid_1">1.00000000000</SimpleData>
		<SimpleData name="POLY_ID">7.00000000000</SimpleData>
		<SimpleData name="UNIQUE_ID">dd1e8163-5a5a-423d-9916-317c1e122325</SimpleData>
		<SimpleData name="POINTX">606681.00000000000</SimpleData>
		<SimpleData name="POINTY">9168726.00000000000</SimpleData>
		<SimpleData name="ID_1">0</SimpleData>
		<SimpleData name="Id_12">28</SimpleData>
		<SimpleData name="gridcode">1</SimpleData>
		<SimpleData name="Shape_Leng">37469.99744530001</SimpleData>
		<SimpleData name="Shape_Area">43084851.08879999816</SimpleData>
	</SchemaData></ExtendedData>
      <MultiGeometry><Polygon><outerBoundaryIs><LinearRing><coordinates>-68.0231282599502,-7.54719585983976 -68.023128259654,-7.54746535425033 -68.0225892707635,-7.54746535402845 -68.0225892704872,-7.54719585965865 -68.0231282599502,-7.54719585983976 -68.0231282593186,-7.54692636542392 -68.0237451536047,-7.5469263652424 -68.0202541318513,-7.54503990318288 -68.0198943248356,-7.54503990263274 -68.0198943247446,-7.54484547023621 -68.0168663213802,-7.54320917373931 -68.005364014668,-7.53945155035336 -68.0053143008171,-7.53943369127341 -68.0038494379746,-7.53885880102332 -68.0038233231271,-7.55027364264078 -68.0268431136336,-7.55032552032894 -68.0246447813757,-7.54741249520283 -68.0239367434998,-7.54702989463409 -68.0239367438499,-7.54719585976848 -68.0236672485924,-7.54719585935412 -68.0236672486279,-7.54746535471187 -68.0233977541313,-7.54746535411198 -68.0233977542606,-7.54719585968003 -68.0231282599502,-7.54719585983976</coordinates></LinearRing></outerBoundaryIs></Polygon><Polygon><outerBoundaryIs><LinearRing><coordinates>-68.0039648457059,-7.48819945062439 -68.0038538768173,-7.53691680653403 -68.0059531027468,-7.53774065521182 -68.017507966287,-7.54151543959371 -68.0176575822797,-7.54157968193827 -68.0256815738517,-7.54591567306532 -68.0259740069881,-7.54616691368022 -68.0286470106675,-7.54970891016984 -68.0287939861852,-7.55000281081329 -68.0288883876853,-7.55033007092398 -68.0621698586534,-7.55040277458536 -68.0623030952409,-7.48832750916187 -68.0545675400293,-7.4883109731246 -68.0296735522181,-7.48825683608285 -68.0294433677166,-7.49350158075083 -68.0294022471187,-7.4937341183998 -68.0293022167013,-7.49394810788669 -68.0275192194073,-7.49674011207362 -68.0272977974564,-7.49697826625399 -68.0201070601222,-7.50234588068795 -68.0185935291869,-7.50509904611024 -68.0184199365482,-7.50532278590905 -68.0181855614319,-7.50548203931028 -68.0179133473104,-7.50556121598606 -68.0176299403428,-7.50555256826019 -68.0173630821251,-7.50545694050823 -68.0171388946275,-7.50528369343451 -68.016979322921,-7.50504978754441 -68.0168999874466,-7.50477811773725 -68.016908653874,-7.50449527677222 -68.0170044732308,-7.50422895236726 -68.0186124763708,-7.50130395554011 -68.0188642120454,-7.5010147250689 -68.0260797104306,-7.49562863706224 -68.0276432621076,-7.49318027788824 -68.0278595406633,-7.48825283615298 -68.0039648457059,-7.48819945062439</coordinates></LinearRing></outerBoundaryIs></Polygon></MultiGeometry>
  </Placemark>
  <Placemark>
	<Style><LineStyle><color>ff0000ff</color></LineStyle><PolyStyle><fill>0</fill></PolyStyle></Style>
	<ExtendedData><SchemaData schemaUrl="#nami_pa_vf">
		<SimpleData name="FID_APD_Cl">14</SimpleData>
		<SimpleData name="FID_APD_Un">14</SimpleData>
		<SimpleData name="ID">14</SimpleData>
		<SimpleData name="area_ha">4418.24950821000</SimpleData>
		<SimpleData name="fid_1">1.00000000000</SimpleData>
		<SimpleData name="POLY_ID">6.00000000000</SimpleData>
		<SimpleData name="UNIQUE_ID">a5f52845-2a12-4038-83c8-9a3997deeaf7</SimpleData>
		<SimpleData name="POINTX">600244.00000000000</SimpleData>
		<SimpleData name="POINTY">9168726.00000000000</SimpleData>
		<SimpleData name="ID_1">0</SimpleData>
		<SimpleData name="Id_12">28</SimpleData>
		<SimpleData name="gridcode">1</SimpleData>
		<SimpleData name="Shape_Leng">26601.59880000000</SimpleData>
		<SimpleData name="Shape_Area">44182495.08209999651</SimpleData>
	</SchemaData></ExtendedData>
      <MultiGeometry><Polygon><outerBoundaryIs><LinearRing><coordinates>-68.0621698586534,-7.55040277458536 -68.0629646649621,-7.5504044798553 -68.1205173890459,-7.55052411762853 -68.1206423389484,-7.4884478435425 -68.1113100913441,-7.48842911335921 -68.0623030952409,-7.48832750916187 -68.0621698586534,-7.55040277458536</coordinates></LinearRing></outerBoundaryIs></Polygon></MultiGeometry>
  </Placemark>
  <Placemark>
	<Style><LineStyle><color>ff0000ff</color></LineStyle><PolyStyle><fill>0</fill></PolyStyle></Style>
	<ExtendedData><SchemaData schemaUrl="#nami_pa_vf">
		<SimpleData name="FID_APD_Cl">15</SimpleData>
		<SimpleData name="FID_APD_Un">15</SimpleData>
		<SimpleData name="ID">15</SimpleData>
		<SimpleData name="area_ha">4276.18973589000</SimpleData>
		<SimpleData name="fid_1">1.00000000000</SimpleData>
		<SimpleData name="POLY_ID">5.00000000000</SimpleData>
		<SimpleData name="UNIQUE_ID">f8d603cc-8263-4cf3-8c68-902eb3abad1b</SimpleData>
		<SimpleData name="POINTX">593806.00000000000</SimpleData>
		<SimpleData name="POINTY">9168726.00000000000</SimpleData>
		<SimpleData name="ID_1">0</SimpleData>
		<SimpleData name="Id_12">28</SimpleData>
		<SimpleData name="gridcode">1</SimpleData>
		<SimpleData name="Shape_Leng">38900.92242410000</SimpleData>
		<SimpleData name="Shape_Area">42761897.35890000314</SimpleData>
	</SchemaData></ExtendedData>
      <MultiGeometry><Polygon><outerBoundaryIs><LinearRing><coordinates>-68.1760565674719,-7.52961182914157 -68.1759060330468,-7.52994820596189 -68.1759316899633,-7.52994820628636 -68.1759316893967,-7.53021770103062 -68.1762011841832,-7.53021770047704 -68.1762011842351,-7.53075668999353 -68.1755442225608,-7.53075669044198 -68.1727175774267,-7.53707283649508 -68.1725533532088,-7.53732033822415 -68.1618029628561,-7.54884238309864 -68.1610136994955,-7.55060375585172 -68.1788658532798,-7.55063767114687 -68.17893826704,-7.51216778496513 -68.1755826980917,-7.5176762012028 -68.1749500085067,-7.52219560613089 -68.1761225728244,-7.52909168566107 -68.1761281650226,-7.52935663505677 -68.1760565674719,-7.52961182914157</coordinates></LinearRing></outerBoundaryIs></Polygon><Polygon><outerBoundaryIs><LinearRing><coordinates>-68.1762634864165,-7.4885553764806 -68.1789601856215,-7.50048348281378 -68.1789825158464,-7.48856045314814 -68.1762634864165,-7.4885553764806</coordinates></LinearRing></outerBoundaryIs></Polygon><Polygon><outerBoundaryIs><LinearRing><coordinates>-68.1205173890459,-7.55052411762853 -68.1590296569219,-7.55059994155807 -68.1602095731892,-7.54796678838942 -68.160373650204,-7.54771964416005 -68.1711239082102,-7.5361977803083 -68.1742895119853,-7.52912426690113 -68.1731394423834,-7.52236031159302 -68.1731353888183,-7.52208384657569 -68.173813398203,-7.51724084914233 -68.1739365663183,-7.51689613777254 -68.1778989957354,-7.51039153640008 -68.1783937777611,-7.50619703279744 -68.1744046139799,-7.48855189614249 -68.1680535348374,-7.48853994592837 -68.1206423389484,-7.4884478435425 -68.1205173890459,-7.55052411762853</coordinates></LinearRing></outerBoundaryIs></Polygon></MultiGeometry>
  </Placemark>
  <Placemark>
	<Style><LineStyle><color>ff0000ff</color></LineStyle><PolyStyle><fill>0</fill></PolyStyle></Style>
	<ExtendedData><SchemaData schemaUrl="#nami_pa_vf">
		<SimpleData name="FID_APD_Cl">16</SimpleData>
		<SimpleData name="FID_APD_Un">16</SimpleData>
		<SimpleData name="ID">16</SimpleData>
		<SimpleData name="area_ha">4407.41760055000</SimpleData>
		<SimpleData name="fid_1">1.00000000000</SimpleData>
		<SimpleData name="POLY_ID">4.00000000000</SimpleData>
		<SimpleData name="UNIQUE_ID">1cb7f65e-82f8-448c-9c57-01671f170ffa</SimpleData>
		<SimpleData name="POINTX">587369.00000000000</SimpleData>
		<SimpleData name="POINTY">9168726.00000000000</SimpleData>
		<SimpleData name="ID_1">0</SimpleData>
		<SimpleData name="Id_12">28</SimpleData>
		<SimpleData name="gridcode">1</SimpleData>
		<SimpleData name="Shape_Leng">26641.54662780000</SimpleData>
		<SimpleData name="Shape_Area">44074176.00550000370</SimpleData>
	</SchemaData></ExtendedData>
      <MultiGeometry><Polygon><outerBoundaryIs><LinearRing><coordinates>-68.1789601856215,-7.50048348281378 -68.1801960730514,-7.50594992114267 -68.1802120837907,-7.50625474480658 -68.1796760925124,-7.51079874650844 -68.1795504303546,-7.51116285319479 -68.17893826704,-7.51216778496513 -68.1788658532798,-7.55063767114687 -68.237215190325,-7.55074343455661 -68.237323564948,-7.48866533739997 -68.2247978135603,-7.48864347029168 -68.1789825158464,-7.48856045314814 -68.1789601856215,-7.50048348281378</coordinates></LinearRing></outerBoundaryIs></Polygon></MultiGeometry>
  </Placemark>
  <Placemark>
	<Style><LineStyle><color>ff0000ff</color></LineStyle><PolyStyle><fill>0</fill></PolyStyle></Style>
	<ExtendedData><SchemaData schemaUrl="#nami_pa_vf">
		<SimpleData name="FID_APD_Cl">17</SimpleData>
		<SimpleData name="FID_APD_Un">17</SimpleData>
		<SimpleData name="ID">17</SimpleData>
		<SimpleData name="area_ha">4200.04208015000</SimpleData>
		<SimpleData name="fid_1">1.00000000000</SimpleData>
		<SimpleData name="POLY_ID">3.00000000000</SimpleData>
		<SimpleData name="UNIQUE_ID">ef44c98e-5b77-480e-ae45-e00c4245634d</SimpleData>
		<SimpleData name="POINTX">580931.00000000000</SimpleData>
		<SimpleData name="POINTY">9168726.00000000000</SimpleData>
		<SimpleData name="ID_1">0</SimpleData>
		<SimpleData name="Id_12">28</SimpleData>
		<SimpleData name="gridcode">1</SimpleData>
		<SimpleData name="Shape_Leng">47911.80471260000</SimpleData>
		<SimpleData name="Shape_Area">42000420.80150000006</SimpleData>
	</SchemaData></ExtendedData>
      <MultiGeometry><Polygon><outerBoundaryIs><LinearRing><coordinates>-68.2629457326105,-7.54635529730429 -68.268256817176,-7.54824330521476 -68.2756566404032,-7.5472958520069 -68.2756722418298,-7.54729399196792 -68.2804412322663,-7.54676699191313 -68.2807665467135,-7.54678994633974 -68.2886575323005,-7.54881294096656 -68.2889541703448,-7.54894966594521 -68.2916349481136,-7.55083505275471 -68.2917827043941,-7.55083529228297 -68.2994475203901,-7.4887685274797 -68.2455430217209,-7.48867949314411 -68.2417372745111,-7.50216940380541 -68.2443669495556,-7.51537570259426 -68.2443741915569,-7.51568692438543 -68.2420764245592,-7.53088680316654 -68.2629457326105,-7.54635529730429</coordinates></LinearRing></outerBoundaryIs></Polygon><Polygon><outerBoundaryIs><LinearRing><coordinates>-68.237323564948,-7.48866533739997 -68.237215190325,-7.55074343455661 -68.2884808405077,-7.55082992770134 -68.2880455949692,-7.55052381745432 -68.2804760079877,-7.54858321620145 -68.2758795678043,-7.54909114520068 -68.268272345144,-7.55006514832881 -68.2678528367012,-7.55002005443964 -68.262209827701,-7.5480140491543 -68.2619735558058,-7.54788812984945 -68.2405585447621,-7.53201510253032 -68.2403366021585,-7.53177813804561 -68.240212703066,-7.53147827200208 -68.2402027792999,-7.53115406642895 -68.2425581906192,-7.51557331598458 -68.2399170783036,-7.50230929305337 -68.2399336202271,-7.50188785310336 -68.2436609051452,-7.48867626525746 -68.237323564948,-7.48866533739997</coordinates></LinearRing></outerBoundaryIs></Polygon></MultiGeometry>
  </Placemark>
  <Placemark>
	<Style><LineStyle><color>ff0000ff</color></LineStyle><PolyStyle><fill>0</fill></PolyStyle></Style>
	<ExtendedData><SchemaData schemaUrl="#nami_pa_vf">
		<SimpleData name="FID_APD_Cl">18</SimpleData>
		<SimpleData name="FID_APD_Un">18</SimpleData>
		<SimpleData name="ID">18</SimpleData>
		<SimpleData name="area_ha">4317.06333254000</SimpleData>
		<SimpleData name="fid_1">1.00000000000</SimpleData>
		<SimpleData name="POLY_ID">0.00000000000</SimpleData>
		<SimpleData name="UNIQUE_ID">b3387d3b-0674-4240-b753-a16330a88996</SimpleData>
		<SimpleData name="POINTX">590799.00000000000</SimpleData>
		<SimpleData name="POINTY">9164521.00000000000</SimpleData>
		<SimpleData name="ID_1">0</SimpleData>
		<SimpleData name="Id_12">28</SimpleData>
		<SimpleData name="gridcode">1</SimpleData>
		<SimpleData name="Shape_Leng">63317.20812130000</SimpleData>
		<SimpleData name="Shape_Area">43170633.32540000230</SimpleData>
	</SchemaData></ExtendedData>
      <MultiGeometry><Polygon><outerBoundaryIs><LinearRing><coordinates>-68.0629410138992,-7.56137805772353 -68.0629114550857,-7.57506969937123 -68.0867372030672,-7.5703630270588 -68.0858515686624,-7.56997369608223 -68.0855568386136,-7.56976576248596 -68.08118431194,-7.5651281412248 -68.0629410138992,-7.56137805772353</coordinates></LinearRing></outerBoundaryIs></Polygon><Polygon><outerBoundaryIs><LinearRing><coordinates>-68.2916349481136,-7.55083505275471 -68.2917709216127,-7.55093068242589 -68.2917827043941,-7.55083529228297 -68.2916349481136,-7.55083505275471</coordinates></LinearRing></outerBoundaryIs></Polygon><Polygon><outerBoundaryIs><LinearRing><coordinates>-68.1624800813444,-7.56578408279012 -68.1624793071755,-7.5657892965347 -68.2900556586812,-7.56481683631384 -68.2915368396651,-7.5528258009667 -68.2913596025281,-7.55280039258946 -68.2911050947282,-7.55267555924087 -68.2884808405077,-7.55082992770134 -68.237215190325,-7.55074343455661 -68.1788658532798,-7.55063767114687 -68.1610136994955,-7.55060375585172 -68.1594548274067,-7.55408258374762 -68.1594885396053,-7.55675960377001 -68.1624329310223,-7.56550503794711 -68.1624800813444,-7.56578408279012</coordinates></LinearRing></outerBoundaryIs></Polygon><Polygon><outerBoundaryIs><LinearRing><coordinates>-68.089171325465,-7.56986379913733 -68.0891723470809,-7.56988189414302 -68.1078331650951,-7.56619441122695 -68.1606209034079,-7.56580318606505 -68.1577247922677,-7.55720104284625 -68.1576776725226,-7.55692436218038 -68.1576396795209,-7.55390636255279 -68.1577185659195,-7.55352578314743 -68.1590296569219,-7.55059994155807 -68.1205173890459,-7.55052411762853 -68.0629646649621,-7.5504044798553 -68.0629449951812,-7.55953197733564 -68.0818308578178,-7.56341413736742 -68.0820900948845,-7.56351042199609 -68.0823081577138,-7.56368024300126 -68.0867509651435,-7.5683923922354 -68.0886508947119,-7.56922760936986 -68.0888893333345,-7.56938080013212 -68.0890686615453,-7.56960001602392 -68.089171325465,-7.56986379913733</coordinates></LinearRing></outerBoundaryIs></Polygon></MultiGeometry>
  </Placemark>
  <Placemark>
	<Style><LineStyle><color>ff0000ff</color></LineStyle><PolyStyle><fill>0</fill></PolyStyle></Style>
	<ExtendedData><SchemaData schemaUrl="#nami_pa_vf">
		<SimpleData name="FID_APD_Cl">19</SimpleData>
		<SimpleData name="FID_APD_Un">19</SimpleData>
		<SimpleData name="ID">19</SimpleData>
		<SimpleData name="area_ha">4314.84451885000</SimpleData>
		<SimpleData name="fid_1">1.00000000000</SimpleData>
		<SimpleData name="POLY_ID">1.00000000000</SimpleData>
		<SimpleData name="UNIQUE_ID">2cf80e46-60e9-4864-a573-9ea2e9f75558</SimpleData>
		<SimpleData name="POINTX">609084.00000000000</SimpleData>
		<SimpleData name="POINTY">9163930.00000000000</SimpleData>
		<SimpleData name="ID_1">0</SimpleData>
		<SimpleData name="Id_12">28</SimpleData>
		<SimpleData name="gridcode">1</SimpleData>
		<SimpleData name="Shape_Leng">41864.36215870000</SimpleData>
		<SimpleData name="Shape_Area">43148445.18850000203</SimpleData>
	</SchemaData></ExtendedData>
      <MultiGeometry><Polygon><outerBoundaryIs><LinearRing><coordinates>-68.0535811477377,-7.56040109456235 -68.0525031693948,-7.56040109413505 -68.0525031697164,-7.56013159943282 -68.0527726643295,-7.56013160022132 -68.0527726644631,-7.55986210549507 -68.0530421589317,-7.55986210519194 -68.0530421589652,-7.56013159993891 -68.053581148297,-7.56013159977916 -68.0535811477377,-7.56040109456235 -68.0537172121409,-7.56040109479744 -68.0541201374586,-7.56035780478597 -68.0541201368032,-7.56013159985604 -68.0543896315406,-7.56013159964578 -68.0543896319019,-7.5603288502941 -68.0624129546813,-7.55946674483972 -68.0626928930689,-7.55948014965163 -68.0629449951812,-7.55953197733564 -68.0629646649621,-7.5504044798553 -68.0621698586534,-7.55040277458536 -68.0288883876853,-7.55033007092398 -68.0318282326086,-7.56052133702767 -68.0365320952799,-7.56177623886161 -68.0368505347122,-7.56193303916185 -68.0407553141462,-7.56492944646484 -68.0464003618266,-7.56458281879988 -68.0511204632246,-7.5608222032341 -68.0513409700499,-7.56069264307899 -68.0515889777323,-7.56062974472806 -68.0535811476194,-7.56041571325487 -68.0535811477377,-7.56040109456235</coordinates></LinearRing></outerBoundaryIs></Polygon><Polygon><outerBoundaryIs><LinearRing><coordinates>-67.9594862962066,-7.55017030697663 -67.959377543017,-7.5955056309508 -68.0629114550857,-7.57506969937123 -68.0629410138992,-7.56137805772353 -68.062466025685,-7.56128040882926 -68.0520453535083,-7.56240007134037 -68.0473075352929,-7.56617480155912 -68.0470677531973,-7.56631201934554 -68.0467976766811,-7.56637074208533 -68.0405276631381,-7.5667557414698 -68.0402066971436,-7.56671783678974 -68.0399194656271,-7.56656996439335 -68.0358889895478,-7.56347709716122 -68.030864894918,-7.56213675639112 -68.0305839811162,-7.56200724839445 -68.0303630976218,-7.56179099056133 -68.0302279918916,-7.56151319020547 -68.0270983085256,-7.55066367829279 -68.0268431136336,-7.55032552032894 -68.0038233231271,-7.55027364264078 -67.9594862962066,-7.55017030697663</coordinates></LinearRing></outerBoundaryIs><innerBoundaryIs><LinearRing><coordinates>-68.0269011842782,-7.55123827809419 -68.0260927003296,-7.55123827818677 -68.0260926999961,-7.55096878358914 -68.0258232058562,-7.5509687842139 -68.0258232056683,-7.55069928963431 -68.0269011834922,-7.55069928967428 -68.0269011842782,-7.55123827809419</coordinates></LinearRing></innerBoundaryIs><innerBoundaryIs><LinearRing><coordinates>-67.9738107507885,-7.56444351357341 -67.9732717614135,-7.56444351303386 -67.9732717613396,-7.56390452444438 -67.9735412556834,-7.56390452384807 -67.9735412563527,-7.56363502907589 -67.9738107505497,-7.56363502919499 -67.9738107507885,-7.56444351357341</coordinates></LinearRing></innerBoundaryIs><innerBoundaryIs><LinearRing><coordinates>-67.9759667072561,-7.56956391008924 -67.9754277184164,-7.56956391047543 -67.9754277183367,-7.56902492075087 -67.9756972124095,-7.56902492104849 -67.9756972130749,-7.56875542616101 -67.9759667070027,-7.56875542626955 -67.9759667072561,-7.56956391008924</coordinates></LinearRing></innerBoundaryIs></Polygon></MultiGeometry>
  </Placemark>
  <Placemark>
	<Style><LineStyle><color>ff0000ff</color></LineStyle><PolyStyle><fill>0</fill></PolyStyle></Style>
	<ExtendedData><SchemaData schemaUrl="#nami_pa_vf">
		<SimpleData name="FID_APD_Cl">20</SimpleData>
		<SimpleData name="FID_APD_Un">20</SimpleData>
		<SimpleData name="ID">20</SimpleData>
		<SimpleData name="area_ha">4418.24947901000</SimpleData>
		<SimpleData name="fid_1">1.00000000000</SimpleData>
		<SimpleData name="POLY_ID">2.00000000000</SimpleData>
		<SimpleData name="UNIQUE_ID">3bf9d2b7-f2cb-4f24-b5bd-824fbd00ae01</SimpleData>
		<SimpleData name="POINTX">618600.00000000000</SimpleData>
		<SimpleData name="POINTY">9161401.00000000000</SimpleData>
		<SimpleData name="ID_1">0</SimpleData>
		<SimpleData name="Id_12">28</SimpleData>
		<SimpleData name="gridcode">1</SimpleData>
		<SimpleData name="Shape_Leng">26932.82738020000</SimpleData>
		<SimpleData name="Shape_Area">44182494.79010000080</SimpleData>
	</SchemaData></ExtendedData>
      <MultiGeometry><Polygon><outerBoundaryIs><LinearRing><coordinates>-67.959377543017,-7.5955056309508 -67.9594862962066,-7.55017030697663 -67.9454778462058,-7.5501367224644 -67.8885861491316,-7.5499957122617 -67.8896964117329,-7.57508952098668 -67.8919361930888,-7.60880278496322 -67.959377543017,-7.5955056309508</coordinates></LinearRing></outerBoundaryIs></Polygon></MultiGeometry>
  </Placemark>
</Folder>
</Document></kml>
