<?xml version="1.0" encoding="utf-8" ?>
<kml xmlns="http://www.opengis.net/kml/2.2">
<Document id="root_doc">
<Schema name="first_prj_inst_20231212" id="first_prj_inst_20231212">
	<SimpleField name="id" type="float"></SimpleField>
	<SimpleField name="area_ha" type="float"></SimpleField>
</Schema>
<Folder><name>first_prj_inst_20231212</name>
  <Placemark>
	<Style><LineStyle><color>ff0000ff</color></LineStyle><PolyStyle><fill>0</fill></PolyStyle></Style>
	<ExtendedData><SchemaData schemaUrl="#first_prj_inst_20231212">
		<SimpleData name="area_ha">1.04</SimpleData>
	</SchemaData></ExtendedData>
      <MultiGeometry><Polygon><outerBoundaryIs><LinearRing><coordinates>9.47417919801518,4.31860860435288 9.4741901141729,4.31883591163435 9.47473764352398,4.31922290881967 9.47509597425112,4.31945510713086 9.47526510635434,4.31932897471491 9.47545143833245,4.31916844254915 9.4751074408344,4.31852918053192 9.4749067756272,4.3184087814076 9.47466311073273,4.31836864836616 9.47422450284031,4.31840473263979 9.47417919801518,4.31860860435288</coordinates></LinearRing></outerBoundaryIs></Polygon></MultiGeometry>
  </Placemark>
</Folder>
</Document></kml>
