<?xml version="1.0" encoding="utf-8" ?>
<kml xmlns="http://www.opengis.net/kml/2.2">
<Document id="root_doc">
<Schema name="grivu_sala_project_site" id="grivu_sala_project_site">
	<SimpleField name="id" type="float"></SimpleField>
	<SimpleField name="area" type="int"></SimpleField>
</Schema>
<Folder><name>grivu_sala_project_site</name>
  <Placemark>
	<Style><LineStyle><color>ff0000ff</color></LineStyle><PolyStyle><fill>0</fill></PolyStyle></Style>
	<ExtendedData><SchemaData schemaUrl="#grivu_sala_project_site">
		<SimpleData name="area">4375236</SimpleData>
	</SchemaData></ExtendedData>
      <MultiGeometry><Polygon><outerBoundaryIs><LinearRing><coordinates>26.9193284579785,56.9314765391042 26.9160778389276,56.9338557805272 26.9160613778503,56.9338678289636 26.9148661046327,56.9346938752919 26.9122365035539,56.9353460042086 26.9101646966433,56.9356068525829 26.9068976165151,56.9361720178028 26.9035508515058,56.9368241208771 26.9014790445952,56.9372588499262 26.9005228260211,56.9376066295172 26.8994869225658,56.9377370460278 26.8992478679223,56.9389542448027 26.8994072376846,56.9397367087525 26.9006025109023,56.9399540569362 26.9020368387634,56.9397367087525 26.9035508515058,56.9395628292935 26.9044273851987,56.9396497691243 26.9053039188916,56.940040995855 26.9055429735351,56.9405626251119 26.9058617130598,56.9416058617372 26.9068179316339,56.9426490691785 26.9070569862775,56.9430837303325 26.9068179316339,56.9439095725668 26.9064195072281,56.944909251853 26.9085709990198,56.9468433378594 26.9239501810867,56.9487338642907 26.9260219879973,56.951124047838 26.9410824305395,56.9481254294641 26.9427558130442,56.945517739166 26.9425964432818,56.9410842470725 26.9425851616542,56.9407088311507 26.9360478732738,56.9397152705085 26.935902913263,56.9396932389637 26.9361818103472,56.9394106841018 26.936580234753,56.9386716843419 26.9388512538666,56.9370197495763 26.9386918841042,56.9366284911519 26.9376559806489,56.9355416406604 26.9371778713619,56.9349764658889 26.9373672811639,56.934625105786 26.9375762957677,56.9342373782665 26.938134089936,56.9336287068756 26.9388512538666,56.9329330702674 26.939966842203,56.9321939421573 26.9405246363712,56.9316721958505 26.9410027456583,56.93032431745 26.942676128163,56.9290633548586 26.9448276199547,56.9284111161054 26.9460228931724,56.9280632507747 26.9468994268653,56.9272805419223 26.9484384502623,56.9271685616968 26.9494493430629,56.9265195592405 26.9494493430629,56.9257803040596 26.9486524942511,56.9257803040596 26.9449869897171,56.9268674389636 26.9432339223312,56.926910923701 26.9414808549453,56.9262151618221 26.9394090480348,56.9259542477728 26.9361419679066,56.9253454412292 26.9345482702831,56.9255628732779 26.9296078076502,56.9285633061677 26.9277584633922,56.9294422364663 26.9271375763337,56.9297373229249 26.923631441562,56.9299547293814 26.9211612102456,56.930215615457 26.9211254281829,56.9302402333225 26.9193284579785,56.9314765391042</coordinates></LinearRing></outerBoundaryIs></Polygon></MultiGeometry>
  </Placemark>
</Folder>
</Document></kml>
