<?xml version="1.0" encoding="utf-8" ?>
<kml xmlns="http://www.opengis.net/kml/2.2">
<Document id="root_doc">
<Schema name="5172_PjtArea" id="5172_PjtArea">
	<SimpleField name="OBJECTID" type="float"></SimpleField>
	<SimpleField name="Secondary" type="string"></SimpleField>
	<SimpleField name="Compartmen" type="string"></SimpleField>
	<SimpleField name="Leased" type="string"></SimpleField>
	<SimpleField name="Area_Ha" type="float"></SimpleField>
	<SimpleField name="area" type="float"></SimpleField>
</Schema>
<Folder><name>5172_PjtArea</name>
  <Placemark>
	<name>1</name>
	<description>Block B</description>
	<Style><LineStyle><color>ff0000ff</color></LineStyle><PolyStyle><fill>0</fill></PolyStyle></Style>
	<ExtendedData><SchemaData schemaUrl="#5172_PjtArea">
		<SimpleData name="OBJECTID">55</SimpleData>
		<SimpleData name="Secondary">Y</SimpleData>
		<SimpleData name="Compartmen">26.11</SimpleData>
		<SimpleData name="Leased">395</SimpleData>
	</SchemaData></ExtendedData>
      <MultiGeometry><Polygon><outerBoundaryIs><LinearRing><coordinates>-2.2078967,6.111944 -2.2078864,6.1120877 -2.2074963,6.1121288 -2.2072653,6.1121237 -2.2070445,6.1120826 -2.2069111,6.1121596 -2.2068957,6.1123496 -2.2069265,6.1124933 -2.2070086,6.1126832 -2.2070497,6.1130169 -2.2070914,6.1131644 -2.2071164,6.1132531 -2.2072447,6.1134687 -2.2074552,6.1137356 -2.2074827,6.1138066 -2.2075425,6.1139615 -2.2076041,6.1141823 -2.2077838,6.1142747 -2.2081072,6.1142901 -2.2083793,6.1142285 -2.2084255,6.1143003 -2.2083741,6.11448 -2.2083844,6.1146854 -2.2084665,6.114788 -2.2086462,6.114865 -2.2089491,6.1147778 -2.2091288,6.1147059 -2.2093393,6.1147675 -2.2095754,6.1149369 -2.2098372,6.1150909 -2.2101093,6.1152757 -2.210176,6.1154246 -2.2101247,6.115594 -2.210102,6.1156953 -2.210058,6.1158918 -2.2099912,6.1160714 -2.2099091,6.1163076 -2.2099399,6.1165489 -2.2099964,6.1166413 -2.2103917,6.1166361 -2.211018,6.1168107 -2.2110335,6.1168142 -2.2115302,6.1169273 -2.2116494,6.1169544 -2.2121063,6.1171546 -2.2121132,6.1171575 -2.2125664,6.1173473 -2.2127069,6.1174062 -2.21292,6.1175054 -2.2131587,6.1176167 -2.2133026,6.1176852 -2.2136002,6.1178271 -2.2140571,6.1182019 -2.2143907,6.1186434 -2.2144394,6.1188173 -2.2144407,6.1188218 -2.2144626,6.1189001 -2.2145448,6.1192081 -2.2146115,6.1196342 -2.2146474,6.1200757 -2.2147809,6.120666 -2.214709,6.1208919 -2.2146372,6.1212872 -2.2146269,6.1216825 -2.2145807,6.1220983 -2.2142675,6.1230543 -2.2232082,6.1230695 -2.2209931,6.1073766 -2.2198121,6.107454 -2.2197705,6.1075794 -2.2197218,6.1077334 -2.219691,6.1078515 -2.2196833,6.1079516 -2.2196396,6.1080825 -2.219596,6.1081441 -2.2195729,6.1081415 -2.2195292,6.1080158 -2.2195061,6.1079131 -2.2194471,6.1077719 -2.2193983,6.1076307 -2.2193631,6.1074846 -2.2151143,6.1077629 -2.2155892,6.1082532 -2.2159999,6.1086382 -2.2161949,6.108823 -2.216313,6.1089924 -2.21639,6.1091413 -2.2166467,6.1091824 -2.2168828,6.1091978 -2.2170368,6.1091824 -2.2173038,6.109398 -2.2174013,6.1095366 -2.2173192,6.1096854 -2.2171241,6.1098292 -2.2168777,6.1098395 -2.2166261,6.1098651 -2.2163489,6.1097727 -2.2162514,6.1097214 -2.2162155,6.1096444 -2.2160974,6.109593 -2.2160307,6.1095622 -2.2159023,6.1095622 -2.2158304,6.1096854 -2.2157637,6.1097522 -2.215661,6.109706 -2.2156097,6.1095571 -2.2155584,6.1094082 -2.2154762,6.1092337 -2.2153992,6.1092029 -2.2151939,6.109131 -2.2151426,6.1092542 -2.2151272,6.109475 -2.2151066,6.109593 -2.2150553,6.1096546 -2.214968,6.1096341 -2.2147883,6.1096957 -2.2147421,6.1098343 -2.2148345,6.1099062 -2.2149732,6.1100345 -2.2149783,6.1102399 -2.2148551,6.1103939 -2.2146446,6.1103425 -2.2143571,6.1101731 -2.2142545,6.1100448 -2.2142237,6.1099473 -2.2142185,6.1098138 -2.2143469,6.1096495 -2.2145779,6.1094493 -2.2146395,6.1091618 -2.2145933,6.1090181 -2.2145265,6.1088025 -2.2142134,6.1084534 -2.2139721,6.1083251 -2.2135306,6.1082994 -2.213274,6.1084996 -2.2130635,6.1084945 -2.2127966,6.108438 -2.2125968,6.1085617 -2.2124188,6.1086014 -2.2122927,6.108513 -2.2121517,6.1083157 -2.2123575,6.1079421 -2.2122702,6.1079478 -2.2121078,6.1082674 -2.2119099,6.1085229 -2.211774,6.1087045 -2.2115088,6.1091731 -2.2113045,6.1097643 -2.2113661,6.1106999 -2.2113784,6.1117251 -2.2113011,6.1121251 -2.2111357,6.1126072 -2.211087,6.112784 -2.2109228,6.1129657 -2.21062,6.1129401 -2.2104608,6.1128271 -2.2103582,6.1125859 -2.2102709,6.1121136 -2.2102298,6.1119852 -2.2101015,6.1118158 -2.2094803,6.111631 -2.2092853,6.1116002 -2.2089978,6.111477 -2.2088078,6.1113179 -2.2087822,6.1111228 -2.2085974,6.111015 -2.2086025,6.1108713 -2.2087,6.1105787 -2.2088181,6.1103425 -2.2089978,6.1102553 -2.2092596,6.1102707 -2.2094393,6.1102501 -2.209506,6.1101269 -2.209506,6.1099575 -2.209429,6.10986 -2.2093469,6.1097368 -2.2093315,6.1096803 -2.2093315,6.1096187 -2.209352,6.1094288 -2.2093623,6.1092953 -2.2092236,6.1092132 -2.209044,6.1091875 -2.2088232,6.1091978 -2.208623,6.1091413 -2.2084588,6.1089308 -2.2083612,6.1088744 -2.2082226,6.1089514 -2.2080583,6.1090848 -2.2079095,6.1091618 -2.2075963,6.1090797 -2.2073089,6.1089668 -2.2071292,6.1089668 -2.2071112,6.1089622 -2.207101,6.1093207 -2.2070856,6.109485 -2.2071267,6.1096595 -2.2072088,6.1097981 -2.2072961,6.1098546 -2.2074758,6.1098546 -2.20783,6.1100702 -2.2080097,6.1101626 -2.2081483,6.1103012 -2.2081893,6.1106401 -2.2081945,6.1109943 -2.2082047,6.1113639 -2.2081483,6.111559 -2.2079635,6.111636 -2.2078967,6.1117438 -2.2078967,6.111944</coordinates></LinearRing></outerBoundaryIs></Polygon><Polygon><outerBoundaryIs><LinearRing><coordinates>-2.18191,6.1205513 -2.1819393,6.1204597 -2.1818953,6.1202802 -2.1818074,6.1200273 -2.1817341,6.1198075 -2.1816058,6.1194521 -2.1815619,6.1191736 -2.1814446,6.1188328 -2.1810928,6.1186239 -2.1807447,6.118613 -2.1802428,6.1187192 -2.1796492,6.1187449 -2.1792498,6.1186313 -2.1792286,6.1186261 -2.1801579,6.1214137 -2.1810956,6.1242252 -2.1811441,6.1240836 -2.1811441,6.1238601 -2.1812504,6.1235633 -2.181386,6.1232921 -2.181408,6.122955 -2.181419,6.1226399 -2.1814336,6.1223321 -2.1814116,6.122072 -2.1815325,6.1217385 -2.1815399,6.1214637 -2.1814922,6.1211559 -2.18151,6.1210825 -2.1815435,6.1209434 -2.1817121,6.1208005 -2.18191,6.1205513</coordinates></LinearRing></outerBoundaryIs></Polygon><Polygon><outerBoundaryIs><LinearRing><coordinates>-2.2035331,6.112637 -2.2036871,6.1128732 -2.2039798,6.1128937 -2.2043134,6.1127397 -2.2043597,6.1125446 -2.204411,6.1123547 -2.2046163,6.1121185 -2.2045701,6.111867 -2.2045547,6.1115846 -2.2042826,6.1112099 -2.2042353,6.1110803 -2.2040722,6.1106349 -2.2038463,6.1102807 -2.203682,6.1099265 -2.2036717,6.1097211 -2.2036669,6.1096407 -2.2036615,6.1095517 -2.2035947,6.1094747 -2.2036409,6.1091718 -2.2037514,6.1090012 -2.2037469,6.1089954 -2.2037495,6.1089929 -2.2037341,6.1087362 -2.2036827,6.1085207 -2.2035801,6.108418 -2.203344,6.1083769 -2.2030873,6.1083256 -2.2028974,6.1081511 -2.2027537,6.1079612 -2.2025022,6.107915 -2.2022763,6.1079201 -2.2020351,6.1082486 -2.2018606,6.1084539 -2.2016142,6.1085463 -2.2014037,6.1085463 -2.2013627,6.1083256 -2.2015372,6.1081306 -2.2016552,6.107838 -2.2016809,6.1074684 -2.2016655,6.1072169 -2.2017733,6.1069808 -2.2018298,6.1068011 -2.2018298,6.1065907 -2.2017579,6.1065753 -2.2016142,6.1064983 -2.201532,6.1064059 -2.201532,6.1063289 -2.2016552,6.1061955 -2.2016347,6.106062 -2.2015577,6.1060466 -2.2014448,6.1060825 -2.2012189,6.1065394 -2.2009264,6.10695 -2.2006851,6.1067857 -2.2005876,6.1065599 -2.2007159,6.1062468 -2.2008699,6.1059286 -2.201029,6.1057438 -2.2011881,6.1055487 -2.2011933,6.1053588 -2.2008596,6.1053126 -2.2006543,6.1051535 -2.2004952,6.1051381 -2.2004028,6.1053639 -2.2000384,6.1053023 -2.1998485,6.1051432 -2.199715,6.1051381 -2.1996226,6.1053639 -2.1996585,6.105713 -2.1998331,6.105985 -2.1998844,6.1061082 -2.1999409,6.1063033 -2.1999409,6.1065086 -2.1998741,6.1067755 -2.1996791,6.1067703 -2.1994789,6.1065291 -2.199289,6.1064624 -2.1990734,6.1067241 -2.198863,6.1068781 -2.1986679,6.1068987 -2.1984626,6.1066985 -2.1984985,6.1064521 -2.1987449,6.1061749 -2.1988835,6.10579 -2.1988886,6.1056308 -2.198673,6.1055436 -2.1986063,6.1053896 -2.1986884,6.1052151 -2.1987244,6.1050868 -2.1988937,6.1047634 -2.1990529,6.1044913 -2.1991863,6.1042809 -2.1993095,6.1041012 -2.1993403,6.103937 -2.1993916,6.1035623 -2.1994635,6.1033108 -2.1996739,6.1030747 -2.1996585,6.1028796 -2.1994173,6.102664 -2.1992838,6.1024433 -2.1992521,6.1011266 -2.1941997,6.1020225 -2.1941946,6.1024844 -2.1942972,6.1028745 -2.1944769,6.1032441 -2.1946155,6.1045478 -2.1947079,6.1055333 -2.1948054,6.1065599 -2.1946976,6.1068525 -2.1945539,6.1070732 -2.194482,6.1072477 -2.194482,6.1075043 -2.1944872,6.1077456 -2.1943383,6.1080895 -2.1942972,6.1083307 -2.1943896,6.1087516 -2.1944461,6.1090647 -2.1944256,6.109578 -2.1944666,6.1098706 -2.1945693,6.1099732 -2.1947387,6.1099424 -2.1948824,6.1098808 -2.1951082,6.1099938 -2.1953341,6.1102812 -2.1953289,6.1106456 -2.1950466,6.1109793 -2.1946309,6.1111332 -2.1944718,6.111164 -2.1941843,6.1111589 -2.1940098,6.1109947 -2.1940149,6.1107226 -2.1940919,6.1105532 -2.1941227,6.1103017 -2.1940509,6.1100759 -2.193979,6.1097166 -2.1938815,6.1089467 -2.1938763,6.1087362 -2.1939328,6.1085771 -2.1939482,6.1083153 -2.1938763,6.1081254 -2.1936762,6.1077866 -2.1935068,6.1072888 -2.1935838,6.106991 -2.1939687,6.1066882 -2.1941843,6.1064778 -2.1943229,6.1061441 -2.1942818,6.1058464 -2.1942356,6.1054409 -2.1941371,6.1047472 -2.1939893,6.1041423 -2.1939923,6.1035553 -2.1938424,6.1033057 -2.1936427,6.1030493 -2.1933664,6.1027663 -2.1930701,6.1027963 -2.1926789,6.103031 -2.1924238,6.1034853 -2.1922646,6.1040653 -2.1923293,6.104475 -2.1921795,6.1046939 -2.1917953,6.1049306 -2.1915461,6.1047014 -2.191316,6.104629 -2.1913356,6.1044298 -2.1913664,6.1042809 -2.1913921,6.1040243 -2.1913099,6.1038549 -2.1910225,6.1038292 -2.1908964,6.1038457 -2.1896219,6.105824 -2.1869442,6.1050825 -2.1858755,6.1066336 -2.1856663,6.1069372 -2.1856663,6.1069421 -2.1857484,6.1080098 -2.1861128,6.1081176 -2.1865492,6.1080611 -2.1869649,6.1078917 -2.1873037,6.1076505 -2.1878992,6.1074349 -2.1883201,6.1073528 -2.1887667,6.1075016 -2.1892081,6.1081638 -2.1896804,6.1085385 -2.1902347,6.1090826 -2.1903169,6.1093239 -2.1903631,6.1098474 -2.1904555,6.1101349 -2.1904349,6.110448 -2.1904195,6.1109305 -2.1903528,6.111336 -2.1902861,6.1116748 -2.1904349,6.1119674 -2.1905735,6.1120855 -2.1905838,6.1123165 -2.1903682,6.1124961 -2.1901526,6.1126861 -2.1901466,6.1126874 -2.1901504,6.1126887 -2.19016,6.1126919 -2.1903859,6.1129743 -2.190581,6.1131642 -2.190776,6.1134003 -2.1908787,6.1135903 -2.19112,6.1136108 -2.1912175,6.1138521 -2.1913561,6.1140522 -2.1915922,6.1140471 -2.1918848,6.1139598 -2.1919669,6.1141036 -2.1920491,6.114196 -2.1923211,6.1143192 -2.1925521,6.1143705 -2.1927218,6.1143306 -2.1927267,6.1143294 -2.1929426,6.1143667 -2.1932349,6.1142832 -2.1935891,6.1141292 -2.1938098,6.1141241 -2.1940818,6.1144321 -2.1941178,6.1145553 -2.1940459,6.1146836 -2.1939843,6.1147914 -2.1940408,6.1148941 -2.1943488,6.1149865 -2.1945079,6.1151354 -2.1945849,6.1153253 -2.1945849,6.115505 -2.1947132,6.1156436 -2.1950982,6.1156846 -2.1952779,6.1158078 -2.195514,6.115931 -2.1957142,6.1160234 -2.1957912,6.1161672 -2.1956937,6.1163519 -2.1955705,6.1164751 -2.1954627,6.1166086 -2.1954473,6.1168396 -2.1954473,6.1169885 -2.1954216,6.1173221 -2.1953703,6.1174556 -2.1952266,6.1176045 -2.1952674,6.1177121 -2.1953395,6.1179022 -2.1955808,6.118164 -2.1955346,6.1183385 -2.1954678,6.1184155 -2.1953498,6.1185233 -2.1953549,6.118744 -2.1955243,6.1190366 -2.1957758,6.1192882 -2.1959042,6.1195243 -2.1959452,6.1197091 -2.195935,6.1198888 -2.1958323,6.1200171 -2.1957296,6.1200992 -2.1956834,6.1202943 -2.1956834,6.1205356 -2.1956424,6.1209206 -2.1956013,6.1212953 -2.1955962,6.1215006 -2.1955962,6.1215827 -2.1956886,6.1217213 -2.1958734,6.1218599 -2.196207,6.1219934 -2.1964791,6.1220704 -2.1966433,6.1222295 -2.1965253,6.1223681 -2.1962121,6.1222347 -2.1958426,6.1220961 -2.1957091,6.1221012 -2.1956834,6.1223065 -2.1957113,6.1225343 -2.1957239,6.1225688 -2.1958528,6.1227121 -2.1960068,6.1228558 -2.1960992,6.1229585 -2.1962423,6.1231946 -2.1964235,6.1235086 -2.1964576,6.1237154 -2.1966011,6.1240172 -2.1966717,6.124241 -2.1966498,6.1243749 -2.1964791,6.1244317 -2.1963938,6.1244071 -2.1963936,6.124407 -2.1962121,6.1243547 -2.1957399,6.1243034 -2.194934,6.124329 -2.1948364,6.1241237 -2.1946516,6.1238003 -2.1945541,6.1234974 -2.1944925,6.1233075 -2.1944001,6.1230765 -2.1943847,6.1228712 -2.1944104,6.1226402 -2.1944617,6.1223322 -2.1945079,6.1220704 -2.1945541,6.1218497 -2.1945849,6.12167 -2.194549,6.1214236 -2.1945336,6.1211721 -2.1944412,6.120936 -2.194395,6.1207101 -2.1943693,6.1204637 -2.1942461,6.120243 -2.1940716,6.1199401 -2.1939227,6.1197399 -2.1937225,6.1194576 -2.1935737,6.1191188 -2.1933837,6.1188108 -2.1931579,6.1187954 -2.1931733,6.1189648 -2.1930347,6.1191393 -2.1927421,6.1191547 -2.1926548,6.1190366 -2.1927318,6.1188159 -2.1928293,6.1186876 -2.1928191,6.118472 -2.192778,6.1183693 -2.1927449,6.1183301 -2.19247,6.1180049 -2.1922544,6.1177636 -2.1919721,6.117702 -2.1918232,6.1176353 -2.1916538,6.1174248 -2.1916333,6.11724 -2.1914639,6.1169987 -2.1912893,6.1168396 -2.1909916,6.1165778 -2.1907504,6.1162442 -2.1907298,6.1160286 -2.1907863,6.1156898 -2.1907196,6.1153818 -2.1906528,6.1152278 -2.1905194,6.114966 -2.1901549,6.1144116 -2.189965,6.1141292 -2.1897391,6.1137853 -2.1896262,6.1135749 -2.18958,6.1133439 -2.189503,6.113118 -2.189426,6.1128562 -2.1894186,6.1128554 -2.1894183,6.1128548 -2.1891927,6.1122549 -2.1890233,6.1120393 -2.1886435,6.1118648 -2.1883663,6.1114849 -2.1881712,6.1110486 -2.1880172,6.1106687 -2.1878684,6.1101092 -2.1876579,6.1097294 -2.1873191,6.1098269 -2.1872729,6.1102581 -2.1873294,6.110833 -2.1873705,6.1113566 -2.1873961,6.1117672 -2.1874115,6.1122857 -2.1874167,6.1125885 -2.1873807,6.1127425 -2.1872663,6.1129216 -2.1875575,6.1130872 -2.1876512,6.1132558 -2.1876858,6.1133182 -2.187732,6.1135543 -2.1877833,6.1139034 -2.1877885,6.11416 -2.1878295,6.114314 -2.1879887,6.1144578 -2.1883839,6.1144372 -2.1885328,6.114504 -2.1886663,6.114735 -2.1887227,6.115007 -2.1887689,6.1153304 -2.1889434,6.1156384 -2.1890512,6.1158284 -2.1892925,6.1161158 -2.1893438,6.1163211 -2.1893644,6.1165573 -2.1894054,6.116778 -2.1894106,6.1170347 -2.1893644,6.1172297 -2.1893648,6.1172297 -2.1894783,6.1173653 -2.18957,6.1175119 -2.189537,6.117816 -2.189493,6.1179186 -2.1893318,6.1179552 -2.1891925,6.1179772 -2.1891779,6.1180871 -2.1891852,6.118263 -2.1891522,6.1185342 -2.1891632,6.1186881 -2.1892878,6.1188053 -2.1893501,6.1190838 -2.1893623,6.1191588 -2.1893794,6.1192634 -2.1894161,6.1194172 -2.1894747,6.1196408 -2.1895846,6.1197873 -2.1898777,6.1199082 -2.1899327,6.1201171 -2.189962,6.1202087 -2.1900243,6.1203186 -2.1901819,6.1204029 -2.1903174,6.1205202 -2.1905776,6.1205715 -2.1906912,6.1204579 -2.1908304,6.1203516 -2.1909733,6.1202563 -2.1911492,6.120216 -2.1912628,6.1201025 -2.1914057,6.1200035 -2.1915486,6.1199925 -2.1916146,6.1199925 -2.1917575,6.1200658 -2.1917831,6.1201428 -2.1918418,6.1202307 -2.191959,6.1203296 -2.1920616,6.1203956 -2.1921312,6.1206521 -2.1920469,6.1208793 -2.1919187,6.1210038 -2.1917245,6.1210918 -2.1915706,6.1211174 -2.1914094,6.1211761 -2.1912995,6.1211907 -2.1912482,6.1212713 -2.1912078,6.1213593 -2.1911309,6.1214472 -2.1911309,6.1215242 -2.1911639,6.1216597 -2.1912152,6.1217733 -2.1913141,6.1218942 -2.1913837,6.1220371 -2.1914387,6.1220884 -2.191534,6.1221617 -2.1916512,6.1222277 -2.1917135,6.1223083 -2.1918821,6.1224878 -2.191937,6.1226271 -2.1920103,6.122715 -2.1920873,6.1228762 -2.1921642,6.1229569 -2.1923218,6.1229495 -2.1924354,6.1228909 -2.1925453,6.1229422 -2.1927138,6.1231071 -2.1928567,6.1233819 -2.1930473,6.1238656 -2.1929996,6.1239022 -2.1928934,6.1239975 -2.1928421,6.1240781 -2.1929007,6.1241477 -2.1930253,6.1242283 -2.1930583,6.1243163 -2.1930143,6.1244152 -2.192952,6.1245105 -2.1927578,6.1244555 -2.1927285,6.1244079 -2.1926625,6.1243456 -2.1925783,6.1243236 -2.1924757,6.1242576 -2.192428,6.1241734 -2.192406,6.1240488 -2.1924317,6.1239425 -2.1924647,6.123752 -2.1923914,6.1236164 -2.1923437,6.1234332 -2.1923731,6.1233269 -2.1922741,6.1232463 -2.1921605,6.1232573 -2.1920286,6.123195 -2.1919956,6.1231034 -2.1919627,6.1230558 -2.1916769,6.1227077 -2.1916036,6.1226857 -2.1913947,6.1226564 -2.1910576,6.1224988 -2.1908488,6.1223669 -2.1907718,6.1221727 -2.1907352,6.1219529 -2.1905886,6.1218906 -2.1903614,6.1219419 -2.1901892,6.1219419 -2.1901269,6.1220481 -2.1901013,6.1222497 -2.190028,6.1223486 -2.1897825,6.1223852 -2.1895993,6.1223962 -2.1894087,6.12229 -2.1892878,6.122202 -2.1891596,6.1221397 -2.188991,6.122246 -2.1888701,6.1224255 -2.1888115,6.1225318 -2.1886905,6.1225978 -2.188467,6.1226637 -2.1883644,6.122682 -2.1881409,6.1226747 -2.1880383,6.1226417 -2.1879577,6.1226747 -2.1879284,6.1228286 -2.1879101,6.1229715 -2.1877892,6.1230008 -2.1876279,6.1229825 -2.187507,6.1230118 -2.1873421,6.1230191 -2.1873128,6.1230631 -2.1873018,6.1231804 -2.1873128,6.1232353 -2.1874008,6.1233453 -2.1874997,6.1234992 -2.1875363,6.1237263 -2.1875876,6.1239462 -2.1876646,6.1241917 -2.1877928,6.1243602 -2.1878881,6.1246204 -2.1880053,6.1249135 -2.188053,6.1251077 -2.1881226,6.1252836 -2.1881519,6.1254302 -2.1881189,6.1255694 -2.1880273,6.125694 -2.1878881,6.1258223 -2.1877965,6.1259981 -2.1877342,6.1261887 -2.1876572,6.1262876 -2.187551,6.126229 -2.1874777,6.1260091 -2.1874704,6.1258113 -2.1875363,6.125705 -2.1876243,6.1254705 -2.1877122,6.1252543 -2.1876572,6.1250528 -2.1876133,6.1248366 -2.1875327,6.1246057 -2.1874887,6.1244665 -2.187485,6.1242686 -2.1873714,6.1240158 -2.1871992,6.1239462 -2.1870966,6.1240525 -2.187049,6.1242796 -2.1870527,6.1244005 -2.1870746,6.1246424 -2.1871626,6.1248219 -2.1871846,6.1251224 -2.1871736,6.1252323 -2.1871333,6.1253532 -2.1870087,6.1254961 -2.1869354,6.1256171 -2.1869317,6.1257783 -2.1869427,6.1260018 -2.1869647,6.1262546 -2.1869904,6.1263975 -2.1869977,6.1265917 -2.1868731,6.126665 -2.1867302,6.126621 -2.1867302,6.1266265 -2.1867119,6.1265514 -2.1867082,6.1264525 -2.1866771,6.1263444 -2.1866496,6.1262418 -2.1866588,6.1261392 -2.1866459,6.1260055 -2.1866075,6.1258497 -2.1866075,6.1257032 -2.1866624,6.1256189 -2.1867265,6.1255053 -2.186787,6.1254613 -2.1868713,6.1253368 -2.1868713,6.1252012 -2.1868163,6.1250986 -2.18682,6.1249465 -2.1867705,6.1248787 -2.1866771,6.1248146 -2.1866203,6.1248109 -2.1865195,6.1248641 -2.1864004,6.1248677 -2.1863326,6.1247963 -2.1863125,6.1246827 -2.1863418,6.1245893 -2.1863913,6.1244757 -2.1864004,6.1244115 -2.1863821,6.1243511 -2.1863986,6.124276 -2.1864462,6.1241514 -2.1864847,6.1237996 -2.186547,6.1237062 -2.1866221,6.1235889 -2.1867284,6.1234515 -2.1866826,6.1233819 -2.1866588,6.1233105 -2.1866752,6.1231822 -2.1866881,6.1231272 -2.1866533,6.1230704 -2.1866386,6.1229422 -2.1866569,6.1228158 -2.1867155,6.122737 -2.1867998,6.1226362 -2.1867962,6.1225666 -2.1867943,6.1224201 -2.1867815,6.1222698 -2.186776,6.1220793 -2.1867833,6.1220262 -2.1868328,6.1219547 -2.1868401,6.1218686 -2.1867962,6.1217861 -2.1866752,6.1217532 -2.1866313,6.1217074 -2.1866459,6.1216341 -2.1866862,6.1215974 -2.1868053,6.121537 -2.1868566,6.1214839 -2.1868621,6.1213849 -2.1868511,6.1213025 -2.1868383,6.1211632 -2.1868328,6.1210643 -2.1868511,6.1209745 -2.1868988,6.1208499 -2.186961,6.1206594 -2.186961,6.1204689 -2.1870197,6.1202783 -2.1871076,6.1200988 -2.1872065,6.1198386 -2.1872835,6.1196681 -2.1872908,6.1196518 -2.1873641,6.1194539 -2.187496,6.1192634 -2.1876572,6.1189629 -2.1876792,6.1187687 -2.1876682,6.1186624 -2.1876279,6.1184426 -2.1876426,6.118362 -2.1877195,6.1182154 -2.1878295,6.1179589 -2.1879247,6.1177207 -2.1879944,6.1174313 -2.1881986,6.1170629 -2.1881735,6.1169474 -2.1881478,6.1167729 -2.1880965,6.1164751 -2.1879014,6.1163622 -2.1877012,6.116239 -2.1876396,6.1160542 -2.1876088,6.1158284 -2.1875164,6.1156282 -2.1873573,6.1154588 -2.1870236,6.1151867 -2.1868491,6.1149454 -2.1867669,6.1146477 -2.1866797,6.1141549 -2.1864846,6.113811 -2.1863667,6.1135473 -2.1863101,6.1134209 -2.1862896,6.1128921 -2.1864125,6.1128036 -2.1863746,6.1128041 -2.1862052,6.1127169 -2.1858767,6.1123113 -2.1855841,6.1123883 -2.1854763,6.1125423 -2.1854712,6.1127939 -2.1852608,6.1130402 -2.1850195,6.1130967 -2.1846088,6.1131532 -2.184075,6.1130197 -2.1838132,6.1130402 -2.1836746,6.1132199 -2.1836695,6.1134868 -2.1837721,6.1136973 -2.1839467,6.1139591 -2.1839657,6.1140922 -2.1839775,6.1141747 -2.1839675,6.1143198 -2.1839802,6.1143185 -2.1845005,6.1142379 -2.1845262,6.114106 -2.1845262,6.113965 -2.1845262,6.1138861 -2.1845628,6.1138458 -2.1847424,6.1138129 -2.184779,6.1138971 -2.1847801,6.1139074 -2.18479,6.1140034 -2.1847864,6.1140913 -2.1848816,6.1142123 -2.1849219,6.1143075 -2.1849549,6.1144944 -2.1850355,6.1147326 -2.1850612,6.1149488 -2.1851015,6.1151356 -2.1852041,6.1151943 -2.1853177,6.1153152 -2.185314,6.1154801 -2.1852187,6.1156083 -2.1850355,6.1157146 -2.1849256,6.1157732 -2.184878,6.1158868 -2.1848999,6.1159747 -2.1849476,6.1160663 -2.1849622,6.1161543 -2.1849036,6.1162202 -2.1848193,6.1163192 -2.1847827,6.1164584 -2.1848376,6.1165793 -2.1849219,6.1167186 -2.184867,6.1168871 -2.1848157,6.1170044 -2.1846728,6.1171583 -2.1844602,6.1172865 -2.1843247,6.117521 -2.1843503,6.1176383 -2.1844346,6.1177958 -2.184387,6.1179937 -2.1843063,6.118122 -2.1841415,6.1182246 -2.1839766,6.1182319 -2.1838337,6.1183491 -2.1838043,6.118514 -2.1837824,6.1187192 -2.1838043,6.1189244 -2.1838007,6.1190893 -2.183819,6.1192359 -2.1838117,6.1194301 -2.1838007,6.1196023 -2.1837274,6.1198405 -2.1836908,6.1201336 -2.1835882,6.1202948 -2.1835185,6.1204231 -2.1835369,6.1205806 -2.183538,6.1205856 -2.1835698,6.1207272 -2.1836028,6.1210387 -2.1836431,6.1211779 -2.1837164,6.1212512 -2.1836688,6.1213464 -2.1836285,6.1214893 -2.1836138,6.121537 -2.1836138,6.1216396 -2.1836321,6.1217642 -2.1835882,6.1219144 -2.1835332,6.1221123 -2.1834892,6.1222185 -2.1834453,6.1223724 -2.1833756,6.1225593 -2.1833317,6.1227901 -2.1833573,6.1229953 -2.183361,6.1231639 -2.1833427,6.1233544 -2.183295,6.1234497 -2.1832474,6.1235083 -2.1832511,6.123556 -2.183339,6.1236622 -2.183394,6.1237502 -2.1833353,6.1238088 -2.1832364,6.1240506 -2.1831814,6.1241202 -2.1830642,6.1241972 -2.1829909,6.1243511 -2.1829872,6.1244757 -2.1830092,6.1246625 -2.1830019,6.1249887 -2.1829909,6.1252158 -2.1830092,6.1253587 -2.1830825,6.1255493 -2.1831558,6.1257032 -2.1832437,6.1258058 -2.183284,6.1259084 -2.1832217,6.1259707 -2.1831814,6.1260073 -2.1832547,6.1260989 -2.1833207,6.1262052 -2.183372,6.1263994 -2.1833317,6.1265862 -2.1834123,6.1268098 -2.1834269,6.126905 -2.1834123,6.1270736 -2.183339,6.1272605 -2.1834049,6.1274913 -2.1834521,6.1276356 -2.1864846,6.127014 -2.1864847,6.1270139 -2.1866386,6.1268922 -2.1867962,6.1268409 -2.1869647,6.1268775 -2.1869913,6.12691 -2.1869914,6.1269101 -2.1965889,6.1249426 -2.1982148,6.1294044 -2.1838454,6.1324693 -2.1849061,6.1356494 -2.1849146,6.1355782 -2.1852847,6.1354499 -2.1856364,6.1354499 -2.1861824,6.1356185 -2.1867101,6.1357907 -2.1874356,6.1362267 -2.1880064,6.1368139 -2.1880731,6.1368826 -2.18826,6.1371135 -2.1884469,6.1373773 -2.1888902,6.1378426 -2.1894069,6.1382897 -2.1898759,6.1385865 -2.1904365,6.138843 -2.190803,6.1389419 -2.1910265,6.1388759 -2.1912683,6.1387697 -2.1915065,6.1386524 -2.1916494,6.1385059 -2.1917886,6.1383849 -2.1919242,6.1382567 -2.1920231,6.1381614 -2.1919975,6.1380039 -2.1919755,6.1379196 -2.1920634,6.1379049 -2.1921587,6.1380039 -2.1923456,6.1381138 -2.1924592,6.1382054 -2.1924628,6.1383007 -2.1924628,6.1383959 -2.1926387,6.1384582 -2.192745,6.1384143 -2.1928622,6.13833 -2.1930308,6.1383849 -2.193181,6.1384252 -2.1934485,6.1384143 -2.1937306,6.1383336 -2.1938662,6.1382347 -2.1939945,6.1381468 -2.1940384,6.1381248 -2.1941264,6.1380918 -2.1941297,6.1380983 -2.1943169,6.1380771 -2.1944232,6.1380405 -2.1947126,6.1379892 -2.1948702,6.1380588 -2.1950644,6.1382274 -2.1952,6.138363 -2.1953356,6.1384949 -2.1954895,6.1386194 -2.1956837,6.1387111 -2.195724,6.1388576 -2.1957899,6.1389492 -2.1959292,6.1389932 -2.1960904,6.1389932 -2.1961234,6.1388869 -2.1960794,6.1388466 -2.1958962,6.1387514 -2.1957972,6.1385828 -2.1957716,6.1384985 -2.1958009,6.1383117 -2.1958559,6.1382054 -2.1960537,6.1381688 -2.196237,6.138297 -2.1962846,6.1384875 -2.1962919,6.1386817 -2.1962846,6.1388979 -2.1962406,6.1390555 -2.1960977,6.1391508 -2.1957753,6.1391874 -2.1955114,6.1391508 -2.1952036,6.1391141 -2.1948152,6.1391837 -2.1945917,6.1391691 -2.1942107,6.1390665 -2.1941887,6.1390592 -2.1941882,6.139053 -2.1941777,6.1391068 -2.1941117,6.1392424 -2.1940311,6.139334 -2.1938919,6.1395648 -2.1938845,6.1395611 -2.193661,6.1397553 -2.1935035,6.1399569 -2.1934375,6.1400815 -2.1933569,6.1401657 -2.1933312,6.1403123 -2.1933789,6.1403819 -2.1935071,6.1404149 -2.1935914,6.1404076 -2.193672,6.1405175 -2.193705,6.1405871 -2.193672,6.1406604 -2.1935511,6.1406091 -2.1934045,6.1407007 -2.1933899,6.1408509 -2.1934595,6.1408912 -2.1936684,6.1409242 -2.1937893,6.1410781 -2.1937966,6.1412284 -2.193771,6.1413346 -2.1938259,6.1414775 -2.1938595,6.1415434 -2.1939298,6.1416209 -2.1940037,6.1417649 -2.1940566,6.1418423 -2.1941393,6.1420169 -2.1941227,6.1420455 -2.1940384,6.1420235 -2.1939908,6.1419355 -2.1938809,6.1418 -2.1938186,6.1417194 -2.1936757,6.1416277 -2.1934338,6.1417743 -2.1931004,6.142192 -2.1928256,6.1425475 -2.1927736,6.1426031 -2.1928738,6.1426301 -2.1937889,6.1428002 -2.1953282,6.1432037 -2.1959088,6.1432288 -2.1964332,6.1432802 -2.19825,6.14332 -2.19857,6.1433182 -2.1982371,6.1432326 -2.1978126,6.143207 -2.1974241,6.1430714 -2.197197,6.1429469 -2.1971127,6.1429395 -2.1970394,6.1428076 -2.1969588,6.142749 -2.1968892,6.1427746 -2.1968049,6.1427343 -2.1966767,6.1426574 -2.1965118,6.1426574 -2.1963599,6.1427512 -2.1962809,6.1427744 -2.196193,6.1427563 -2.1961527,6.142672 -2.1962223,6.1425218 -2.1963212,6.1424156 -2.1964055,6.1423533 -2.1963982,6.142236 -2.1963029,6.142181 -2.1961966,6.1421664 -2.1961453,6.1420931 -2.1960684,6.1420418 -2.1958998,6.1420088 -2.1958192,6.1419685 -2.1958046,6.1418842 -2.1959145,6.1417707 -2.1960391,6.1416277 -2.1961527,6.1414848 -2.1961893,6.1413053 -2.1962883,6.1410195 -2.1964202,6.1408766 -2.1965374,6.1408106 -2.1966363,6.1406787 -2.1966144,6.1405248 -2.1965191,6.1404332 -2.1964458,6.1403453 -2.1964312,6.1401877 -2.1964202,6.1400558 -2.1964568,6.1399789 -2.196585,6.1398286 -2.1966583,6.139715 -2.1967023,6.1396564 -2.1967756,6.1394879 -2.1967463,6.1394329 -2.1967793,6.1393706 -2.1967902,6.1392314 -2.1967683,6.1391398 -2.1967316,6.1390848 -2.1967243,6.1390921 -2.1966437,6.1390518 -2.1965118,6.1389749 -2.1964495,6.1388943 -2.1964238,6.1387624 -2.1964531,6.1385938 -2.1965667,6.1384582 -2.1966693,6.1383996 -2.1967976,6.1383117 -2.1968086,6.1381651 -2.1967646,6.1380442 -2.1966767,6.1379819 -2.1965447,6.1380258 -2.1964055,6.1381688 -2.1963395,6.1381981 -2.1962699,6.1380991 -2.196193,6.1379416 -2.1962333,6.1378536 -2.1962846,6.137751 -2.1963945,6.1376338 -2.1965338,6.1375129 -2.1966803,6.1373333 -2.1968525,6.1372051 -2.1969112,6.1371538 -2.197109,6.1371684 -2.1972922,6.1371428 -2.1974315,6.1371061 -2.1975707,6.1370109 -2.1976623,6.136813 -2.197655,6.1367214 -2.1976477,6.1366261 -2.1975561,6.1364319 -2.1977722,6.1362634 -2.1978675,6.136388 -2.1980068,6.1366848 -2.1980507,6.1368423 -2.1980141,6.1370585 -2.1979738,6.1371684 -2.1978602,6.1372747 -2.1976953,6.1374506 -2.1974901,6.13774 -2.1973692,6.1378903 -2.1972409,6.1380552 -2.197197,6.1382054 -2.1971786,6.1383886 -2.1971567,6.1384399 -2.197131,6.1384729 -2.1971164,6.1385608 -2.1970907,6.1387037 -2.1969844,6.13881 -2.1968965,6.1388943 -2.1968672,6.1389932 -2.1968635,6.1391031 -2.1969844,6.1391654 -2.197087,6.1391398 -2.1971786,6.1390921 -2.1972116,6.1391581 -2.1972446,6.1392204 -2.1973399,6.1392643 -2.1974095,6.13929 -2.1974535,6.1393743 -2.1975084,6.1394366 -2.1975927,6.1394952 -2.1977209,6.1395978 -2.1977598,6.1397543 -2.1985234,6.139825 -2.1985271,6.139825 -2.1985491,6.1400595 -2.1985564,6.140217 -2.1985967,6.1404369 -2.198637,6.1405358 -2.1986004,6.140708 -2.198648,6.1408803 -2.1986699,6.1410886 -2.1986946,6.1413236 -2.198681,6.1414042 -2.1985564,6.1415105 -2.1983805,6.1415252 -2.1982266,6.1414848 -2.198157,6.1414042 -2.198179,6.1412797 -2.1982083,6.1411477 -2.1980764,6.1410305 -2.1979665,6.1409829 -2.1979848,6.1408729 -2.1979665,6.1407593 -2.1978126,6.1407447 -2.1976513,6.1407923 -2.1975524,6.1408619 -2.1974205,6.1410268 -2.1973692,6.1410818 -2.1973179,6.1413346 -2.1973619,6.1414299 -2.1973655,6.1415471 -2.1973472,6.1416681 -2.1973106,6.1418623 -2.1973069,6.1419539 -2.1973692,6.1420271 -2.1973912,6.1421151 -2.1974461,6.1422653 -2.1975377,6.1423459 -2.1978089,6.1425365 -2.1979921,6.1425731 -2.198113,6.1426024 -2.1982633,6.1426867 -2.1984025,6.1428003 -2.1985674,6.1428406 -2.1987286,6.1429212 -2.1988385,6.1429798 -2.1991704,6.1430019 -2.1997274,6.1431475 -2.1998604,6.1432647 -2.1998611,6.1433111 -2.2026152,6.1431272 -2.2002027,6.1354618 -2.2001135,6.1354336 -2.2000897,6.1354158 -2.2000124,6.1353148 -2.2000065,6.1352138 -2.199953,6.135095 -2.1999114,6.1350296 -2.1998877,6.134988 -2.1998164,6.1349226 -2.1997391,6.1348929 -2.1996262,6.1348513 -2.1995846,6.1347681 -2.199549,6.1346553 -2.1994797,6.1345354 -2.1994724,6.1345229 -2.1993845,6.1344496 -2.1992416,6.1344056 -2.1990327,6.1343946 -2.1987249,6.1345046 -2.1985491,6.1346181 -2.1983072,6.1347537 -2.1980991,6.1350474 -2.1980278,6.1351425 -2.197915,6.1353089 -2.1978318,6.1354396 -2.1977367,6.1356832 -2.1976713,6.1359268 -2.1975168,6.1360635 -2.1974039,6.136111 -2.1973386,6.1361051 -2.1971366,6.1359565 -2.1970355,6.1358674 -2.1969405,6.1356832 -2.1969524,6.1355525 -2.196988,6.1352732 -2.1969405,6.1350982 -2.1969153,6.1350447 -2.1968788,6.1349672 -2.1967592,6.1348586 -2.1964458,6.1346401 -2.1957863,6.1339366 -2.1955994,6.13379 -2.1952036,6.1336288 -2.19472,6.1335116 -2.1943755,6.1333393 -2.19413,6.1332661 -2.1939798,6.1331708 -2.1939285,6.1330499 -2.1938552,6.1329546 -2.1937735,6.1329105 -2.1936994,6.1328413 -2.1936654,6.1327799 -2.1936882,6.1326934 -2.1937589,6.1325896 -2.1937407,6.1325555 -2.1936692,6.1325053 -2.193661,6.132427 -2.1938076,6.1324856 -2.1940165,6.1326175 -2.1942546,6.1327128 -2.1944635,6.1327567 -2.1947273,6.1327531 -2.1950094,6.1328044 -2.1951524,6.1328667 -2.1954345,6.1330132 -2.195658,6.1331122 -2.1959218,6.1331708 -2.1962003,6.1333247 -2.1964715,6.1335116 -2.1966217,6.1335885 -2.1966913,6.133431 -2.1965887,6.1332917 -2.1964128,6.1331635 -2.1963102,6.1330132 -2.1962992,6.1328703 -2.1962809,6.1326248 -2.1962479,6.1322438 -2.1961453,6.1320642 -2.1960464,6.1318627 -2.1960208,6.1316685 -2.196116,6.1315805 -2.1962449,6.1315704 -2.1963215,6.1316319 -2.1965163,6.131654 -2.1966254,6.1317704 -2.1968743,6.1319543 -2.1970511,6.1320547 -2.1972116,6.1321851 -2.1973472,6.1324233 -2.1974901,6.1326322 -2.1977979,6.1328447 -2.1980053,6.1330268 -2.1981241,6.1331179 -2.1982945,6.1331607 -2.1984839,6.1331731 -2.1986271,6.1331839 -2.1987286,6.1331932 -2.1989961,6.1332184 -2.1992672,6.1335226 -2.1993845,6.1337827 -2.1995274,6.1340722 -2.1996666,6.1342847 -2.1997326,6.1344203 -2.1997732,6.1344733 -2.1998858,6.1344548 -2.1987747,6.1310922 -2.2006351,6.1300879 -2.2015988,6.12998 -2.2015789,6.1299401 -2.2015532,6.129899 -2.2014659,6.129822 -2.2013684,6.1297553 -2.2012041,6.1296372 -2.201009,6.1295294 -2.2007574,6.1293959 -2.2006239,6.1292213 -2.200511,6.1290827 -2.2004288,6.1288157 -2.2003929,6.1286874 -2.2004647,6.1285795 -2.2005828,6.1285231 -2.200588,6.1285282 -2.2005982,6.1285282 -2.2005931,6.1285231 -2.2007317,6.1286103 -2.2008087,6.1286925 -2.2008447,6.1288722 -2.2009011,6.1290365 -2.2009628,6.1291443 -2.2010398,6.1292316 -2.20124,6.1292983 -2.201394,6.129437 -2.2016918,6.1296731 -2.2018818,6.129745 -2.202082,6.1299144 -2.2020899,6.129925 -2.2049355,6.1296063 -2.2060264,6.1272902 -2.2060353,6.1271214 -2.2059942,6.1269366 -2.205901,6.126719 -2.2054448,6.126628 -2.2053122,6.1264856 -2.2051784,6.1264029 -2.2050342,6.1263513 -2.2049315,6.1261151 -2.2048801,6.1259663 -2.2049161,6.1258122 -2.205029,6.1257044 -2.2051163,6.1257968 -2.2051676,6.1258995 -2.2052395,6.1260638 -2.2053627,6.1262024 -2.2054346,6.1263051 -2.2056597,6.1264379 -2.2058709,6.1264937 -2.2061945,6.1265824 -2.2063947,6.1265824 -2.206406,6.1265943 -2.2092061,6.1251512 -2.2107991,6.1244815 -2.2110399,6.1242622 -2.2112462,6.1240089 -2.2114873,6.1239272 -2.2116823,6.1239375 -2.2118659,6.1238679 -2.2118428,6.1237877 -2.2116935,6.123651 -2.2115556,6.1235828 -2.2115668,6.1234451 -2.2117961,6.1232488 -2.212086,6.1230506 -2.2126791,6.1230516 -2.2127121,6.1228427 -2.2127377,6.1225706 -2.2127632,6.1223757 -2.2127685,6.1223345 -2.2128661,6.122165 -2.2130303,6.12197 -2.2130611,6.1218262 -2.2129687,6.1217492 -2.2128353,6.1216157 -2.2126607,6.1215079 -2.2126299,6.121318 -2.2127583,6.1211075 -2.212979,6.12101 -2.2132049,6.1209176 -2.213364,6.1207071 -2.2133948,6.1204658 -2.2133384,6.1201321 -2.2132254,6.1198908 -2.2130765,6.1196958 -2.2128507,6.1194186 -2.2126453,6.1191927 -2.2123989,6.1189925 -2.212115,6.1187548 -2.2118085,6.1186947 -2.2114389,6.1185869 -2.2112182,6.118592 -2.2110488,6.1186126 -2.2106894,6.1188179 -2.2103759,6.1188799 -2.2102369,6.1187239 -2.2100135,6.1186288 -2.2097551,6.1184791 -2.2095497,6.1183046 -2.2091288,6.1181506 -2.2085795,6.1181043 -2.2082253,6.1179657 -2.2078248,6.1177655 -2.2075784,6.1175396 -2.2074193,6.1173086 -2.2072447,6.1169031 -2.2072601,6.116708 -2.2072345,6.1163897 -2.2072088,6.1161741 -2.2071729,6.1159123 -2.2067622,6.1155632 -2.2065825,6.1153322 -2.2065004,6.115132 -2.2063806,6.1149896 -2.2063104,6.1149061 -2.206177,6.1148342 -2.2059973,6.1145211 -2.2059254,6.1142593 -2.2058843,6.1139307 -2.2058125,6.1135662 -2.2055866,6.1133814 -2.205294,6.1132428 -2.2050116,6.1131915 -2.2047652,6.1132069 -2.2044367,6.1134276 -2.2041748,6.1136073 -2.2039849,6.1137818 -2.2035896,6.1139615 -2.2032457,6.1140693 -2.2029582,6.1141155 -2.2029068,6.1142798 -2.2028863,6.1144851 -2.2027785,6.1146289 -2.2023883,6.1145621 -2.2020957,6.1144492 -2.201952,6.1143311 -2.2017774,6.1142849 -2.2014284,6.114172 -2.2013359,6.1140847 -2.2009047,6.1140026 -2.200376,6.113941 -2.2000628,6.1136176 -2.1998831,6.1131915 -2.1998318,6.1129399 -2.1997035,6.1126781 -2.1995802,6.112329 -2.199647,6.1121801 -2.1994519,6.1119235 -2.1993338,6.1117797 -2.1991388,6.1116309 -2.1989642,6.111405 -2.1987024,6.1110918 -2.1984868,6.1108351 -2.1984616,6.1108134 -2.1982968,6.1106709 -2.198189,6.1106144 -2.198035,6.1107222 -2.197727,6.1107787 -2.1973677,6.1107119 -2.1970288,6.1104501 -2.1968748,6.1102242 -2.1967003,6.1098598 -2.196649,6.1095774 -2.1966798,6.1093413 -2.1967824,6.108987 -2.1969108,6.1086482 -2.1971264,6.1083145 -2.1973112,6.1082016 -2.197496,6.1082016 -2.1979529,6.1083864 -2.1982814,6.1085558 -2.1985433,6.1087304 -2.1989847,6.1087766 -2.1993487,6.108936 -2.199403,6.1090528 -2.1995211,6.1091432 -2.1997831,6.1090307 -2.1998986,6.1088731 -2.2002953,6.1087585 -2.2003916,6.1085945 -2.2004351,6.1085046 -2.2005284,6.1084438 -2.2006542,6.1084023 -2.2007317,6.108459 -2.2009047,6.1087355 -2.2010433,6.1090897 -2.2011255,6.109408 -2.2011152,6.10987 -2.2011768,6.1101934 -2.201176,6.1102019 -2.2011511,6.1104501 -2.200992,6.1106811 -2.2007764,6.1107581 -2.2004838,6.1107941 -2.200263,6.1105887 -2.2001448,6.1104342 -2.2001295,6.1104142 -2.1998626,6.1100805 -2.1996932,6.1100292 -2.1994365,6.1101421 -2.1994108,6.1103012 -2.1993852,6.1104604 -2.199447,6.1105914 -2.1994724,6.1106452 -2.1995135,6.1108557 -2.1996111,6.1111124 -2.1997497,6.1113126 -2.1999653,6.1115025 -2.2001809,6.1115128 -2.2004889,6.1114922 -2.2008329,6.1115795 -2.2007456,6.1117746 -2.200648,6.1120929 -2.2007558,6.1121904 -2.2009253,6.1122726 -2.201069,6.1121442 -2.2012538,6.1119081 -2.2015208,6.1115692 -2.2018955,6.1114512 -2.2024037,6.1114614 -2.2027785,6.111867 -2.203143,6.1120364 -2.2034202,6.1122777 -2.2035331,6.112637</coordinates></LinearRing></outerBoundaryIs><innerBoundaryIs><LinearRing><coordinates>-2.2000806,6.1139879 -2.2000857,6.1139879 -2.2000806,6.1139982 -2.2000793,6.1139919 -2.2000806,6.1139879</coordinates></LinearRing></innerBoundaryIs><innerBoundaryIs><LinearRing><coordinates>-2.2000793,6.1139919 -2.2000241,6.1141574 -2.1999369,6.1142908 -2.1998907,6.114414 -2.1998496,6.1145218 -2.1998239,6.1146502 -2.1997931,6.1148042 -2.1997337,6.1150873 -2.1997386,6.1151929 -2.1997666,6.1153087 -2.1998393,6.1153945 -2.1998547,6.1155075 -2.1999112,6.1156512 -2.1999197,6.1158132 -2.2000857,6.1160003 -2.2000909,6.1161697 -2.2000447,6.116257 -2.2000447,6.116334 -2.2001371,6.1164161 -2.2002365,6.1164948 -2.2002603,6.1165136 -2.2003629,6.1166112 -2.2003783,6.1167344 -2.2004297,6.1169243 -2.2005221,6.1171758 -2.2006299,6.1173812 -2.2006607,6.1175455 -2.2007839,6.1177508 -2.2008968,6.1180947 -2.2009225,6.1182744 -2.2010252,6.1185054 -2.2009687,6.1187108 -2.2009019,6.1188494 -2.2010252,6.1189212 -2.2011843,6.1189058 -2.2013896,6.1190906 -2.2015385,6.1191984 -2.2016925,6.119373 -2.2016001,6.1196245 -2.2016104,6.1199582 -2.2016771,6.1201892 -2.2017541,6.1204151 -2.2018311,6.1206255 -2.2019338,6.1208001 -2.2021289,6.120913 -2.2022572,6.1210414 -2.2023599,6.1213545 -2.2025447,6.1215085 -2.2027654,6.1216112 -2.2028373,6.1218627 -2.2029759,6.1222323 -2.2031247,6.1224941 -2.2033968,6.1227097 -2.2035508,6.1229767 -2.2034225,6.1231102 -2.2030683,6.1231512 -2.2028643,6.1232813 -2.2026961,6.1230322 -2.2026529,6.1228617 -2.2025241,6.1227559 -2.2024985,6.1225352 -2.2022606,6.1222303 -2.2021648,6.1220886 -2.2019286,6.1217908 -2.2016566,6.1215085 -2.2014358,6.12118 -2.2013434,6.120949 -2.2012254,6.1207385 -2.2010406,6.1203945 -2.2008068,6.1200542 -2.2007759,6.1199832 -2.2007531,6.1197556 -2.200737,6.1196332 -2.2006863,6.1193268 -2.2006196,6.1190804 -2.2005477,6.118911 -2.2004845,6.1187551 -2.2003258,6.1186785 -2.2002455,6.1185105 -2.2000933,6.1184358 -2.200112,6.1183201 -2.2001307,6.1182062 -2.2001017,6.1180101 -2.2001073,6.1177711 -2.2001063,6.1174787 -2.2001011,6.1173247 -2.2000293,6.1171194 -2.1999728,6.1169654 -2.1998291,6.1167549 -2.199714,6.1166228 -2.1996904,6.1165958 -2.1996134,6.1164418 -2.1993362,6.1164161 -2.1988999,6.1164264 -2.1985662,6.116452 -2.1982582,6.1163391 -2.198135,6.116067 -2.198135,6.1159695 -2.1982069,6.115759 -2.1983234,6.1154828 -2.1983084,6.1151616 -2.1982954,6.1149973 -2.1982787,6.1147734 -2.1983211,6.1147075 -2.1984384,6.1146743 -2.1986374,6.1146861 -2.1987452,6.1146738 -2.1988388,6.114711 -2.1990977,6.1147304 -2.1992749,6.1146432 -2.1993234,6.114376 -2.1993385,6.1141762 -2.1994037,6.1140617 -2.1995588,6.1139094 -2.1996545,6.1138134 -2.1998907,6.1137672 -2.2000447,6.1138288 -2.2000793,6.1139919</coordinates></LinearRing></innerBoundaryIs><innerBoundaryIs><LinearRing><coordinates>-2.2067382,6.1199388 -2.2068581,6.1196517 -2.2069073,6.1193586 -2.2068915,6.1192445 -2.206826,6.1189264 -2.2068568,6.1186492 -2.2069133,6.1184695 -2.2070673,6.1183719 -2.2071391,6.1182744 -2.2071648,6.1181255 -2.2071443,6.1180331 -2.2070827,6.1178894 -2.2070724,6.1178791 -2.2075447,6.1180229 -2.2076525,6.1187108 -2.2075036,6.1192703 -2.207365,6.119681 -2.2073239,6.1201584 -2.207288,6.1203586 -2.2072133,6.1207818 -2.2071237,6.1211389 -2.2069184,6.1213699 -2.2065282,6.1216214 -2.2062151,6.1218114 -2.2061124,6.1220065 -2.2058917,6.1222785 -2.2057018,6.1225352 -2.2054502,6.1227046 -2.2051217,6.1227867 -2.2047983,6.1227354 -2.2046494,6.1225147 -2.2047059,6.122335 -2.2049611,6.1222419 -2.2056578,6.1217093 -2.206,6.1214154 -2.2061702,6.1212135 -2.2062836,6.1211098 -2.20653,6.1205256 -2.2066265,6.1202016 -2.2066989,6.1200713 -2.2067382,6.1199388</coordinates></LinearRing></innerBoundaryIs><innerBoundaryIs><LinearRing><coordinates>-2.2035776,6.1242875 -2.20385,6.124422 -2.204208,6.124783 -2.20426,6.1249407 -2.2042259,6.1250025 -2.204156,6.1250767 -2.2040468,6.1251774 -2.203861,6.125247 -2.2036285,6.1250595 -2.2035031,6.12488 -2.2033869,6.1247262 -2.202874,6.124575 -2.2026774,6.1243969 -2.202604,6.124233 -2.202801,6.1241304 -2.203018,6.124174 -2.2035776,6.1242875</coordinates></LinearRing></innerBoundaryIs></Polygon><Polygon><outerBoundaryIs><LinearRing><coordinates>-2.1870436,6.1370205 -2.187032,6.1370074 -2.1869701,6.1369377 -2.1869719,6.1368628 -2.186972,6.1367827 -2.1869812,6.1367251 -2.1870178,6.1366444 -2.1870215,6.1366115 -2.1869247,6.1365712 -2.1867649,6.1364981 -2.1865378,6.1364283 -2.1864059,6.1363073 -2.1862227,6.1362011 -2.1860542,6.1360875 -2.1856364,6.1360069 -2.1853836,6.1360289 -2.1851638,6.1359592 -2.184975,6.135856 -2.1854834,6.1373818 -2.185484,6.1373817 -2.1862024,6.1395341 -2.1865195,6.1396564 -2.1868933,6.139825 -2.1872487,6.1399202 -2.1875785,6.1400192 -2.1878496,6.1399532 -2.1880072,6.1398653 -2.1880841,6.139715 -2.1885751,6.1393523 -2.1886935,6.1392482 -2.1887985,6.1391525 -2.1888787,6.1389114 -2.1889265,6.1387862 -2.1888791,6.1386276 -2.1887494,6.1385116 -2.1885785,6.1384463 -2.1884432,6.138363 -2.1883113,6.1381468 -2.1881977,6.1378573 -2.1881428,6.1376301 -2.1880255,6.1374689 -2.1878899,6.1373223 -2.187703,6.1372564 -2.1874575,6.1371831 -2.1873696,6.1371758 -2.1871461,6.1371318 -2.1870436,6.1370205</coordinates></LinearRing></outerBoundaryIs></Polygon><Polygon><outerBoundaryIs><LinearRing><coordinates>-2.1916824,6.1400155 -2.1913562,6.1399532 -2.1910301,6.139781 -2.1906014,6.1395905 -2.1903889,6.1394292 -2.1901874,6.13929 -2.1900298,6.139246 -2.1897074,6.1392387 -2.1894948,6.1392643 -2.1891321,6.1394072 -2.1889269,6.1395978 -2.1886924,6.13977 -2.1885202,6.1398763 -2.1881464,6.1401474 -2.1879559,6.1402757 -2.1877507,6.1404039 -2.1876188,6.1404625 -2.1873806,6.1404735 -2.1872524,6.1404919 -2.1871168,6.1406274 -2.1867943,6.1405651 -2.1865616,6.1406104 -2.1872493,6.142644 -2.1875418,6.1422433 -2.1876151,6.1421847 -2.1877617,6.1422836 -2.1879485,6.1424412 -2.1881574,6.1424632 -2.188304,6.1423423 -2.1884982,6.1422323 -2.1887327,6.142214 -2.1889855,6.1422763 -2.1891541,6.1423862 -2.1893959,6.1425731 -2.1895425,6.1426611 -2.189682,6.1426679 -2.1902342,6.1424154 -2.1907701,6.1423717 -2.1911109,6.1423911 -2.1915599,6.1423905 -2.1917373,6.1423239 -2.1919828,6.1423899 -2.1922058,6.14245 -2.1922979,6.1423643 -2.1925801,6.1420308 -2.1927267,6.1418952 -2.1929245,6.1418366 -2.1930528,6.1417377 -2.1931004,6.1415838 -2.1930051,6.1414006 -2.1928549,6.14121 -2.1927889,6.1410268 -2.1926351,6.1409206 -2.1925645,6.1407795 -2.1926387,6.1407059 -2.192701,6.1406018 -2.1927493,6.140464 -2.1926861,6.1403544 -2.1925838,6.1402537 -2.1925471,6.1401328 -2.1925544,6.1399715 -2.1925325,6.139836 -2.1923639,6.1398286 -2.192221,6.1398836 -2.1921331,6.1399642 -2.1919828,6.1400412 -2.1916824,6.1400155</coordinates></LinearRing></outerBoundaryIs></Polygon></MultiGeometry>
  </Placemark>
  <Placemark>
      <MultiGeometry></MultiGeometry>
  </Placemark>
  <Placemark>
      <MultiGeometry></MultiGeometry>
  </Placemark>
  <Placemark>
      <MultiGeometry></MultiGeometry>
  </Placemark>
</Folder>
</Document></kml>
