<?xml version="1.0" encoding="UTF-8"?>
<kml xmlns="http://www.opengis.net/kml/2.2" xmlns:gx="http://www.google.com/kml/ext/2.2" xmlns:kml="http://www.opengis.net/kml/2.2" xmlns:atom="http://www.w3.org/2005/Atom">
<Folder>
	<name>FINCAS CACERES</name>
	<Style>
		<ListStyle>
			<listItemType>check</listItemType>
			<bgColor>00ffffff</bgColor>
			<maxSnippetLines>2</maxSnippetLines>
		</ListStyle>
	</Style>
	<Document>
		<name>CACERES III GanaderC-a</name>
		<Style id="shp2kml">
			<IconStyle>
				<Icon>
					<href>http://maps.google.com/mapfiles/kml/pal5/icon56.png</href>
					<x>192</x>
					<y>192</y>
					<w>32</w>
					<h>32</h>
				</Icon>
			</IconStyle>
			<LabelStyle>
				<scale>0</scale>
			</LabelStyle>
			<BalloonStyle>
				<text>$[description]</text>
			</BalloonStyle>
			<LineStyle>
				<color>ff7faa00</color>
			</LineStyle>
			<PolyStyle>
				<color>ff7faa00</color>
			</PolyStyle>
		</Style>
		<Style id="Mapit">
			<IconStyle>
				<Icon>
					<href>http://maps.google.com/mapfiles/kml/pal5/icon56.png</href>
					<x>192</x>
					<y>192</y>
					<w>32</w>
					<h>32</h>
				</Icon>
			</IconStyle>
			<LabelStyle>
				<scale>0</scale>
			</LabelStyle>
			<BalloonStyle>
				<text>$[description]</text>
			</BalloonStyle>
		</Style>
		<StyleMap id="shp2kml0">
			<Pair>
				<key>normal</key>
				<styleUrl>#shp2kml</styleUrl>
			</Pair>
			<Pair>
				<key>highlight</key>
				<styleUrl>#shp2kml2</styleUrl>
			</Pair>
		</StyleMap>
		<Style id="shp2kml1">
			<IconStyle>
				<color>ffffca95</color>
				<Icon>
					<href>http://www.zonums.com/library/symbols/ge/shp2kml.png</href>
				</Icon>
			</IconStyle>
			<LabelStyle>
				<scale>0</scale>
			</LabelStyle>
			<BalloonStyle>
				<text>$[description]</text>
			</BalloonStyle>
			<LineStyle>
				<color>ffff0000</color>
			</LineStyle>
			<PolyStyle>
				<color>ffffca95</color>
			</PolyStyle>
		</Style>
		<Style id="shp2kml2">
			<IconStyle>
				<Icon>
					<href>http://maps.google.com/mapfiles/kml/pal5/icon56.png</href>
					<x>192</x>
					<y>192</y>
					<w>32</w>
					<h>32</h>
				</Icon>
			</IconStyle>
			<LabelStyle>
				<scale>0</scale>
			</LabelStyle>
			<BalloonStyle>
				<text>$[description]</text>
			</BalloonStyle>
			<LineStyle>
				<color>ff7faa00</color>
			</LineStyle>
			<PolyStyle>
				<color>ff7faa00</color>
			</PolyStyle>
		</Style>
		<Folder>
			<name>Features</name>
			<Snippet maxLines="2">Legend: Single Symbol</Snippet>
			<Placemark>
				<Snippet maxLines="0"></Snippet>
				<description><![CDATA[GANADERIA<br><table border=0 cellpadding=0 cellspacing=0  width=250 style="FONT-SIZE: 11px; FONT-FAMILY: Verdana, Arial, Helvetica, sans-serif;"><tr><td bgcolor="#E3E1CA" align="right"><font COLOR="#000000"><b>NOMBRE</b></font></td><td bgcolor="#E4E6CA"> <font COLOR="#008000"></font></td></tr><tr><td bgcolor="#E3E1CA" align="right"><font COLOR="#000000"><b>AREA</b></font></td><td bgcolor="#E4E6CA"> <font COLOR="#008000">0</font></td></tr><tr><td bgcolor="#E3E1CA" align="right"><font COLOR="#000000"><b>HECTAREA</b></font></td><td bgcolor="#E4E6CA"> <font COLOR="#008000">0</font></td></tr><tr><td bgcolor="#E3E1CA" align="right"><font COLOR="#000000"><b>SHAPE_LENG</b></font></td><td bgcolor="#E4E6CA"> <font COLOR="#008000">5130,59100013</font></td></tr><tr><td bgcolor="#E3E1CA" align="right"><font COLOR="#000000"><b>SHAPE_AREA</b></font></td><td bgcolor="#E4E6CA"> <font COLOR="#008000">884497,232653</font></td></tr><tr><td bgcolor="#E3E1CA" align="right"><font COLOR="#000000"><b>PNTPOLYCNT</b></font></td><td bgcolor="#E4E6CA"> <font COLOR="#008000">21</font></td></tr></table>]]></description>
				<styleUrl>#shp2kml0</styleUrl>
				<Polygon>
					<outerBoundaryIs>
						<LinearRing>
							<coordinates>
								-75.250514612,7.5942090501,0 -75.2506610256,7.594008871199999,0 -75.2509812743,7.5935589503,0 -75.2513564317,7.593035565500001,0 -75.2515123968,7.5929709947,0 -75.2522187205,7.592639171,0 -75.2526478911,7.591712404000001,0 -75.2524719204,7.5911721751,0 -75.2521665963,7.5903481977,0 -75.2515382173,7.5889348982,0 -75.2506855151,7.5894778962,0 -75.2503270201,7.589368887500001,0 -75.2506923712,7.5886164186,0 -75.2506730616,7.5882682209,0 -75.2502663426,7.5873070466,0 -75.25037467520001,7.5866102558,0 -75.2501718637,7.5863322013,0 -75.25035389510001,7.5857176932,0 -75.24916667310001,7.584822765800001,0 -75.248375203,7.584229200800001,0 -75.2478334426,7.5842764761,0 -75.2473824914,7.5839386004,0 -75.2469316139,7.5836282174,0 -75.246664771,7.583445642299999,0 -75.2468843593,7.5831334621,0 -75.2470402233,7.5830322351,0 -75.24723255400001,7.5828301011,0 -75.2473604945,7.5825914813,0 -75.2474888049,7.5824903281,0 -75.2477455244,7.5823246798,0 -75.2480390313,7.582177260900001,0 -75.24834199359999,7.582130625600001,0 -75.2487001857,7.582129664400001,0 -75.2489116246,7.582202412699999,0 -75.2490309728,7.582183763200001,0 -75.2493993139,7.582540189100001,0 -75.2499385592,7.5829236479,0 -75.2502417938,7.5829778197,0 -75.25059080219999,7.5829768815,0 -75.2511420661,7.5830487149,0 -75.2515740808,7.5831758551,0 -75.2518773899,7.583257518700001,0 -75.2521345042,7.5832384984,0 -75.2523367103,7.5832929405,0 -75.2525573847,7.5833839912,0 -75.2525946674,7.583585508800001,0 -75.2527146851,7.5838142969,0 -75.2529629627,7.5839236012,0 -75.2531190732,7.583914016499999,0 -75.2532661484,7.5839594417,0 -75.2534957841,7.5839679878,0 -75.25375282420001,7.5839214724,0 -75.2538263742,7.583948767400001,0 -75.254193206,7.5837461603,0 -75.2546146471,7.5833601168,0 -75.2551736793,7.5829095501,0 -75.2566676437,7.5851489715,0 -75.2564956518,7.5860750445,0 -75.25641423490001,7.5865334875,0 -75.2562502829,7.587037975000001,0 -75.2559589607,7.5879900313,0 -75.2560160579,7.5887230325,0 -75.2562732255,7.588722337299999,0 -75.25702912040001,7.5897375465,0 -75.25707907340001,7.5912202173,0 -75.2571683879,7.5936668806,0 -75.2566127998,7.5940367948,0 -75.2560440246,7.5942857737,0 -75.25531019819999,7.594636007,0 -75.25442956480001,7.5950416224,0 -75.25386048750001,7.5951806257,0 -75.25320889699999,7.595374838400001,0 -75.252190142,7.595652520300001,0 -75.2512081238,7.595930100900001,0 -75.2506644659,7.5952808887,0 -75.250514612,7.5942090501,0 
							</coordinates>
						</LinearRing>
					</outerBoundaryIs>
				</Polygon>
			</Placemark>
		</Folder>
		<Folder>
			<name>Info</name>
			<Snippet maxLines="0"></Snippet>
			<description><![CDATA[Source File: GANADERIA.shp<br>Legend: Single Symbol<br>Label: NOMBRE<br><br><hr>ShapeFile to Google Earth<p><font color="blue"><b>Powered by Zonum Solutions</b><br> <i>www.zonums.com</i></font></p>]]></description>
			<Style>
				<BalloonStyle>
					<text>$[description]</text>
					<textColor>ff000000</textColor>
					<displayMode>default</displayMode>
				</BalloonStyle>
			</Style>
		</Folder>
	</Document>
	<Document>
		<name>CACERES I </name>
		<Style id="shp2kml3">
			<IconStyle>
				<Icon>
					<href>http://maps.google.com/mapfiles/kml/pal5/icon56.png</href>
					<x>192</x>
					<y>192</y>
					<w>32</w>
					<h>32</h>
				</Icon>
			</IconStyle>
			<LabelStyle>
				<scale>0</scale>
			</LabelStyle>
			<BalloonStyle>
				<text>$[description]</text>
			</BalloonStyle>
			<LineStyle>
				<color>ff7f0000</color>
			</LineStyle>
			<PolyStyle>
				<color>ff7f0000</color>
			</PolyStyle>
		</Style>
		<Style id="Mapit0">
			<IconStyle>
				<Icon>
					<href>http://maps.google.com/mapfiles/kml/pal5/icon56.png</href>
					<x>192</x>
					<y>192</y>
					<w>32</w>
					<h>32</h>
				</Icon>
			</IconStyle>
			<LabelStyle>
				<scale>0</scale>
			</LabelStyle>
			<BalloonStyle>
				<text>$[description]</text>
			</BalloonStyle>
		</Style>
		<StyleMap id="shp2kml4">
			<Pair>
				<key>normal</key>
				<styleUrl>#shp2kml3</styleUrl>
			</Pair>
			<Pair>
				<key>highlight</key>
				<styleUrl>#shp2kml6</styleUrl>
			</Pair>
		</StyleMap>
		<Style id="shp2kml5">
			<IconStyle>
				<Icon>
					<href>http://maps.google.com/mapfiles/kml/pal5/icon56.png</href>
					<x>192</x>
					<y>192</y>
					<w>32</w>
					<h>32</h>
				</Icon>
			</IconStyle>
			<LabelStyle>
				<scale>0</scale>
			</LabelStyle>
			<BalloonStyle>
				<text>$[description]</text>
			</BalloonStyle>
			<LineStyle>
				<color>ffff0000</color>
			</LineStyle>
			<PolyStyle>
				<color>ffffca95</color>
			</PolyStyle>
		</Style>
		<Style id="shp2kml6">
			<IconStyle>
				<Icon>
					<href>http://maps.google.com/mapfiles/kml/pal5/icon56.png</href>
					<x>192</x>
					<y>192</y>
					<w>32</w>
					<h>32</h>
				</Icon>
			</IconStyle>
			<LabelStyle>
				<scale>0</scale>
			</LabelStyle>
			<BalloonStyle>
				<text>$[description]</text>
			</BalloonStyle>
			<LineStyle>
				<color>ff7f0000</color>
			</LineStyle>
			<PolyStyle>
				<color>ff7f0000</color>
			</PolyStyle>
		</Style>
		<Folder>
			<name>Features</name>
			<Snippet maxLines="2">Legend: Single Symbol</Snippet>
			<Placemark>
				<Snippet maxLines="0"></Snippet>
				<description><![CDATA[FINCA CI<br><table border=0 cellpadding=0 cellspacing=0  width=250 style="FONT-SIZE: 11px; FONT-FAMILY: Verdana, Arial, Helvetica, sans-serif;"><tr><td bgcolor="#E3E1CA" align="right"><font COLOR="#000000"><b>NOMBRE</b></font></td><td bgcolor="#E4E6CA"> <font COLOR="#008000"></font></td></tr><tr><td bgcolor="#E3E1CA" align="right"><font COLOR="#000000"><b>AREA</b></font></td><td bgcolor="#E4E6CA"> <font COLOR="#008000">2403759,3314</font></td></tr><tr><td bgcolor="#E3E1CA" align="right"><font COLOR="#000000"><b>HECTAREA</b></font></td><td bgcolor="#E4E6CA"> <font COLOR="#008000">240,375933140454</font></td></tr><tr><td bgcolor="#E3E1CA" align="right"><font COLOR="#000000"><b>SHAPE_LENG</b></font></td><td bgcolor="#E4E6CA"> <font COLOR="#008000">8371,42720931</font></td></tr><tr><td bgcolor="#E3E1CA" align="right"><font COLOR="#000000"><b>SHAPE_AREA</b></font></td><td bgcolor="#E4E6CA"> <font COLOR="#008000">2403759,3314</font></td></tr></table>]]></description>
				<styleUrl>#shp2kml4</styleUrl>
				<MultiGeometry>
					<Polygon>
						<outerBoundaryIs>
							<LinearRing>
								<coordinates>
									-75.29571956940001,7.6074322851,0 -75.29551286189999,7.607094872599999,0 -75.29505688890001,7.606337976,0 -75.2945705177,7.6055476429,0 -75.2939929575,7.6052588711,0 -75.29379537120001,7.6051980781,0 -75.2929442384,7.6058516316,0 -75.2921538989,7.606413994300001,0 -75.2915155491,7.6069003605,0 -75.2913331629,7.606809169,0 -75.29112037030001,7.6059428392,0 -75.2909075763,7.6046509433,0 -75.29072518460001,7.604036912799999,0 -75.29028441289999,7.6035201582,0 -75.28987403950001,7.603094594900001,0 -75.289646054,7.6029274096,0 -75.28943326930001,7.6029122127,0 -75.28906849649999,7.602927414199999,0 -75.2887645145,7.602532248300001,0 -75.2880349695,7.6027450368,0 -75.2877461878,7.602395467900001,0 -75.2876853881,7.601817913999999,0 -75.2871534226,7.601346755100001,0 -75.28698623050001,7.600875593700001,0 -75.2868190383,7.6002980403,0 -75.286408669,7.6004196348,0 -75.2859223056,7.6005868252,0 -75.2855727307,7.6005564297,0 -75.2849951716,7.6004044469,0 -75.28450880459999,7.600146070799999,0 -75.2845088042,7.6000092822,0 -75.28443280570001,7.5994773253,0 -75.28472158069999,7.5990395971,0 -75.2851471461,7.5985836296,0 -75.28543592299999,7.5983404464,0 -75.28575509789999,7.597945275899999,0 -75.28640864179999,7.597033343699999,0 -75.2877005486,7.5970333338,0 -75.2884300962,7.5971549174,0 -75.2892964358,7.5973068981,0 -75.29036035919999,7.5974588782,0 -75.29143796370001,7.5977932431,0 -75.2916659455,7.5975044647,0 -75.29210670800001,7.596835714,0 -75.29245628210001,7.596729319100001,0 -75.2927450574,7.5963493481,0 -75.2928970448,7.596206477600001,0 -75.29362659,7.595963291,0 -75.2941281545,7.5960696795,0 -75.2945081263,7.595826495100001,0 -75.2946905064,7.5950513551,0 -75.2947057004,7.594504199000001,0 -75.2947512914,7.5938050538,0 -75.2949792739,7.5935922683,0 -75.29566321910001,7.5929235165,0 -75.295845603,7.592558744299999,0 -75.2960735816,7.5919507907,0 -75.29677273270001,7.5921483689,0 -75.2971679043,7.592209161699999,0 -75.2978062568,7.5920115727,0 -75.2984902095,7.592452332,0 -75.29928055729999,7.5929751644,0 -75.2995845355,7.5929903608,0 -75.30035968049999,7.593233535800001,0 -75.3011044287,7.5935223063,0 -75.30133241190001,7.5934919068,0 -75.3016515886,7.5934615077,0 -75.3022595496,7.5940998518,0 -75.30277631670001,7.5946925998,0 -75.3026699327,7.5956197274,0 -75.30263953790001,7.5960908903,0 -75.3030347088,7.5960452913,0 -75.3033386842,7.5958021086,0 -75.30379464950001,7.595528526200001,0 -75.3039162421,7.5957413089,0 -75.3040530355,7.596106078,0 -75.30393144679999,7.5964556515,0 -75.3039922442,7.5967292291,0 -75.3043570177,7.596653232100001,0 -75.30460019500001,7.5960148816,0 -75.30485857239999,7.5954525235,0 -75.30528413890001,7.595224538800001,0 -75.30574010540001,7.5951485414,0 -75.3059832902,7.5953917205,0 -75.3059376961,7.595802087900001,0 -75.3057097169,7.5963644447,0 -75.30549693800001,7.597033194099999,0 -75.3052841562,7.5974739602,0 -75.30432663249999,7.5982339077,0 -75.3038098734,7.5986898755,0 -75.3035210963,7.598978655,0 -75.3034451045,7.599313028400001,0 -75.3036882894,7.5996322006,0 -75.3040226696,7.6001367985,0 -75.3044330443,7.6007143497,0 -75.30467623040001,7.6012007088,0 -75.303977086,7.601732671799999,0 -75.3030955541,7.6024166254,0 -75.3024116077,7.6028725941,0 -75.3021684284,7.6031917706,0 -75.30245721110001,7.6037541231,0 -75.30277639169999,7.6042404826,0 -75.3033691577,7.6053195927,0 -75.3037187377,7.6059123425,0 -75.30405311769999,7.6064898949,0 -75.3049346544,7.6065354835,0 -75.3054970135,7.6065810755,0 -75.3055426113,7.606733063599999,0 -75.30502585310001,7.6072954234,0 -75.30456988589999,7.6072954263,0 -75.3039467321,7.6074170214,0 -75.30359260029999,7.6076146087,0 -75.3029542483,7.607979384400001,0 -75.3019815222,7.6084657539,0 -75.3002640441,7.6080098038,0 -75.2990633294,7.6076754394,0 -75.2982121898,7.6075994522,0 -75.297254659,7.6075538627,0 -75.29571956940001,7.6074322851,0 
								</coordinates>
							</LinearRing>
						</outerBoundaryIs>
					</Polygon>
					<Point>
						<coordinates>-75.2952099996,7.6002108985,0</coordinates>
					</Point>
				</MultiGeometry>
			</Placemark>
		</Folder>
		<Folder>
			<name>Info</name>
			<Snippet maxLines="0"></Snippet>
			<description><![CDATA[Source File: FINCA PROJ.shp<br>Legend: Single Symbol<br>Label: NOMBRE<br><br><hr>ShapeFile to Google Earth<p><font color="blue"><b>Powered by Zonum Solutions</b><br> <i>www.zonums.com</i></font></p>]]></description>
			<Style>
				<BalloonStyle>
					<text>$[description]</text>
					<textColor>ff000000</textColor>
					<displayMode>default</displayMode>
				</BalloonStyle>
			</Style>
		</Folder>
	</Document>
	<Document>
		<name>CACERES VII GanaderC-a</name>
		<Style id="shp2kml7">
			<IconStyle>
				<color>ffffca95</color>
				<Icon>
					<href>http://www.zonums.com/library/symbols/ge/shp2kml.png</href>
				</Icon>
			</IconStyle>
			<LabelStyle>
				<scale>0</scale>
			</LabelStyle>
			<BalloonStyle>
				<text>$[description]</text>
			</BalloonStyle>
			<LineStyle>
				<color>ffff0000</color>
			</LineStyle>
			<PolyStyle>
				<color>ffffca95</color>
			</PolyStyle>
		</Style>
		<StyleMap id="shp2kml8">
			<Pair>
				<key>normal</key>
				<styleUrl>#shp2kml10</styleUrl>
			</Pair>
			<Pair>
				<key>highlight</key>
				<styleUrl>#shp2kml9</styleUrl>
			</Pair>
		</StyleMap>
		<Style id="shp2kml9">
			<IconStyle>
				<color>ffffca95</color>
				<Icon>
					<href>http://www.zonums.com/library/symbols/ge/shp2kml.png</href>
				</Icon>
			</IconStyle>
			<LabelStyle>
				<scale>0</scale>
			</LabelStyle>
			<BalloonStyle>
				<text>$[description]</text>
			</BalloonStyle>
			<LineStyle>
				<color>ff0000ff</color>
			</LineStyle>
			<PolyStyle>
				<color>ff0000ff</color>
			</PolyStyle>
		</Style>
		<Style id="Mapit1">
			<IconStyle>
				<Icon>
					<href>http://maps.google.com/mapfiles/kml/pal5/icon56.png</href>
					<x>192</x>
					<y>192</y>
					<w>32</w>
					<h>32</h>
				</Icon>
			</IconStyle>
			<LabelStyle>
				<scale>0</scale>
			</LabelStyle>
			<BalloonStyle>
				<text>$[description]</text>
			</BalloonStyle>
		</Style>
		<Style id="shp2kml10">
			<IconStyle>
				<color>ffffca95</color>
				<Icon>
					<href>http://www.zonums.com/library/symbols/ge/shp2kml.png</href>
				</Icon>
			</IconStyle>
			<LabelStyle>
				<scale>0</scale>
			</LabelStyle>
			<BalloonStyle>
				<text>$[description]</text>
			</BalloonStyle>
			<LineStyle>
				<color>ff0000ff</color>
			</LineStyle>
			<PolyStyle>
				<color>ff0000ff</color>
			</PolyStyle>
		</Style>
		<Document>
			<name>CACERES VII MinerC-a</name>
			<StyleMap id="shp2kml11">
				<Pair>
					<key>normal</key>
					<styleUrl>#shp2kml14</styleUrl>
				</Pair>
				<Pair>
					<key>highlight</key>
					<styleUrl>#shp2kml12</styleUrl>
				</Pair>
			</StyleMap>
			<Style id="Mapit2">
				<IconStyle>
					<Icon>
						<href>http://maps.google.com/mapfiles/kml/pal5/icon56.png</href>
						<x>192</x>
						<y>192</y>
						<w>32</w>
						<h>32</h>
					</Icon>
				</IconStyle>
				<LabelStyle>
					<scale>0</scale>
				</LabelStyle>
				<BalloonStyle>
					<text>$[description]</text>
				</BalloonStyle>
			</Style>
			<Style id="shp2kml12">
				<IconStyle>
					<color>ffffca95</color>
					<Icon>
						<href>http://www.zonums.com/library/symbols/ge/shp2kml.png</href>
					</Icon>
				</IconStyle>
				<LabelStyle>
					<scale>0</scale>
				</LabelStyle>
				<BalloonStyle>
					<text>$[description]</text>
				</BalloonStyle>
				<LineStyle>
					<color>ff0000ff</color>
				</LineStyle>
				<PolyStyle>
					<color>ff0000ff</color>
				</PolyStyle>
			</Style>
			<Style id="shp2kml13">
				<IconStyle>
					<color>ffffca95</color>
					<Icon>
						<href>http://www.zonums.com/library/symbols/ge/shp2kml.png</href>
					</Icon>
				</IconStyle>
				<LabelStyle>
					<scale>0</scale>
				</LabelStyle>
				<BalloonStyle>
					<text>$[description]</text>
				</BalloonStyle>
				<LineStyle>
					<color>ffff0000</color>
				</LineStyle>
				<PolyStyle>
					<color>ffffca95</color>
				</PolyStyle>
			</Style>
			<Style id="shp2kml14">
				<IconStyle>
					<color>ffffca95</color>
					<Icon>
						<href>http://www.zonums.com/library/symbols/ge/shp2kml.png</href>
					</Icon>
				</IconStyle>
				<LabelStyle>
					<scale>0</scale>
				</LabelStyle>
				<BalloonStyle>
					<text>$[description]</text>
				</BalloonStyle>
				<LineStyle>
					<color>ff0000ff</color>
				</LineStyle>
				<PolyStyle>
					<color>ff0000ff</color>
				</PolyStyle>
			</Style>
			<Folder>
				<name>Features</name>
				<Snippet maxLines="2">Legend: Single Symbol</Snippet>
				<Placemark>
					<Snippet maxLines="0"></Snippet>
					<description><![CDATA[MINERIA<br><table border=0 cellpadding=0 cellspacing=0  width=250 style="FONT-SIZE: 11px; FONT-FAMILY: Verdana, Arial, Helvetica, sans-serif;"><tr><td bgcolor="#E3E1CA" align="right"><font COLOR="#000000"><b>NOMBRE</b></font></td><td bgcolor="#E4E6CA"> <font COLOR="#008000"></font></td></tr><tr><td bgcolor="#E3E1CA" align="right"><font COLOR="#000000"><b>AREA</b></font></td><td bgcolor="#E4E6CA"> <font COLOR="#008000">1048326,8038</font></td></tr><tr><td bgcolor="#E3E1CA" align="right"><font COLOR="#000000"><b>HECTAREA</b></font></td><td bgcolor="#E4E6CA"> <font COLOR="#008000">104,83268038</font></td></tr><tr><td bgcolor="#E3E1CA" align="right"><font COLOR="#000000"><b>SHAPE_LENG</b></font></td><td bgcolor="#E4E6CA"> <font COLOR="#008000">5474,69006014</font></td></tr><tr><td bgcolor="#E3E1CA" align="right"><font COLOR="#000000"><b>SHAPE_AREA</b></font></td><td bgcolor="#E4E6CA"> <font COLOR="#008000">1048326,8038</font></td></tr></table>]]></description>
					<styleUrl>#shp2kml11</styleUrl>
					<Polygon>
						<outerBoundaryIs>
							<LinearRing>
								<coordinates>
									-75.24432963859999,7.7298296918,0 -75.24422848579999,7.729273043199999,0 -75.2440972979,7.728778919100001,0 -75.24391847939999,7.7281318705,0 -75.24360944039999,7.7273438953,0 -75.24331234170001,7.7266053355,0 -75.24312197960001,7.7260525043,0 -75.24297934489999,7.7256879176,0 -75.242753479,7.725099862499999,0 -75.2424912388,7.7241587052,0 -75.24245534720001,7.723982201400001,0 -75.24239556089999,7.7236998027,0 -75.2423714721,7.7235232678,0 -75.2422881761,7.7232762532,0 -75.24219301319999,7.723005723700001,0 -75.2420857253,7.722617493100001,0 -75.2420142324,7.7223704464,0 -75.2418952708,7.7220293408,0 -75.2417170704,7.721605983300001,0 -75.2415508015,7.721229685800001,0 -75.2414912724,7.721041473799999,0 -75.24136079820001,7.7208063601,0 -75.2413129765,7.7205827951,0 -75.24130065999999,7.720394454,0 -75.2412410349,7.7201709219,0 -75.2412402321,7.7198765887,0 -75.2411210474,7.7194530705,0 -75.2410377211,7.719194281499999,0 -75.2410133775,7.7189235601,0 -75.2409535282,7.7186176139,0 -75.2409529504,7.7184056947,0 -75.24095246900001,7.7182290945,0 -75.2408928775,7.718017335399999,0 -75.2408450887,7.717805544100001,0 -75.2407379966,7.717487952800001,0 -75.2406663773,7.7171938116,0 -75.2405828915,7.7168761562,0 -75.24054706600001,7.716723199000001,0 -75.2405465527,7.7165348267,0 -75.2405105348,7.716311229400001,0 -75.2404862882,7.7160758271,0 -75.2404738754,7.7158521667,0 -75.240390326,7.715510964200001,0 -75.2403304788,7.7152050178,0 -75.2402825305,7.7149343602,0 -75.2402580589,7.7146165447,0 -75.24016209849999,7.7140516808,0 -75.2401258567,7.7137456711,0 -75.2401727789,7.7136395831,0 -75.2402433389,7.713545205,0 -75.240302352,7.713545045100001,0 -75.2404677822,7.713615237500001,0 -75.24065681810001,7.7136853648,0 -75.2407986435,7.713755621000001,0 -75.2408698119,7.713884935200001,0 -75.2409528158,7.7140259914,0 -75.24102392099999,7.7141317595,0 -75.2411301458,7.714131471500001,0 -75.2412481409,7.7141193774,0 -75.2414016085,7.714130735200001,0 -75.241531727,7.7142363423,0 -75.2416264053,7.7143302732,0 -75.2417210202,7.7144006561,0 -75.2417918359,7.714400464,0 -75.24188612979999,7.714353114699999,0 -75.2419329553,7.7142117074,0 -75.24199161520001,7.7140820402,0 -75.2420620143,7.7139287958,0 -75.2421324133,7.7137755505,0 -75.242202748,7.7135987582,0 -75.242272857,7.7133395538,0 -75.24230755870001,7.7130804445,0 -75.2423779575,7.7129271991,0 -75.2425430664,7.712879657599999,0 -75.24273181309999,7.7128438249,0 -75.24284958290001,7.7127493183,0 -75.2431041441,7.7126588881,0 -75.2432303257,7.7127631972,0 -75.2434198535,7.7130138486,0 -75.24367227339999,7.713243397199999,0 -75.24388278470001,7.713493991300001,0 -75.2439465323,7.7137868442,0 -75.24403109150001,7.7140168497,0 -75.2441995248,7.714225696199999,0 -75.24432593500001,7.714413726800001,0 -75.2445363901,7.7146433888,0 -75.24471299459999,7.7149631448,0 -75.24472929,7.715167172299999,0 -75.24472976209999,7.715339846999999,0 -75.2447144538,7.7154968671,0 -75.24466775800001,7.7156853685,0 -75.2446368847,7.7159052228,0 -75.2445588005,7.7161252045,0 -75.2445436647,7.7163450159,0 -75.2445758257,7.7165960936,0 -75.2445765124,7.716847257,0 -75.2446242385,7.7170355015,0 -75.2447034389,7.7172236603,0 -75.24479841900001,7.7174274737,0 -75.2449250634,7.717700271000001,0 -75.245051604,7.7179353942,0 -75.2451466274,7.7181549057,0 -75.2451946546,7.7184530335,0 -75.2452582048,7.7186726306,0 -75.2452902806,7.7188923125,0 -75.2453221838,7.7190492041,0 -75.2454011701,7.719158874,0 -75.24548050030001,7.7193941256,0 -75.24559113319999,7.7195665001,0 -75.2457803659,7.7197072646,0 -75.2458750033,7.719785496,0 -75.2461112325,7.719847644,0 -75.2464420563,7.719972324699999,0 -75.2467412948,7.720056277400001,0 -75.246930398,7.7201499483,0 -75.2470254239,7.7203694592,0 -75.24702598339999,7.7205735293,0 -75.2470423657,7.7208089521,0 -75.2470431404,7.7210915107,0 -75.24704382900001,7.721342673799999,0 -75.2470915569,7.721530917799999,0 -75.2470608149,7.721797863999999,0 -75.2470299429,7.7220177182,0 -75.2471720078,7.722174308900001,0 -75.24718809,7.7222998475,0 -75.2472829866,7.7224722643,0 -75.24734671100001,7.7227546512,0 -75.2474099608,7.7228643635,0 -75.24752094,7.7231623197,0 -75.24758436320001,7.7233348223,0 -75.2476478717,7.7235387205,0 -75.2476799495,7.7237584028,0 -75.2477591528,7.723946559699999,0 -75.247822877,7.7242289464,0 -75.2479176029,7.724338572699999,0 -75.24793390000001,7.7245425997,0 -75.2479344602,7.7247466697,0 -75.247919068,7.7248722951,0 -75.24799809930001,7.7249976616,0 -75.2480771308,7.7251230281,0 -75.24820346030001,7.7252796612,0 -75.2482827505,7.7254992136,0 -75.2484404688,7.725624365,0 -75.2485511047,7.7257967392,0 -75.2485356256,7.725890968,0 -75.24848880170001,7.7260323768,0 -75.2484891898,7.7261736555,0 -75.2484895779,7.726314935200001,0 -75.24853717790001,7.726456085,0 -75.2485691272,7.7266286742,0 -75.2486013785,7.7269111466,0 -75.2486494962,7.7272406689,0 -75.24871326490001,7.7275387525,0 -75.24879283200001,7.7278587707,0 -75.24860471690001,7.7281261481,0 -75.2484635971,7.728314907,0 -75.2484166868,7.728424920200001,0 -75.2483700785,7.728644817400001,0 -75.2483077752,7.728880455,0 -75.2482610805,7.7290689557,0 -75.2481515217,7.729289025000001,0 -75.2480735242,7.729540403,0 -75.2479641386,7.7298232625,0 -75.2478234493,7.730168999300001,0 -75.24774566710001,7.7304988657,0 -75.24762071550001,7.7308445594,0 -75.2475271097,7.7311430733,0 -75.24738637660001,7.7314731117,0 -75.24726095040001,7.731646130999999,0 -75.2470488478,7.731775781500001,0 -75.2468254068,7.7319159278,0 -75.2466299445,7.7320559976,0 -75.2467424689,7.7322789479,0 -75.2468832779,7.7326134507,0 -75.2464315804,7.732596821700001,0 -75.24612808809999,7.7325976502,0 -75.24580436310001,7.732598533799999,0 -75.24544039440001,7.7326802535,0 -75.24527875219999,7.7327614211,0 -75.244772766,7.7327022567,0 -75.24440846410001,7.732662886099999,0 -75.2443059182,7.732158623400001,0 -75.2443907152,7.731699311600001,0 -75.2443901801,7.7315039624,0 -75.2443891864,7.7311411712,0 -75.244304564,7.7308902367,0 -75.2443309378,7.7303041121,0 -75.24432963859999,7.7298296918,0 
								</coordinates>
							</LinearRing>
						</outerBoundaryIs>
					</Polygon>
				</Placemark>
			</Folder>
			<Folder>
				<name>Info</name>
				<Snippet maxLines="0"></Snippet>
				<description><![CDATA[Source File: MINERIA.shp<br>Legend: Single Symbol<br>Label: NOMBRE<br><br><hr>ShapeFile to Google Earth<p><font color="blue"><b>Powered by Zonum Solutions</b><br> <i>www.zonums.com</i></font></p>]]></description>
				<Style>
					<BalloonStyle>
						<text>$[description]</text>
						<textColor>ff000000</textColor>
						<displayMode>default</displayMode>
					</BalloonStyle>
				</Style>
			</Folder>
		</Document>
		<Folder>
			<name>Features</name>
			<Snippet maxLines="2">Legend: Single Symbol</Snippet>
			<Placemark>
				<Snippet maxLines="0"></Snippet>
				<description><![CDATA[GANADERIA<br><table border=0 cellpadding=0 cellspacing=0  width=250 style="FONT-SIZE: 11px; FONT-FAMILY: Verdana, Arial, Helvetica, sans-serif;"><tr><td bgcolor="#E3E1CA" align="right"><font COLOR="#000000"><b>NOMBRE</b></font></td><td bgcolor="#E4E6CA"> <font COLOR="#008000"></font></td></tr><tr><td bgcolor="#E3E1CA" align="right"><font COLOR="#000000"><b>AREA</b></font></td><td bgcolor="#E4E6CA"> <font COLOR="#008000">0</font></td></tr><tr><td bgcolor="#E3E1CA" align="right"><font COLOR="#000000"><b>HECTAREA</b></font></td><td bgcolor="#E4E6CA"> <font COLOR="#008000">0</font></td></tr><tr><td bgcolor="#E3E1CA" align="right"><font COLOR="#000000"><b>SHAPE_LENG</b></font></td><td bgcolor="#E4E6CA"> <font COLOR="#008000">8473,62543903</font></td></tr><tr><td bgcolor="#E3E1CA" align="right"><font COLOR="#000000"><b>SHAPE_AREA</b></font></td><td bgcolor="#E4E6CA"> <font COLOR="#008000">1637416,2373</font></td></tr></table>]]></description>
				<styleUrl>#shp2kml11</styleUrl>
				<Polygon>
					<outerBoundaryIs>
						<LinearRing>
							<coordinates>
								-75.2466552663,7.7321336356,0 -75.24735808290001,7.7316165843,0 -75.24759117319999,7.7310138462,0 -75.2478240783,7.7303442081,0 -75.24809042610001,7.7296410279,0 -75.2483564975,7.7288374991,0 -75.2484892567,7.7283353844,0 -75.2488234991,7.7279330698,0 -75.24868779809999,7.7273647896,0 -75.2486192584,7.7268297763,0 -75.2484835591,7.7262614959,0 -75.2485158252,7.7257997963,0 -75.2482801667,7.725465939,0 -75.24807813450001,7.7251654403,0 -75.2479096365,7.724864849999999,0 -75.2479084428,7.7244300026,0 -75.2477732965,7.724062420499999,0 -75.2476377823,7.7235610385,0 -75.2475361704,7.7231933648,0 -75.24736749020001,7.722825874899999,0 -75.2472321616,7.7223913926,0 -75.2469290711,7.721923918,0 -75.2467936507,7.7214559858,0 -75.24662497289999,7.7210884946,0 -75.24645702780001,7.720988602199999,0 -75.24625499939999,7.7206881021,0 -75.2459521862,7.7203209761,0 -75.24571653229999,7.719987117400001,0 -75.2454803304,7.719452558599999,0 -75.2453116538,7.7190850665,0 -75.24517559669999,7.7183829846,0 -75.2450741717,7.7180822097,0 -75.2449392126,7.7177815251,0 -75.2447369125,7.717380674299999,0 -75.2446014975,7.716912740699999,0 -75.24460039989999,7.7165113423,0 -75.24459930240001,7.7161099438,0 -75.2447655978,7.7156077395,0 -75.2447643173,7.715139441,0 -75.24459582740001,7.714838848199999,0 -75.2443600868,7.714471537700001,0 -75.2441581548,7.714204485400001,0 -75.24402329020001,7.713937250700001,0 -75.24392186759999,7.7136364752,0 -75.2436525952,7.713269255199999,0 -75.2434174043,7.713102643200001,0 -75.2431818493,7.7128022318,0 -75.2432805318,7.7120995107,0 -75.24334504220001,7.711162730899999,0 -75.2433759276,7.7101925925,0 -75.24364227549999,7.7094894152,0 -75.2443807338,7.709755010300001,0 -75.2449515278,7.710021059900001,0 -75.24542172309999,7.7102873824,0 -75.2459251782,7.7104532625,0 -75.24646262330001,7.7107863011,0 -75.2471004863,7.7110521649,0 -75.24767110010001,7.7112513104,0 -75.2482084565,7.711550896000001,0 -75.2487459962,7.711917380800001,0 -75.2493167952,7.712183423799999,0 -75.2496863036,7.712416565,0 -75.24988832939999,7.712717063800001,0 -75.2501240732,7.7130843707,0 -75.25046023260001,7.7133845026,0 -75.2507297861,7.7138520669,0 -75.2511330136,7.714152014699999,0 -75.25103351680001,7.714553688299999,0 -75.2511352204,7.7149548108,0 -75.2511365078,7.7154231082,0 -75.2511380712,7.7159917551,0 -75.2511393588,7.7164600525,0 -75.2510738559,7.7170288828,0 -75.2511084929,7.7174301886,0 -75.25094211210001,7.7178989448,0 -75.25084261480001,7.7183006176,0 -75.2504407622,7.7185024171,0 -75.2498030698,7.7183034603,0 -75.2494337394,7.7181372191,0 -75.248996608,7.7177035627,0 -75.2485592013,7.7171695554,0 -75.24805436210001,7.7165019314,0 -75.24765177579999,7.7164361293,0 -75.2474512161,7.7166708275,0 -75.2473179979,7.7170056914,0 -75.24715152109999,7.7174409972,0 -75.2471860639,7.717808854300001,0 -75.2473552905,7.7183770446,0 -75.24759158649999,7.718945051699999,0 -75.2477936149,7.7192455512,0 -75.24826417129999,7.7196389779,0 -75.2484664759,7.7200398263,0 -75.2487362163,7.720574291299999,0 -75.2489384301,7.7209416899,0 -75.2491744534,7.7214093462,0 -75.2493433181,7.7218437351,0 -75.2495111722,7.7219101766,0 -75.25001445780001,7.7220091505,0 -75.2504171415,7.7221083991,0 -75.2508866177,7.7221071142,0 -75.2511220925,7.722374070199999,0 -75.2512238912,7.722808641700001,0 -75.2514928084,7.723042056099999,0 -75.2518624201,7.7233086441,0 -75.252266119,7.7237758384,0 -75.2526364693,7.7243100231,0 -75.2528733657,7.725092104500001,0 -75.2530759543,7.7255932989,0 -75.2531781253,7.726161669,0 -75.2531458828,7.7266300579,0 -75.2530794596,7.726864389899999,0 -75.2532140589,7.7270312709,0 -75.2534497218,7.7273651247,0 -75.2533499493,7.727666448600001,0 -75.2531833843,7.728068305899999,0 -75.25308398049999,7.728503429400001,0 -75.2528503466,7.7289054707,0 -75.253087764,7.7298748695,0 -75.2534240335,7.7302084469,0 -75.2537941148,7.7306422801,0 -75.2537950384,7.7309767782,0 -75.2537296312,7.7315790577,0 -75.2536305972,7.73214798,0 -75.25376584430001,7.732549008400001,0 -75.25396871610001,7.733150551600001,0 -75.2541716818,7.733785543200001,0 -75.25437427759999,7.7342867369,0 -75.2543418514,7.734688225799999,0 -75.25417547150001,7.7351569834,0 -75.2539753698,7.7355589333,0 -75.2535737812,7.7358610871,0 -75.25357452039999,7.736128685199999,0 -75.253509299,7.736797864600001,0 -75.25307481989999,7.737334259,0 -75.25243820510001,7.7375367077,0 -75.2519022884,7.7377723289,0 -75.2510978113,7.737908337100001,0 -75.25029195179999,7.7375425964,0 -75.250022472,7.7371084841,0 -75.2497864356,7.736640830099999,0 -75.24941607629999,7.7361066443,0 -75.2489781865,7.7354053915,0 -75.2484396932,7.7347044142,0 -75.2479688236,7.7342039513,0 -75.24753185829999,7.733837195,0 -75.2473299135,7.7335701462,0 -75.2471615955,7.733336455100001,0 -75.2470600722,7.7330022321,0 -75.2468915709,7.7327016418,0 -75.2466552663,7.7321336356,0 
							</coordinates>
						</LinearRing>
					</outerBoundaryIs>
				</Polygon>
			</Placemark>
		</Folder>
		<Folder>
			<name>Info</name>
			<Snippet maxLines="0"></Snippet>
			<description><![CDATA[Source File: GANADERIA.shp<br>Legend: Single Symbol<br>Label: NOMBRE<br><br><hr>ShapeFile to Google Earth<p><font color="blue"><b>Powered by Zonum Solutions</b><br> <i>www.zonums.com</i></font></p>]]></description>
			<Style>
				<BalloonStyle>
					<text>$[description]</text>
					<textColor>ff000000</textColor>
					<displayMode>default</displayMode>
				</BalloonStyle>
			</Style>
		</Folder>
	</Document>
	<Document>
		<name>CACERES IV GanaderC-a</name>
		<open>1</open>
		<Style id="Mapit3">
			<IconStyle>
				<Icon>
					<href>http://maps.google.com/mapfiles/kml/pal5/icon56.png</href>
					<x>192</x>
					<y>192</y>
					<w>32</w>
					<h>32</h>
				</Icon>
			</IconStyle>
			<LabelStyle>
				<scale>0</scale>
			</LabelStyle>
			<BalloonStyle>
				<text>$[description]</text>
			</BalloonStyle>
		</Style>
		<Style id="shp2kml15">
			<IconStyle>
				<color>ffffca95</color>
				<Icon>
					<href>http://www.zonums.com/library/symbols/ge/shp2kml.png</href>
				</Icon>
			</IconStyle>
			<LabelStyle>
				<scale>0</scale>
			</LabelStyle>
			<BalloonStyle>
				<text>$[description]</text>
			</BalloonStyle>
			<LineStyle>
				<color>ffff0000</color>
			</LineStyle>
			<PolyStyle>
				<color>ffffca95</color>
			</PolyStyle>
		</Style>
		<Style id="shp2kml16">
			<IconStyle>
				<color>ffffca95</color>
				<Icon>
					<href>http://www.zonums.com/library/symbols/ge/shp2kml.png</href>
				</Icon>
			</IconStyle>
			<LabelStyle>
				<scale>0</scale>
			</LabelStyle>
			<BalloonStyle>
				<text>$[description]</text>
			</BalloonStyle>
			<LineStyle>
				<color>ff00ff55</color>
			</LineStyle>
			<PolyStyle>
				<color>ff00aa55</color>
			</PolyStyle>
		</Style>
		<Style id="shp2kml17">
			<IconStyle>
				<color>ffffca95</color>
				<Icon>
					<href>http://www.zonums.com/library/symbols/ge/shp2kml.png</href>
				</Icon>
			</IconStyle>
			<LabelStyle>
				<scale>0</scale>
			</LabelStyle>
			<BalloonStyle>
				<text>$[description]</text>
			</BalloonStyle>
			<LineStyle>
				<color>ff00ff55</color>
			</LineStyle>
			<PolyStyle>
				<color>ff00aa55</color>
			</PolyStyle>
		</Style>
		<StyleMap id="shp2kml18">
			<Pair>
				<key>normal</key>
				<styleUrl>#shp2kml16</styleUrl>
			</Pair>
			<Pair>
				<key>highlight</key>
				<styleUrl>#shp2kml17</styleUrl>
			</Pair>
		</StyleMap>
		<Folder>
			<name>Features</name>
			<Snippet maxLines="2">Legend: Single Symbol</Snippet>
			<Placemark>
				<Snippet maxLines="0"></Snippet>
				<description><![CDATA[Ganaderia<br><table border=0 cellpadding=0 cellspacing=0  width=250 style="FONT-SIZE: 11px; FONT-FAMILY: Verdana, Arial, Helvetica, sans-serif;"><tr><td bgcolor="#E3E1CA" align="right"><font COLOR="#000000"><b>NOMBRE</b></font></td><td bgcolor="#E4E6CA"> <font COLOR="#008000"></font></td></tr><tr><td bgcolor="#E3E1CA" align="right"><font COLOR="#000000"><b>AREA</b></font></td><td bgcolor="#E4E6CA"> <font COLOR="#008000">0</font></td></tr><tr><td bgcolor="#E3E1CA" align="right"><font COLOR="#000000"><b>HECTAREA</b></font></td><td bgcolor="#E4E6CA"> <font COLOR="#008000">0</font></td></tr><tr><td bgcolor="#E3E1CA" align="right"><font COLOR="#000000"><b>SHAPE_LENG</b></font></td><td bgcolor="#E4E6CA"> <font COLOR="#008000">7796,91543287</font></td></tr><tr><td bgcolor="#E3E1CA" align="right"><font COLOR="#000000"><b>SHAPE_AREA</b></font></td><td bgcolor="#E4E6CA"> <font COLOR="#008000">1771418,70777</font></td></tr></table>]]></description>
				<styleUrl>#shp2kml18</styleUrl>
				<Polygon>
					<outerBoundaryIs>
						<LinearRing>
							<coordinates>
								-75.2156154188,7.6109441315,0 -75.2146649939,7.6111463699,0 -75.21427957189999,7.6104981841,0 -75.2141122142,7.6102988707,0 -75.2140782802,7.6100825615,0 -75.2138863342,7.610049771,0 -75.21230947790001,7.6099456897,0 -75.2117818606,7.6091480592,0 -75.2115394953,7.6089739088,0 -75.2110547652,7.6086256065,0 -75.2109628111,7.608550939300001,0 -75.2105857056,7.6078902435,0 -75.21057710309999,7.607790389399999,0 -75.21073474390001,7.6074653825,0 -75.21074232380001,7.607174057700001,0 -75.210782616,7.606632958300001,0 -75.2109219843,7.6057004193,0 -75.2110531953,7.604838648000001,0 -75.2113532516,7.6047463133,0 -75.2118366478,7.6045869163,0 -75.2120367798,7.6045614259,0 -75.2132684061,7.603442933,0 -75.2127162188,7.6028159878,0 -75.21247368269999,7.6025752535,0 -75.2123400007,7.6024923717,0 -75.21218965750001,7.6024178567,0 -75.211996996,7.6021104078,0 -75.21166213790001,7.6016535163,0 -75.2115784402,7.6015455353,0 -75.21137780869999,7.601379598,0 -75.21103432779999,7.6008145283,0 -75.21068757720001,7.600594039699999,0 -75.210637267,7.6004942941,0 -75.2102280996,7.6003288988,0 -75.20884187199999,7.599741569500001,0 -75.2088496927,7.5995417969,0 -75.2093233965,7.5988664033,0 -75.2103204347,7.5973573475,0 -75.2107607239,7.5966653937,0 -75.20932381980001,7.5958326678,0 -75.2099645861,7.595248392099999,0 -75.21043131179999,7.5950973649,0 -75.2105045364,7.5943897197,0 -75.2106270442,7.5933889768,0 -75.2118680541,7.5926782929,0 -75.21363079690001,7.5937140762,0 -75.2138135217,7.5934139714,0 -75.2138561001,7.59374678,0 -75.21444874949999,7.5939033714,0 -75.2149413243,7.594068545699999,0 -75.21557590010001,7.594308255500001,0 -75.2157006265,7.594158116,0 -75.21611714789999,7.5939489535,0 -75.2164759997,7.594014599099999,0 -75.2166848179,7.5941222521,0 -75.2170525574,7.594395949199999,0 -75.2176447489,7.594377754,0 -75.21822851170001,7.594326288100001,0 -75.21828011300001,7.594917084499999,0 -75.218305466,7.595041863000001,0 -75.2183894482,7.5952580408,0 -75.2186325517,7.595715168099999,0 -75.2186910077,7.595739983599999,0 -75.21868890570001,7.59652651,0 -75.218990839,7.597149942299999,0 -75.2191667747,7.597440785600001,0 -75.2187495731,7.5973919408,0 -75.21934264479999,7.5977066594,0 -75.2203421867,7.597163045,0 -75.2198600966,7.5978135014,0 -75.2194021313,7.5981226526,0 -75.21985370269999,7.598552598300001,0 -75.22142010979999,7.5978743268,0 -75.2206630833,7.598650349800001,0 -75.22087409869999,7.5995902916,0 -75.2218747846,7.5994794642,0 -75.22218847160001,7.5998132236,0 -75.22189821310001,7.600454854400001,0 -75.2229259257,7.6011013439,0 -75.2234205365,7.602032213600001,0 -75.22333947609999,7.6029229838,0 -75.2228294918,7.603178124199999,0 -75.2225588479,7.603745318,0 -75.2214520313,7.6039448592,0 -75.2207691842,7.6047799909,0 -75.21994581769999,7.603930088599999,0 -75.219838991,7.6061237325,0 -75.2193588391,7.6055351015,0 -75.2189743437,7.6056344262,0 -75.2179610418,7.60571199,0 -75.218039726,7.6061916549,0 -75.2180542463,7.6063601575,0 -75.2180408232,7.6066083211,0 -75.218027585,7.6069267098,0 -75.2165603608,7.6074689463,0 -75.2150040695,7.608044651,0 -75.2154360055,7.6081418372,0 -75.21602284540001,7.6082620249,0 -75.2163615178,7.6085794925,0 -75.2165556109,7.609230673400001,0 -75.2169925364,7.609440204,0 -75.2168105402,7.609819896600001,0 -75.21670330960001,7.6100823511,0 -75.2164694279,7.6103591825,0 -75.2163712495,7.610495208,0 -75.2159824414,7.6107406102,0 -75.2156154188,7.6109441315,0 
							</coordinates>
						</LinearRing>
					</outerBoundaryIs>
				</Polygon>
			</Placemark>
		</Folder>
		<Folder>
			<name>Info</name>
			<Snippet maxLines="0"></Snippet>
			<description><![CDATA[Source File: Ganaderia.shp<br>Legend: Single Symbol<br>Label: NOMBRE<br><br><hr>ShapeFile to Google Earth<p><font color="blue"><b>Powered by Zonum Solutions</b><br> <i>www.zonums.com</i></font></p>]]></description>
			<Style>
				<BalloonStyle>
					<text>$[description]</text>
					<textColor>ff000000</textColor>
					<displayMode>default</displayMode>
				</BalloonStyle>
			</Style>
		</Folder>
	</Document>
	<Document>
		<name>CACERES II GanaderC-a</name>
		<open>1</open>
		<Style id="shp2kml19">
			<IconStyle>
				<color>ffffca95</color>
				<Icon>
					<href>http://www.zonums.com/library/symbols/ge/shp2kml.png</href>
				</Icon>
			</IconStyle>
			<LabelStyle>
				<scale>0</scale>
			</LabelStyle>
			<BalloonStyle>
				<text>$[description]</text>
			</BalloonStyle>
			<LineStyle>
				<color>ffff0000</color>
			</LineStyle>
			<PolyStyle>
				<color>ffffca95</color>
			</PolyStyle>
		</Style>
		<Style id="shp2kml20">
			<IconStyle>
				<Icon>
					<href>http://maps.google.com/mapfiles/kml/pal5/icon56.png</href>
					<x>192</x>
					<y>192</y>
					<w>32</w>
					<h>32</h>
				</Icon>
			</IconStyle>
			<LabelStyle>
				<scale>0</scale>
			</LabelStyle>
			<BalloonStyle>
				<text>$[description]</text>
			</BalloonStyle>
			<LineStyle>
				<color>ffff55ff</color>
			</LineStyle>
			<PolyStyle>
				<color>ffff55ff</color>
			</PolyStyle>
		</Style>
		<Style id="shp2kml21">
			<IconStyle>
				<Icon>
					<href>http://maps.google.com/mapfiles/kml/pal5/icon56.png</href>
					<x>192</x>
					<y>192</y>
					<w>32</w>
					<h>32</h>
				</Icon>
			</IconStyle>
			<LabelStyle>
				<scale>0</scale>
			</LabelStyle>
			<BalloonStyle>
				<text>$[description]</text>
			</BalloonStyle>
			<LineStyle>
				<color>ffff55ff</color>
			</LineStyle>
			<PolyStyle>
				<color>ffff55ff</color>
			</PolyStyle>
		</Style>
		<StyleMap id="shp2kml22">
			<Pair>
				<key>normal</key>
				<styleUrl>#shp2kml21</styleUrl>
			</Pair>
			<Pair>
				<key>highlight</key>
				<styleUrl>#shp2kml20</styleUrl>
			</Pair>
		</StyleMap>
		<Style id="Mapit4">
			<IconStyle>
				<Icon>
					<href>http://maps.google.com/mapfiles/kml/pal5/icon56.png</href>
					<x>192</x>
					<y>192</y>
					<w>32</w>
					<h>32</h>
				</Icon>
			</IconStyle>
			<LabelStyle>
				<scale>0</scale>
			</LabelStyle>
			<BalloonStyle>
				<text>$[description]</text>
			</BalloonStyle>
		</Style>
		<Document>
			<name>CACERES II MinerC-a</name>
			<open>1</open>
			<Style id="shp2kml23">
				<IconStyle>
					<color>ffffca95</color>
					<Icon>
						<href>http://www.zonums.com/library/symbols/ge/shp2kml.png</href>
					</Icon>
				</IconStyle>
				<LabelStyle>
					<scale>0</scale>
				</LabelStyle>
				<BalloonStyle>
					<text>$[description]</text>
				</BalloonStyle>
				<LineStyle>
					<color>ffff0000</color>
				</LineStyle>
				<PolyStyle>
					<color>ffffca95</color>
				</PolyStyle>
			</Style>
			<Style id="shp2kml24">
				<IconStyle>
					<Icon>
						<href>http://maps.google.com/mapfiles/kml/pal5/icon56.png</href>
						<x>192</x>
						<y>192</y>
						<w>32</w>
						<h>32</h>
					</Icon>
				</IconStyle>
				<LabelStyle>
					<scale>0</scale>
				</LabelStyle>
				<BalloonStyle>
					<text>$[description]</text>
				</BalloonStyle>
				<LineStyle>
					<color>ffff55ff</color>
				</LineStyle>
				<PolyStyle>
					<color>ffff55ff</color>
				</PolyStyle>
			</Style>
			<Style id="Mapit5">
				<IconStyle>
					<Icon>
						<href>http://maps.google.com/mapfiles/kml/pal5/icon56.png</href>
						<x>192</x>
						<y>192</y>
						<w>32</w>
						<h>32</h>
					</Icon>
				</IconStyle>
				<LabelStyle>
					<scale>0</scale>
				</LabelStyle>
				<BalloonStyle>
					<text>$[description]</text>
				</BalloonStyle>
			</Style>
			<Style id="shp2kml25">
				<IconStyle>
					<Icon>
						<href>http://maps.google.com/mapfiles/kml/pal5/icon56.png</href>
						<x>192</x>
						<y>192</y>
						<w>32</w>
						<h>32</h>
					</Icon>
				</IconStyle>
				<LabelStyle>
					<scale>0</scale>
				</LabelStyle>
				<BalloonStyle>
					<text>$[description]</text>
				</BalloonStyle>
				<LineStyle>
					<color>ffff55ff</color>
				</LineStyle>
				<PolyStyle>
					<color>ffff55ff</color>
				</PolyStyle>
			</Style>
			<StyleMap id="shp2kml26">
				<Pair>
					<key>normal</key>
					<styleUrl>#shp2kml25</styleUrl>
				</Pair>
				<Pair>
					<key>highlight</key>
					<styleUrl>#shp2kml24</styleUrl>
				</Pair>
			</StyleMap>
			<Folder>
				<name>Features</name>
				<Snippet maxLines="2">Legend: Single Symbol</Snippet>
				<Placemark>
					<Snippet maxLines="0"></Snippet>
					<description><![CDATA[Mineria<br><table border=0 cellpadding=0 cellspacing=0  width=250 style="FONT-SIZE: 11px; FONT-FAMILY: Verdana, Arial, Helvetica, sans-serif;"><tr><td bgcolor="#E3E1CA" align="right"><font COLOR="#000000"><b>NOMNBRE</b></font></td><td bgcolor="#E4E6CA"> <font COLOR="#008000"></font></td></tr><tr><td bgcolor="#E3E1CA" align="right"><font COLOR="#000000"><b>HECTAREA</b></font></td><td bgcolor="#E4E6CA"> <font COLOR="#008000">175,566850409</font></td></tr><tr><td bgcolor="#E3E1CA" align="right"><font COLOR="#000000"><b>AREA</b></font></td><td bgcolor="#E4E6CA"> <font COLOR="#008000">1755668,50409</font></td></tr><tr><td bgcolor="#E3E1CA" align="right"><font COLOR="#000000"><b>SHAPE_LENG</b></font></td><td bgcolor="#E4E6CA"> <font COLOR="#008000">0,113401404149</font></td></tr><tr><td bgcolor="#E3E1CA" align="right"><font COLOR="#000000"><b>SHAPE_AREA</b></font></td><td bgcolor="#E4E6CA"> <font COLOR="#008000">0,000143784450801</font></td></tr></table>]]></description>
					<styleUrl>#shp2kml26</styleUrl>
					<Polygon>
						<outerBoundaryIs>
							<LinearRing>
								<coordinates>
									-75.329891523,7.6068596373,0 -75.3300093953,7.606682111599999,0 -75.33012686950001,7.6063667751,0 -75.33018543510001,7.6061500449,0 -75.33030302260001,7.605874082300001,0 -75.3303219565,7.6055984045,0 -75.33034111800001,7.6054014756,0 -75.3306961577,7.605361078900001,0 -75.3311300065,7.605281079599999,0 -75.331701571,7.6050628714,0 -75.3317405188,7.6048855723,0 -75.33174006350001,7.6047280745,0 -75.33191185280001,7.6046453852,0 -75.3320008008,7.6047004995,0 -75.3320452592,7.604722519099999,0 -75.3321336306,7.6045783006,0 -75.332199901,7.6044673682,0 -75.33227723749999,7.604345329699999,0 -75.3323102449,7.604245566600001,0 -75.332309892,7.6041237518,0 -75.3324094897,7.604023798099999,0 -75.3325977155,7.603868216800001,0 -75.332796879,7.603657233499999,0 -75.3329297399,7.6035461086,0 -75.3328622831,7.6032473015,0 -75.33280614909999,7.6030259802,0 -75.33272785,7.602815797100001,0 -75.33274972620001,7.6027049931,0 -75.3329491775,7.6025936757,0 -75.3331708258,7.6024822951,0 -75.33332591590001,7.602382181,0 -75.33356992180001,7.6023261061,0 -75.3338471898,7.602258861,0 -75.33403570340001,7.6022029466,0 -75.3342685782,7.6021358279,0 -75.33432400629999,7.6021135195,0 -75.3342015697,7.6019920576,0 -75.33403486820001,7.601915021,0 -75.3339013666,7.6018046642,0 -75.33369004620001,7.601650236,0 -75.3334565306,7.601495872099999,0 -75.3332896105,7.601343530600001,0 -75.3333225216,7.6012105455,0 -75.3333331705,7.601055476600001,0 -75.33352139430001,7.6008998963,0 -75.33353169119999,7.6006230126,0 -75.33352007870001,7.600445859900001,0 -75.3334309072,7.6003132267,0 -75.33343065050001,7.6002246349,0 -75.333597351,7.6003016725,0 -75.3337419186,7.6004009232,0 -75.33392092930001,7.600363923799999,0 -75.334062747,7.6004714866,0 -75.3341879406,7.6005874045,0 -75.33427154,7.6007117467,0 -75.3343716422,7.6007862088,0 -75.3345640675,7.6006975514,0 -75.3348634354,7.600597019199999,0 -75.3351074724,7.6005520183,0 -75.33534050660001,7.6005402705,0 -75.33551804850001,7.6005286841,0 -75.3357071066,7.6006610275,0 -75.33592946090001,7.6007932745,0 -75.33617414059999,7.600969753399999,0 -75.33619598280001,7.600847874399999,0 -75.33616204489999,7.6006264899,0 -75.3362392841,7.6004712285,0 -75.3365494602,7.600270997300001,0 -75.3367597819,7.6000821289,0 -75.3369479726,7.599915472700001,0 -75.3369142593,7.5997716071,0 -75.3366141524,7.5996174366,0 -75.3363805076,7.5994187777,0 -75.3361360223,7.5993087428,0 -75.3359469963,7.5991874734,0 -75.3357911693,7.599032885799999,0 -75.33565776490001,7.598955751999999,0 -75.335546299,7.5987899621,0 -75.3354790338,7.5985575999,0 -75.3353560847,7.5982589532,0 -75.33527781870001,7.5980598441,0 -75.3353992256,7.5978269364,0 -75.33547659209999,7.597715971999999,0 -75.3354317176,7.597549989499999,0 -75.3353868099,7.597372933099999,0 -75.3352311443,7.5972737154,0 -75.3350423128,7.59721889,0 -75.3348535776,7.597197287499999,0 -75.3346762292,7.5972753178,0 -75.33455440420001,7.5973642626,0 -75.3344993942,7.5975305339,0 -75.33439986160001,7.5976526365,0 -75.3342335792,7.5977195607,0 -75.33408923730001,7.5976978289,0 -75.3340000978,7.597576270700001,0 -75.3340108429,7.5974544238,0 -75.3340104899,7.597332609899999,0 -75.334032302,7.5971996569,0 -75.33392119,7.5971556809,0 -75.333854344,7.597067280500001,0 -75.3336987746,7.597001283800001,0 -75.3336212466,7.5970568783,0 -75.3334879385,7.5970129664,0 -75.3334985563,7.5968468236,0 -75.3335314664,7.5967138385,0 -75.3336198678,7.596580693900001,0 -75.3337638889,7.5964916859,0 -75.3338747121,7.596435995099999,0 -75.3339522391,7.5963804006,0 -75.3339628248,7.5962031837,0 -75.3340401593,7.596081145300001,0 -75.33416262599999,7.596213682099999,0 -75.33441801470001,7.5962572421,0 -75.3345734879,7.5962900158,0 -75.33477322490001,7.5962783653,0 -75.3348063266,7.596211825100001,0 -75.3348393329,7.596112062000001,0 -75.3348055885,7.5959571214,0 -75.3346609578,7.5958357237,0 -75.3346273417,7.5957250791,0 -75.3347714591,7.5956692921,0 -75.3348155315,7.5955584238,0 -75.3349373554,7.595469478999999,0 -75.3350260778,7.595447074299999,0 -75.33515925650001,7.5954466903,0 -75.33520327070001,7.5953158881,0 -75.33515849139999,7.5951831276,0 -75.3350693209,7.5950504955,0 -75.3350134114,7.594906693100001,0 -75.33496831230001,7.5946631918,0 -75.3349677989,7.594486007,0 -75.3349119225,7.5943532786,0 -75.3347451608,7.594254092,0 -75.3345893999,7.594121652400001,0 -75.33445583610001,7.593989147599999,0 -75.3342003842,7.5939234397,0 -75.33403391020001,7.593923919,0 -75.3340779505,7.593801976799999,0 -75.3341107965,7.593646843799999,0 -75.33419929420001,7.593546921199999,0 -75.3342987927,7.5934137446,0 -75.3344536873,7.5932471856,0 -75.33414296860001,7.593259156,0 -75.3338877092,7.593259892,0 -75.3336657129,7.5932494577,0 -75.3336098054,7.5931056544,0 -75.3335650602,7.5929839679,0 -75.33370904820001,7.592883885900001,0 -75.3339086238,7.5928168654,0 -75.334041578,7.5927389634,0 -75.33423002240001,7.592660901100001,0 -75.3343961434,7.592538605899999,0 -75.3345623275,7.5924384597,0 -75.334606431,7.5923386655,0 -75.3346061101,7.5922279247,0 -75.3346611522,7.5920727274,0 -75.3347607148,7.5919616988,0 -75.3349268348,7.591839404599999,0 -75.3350926018,7.5915952946,0 -75.3352476558,7.591484106599999,0 -75.3353475394,7.5914838178,0 -75.33556969510001,7.591549622,0 -75.3358246637,7.591449219100001,0 -75.33609053790001,7.591282338200001,0 -75.336194376,7.5895625325,0 -75.3366601115,7.5894282971,0 -75.3369514131,7.5894191508,0 -75.33723484780001,7.589567832399999,0 -75.33744513089999,7.5903230348,0 -75.3376303236,7.5910367814,0 -75.3378802876,7.5911240984,0 -75.3382552849,7.5912725143,0 -75.3383642636,7.591537978099999,0 -75.3383733597,7.591803731699999,0 -75.3381244281,7.592284207,0 -75.3380812572,7.5927051488,0 -75.3383485793,7.593036600300001,0 -75.3385269545,7.5933129376,0 -75.3387828897,7.5935447533,0 -75.338883031,7.593633056399999,0 -75.3388785097,7.593986703,0 -75.3387905826,7.5942822683,0 -75.33902704410001,7.5941782256,0 -75.3391599651,7.5940892476,0 -75.3392045729,7.5941629452,0 -75.33913122830001,7.5943846405,0 -75.3393091863,7.594517014900001,0 -75.339738791,7.5946781914,0 -75.33994569940001,7.5945889988,0 -75.34009307460001,7.594381855,0 -75.3403145234,7.594204027399999,0 -75.3404473582,7.5940855185,0 -75.3406244569,7.5939225844,0 -75.34089111519999,7.5940251701,0 -75.3409942676,7.5938772155,0 -75.3410972496,7.5936702,0 -75.3409042789,7.5934640427,0 -75.3407116952,7.5933907733,0 -75.340401117,7.5934507357,0 -75.3401055524,7.5935844819,0 -75.339854379,7.5937180987,0 -75.33966265470001,7.5939401369,0 -75.3394843538,7.5936896396,0 -75.3394542432,7.593512541,0 -75.33936498440001,7.593350379,0 -75.33917313080001,7.5935281202,0 -75.3390101001,7.5934399986,0 -75.3390242535,7.5932184758,0 -75.33889064660001,7.593071207,0 -75.3389789598,7.5929085305,0 -75.3392597273,7.5927748285,0 -75.3395699606,7.5925967443,0 -75.339673115,7.592448790699999,0 -75.3395099551,7.592316373100001,0 -75.3393171579,7.5921692768,0 -75.3394496919,7.59194741,0 -75.33959745209999,7.591873155,0 -75.3398043605,7.5917839635,0 -75.3399519493,7.591650646500001,0 -75.3399365506,7.591443973900001,0 -75.3398915998,7.5912521525,0 -75.34017236539999,7.5911184494,0 -75.34051210760001,7.590910748999999,0 -75.3409851981,7.5907617225,0 -75.341295644,7.5906574642,0 -75.34163603,7.5906712435,0 -75.34175453899999,7.5907151955,0 -75.3417552268,7.590951442200001,0 -75.3417855961,7.5912171327,0 -75.3417861115,7.5913943174,0 -75.3420819328,7.5913491622,0 -75.3422889265,7.5912894996,0 -75.3423781421,7.5914368957,0 -75.3426148162,7.5914066779,0 -75.3425698635,7.591214857500001,0 -75.3425842745,7.5910819266,0 -75.3428358319,7.5910811966,0 -75.3430583536,7.5912725016,0 -75.34342829169999,7.5912714277,0 -75.34373903940001,7.5912705253,0 -75.3438424495,7.5912111626,0 -75.3440188995,7.590826747700001,0 -75.3444895313,7.5898360932,0 -75.3447833682,7.5891117308,0 -75.3449301789,7.5887126362,0 -75.3449143039,7.588343545799999,0 -75.3449286267,7.5881810838,0 -75.34516456679999,7.5878998544,0 -75.3452969665,7.5876336907,0 -75.34545913469999,7.5874265026,0 -75.34566569419999,7.5872191853,0 -75.3459169468,7.5871150964,0 -75.34623289460001,7.586996054099999,0 -75.3463771694,7.586995634,0 -75.3466102598,7.5870060302,0 -75.34683238149999,7.587060754300001,0 -75.3472322657,7.5871814051,0 -75.3475876613,7.5872689632,0 -75.34770980419999,7.5872907562,0 -75.34786469070001,7.5871241932,0 -75.3479859582,7.5868469876,0 -75.34806315829999,7.5866806512,0 -75.3482959569,7.5865913805,0 -75.348406743,7.5865246137,0 -75.3485171712,7.5863360321,0 -75.3486723485,7.586269134900001,0 -75.3489827683,7.5861574896,0 -75.3491825314,7.5861569071,0 -75.34972883019999,7.587008018700001,0 -75.3501301422,7.5876159228,0 -75.35060946750001,7.588334339200001,0 -75.3508772488,7.5888208174,0 -75.3512559787,7.5892958969,0 -75.3513894482,7.5893951737,0 -75.3511905213,7.5896814659,0 -75.3509027508,7.5899480838,0 -75.3504819991,7.5902815357,0 -75.35027198020001,7.590570075,0 -75.3500615382,7.5907146524,0 -75.3500176984,7.5909030396,0 -75.34987403930001,7.5911138664,0 -75.34968582649999,7.5912694527,0 -75.3494088602,7.5914363726,0 -75.3489658442,7.591747738700001,0 -75.34867839659999,7.5921250965,0 -75.3482138312,7.5926580075,0 -75.3476717729,7.593257589,0 -75.3473180508,7.5937436651,0 -75.34715183749999,7.5938327413,0 -75.3469413604,7.5939662438,0 -75.3464510224,7.593675643999999,0 -75.34602980619999,7.5935718714,0 -75.34568652980001,7.5935072462,0 -75.3452926767,7.593764327,0 -75.3448593613,7.594021522,0 -75.34446556330001,7.5942982898,0 -75.3445060593,7.594652543,0 -75.3444674032,7.594928277999999,0 -75.3440728572,7.594949112,0 -75.34371788670001,7.595009205699999,0 -75.34330435760001,7.5952860296,0 -75.34285113759999,7.5954842189,0 -75.3425749722,7.595504708100001,0 -75.3422988059,7.5955251972,0 -75.34235885850001,7.5958203324,0 -75.3426353678,7.5959179661,0 -75.3428721311,7.5959172792,0 -75.3430498756,7.5959758248,0 -75.3433266727,7.5961718933,0 -75.343090887,7.5965072628,0 -75.3428157554,7.596882120500001,0 -75.3429343095,7.5969408385,0 -75.3429546142,7.597137652000001,0 -75.3428765541,7.5974331883,0 -75.3427981501,7.5976106017,0 -75.3424237342,7.597769188400001,0 -75.3424241363,7.5979069982,0 -75.3424643426,7.5981628166,0 -75.3422876309,7.5984586396,0 -75.3419521579,7.598439926299999,0 -75.341557666,7.5984804453,0 -75.34139982310001,7.598480903499999,0 -75.341401246,7.5989691449,0 -75.34126410890001,7.599304227600001,0 -75.3411862202,7.5996588257,0 -75.34089152599999,7.6000928015,0 -75.34089255879999,7.60044717,0 -75.3409920145,7.600722503899999,0 -75.340992933,7.6010374985,0 -75.341014098,7.6015296197,0 -75.34054159919999,7.601885363000001,0 -75.3402839546,7.6014923635,0 -75.34014457950001,7.6010596471,0 -75.3398676651,7.600824201599999,0 -75.3395320747,7.6007661123,0 -75.3391179641,7.6008460625,0 -75.3387432003,7.6008865223,0 -75.33860571619999,7.601103481199999,0 -75.338803251,7.601181658499999,0 -75.33906054960001,7.6014565361,0 -75.3391005833,7.6016532936,0 -75.33898271610001,7.6018308203,0 -75.3388446023,7.601831221399999,0 -75.3385491029,7.6019895755,0 -75.3383717565,7.6020688388,0 -75.33829398020001,7.6024628109,0 -75.3382947824,7.602738431500001,0 -75.3384130507,7.602698713700001,0 -75.3386103568,7.6026981421,0 -75.33888669869999,7.6027367159,0 -75.3387888483,7.603012622300001,0 -75.33851313620001,7.603190607199999,0 -75.3382565806,7.603171663300001,0 -75.336853624,7.604092279099999,0 -75.3367753447,7.6042298906,0 -75.33667756769999,7.6044264381,0 -75.3367567024,7.604583221300001,0 -75.3369147441,7.604818281700001,0 -75.3371114973,7.604837338199999,0 -75.3374848213,7.6046988724,0 -75.3377990788,7.6045409511,0 -75.3384866593,7.6042445621,0 -75.3384778563,7.604627884700001,0 -75.33845881409999,7.6048641876,0 -75.3383806928,7.6051400368,0 -75.3393738555,7.606427395399999,0 -75.33913108589999,7.606648897,0 -75.33899870019999,7.6067817589,0 -75.3386914947,7.6073211776,0 -75.3372585634,7.6060095295,0 -75.3370212215,7.6058133436,0 -75.33666561130001,7.6056568736,0 -75.3364281561,7.605421312800001,0 -75.3362892402,7.6051460922,0 -75.33593380240001,7.6050486831,0 -75.3356579148,7.6051676052,0 -75.33540215940001,7.6054242798,0 -75.3351658484,7.6055824615,0 -75.33475218789999,7.605819905500001,0 -75.3345947421,7.605958172499999,0 -75.334298953,7.6060180888,0 -75.3340820281,7.606058089399999,0 -75.33380631190001,7.606236072399999,0 -75.3335891023,7.6061776371,0 -75.3333923086,7.606355392499999,0 -75.33319488620001,7.606316588,0 -75.3329771631,7.6060809681,0 -75.3327794559,7.6059437268,0 -75.33268103100001,7.6060227595,0 -75.33256304539999,7.6061609122,0 -75.3322009346,7.6063145329,0 -75.33217219380001,7.606609926700001,0 -75.33199410340001,7.6064332543,0 -75.3315947688,7.6065082324,0 -75.3308551204,7.606598957099999,0 -75.3305447016,7.606717975400001,0 -75.3302194426,7.6068222708,0 -75.329891523,7.6068596373,0 
								</coordinates>
							</LinearRing>
						</outerBoundaryIs>
					</Polygon>
				</Placemark>
				<Placemark>
					<Snippet maxLines="0"></Snippet>
					<description><![CDATA[Mineria<br><table border=0 cellpadding=0 cellspacing=0  width=250 style="FONT-SIZE: 11px; FONT-FAMILY: Verdana, Arial, Helvetica, sans-serif;"><tr><td bgcolor="#E3E1CA" align="right"><font COLOR="#000000"><b>NOMNBRE</b></font></td><td bgcolor="#E4E6CA"> <font COLOR="#008000"></font></td></tr><tr><td bgcolor="#E3E1CA" align="right"><font COLOR="#000000"><b>HECTAREA</b></font></td><td bgcolor="#E4E6CA"> <font COLOR="#008000">1,2279475044</font></td></tr><tr><td bgcolor="#E3E1CA" align="right"><font COLOR="#000000"><b>AREA</b></font></td><td bgcolor="#E4E6CA"> <font COLOR="#008000">12279,475044</font></td></tr><tr><td bgcolor="#E3E1CA" align="right"><font COLOR="#000000"><b>SHAPE_LENG</b></font></td><td bgcolor="#E4E6CA"> <font COLOR="#008000">0,00388787738142</font></td></tr><tr><td bgcolor="#E3E1CA" align="right"><font COLOR="#000000"><b>SHAPE_AREA</b></font></td><td bgcolor="#E4E6CA"> <font COLOR="#008000">1,0056679332E-6</font></td></tr></table>]]></description>
					<styleUrl>#shp2kml26</styleUrl>
					<Polygon>
						<outerBoundaryIs>
							<LinearRing>
								<coordinates>
									-75.33190304999999,7.5987014608,0 -75.3320406503,7.5985238779,0 -75.33237601099999,7.5985032243,0 -75.3327705621,7.598482400200001,0 -75.3332447194,7.5986975942,0 -75.33330459459999,7.5989336695,0 -75.3333057919,7.599347100899999,0 -75.3329112398,7.599367926,0 -75.3324574393,7.5993692346,0 -75.332062033,7.59909475,0 -75.33190304999999,7.5987014608,0 
								</coordinates>
							</LinearRing>
						</outerBoundaryIs>
					</Polygon>
				</Placemark>
				<Placemark>
					<Snippet maxLines="0"></Snippet>
					<description><![CDATA[Mineria<br><table border=0 cellpadding=0 cellspacing=0  width=250 style="FONT-SIZE: 11px; FONT-FAMILY: Verdana, Arial, Helvetica, sans-serif;"><tr><td bgcolor="#E3E1CA" align="right"><font COLOR="#000000"><b>NOMNBRE</b></font></td><td bgcolor="#E4E6CA"> <font COLOR="#008000"></font></td></tr><tr><td bgcolor="#E3E1CA" align="right"><font COLOR="#000000"><b>HECTAREA</b></font></td><td bgcolor="#E4E6CA"> <font COLOR="#008000">0,31387924776</font></td></tr><tr><td bgcolor="#E3E1CA" align="right"><font COLOR="#000000"><b>AREA</b></font></td><td bgcolor="#E4E6CA"> <font COLOR="#008000">3138,7924776</font></td></tr><tr><td bgcolor="#E3E1CA" align="right"><font COLOR="#000000"><b>SHAPE_LENG</b></font></td><td bgcolor="#E4E6CA"> <font COLOR="#008000">0,00211503965651</font></td></tr><tr><td bgcolor="#E3E1CA" align="right"><font COLOR="#000000"><b>SHAPE_AREA</b></font></td><td bgcolor="#E4E6CA"> <font COLOR="#008000">2,57064025578E-7</font></td></tr></table>]]></description>
					<styleUrl>#shp2kml26</styleUrl>
					<Polygon>
						<outerBoundaryIs>
							<LinearRing>
								<coordinates>
									-75.3313297965,7.6025962924,0 -75.3312552084,7.6023897892,0 -75.33162507119999,7.602359193299999,0 -75.3319060613,7.6022993212,0 -75.3319510963,7.6025206746,0 -75.3319372819,7.6028603223,0 -75.3315670331,7.6027580303,0 -75.3313297965,7.6025962924,0 
								</coordinates>
							</LinearRing>
						</outerBoundaryIs>
					</Polygon>
				</Placemark>
				<Placemark>
					<Snippet maxLines="0"></Snippet>
					<description><![CDATA[Mineria<br><table border=0 cellpadding=0 cellspacing=0  width=250 style="FONT-SIZE: 11px; FONT-FAMILY: Verdana, Arial, Helvetica, sans-serif;"><tr><td bgcolor="#E3E1CA" align="right"><font COLOR="#000000"><b>NOMNBRE</b></font></td><td bgcolor="#E4E6CA"> <font COLOR="#008000"></font></td></tr><tr><td bgcolor="#E3E1CA" align="right"><font COLOR="#000000"><b>HECTAREA</b></font></td><td bgcolor="#E4E6CA"> <font COLOR="#008000">6,42381685073</font></td></tr><tr><td bgcolor="#E3E1CA" align="right"><font COLOR="#000000"><b>AREA</b></font></td><td bgcolor="#E4E6CA"> <font COLOR="#008000">64238,1685073</font></td></tr><tr><td bgcolor="#E3E1CA" align="right"><font COLOR="#000000"><b>SHAPE_LENG</b></font></td><td bgcolor="#E4E6CA"> <font COLOR="#008000">0,00976295919607</font></td></tr><tr><td bgcolor="#E3E1CA" align="right"><font COLOR="#000000"><b>SHAPE_AREA</b></font></td><td bgcolor="#E4E6CA"> <font COLOR="#008000">5,26089870981E-6</font></td></tr></table>]]></description>
					<styleUrl>#shp2kml26</styleUrl>
					<Polygon>
						<outerBoundaryIs>
							<LinearRing>
								<coordinates>
									-75.3331052317,7.5921009106,0 -75.3319647925,7.592120024500001,0 -75.3312827793,7.5920696499,0 -75.33127967990001,7.5909967423,0 -75.3315386072,7.5898445757,0 -75.3318781012,7.5893463936,0 -75.3329796395,7.589369392,0 -75.3337141752,7.5894457831,0 -75.33387364790001,7.590178046,0 -75.3331660172,7.5903370963,0 -75.3330902176,7.5913317247,0 -75.3331052317,7.5921009106,0 
								</coordinates>
							</LinearRing>
						</outerBoundaryIs>
					</Polygon>
				</Placemark>
			</Folder>
			<Folder>
				<name>Info</name>
				<Snippet maxLines="0"></Snippet>
				<description><![CDATA[Source File: Mineria.shp<br>Legend: Single Symbol<br>Label: NOMNBRE<br><br><hr>ShapeFile to Google Earth<p><font color="blue"><b>Powered by Zonum Solutions</b><br> <i>www.zonums.com</i></font></p>]]></description>
				<Style>
					<BalloonStyle>
						<text>$[description]</text>
						<textColor>ff000000</textColor>
						<displayMode>default</displayMode>
					</BalloonStyle>
				</Style>
			</Folder>
		</Document>
		<Folder>
			<name>Features</name>
			<open>1</open>
			<Snippet maxLines="2">Legend: Single Symbol</Snippet>
			<Placemark>
				<Snippet maxLines="0"></Snippet>
				<description><![CDATA[Ganaderia<br><table border=0 cellpadding=0 cellspacing=0  width=250 style="FONT-SIZE: 11px; FONT-FAMILY: Verdana, Arial, Helvetica, sans-serif;"><tr><td bgcolor="#E3E1CA" align="right"><font COLOR="#000000"><b>NOMBRE</b></font></td><td bgcolor="#E4E6CA"> <font COLOR="#008000"></font></td></tr><tr><td bgcolor="#E3E1CA" align="right"><font COLOR="#000000"><b>AREA</b></font></td><td bgcolor="#E4E6CA"> <font COLOR="#008000">263387,59148</font></td></tr><tr><td bgcolor="#E3E1CA" align="right"><font COLOR="#000000"><b>HECTAREA</b></font></td><td bgcolor="#E4E6CA"> <font COLOR="#008000">26,338759148</font></td></tr><tr><td bgcolor="#E3E1CA" align="right"><font COLOR="#000000"><b>SHAPE_LENG</b></font></td><td bgcolor="#E4E6CA"> <font COLOR="#008000">0,0253180632058</font></td></tr><tr><td bgcolor="#E3E1CA" align="right"><font COLOR="#000000"><b>SHAPE_AREA</b></font></td><td bgcolor="#E4E6CA"> <font COLOR="#008000">2,15713987118E-5</font></td></tr></table>]]></description>
				<styleUrl>#shp2kml26</styleUrl>
				<Polygon>
					<outerBoundaryIs>
						<LinearRing>
							<coordinates>
								-75.3312975739,7.6080054898,0 -75.3315328552,7.607743125299999,0 -75.3317419845,7.607507004,0 -75.3319505833,7.6070877038,0 -75.33210703170001,7.606773228999999,0 -75.3321324998,7.6065114691,0 -75.33223664729999,7.6062494817,0 -75.3324723818,7.6061441279,0 -75.33281279320001,7.6059599655,0 -75.33349383949999,7.6062675868,0 -75.3335931834,7.6061865711,0 -75.3337737767,7.6062233096,0 -75.33420286320001,7.6059821216,0 -75.3345435774,7.605902631,0 -75.3348578379,7.6057447107,0 -75.33514571889999,7.605534529699999,0 -75.3353814514,7.605429174,0 -75.3356428785,7.6051405633,0 -75.33593106230001,7.605035056199999,0 -75.33627230800001,7.6051387434,0 -75.3364041998,7.605400048,0 -75.3366145414,7.6055826191,0 -75.3368771849,7.605712702899999,0 -75.33724496160001,7.6059209868,0 -75.3375870446,7.6063125256,0 -75.33821815170001,7.6068864069,0 -75.3386914446,7.607303732599999,0 -75.3385803435,7.6074983563,0 -75.33811621610001,7.6079072774,0 -75.3379596955,7.6081955853,0 -75.3376461971,7.608615191200001,0 -75.33738324780001,7.6083804356,0 -75.3370933113,7.607884071500001,0 -75.33656703360001,7.6072837174,0 -75.33633145250001,7.607441411,0 -75.3359123626,7.6076258031,0 -75.3355176749,7.607182078699999,0 -75.3353082438,7.6073135272,0 -75.3347843998,7.607550559,0 -75.3344442921,7.6078393973,0 -75.3348123737,7.608152357,0 -75.3355753725,7.608987546999999,0 -75.336285541,7.6096920445,0 -75.335919131,7.6099547911,0 -75.33510702,7.610271164,0 -75.3341636238,7.6105355771,0 -75.3331151677,7.6107479551,0 -75.33258972429999,7.6104354486,0 -75.3324578335,7.610174143,0 -75.3321420528,7.6098086929,0 -75.3318257417,7.609260063100001,0 -75.33158697499999,7.6083186802,0 -75.3312975739,7.6080054898,0 
							</coordinates>
						</LinearRing>
					</outerBoundaryIs>
				</Polygon>
			</Placemark>
			<Placemark>
				<Snippet maxLines="0"></Snippet>
				<description><![CDATA[Ganaderia<br><table border=0 cellpadding=0 cellspacing=0  width=250 style="FONT-SIZE: 11px; FONT-FAMILY: Verdana, Arial, Helvetica, sans-serif;"><tr><td bgcolor="#E3E1CA" align="right"><font COLOR="#000000"><b>NOMBRE</b></font></td><td bgcolor="#E4E6CA"> <font COLOR="#008000"></font></td></tr><tr><td bgcolor="#E3E1CA" align="right"><font COLOR="#000000"><b>AREA</b></font></td><td bgcolor="#E4E6CA"> <font COLOR="#008000">32334,3517718</font></td></tr><tr><td bgcolor="#E3E1CA" align="right"><font COLOR="#000000"><b>HECTAREA</b></font></td><td bgcolor="#E4E6CA"> <font COLOR="#008000">3,23343517718</font></td></tr><tr><td bgcolor="#E3E1CA" align="right"><font COLOR="#000000"><b>SHAPE_LENG</b></font></td><td bgcolor="#E4E6CA"> <font COLOR="#008000">0,0193020698006</font></td></tr><tr><td bgcolor="#E3E1CA" align="right"><font COLOR="#000000"><b>SHAPE_AREA</b></font></td><td bgcolor="#E4E6CA"> <font COLOR="#008000">2,64809421431E-6</font></td></tr></table>]]></description>
				<styleUrl>#shp2kml26</styleUrl>
				<Polygon>
					<outerBoundaryIs>
						<LinearRing>
							<coordinates>
								-75.34574929830001,7.593523634700001,0 -75.3455175637,7.593731858199999,0 -75.3450541064,7.594152720400001,0 -75.34477821980001,7.594396400200001,0 -75.3445462004,7.5945074739,0 -75.34454716800001,7.5948386665,0 -75.3445256525,7.5950484864,0 -75.34429353580001,7.5951264401,0 -75.3439838434,7.5951604605,0 -75.3437407278,7.5952605252,0 -75.3435529436,7.595364845600001,0 -75.3433100215,7.5955311493,0 -75.3430672268,7.5957416119,0 -75.34315635,7.595951111,0 -75.3433450818,7.5961713602,0 -75.3433676601,7.596325851799999,0 -75.3435006535,7.5964027447,0 -75.3437996047,7.5964791553,0 -75.34361216240001,7.5967004974,0 -75.34336956129999,7.596977199,0 -75.34306076919999,7.597320332,0 -75.3428623591,7.5975748252,0 -75.342663948,7.5978293185,0 -75.34256466230001,7.5979289651,0 -75.3425650483,7.5980614429,0 -75.34253262919999,7.5983264939,0 -75.3423228643,7.598481661300001,0 -75.3422457387,7.5985922838,0 -75.342334927,7.5988238618,0 -75.3421584826,7.599023091900001,0 -75.341981941,7.5991892021,0 -75.3417833684,7.5993884964,0 -75.3416288586,7.5995214234,0 -75.3414404798,7.599422611,0 -75.34124103790001,7.599323831699999,0 -75.3412849402,7.5992022655,0 -75.3413618411,7.5990143642,0 -75.3413945179,7.5988376321,0 -75.341360329,7.5984954948,0 -75.3416147363,7.5984726769,0 -75.3419576239,7.5984385622,0 -75.3422451592,7.598393568,0 -75.3423884114,7.5981944342,0 -75.3424100883,7.5980398132,0 -75.3424097022,7.5979073353,0 -75.34245356540001,7.5977725222,0 -75.3425416578,7.5976287477,0 -75.34279561380001,7.597451371899999,0 -75.34290557760001,7.597219215300001,0 -75.3429491249,7.5969762123,0 -75.34281606739999,7.5968772395,0 -75.3430143161,7.5965675483,0 -75.3431686644,7.5963794213,0 -75.343146053,7.5962138897,0 -75.34306809020001,7.5960374785,0 -75.3428686172,7.5959276592,0 -75.3426805623,7.5959392447,0 -75.3423483225,7.5958298114,0 -75.3423142299,7.595520794100001,0 -75.34267927480001,7.5954976543,0 -75.34295574399999,7.595452692200001,0 -75.3432428902,7.5952752201,0 -75.3434969093,7.5951199233,0 -75.34379524800001,7.594986578199999,0 -75.3440937801,7.594919471900001,0 -75.3443925047,7.5949186026,0 -75.3443919252,7.5947198868,0 -75.3443915381,7.59458741,0 -75.3443909896,7.594399734199999,0 -75.34445695390001,7.5942560239,0 -75.34456736689999,7.594178424099999,0 -75.34481028890001,7.5940121194,0 -75.3450644034,7.5938899426,0 -75.3453073565,7.593734677899999,0 -75.3455061186,7.5936016205,0 -75.34564962650001,7.5934908045,0 -75.34574929830001,7.593523634700001,0 
							</coordinates>
						</LinearRing>
					</outerBoundaryIs>
				</Polygon>
			</Placemark>
			<Placemark>
				<Snippet maxLines="0"></Snippet>
				<description><![CDATA[Ganaderia<br><table border=0 cellpadding=0 cellspacing=0  width=250 style="FONT-SIZE: 11px; FONT-FAMILY: Verdana, Arial, Helvetica, sans-serif;"><tr><td bgcolor="#E3E1CA" align="right"><font COLOR="#000000"><b>NOMBRE</b></font></td><td bgcolor="#E4E6CA"> <font COLOR="#008000"></font></td></tr><tr><td bgcolor="#E3E1CA" align="right"><font COLOR="#000000"><b>AREA</b></font></td><td bgcolor="#E4E6CA"> <font COLOR="#008000">172832,638738</font></td></tr><tr><td bgcolor="#E3E1CA" align="right"><font COLOR="#000000"><b>HECTAREA</b></font></td><td bgcolor="#E4E6CA"> <font COLOR="#008000">17,2832638738</font></td></tr><tr><td bgcolor="#E3E1CA" align="right"><font COLOR="#000000"><b>SHAPE_LENG</b></font></td><td bgcolor="#E4E6CA"> <font COLOR="#008000">0,0219378352283</font></td></tr><tr><td bgcolor="#E3E1CA" align="right"><font COLOR="#000000"><b>SHAPE_AREA</b></font></td><td bgcolor="#E4E6CA"> <font COLOR="#008000">1,41547598894E-5</font></td></tr></table>]]></description>
				<styleUrl>#shp2kml26</styleUrl>
				<Polygon>
					<outerBoundaryIs>
						<LinearRing>
							<coordinates>
								-75.3423337677,7.601446446499999,0 -75.3420207746,7.602036148200001,0 -75.34153144139999,7.60286188,0 -75.3409592972,7.6037467303,0 -75.3404939902,7.604592016899999,0 -75.33997970359999,7.605504912799999,0 -75.3395940648,7.6060580251,0 -75.3393959064,7.606400835300001,0 -75.33907401480001,7.6060484932,0 -75.3388740876,7.605784116099999,0 -75.3387296552,7.605579192500001,0 -75.3383910532,7.6051869087,0 -75.3384102089,7.6050102158,0 -75.33848802999999,7.6047155935,0 -75.3384282215,7.6044409963,0 -75.3385454972,7.604185512699999,0 -75.3383885404,7.6043233528,0 -75.3381133363,7.6043830289,0 -75.33795626520001,7.604481616,0 -75.3375438307,7.604698701999999,0 -75.3370721581,7.604837452500001,0 -75.3368555643,7.6047595733,0 -75.3366973511,7.6044656339,0 -75.3368340692,7.604131588199999,0 -75.3372266051,7.6038360555,0 -75.33761914190001,7.6035405228,0 -75.3379299894,7.6033760526,0 -75.33832604760001,7.6031263198,0 -75.3384637915,7.6031455477,0 -75.3386799853,7.6030860421,0 -75.3388564407,7.6028892659,0 -75.33877736220001,7.602752109700001,0 -75.3385815267,7.602708149300001,0 -75.3383667865,7.602699457000001,0 -75.3382828763,7.6027369596,0 -75.3383425772,7.602046817,0 -75.3385194307,7.6019874257,0 -75.33885335630001,7.6018294463,0 -75.33904988000001,7.6017699978,0 -75.3390680648,7.601480899099999,0 -75.33888538799999,7.601262528800001,0 -75.3386095363,7.601104974100001,0 -75.3387522674,7.600887669300001,0 -75.338889896,7.600867644200001,0 -75.3392043791,7.600788227899999,0 -75.3394010742,7.6007876573,0 -75.33963693600001,7.6007280945,0 -75.3399518754,7.600805687,0 -75.3401691541,7.6011190799,0 -75.34030792679999,7.6014915803,0 -75.3405253208,7.601844225200001,0 -75.34074128490001,7.6017062136,0 -75.34101602769999,7.6014895258,0 -75.3409760598,7.6012737503,0 -75.3409752586,7.6009989827,0 -75.34099418469999,7.600743783899999,0 -75.3413093537,7.6008998812,0 -75.34156545720001,7.601036522999999,0 -75.342038325,7.60130992,0 -75.3423337677,7.601446446499999,0 
							</coordinates>
						</LinearRing>
					</outerBoundaryIs>
				</Polygon>
			</Placemark>
			<Placemark>
				<Snippet maxLines="0"></Snippet>
				<description><![CDATA[Ganaderia<br><table border=0 cellpadding=0 cellspacing=0  width=250 style="FONT-SIZE: 11px; FONT-FAMILY: Verdana, Arial, Helvetica, sans-serif;"><tr><td bgcolor="#E3E1CA" align="right"><font COLOR="#000000"><b>NOMBRE</b></font></td><td bgcolor="#E4E6CA"> <font COLOR="#008000"></font></td></tr><tr><td bgcolor="#E3E1CA" align="right"><font COLOR="#000000"><b>AREA</b></font></td><td bgcolor="#E4E6CA"> <font COLOR="#008000">3617148,66863</font></td></tr><tr><td bgcolor="#E3E1CA" align="right"><font COLOR="#000000"><b>HECTAREA</b></font></td><td bgcolor="#E4E6CA"> <font COLOR="#008000">361,714866863</font></td></tr><tr><td bgcolor="#E3E1CA" align="right"><font COLOR="#000000"><b>SHAPE_LENG</b></font></td><td bgcolor="#E4E6CA"> <font COLOR="#008000">0,138569936468</font></td></tr><tr><td bgcolor="#E3E1CA" align="right"><font COLOR="#000000"><b>SHAPE_AREA</b></font></td><td bgcolor="#E4E6CA"> <font COLOR="#008000">0,00029623213677</font></td></tr></table>]]></description>
				<styleUrl>#shp2kml26</styleUrl>
				<Polygon>
					<outerBoundaryIs>
						<LinearRing>
							<coordinates>
								-75.3287629198,7.5940449002,0 -75.3287799597,7.594022321099999,0 -75.32848656669999,7.5937218578,0 -75.3285008578,7.593723312599999,0 -75.3284682675,7.5937031179,0 -75.328435959,7.593670031199999,0 -75.3279704151,7.593373289200001,0 -75.3279044626,7.5933537528,0 -75.32787031220001,7.5933325911,0 -75.3271870897,7.592863514,0 -75.3263988914,7.5923685668,0 -75.3256632958,7.5919258051,0 -75.3247173716,7.591300463299999,0 -75.3238241263,7.590753474,0 -75.3236921723,7.5904659944,0 -75.32403220179999,7.5901509971,0 -75.3242676294,7.589940973500001,0 -75.32426687740001,7.5896792888,0 -75.3242936434,7.5895419028,0 -75.3243244578,7.5894362447,0 -75.32431784169999,7.5892996449,0 -75.32423041129999,7.589194325700001,0 -75.3242800021,7.5891258734,0 -75.3243670233,7.5890883648,0 -75.32442918540001,7.5890633473,0 -75.32447938280001,7.5892060337,0 -75.32454785829999,7.589212047200001,0 -75.3245851985,7.5892119409,0 -75.32467830029999,7.5891247353,0 -75.3247278198,7.589031444,0 -75.32477113340001,7.5889443808,0 -75.3248956021,7.588944023800001,0 -75.325032588,7.5889684727,0 -75.3251135105,7.5889744511,0 -75.32523817480001,7.589042404,0 -75.3253192036,7.5890856413,0 -75.3253939562,7.589110267700001,0 -75.32548723550001,7.589085161,0 -75.3255369335,7.589053968699999,0 -75.32558657840001,7.589004147300001,0 -75.32562381130001,7.5889667801,0 -75.3257797361,7.5890843237,0 -75.3259541515,7.5891397143,0 -75.32615317530001,7.5890956738,0 -75.3262962419,7.5890704247,0 -75.32642673709999,7.5890017417,0 -75.3265385441,7.588926902,0 -75.3266251532,7.588746564499999,0 -75.3267118525,7.588597277,0 -75.3268232484,7.5883796094,0 -75.3269223396,7.5882116568,0 -75.3269843594,7.5881369594,0 -75.3270400478,7.5880250202,0 -75.32708951319999,7.5879130989,0 -75.3271080409,7.5878633668,0 -75.3271138889,7.5877329409,0 -75.3270449673,7.5875716787,0 -75.32696349130001,7.5873731936,0 -75.326863292,7.5871561316,0 -75.3267754325,7.5869017746,0 -75.3266126038,7.5865470313,0 -75.3268174565,7.5863663559,0 -75.3271276065,7.5860115,0 -75.3273944238,7.5857374972,0 -75.3275123456,7.5856253794,0 -75.3282380723,7.5844363792,0 -75.3289192452,7.5841989082,0 -75.3298105192,7.5840655074,0 -75.3295998145,7.583752087400001,0 -75.3298345573,7.5833065451,0 -75.330016548,7.5827564804,0 -75.3301469939,7.5825205876,0 -75.33014571139999,7.5820757232,0 -75.3304597313,7.581839302999999,0 -75.330852576,7.5816549942,0 -75.3309836246,7.5816284492,0 -75.3311398413,7.5812354705,0 -75.3310857315,7.580659914600001,0 -75.33092702490001,7.5801893334,0 -75.33040064390001,7.5795366263,0 -75.33063545890001,7.579117254,0 -75.3310282114,7.5789015432,0 -75.3312373297,7.5786654239,0 -75.3313414732,7.5784034384,0 -75.33168216750001,7.5783239538,0 -75.3319702621,7.5781922827,0 -75.33254659959999,7.577981276500001,0 -75.33264614700001,7.577830520899999,0 -75.332689593,7.5775507179,0 -75.3325414004,7.577315625300001,0 -75.3325701384,7.5770505854,0 -75.3326433002,7.5768442961,0 -75.33264270559999,7.5766382194,0 -75.33250930609999,7.5764178047,0 -75.3322281311,7.5761065513,0 -75.3325378657,7.576090940900001,0 -75.33275896550001,7.5760314262,0 -75.33317200080001,7.576030239,0 -75.3333489315,7.5760002906,0 -75.33351145109999,7.576088142299999,0 -75.3335418457,7.5763971726,0 -75.33364493480001,7.5763379969,0 -75.3337478114,7.576205222299999,0 -75.3341904351,7.5762333888,0 -75.3346773972,7.5762908669,0 -75.33526774729999,7.5763922061,0 -75.33534231190001,7.576671669199999,0 -75.3359333439,7.5770085232,0 -75.33594890409999,7.5772881557,0 -75.3366140344,7.5777425549,0 -75.3368360286,7.5779921529,0 -75.33705845,7.5783889477,0 -75.3373836626,7.5786235268,0 -75.33741444419999,7.579065034,0 -75.3374598927,7.5794770592,0 -75.3380802022,7.579734338,0 -75.3396940011,7.581761013900001,0 -75.342484036,7.5824447682,0 -75.3431927056,7.582648791400001,0 -75.34281015409999,7.582988456900001,0 -75.34257541629999,7.5834307322,0 -75.3422371602,7.5837849884,0 -75.3420318814,7.5842124585,0 -75.34312512290001,7.5847686423,0 -75.3437158269,7.5849877264,0 -75.3443964582,7.5856923011,0 -75.3454463107,7.5865429999,0 -75.3460967119,7.586997423199999,0 -75.345920097,7.5871363034,0 -75.3456548262,7.587225393400001,0 -75.34540482289999,7.587491077000001,0 -75.34524341540001,7.5877859419,0 -75.3451407985,7.5880070374,0 -75.3449641656,7.588140029599999,0 -75.3449057178,7.5883315568,0 -75.344728397,7.588229033400001,0 -75.34440381810001,7.5882152569,0 -75.3441087854,7.5882161132,0 -75.34387263080001,7.5881726401,0 -75.3436655922,7.587996603000001,0 -75.3434587262,7.5878794447,0 -75.3433403706,7.5877620298,0 -75.343148771,7.5878214652,0 -75.3430756563,7.5880424755,0 -75.34306141960001,7.5882191544,0 -75.34292929759999,7.5884403352,0 -75.3425755154,7.5885296808,0 -75.34244292210001,7.5885889448,0 -75.34250261530001,7.588824288,0 -75.342518353,7.5891627985,0 -75.3426667282,7.589456765,0 -75.3428442625,7.589632887399999,0 -75.3432575675,7.589720007,0 -75.34364124,7.5897630519,0 -75.3439802291,7.5896590294,0 -75.3441419385,7.589467201399999,0 -75.3443922877,7.5893192766,0 -75.3445684062,7.589009648600001,0 -75.3447297286,7.5886853438,0 -75.3448911382,7.588390477899999,0 -75.34493629479999,7.5886994631,0 -75.34467287,7.5894214993,0 -75.34435035270001,7.590114267999999,0 -75.3439837927,7.5908807639,0 -75.3438077173,7.5912051108,0 -75.34371764540001,7.5912864864,0 -75.34329158689999,7.591268432799999,0 -75.3430703538,7.5912837955,0 -75.3428318647,7.5910572207,0 -75.3426106205,7.591068903400001,0 -75.3425686225,7.5912263725,0 -75.34262814429999,7.591402837800001,0 -75.3423921591,7.5914182427,0 -75.3422442121,7.591271473,0 -75.3420674488,7.5913603053,0 -75.34178173540001,7.591380424499999,0 -75.34175671849999,7.5910373701,0 -75.34175568969999,7.5906840976,0 -75.34146061200001,7.590670232900001,0 -75.3412246268,7.5906856367,0 -75.3408414677,7.5908192256,0 -75.34053198079999,7.5909231619,0 -75.3402227075,7.5911006951,0 -75.3398985116,7.591219393399999,0 -75.3399733409,7.591587172399999,0 -75.3398116707,7.5917937184,0 -75.3394580559,7.591941941,0 -75.33931122289999,7.5921778828,0 -75.3396364476,7.592412458999999,0 -75.3395485357,7.592618791399999,0 -75.33926876450001,7.5927962394,0 -75.3390330781,7.592914680099999,0 -75.33891553380001,7.5930769388,0 -75.33903397660001,7.5932237947,0 -75.33900502989999,7.5934152367,0 -75.33915289070001,7.5935325674,0 -75.3393441935,7.593370095100001,0 -75.339507063,7.5935757006,0 -75.33950744800001,7.5937081784,0 -75.3396555234,7.593899107,0 -75.3398614499,7.5936924336,0 -75.34021506569999,7.59354421,0 -75.3404360431,7.5934405314,0 -75.34071615720001,7.5933808403,0 -75.341011622,7.5935271818,0 -75.3410917225,7.5937891169,0 -75.3408821511,7.5940105222,0 -75.3405997709,7.5939405315,0 -75.3403643834,7.5941620111,0 -75.34008474060001,7.594383619000001,0 -75.33998190609999,7.5945311146,0 -75.339761013,7.5946642332,0 -75.3394953511,7.5946208433,0 -75.33914070660001,7.5944157924,0 -75.3392286615,7.5942241799,0 -75.3391841065,7.594121270399999,0 -75.3387715245,7.5942843824,0 -75.3388593511,7.594048611,0 -75.3388731185,7.593710015399999,0 -75.3388285203,7.5935923849,0 -75.33848833,7.5932842529,0 -75.3383399559,7.5929902854,0 -75.3380588591,7.592711421,0 -75.3381462155,7.592313732800001,0 -75.3382191196,7.5920191246,0 -75.33832182560001,7.59182747,0 -75.3383801491,7.5915917839,0 -75.3382611939,7.5912682912,0 -75.33790676690001,7.5911368372,0 -75.337581843,7.5910052979,0 -75.3373128933,7.5898284864,0 -75.33725311790001,7.5895637022,0 -75.33683955719999,7.5893882587,0 -75.3362056598,7.589537287500001,0 -75.336163411,7.5902292429,0 -75.3361073056,7.5912303551,0 -75.3356214786,7.591570314500001,0 -75.3352818889,7.5914682553,0 -75.33503170509999,7.591675055000001,0 -75.33492903920001,7.591881429599999,0 -75.3346638476,7.5919999535,0 -75.3346199333,7.592117838700001,0 -75.3345765735,7.5924270816,0 -75.3342820904,7.5926192887,0 -75.33398752300001,7.5927820568,0 -75.33356018790001,7.592945207,0 -75.3336495086,7.5932246269,0 -75.3344314,7.5932370928,0 -75.33418159830001,7.5935763703,0 -75.33403506019999,7.59391535,0 -75.3344040277,7.5939731651,0 -75.33475888389999,7.594251818900001,0 -75.33489199250001,7.5943691937,0 -75.3349962799,7.5947221695,0 -75.3350559701,7.594957514699999,0 -75.335174838,7.5952515694,0 -75.3351754357,7.5954576462,0 -75.3348952775,7.5955026143,0 -75.33473343270001,7.5956502794,0 -75.3346156728,7.5957389382,0 -75.3346751504,7.5959006855,0 -75.3348377632,7.5960179751,0 -75.33480889880001,7.596238856,0 -75.3345877048,7.596268934699999,0 -75.3342039832,7.596211161800001,0 -75.3340561224,7.5960938291,0 -75.33396795189999,7.5962118427,0 -75.3339095402,7.596418089900001,0 -75.3336738077,7.5965218086,0 -75.3335269697,7.596757749400001,0 -75.3334834806,7.5970228325,0 -75.33361624929999,7.5970224494,0 -75.3337638544,7.5970514642,0 -75.3338968778,7.5971393991,0 -75.3340003128,7.5971979802,0 -75.3339859869,7.597345220100001,0 -75.3339717472,7.597521899999999,0 -75.3340903174,7.5977129158,0 -75.33428209340001,7.5977123633,0 -75.3343850592,7.5976090267,0 -75.33450247819999,7.59740261,0 -75.3346791603,7.5972843408,0 -75.33487072280001,7.597210189300001,0 -75.3350625841,7.5972390748,0 -75.3353284194,7.5973413466,0 -75.3354322384,7.5975324045,0 -75.33547704919999,7.597723632899999,0 -75.3352714606,7.598048064200001,0 -75.33540512480001,7.5983567947,0 -75.3355092006,7.5986361715,0 -75.33561302059999,7.598827229500001,0 -75.3357759333,7.5990475569,0 -75.33602735940001,7.5992676287,0 -75.33626373369999,7.599384703699999,0 -75.3364263064,7.5994872733,0 -75.3365742965,7.5996487639,0 -75.33681050120001,7.59970696,0 -75.3369438255,7.599897932699999,0 -75.33678193759999,7.600030879799999,0 -75.3365613834,7.6002817542,0 -75.336281521,7.6004297622,0 -75.33616397359999,7.600592021,0 -75.3361944183,7.6009157693,0 -75.3359730088,7.600872250099999,0 -75.3356624881,7.6006229099,0 -75.33544095009999,7.600535230700001,0 -75.335027934,7.6005511439,0 -75.3346447208,7.6006700088,0 -75.3343646859,7.600759136899999,0 -75.33415755910001,7.600553656700001,0 -75.3339800649,7.6003922503,0 -75.3337292785,7.6003929733,0 -75.3334042634,7.6002319931,0 -75.333463741,7.6003937394,0 -75.33355280799999,7.6005848414,0 -75.3335534899,7.6008203571,0 -75.3333475142,7.6010123095,0 -75.33333318930001,7.6011595495,0 -75.3333189917,7.6013509483,0 -75.3335408104,7.601535779300001,0 -75.33382165650001,7.6017263269,0 -75.3339844849,7.6019172154,0 -75.33420606590001,7.6020196145,0 -75.3343095441,7.6020929156,0 -75.33417698789999,7.6021668976,0 -75.33373472229999,7.6022712129,0 -75.3333514209,7.6023606378,0 -75.3329685045,7.6025825405,0 -75.3327771526,7.6027302908,0 -75.3327628688,7.6028922507,0 -75.3328819523,7.603259904399999,0 -75.33292706189999,7.6035541716,0 -75.33260353590001,7.6039083817,0 -75.3323090458,7.6041005888,0 -75.3322434877,7.6043863429,0 -75.3320231841,7.604725535300001,0 -75.3318607808,7.6046818446,0 -75.3317724378,7.6047409782,0 -75.3317142387,7.605020823299999,0 -75.3315227996,7.605139134700001,0 -75.3310511952,7.605302412200001,0 -75.33047611070001,7.6053923876,0 -75.3303139211,7.6054222938,0 -75.3303001477,7.6057608915,0 -75.33016865339999,7.606202866,0 -75.33003677710001,7.6065123636,0 -75.32988607980001,7.606832464400001,0 -75.3290961869,7.605761820899999,0 -75.3280160727,7.604090129499999,0 -75.32677763,7.602078694699999,0 -75.3268003866,7.6008748681,0 -75.3269541236,7.5996183284,0 -75.3270046897,7.598963965799999,0 -75.32655817040001,7.598729727600001,0 -75.3263208556,7.598285540000001,0 -75.326346102,7.597945274299999,0 -75.325742303,7.5977376553,0 -75.3250342793,7.5977658528,0 -75.324346128,7.5975797354,0 -75.3243022528,7.597712339600001,0 -75.3242284502,7.5976978312,0 -75.32416978080001,7.5978157585,0 -75.323845573,7.5979344459,0 -75.32365295060001,7.5976405978,0 -75.32349000080001,7.5974055453,0 -75.32340038930001,7.5970230835,0 -75.3232081891,7.5968764342,0 -75.3231041223,7.5965970534,0 -75.3231033191,7.5963173767,0 -75.32311769010001,7.5961848568,0 -75.32342722920001,7.5960956515,0 -75.32403210459999,7.5961086417,0 -75.32468123540001,7.5961215036,0 -75.3252122231,7.596090543500001,0 -75.3255810231,7.5960894876,0 -75.32599403730001,7.5960735844,0 -75.326333249,7.5960431717,0 -75.3265249829,7.5960279023,0 -75.326686958,7.5959243981,0 -75.3269231598,7.595982601200001,0 -75.3270707217,7.595996897999999,0 -75.3271588522,7.5958641655,0 -75.3272617347,7.5957313919,0 -75.3273204031,7.5956134635,0 -75.3274380367,7.5954806478,0 -75.32748195400001,7.595362761600001,0 -75.32758479340001,7.595215268,0 -75.3278209521,7.5952587501,0 -75.3279838607,7.5954790815,0 -75.3281615205,7.5956993698,0 -75.3284123039,7.5956986499,0 -75.3285153559,7.5956247542,0 -75.3285445201,7.5955069111,0 -75.3284702513,7.5953304859,0 -75.3283370584,7.5951836691,0 -75.3284547351,7.595065572299999,0 -75.32864621340001,7.594961983000001,0 -75.3288085274,7.5949762367,0 -75.32897079830001,7.5949757714,0 -75.328999411,7.594666570599999,0 -75.3289838948,7.594401657,0 -75.32879110099999,7.594048934000001,0 -75.3287629198,7.5940449002,0 
							</coordinates>
						</LinearRing>
					</outerBoundaryIs>
				</Polygon>
			</Placemark>
		</Folder>
		<Folder>
			<name>Info</name>
			<Snippet maxLines="0"></Snippet>
			<description><![CDATA[Source File: Ganaderia.shp<br>Legend: Single Symbol<br>Label: NOMBRE<br><br><hr>ShapeFile to Google Earth<p><font color="blue"><b>Powered by Zonum Solutions</b><br> <i>www.zonums.com</i></font></p>]]></description>
			<Style>
				<BalloonStyle>
					<text>$[description]</text>
					<textColor>ff000000</textColor>
					<displayMode>default</displayMode>
				</BalloonStyle>
			</Style>
		</Folder>
	</Document>
</Folder>
</kml>
