<?xml version="1.0" encoding="UTF-8"?>
<kml xmlns="http://www.opengis.net/kml/2.2" xmlns:gx="http://www.google.com/kml/ext/2.2" xmlns:kml="http://www.opengis.net/kml/2.2" xmlns:atom="http://www.w3.org/2005/Atom">
<Document>
	<name>Boden-Creek-Reserve.kml</name>
	<Style id="zh2">
		<IconStyle>
			<Icon>
				<href>http://maps.google.com/mapfiles/kml/pal3/icon63.png</href>
			</Icon>
		</IconStyle>
		<LineStyle>
			<color>ffff0080</color>
			<width>4</width>
		</LineStyle>
		<PolyStyle>
			<color>00ff0080</color>
			<fill>0</fill>
		</PolyStyle>
	</Style>
	<StyleMap id="MapRollOver2">
		<Pair>
			<key>normal</key>
			<styleUrl>#zn2</styleUrl>
		</Pair>
		<Pair>
			<key>highlight</key>
			<styleUrl>#zh2</styleUrl>
		</Pair>
	</StyleMap>
	<Style id="zn2">
		<IconStyle>
			<Icon>
				<href>http://maps.google.com/mapfiles/kml/pal5/icon14.png</href>
			</Icon>
		</IconStyle>
		<LabelStyle>
			<scale>0</scale>
		</LabelStyle>
		<BalloonStyle>
			<text>$[description]</text>
		</BalloonStyle>
		<LineStyle>
			<color>ffff00ff</color>
			<width>2</width>
		</LineStyle>
		<PolyStyle>
			<color>00ffca95</color>
			<fill>0</fill>
		</PolyStyle>
	</Style>
	<Placemark>
		<name>Boden-Creek-Reserve</name>
		<Snippet maxLines="0"></Snippet>
		<description><![CDATA[<table border=0 cellpadding=0 cellspacing=0  width=250 style="FONT-SIZE: 11px; FONT-FAMILY: Verdana, Arial, Helvetica, sans-serif;"><tr><td bgcolor="#E3E1CA" align="right"><font COLOR="#000000"><b>NAME</b></font></td><td bgcolor="#E4E6CA"> <font COLOR="#008000">Boden-Creek-Reserve</font></td></tr><tr><td bgcolor="#E3E1CA" align="right"><font COLOR="#000000"><b>ID</b></font></td><td bgcolor="#E4E6CA"> <font COLOR="#008000">16</font></td></tr><tr><td bgcolor="#E3E1CA" align="right"><font COLOR="#000000"><b>STATUS</b></font></td><td bgcolor="#E4E6CA"> <font COLOR="#008000">Private-Reserve-Candidate</font></td></tr><tr><td bgcolor="#E3E1CA" align="right"><font COLOR="#000000"><b>ZONE</b></font></td><td bgcolor="#E4E6CA"> <font COLOR="#008000">NA</font></td></tr><tr><td bgcolor="#E3E1CA" align="right"><font COLOR="#000000"><b>IUCN_CAT</b></font></td><td bgcolor="#E4E6CA"> <font COLOR="#008000">IV</font></td></tr><tr><td bgcolor="#E3E1CA" align="right"><font COLOR="#000000"><b>GAZETTTE</b></font></td><td bgcolor="#E4E6CA"> <font COLOR="#008000">NA</font></td></tr><tr><td bgcolor="#E3E1CA" align="right"><font COLOR="#000000"><b>MANAGEMENT</b></font></td><td bgcolor="#E4E6CA"> <font COLOR="#008000">Belize-Lodge-and-Excursions</font></td></tr><tr><td bgcolor="#E3E1CA" align="right"><font COLOR="#000000"><b>COMGMT</b></font></td><td bgcolor="#E4E6CA"> <font COLOR="#008000"></font></td></tr><tr><td bgcolor="#E3E1CA" align="right"><font COLOR="#000000"><b>ACRES</b></font></td><td bgcolor="#E4E6CA"> <font COLOR="#008000">13459.508</font></td></tr><tr><td bgcolor="#E3E1CA" align="right"><font COLOR="#000000"><b>HECTARES</b></font></td><td bgcolor="#E4E6CA"> <font COLOR="#008000">5446.891</font></td></tr><tr><td bgcolor="#E3E1CA" align="right"><font COLOR="#000000"><b>NOTES</b></font></td><td bgcolor="#E4E6CA"> <font COLOR="#008000"></font></td></tr></table>]]></description>
		<styleUrl>#MapRollOver2</styleUrl>
		<MultiGeometry>
			<Polygon>
				<outerBoundaryIs>
					<LinearRing>
						<coordinates>
							-88.7961316091,16.3339352093,0 -88.7958453966,16.3340731995,0 -88.7958438534,16.3344166135,0 -88.79584260990001,16.3346967668,0 -88.7958386939,16.3355168954,0 -88.7842327572,16.330437258,0 -88.7847940456,16.3295130038,0 -88.78526290070001,16.3291023755,0 -88.78563859090001,16.3287377194,0 -88.785920436,16.3282473406,0 -88.78596721850001,16.3280210218,0 -88.7860145288,16.3278850676,0 -88.7860613112,16.3276587489,0 -88.7860623593,16.3273876327,0 -88.7858290065,16.3269377625,0 -88.78554919379999,16.32629851,0 -88.78512840560001,16.3256243019,0 -88.78480140409999,16.3251661855,0 -88.7846148428,16.3247159176,0 -88.7846620939,16.3244444104,0 -88.7848975366,16.323900204,0 -88.7850857256,16.3234015817,0 -88.7853670411,16.3230467621,0 -88.78541347380001,16.3229108156,0 -88.78569552579999,16.3226373216,0 -88.7859771099,16.3224090159,0 -88.7862120475,16.3220997725,0 -88.7863526304,16.3217371061,0 -88.7863998788,16.3214655988,0 -88.7862605701,16.3209697477,0 -88.78607258709999,16.3207815634,0 -88.7858872552,16.3202409167,0 -88.78546694630001,16.3192955964,0 -88.7853275601,16.3187907079,0 -88.7848592516,16.318839853,0 -88.7847184908,16.3190217817,0 -88.78443712009999,16.3192410467,0 -88.7841555382,16.3194693502,0 -88.783734538,16.3193825392,0 -88.7834537506,16.3191499518,0 -88.7833139831,16.3189252095,0 -88.7832205326,16.3185193372,0 -88.78289310380001,16.3182058106,0 -88.782519218,16.3181547466,0 -88.7822847706,16.3182922803,0 -88.7821440668,16.3183838376,0 -88.7819569305,16.3183854175,0 -88.7817703241,16.3180255153,0 -88.78148960039999,16.317702555,0 -88.7809746879,16.3174809765,0 -88.78050677100001,16.3172499633,0 -88.7802266568,16.3170264022,0 -88.7798515481,16.3168397894,0 -88.7794300858,16.3167981577,0 -88.7790090319,16.3168017065,0 -88.7784471367,16.3167522193,0 -88.7778855952,16.3166123581,0 -88.7775587623,16.316298817,0 -88.7774652638,16.3159833108,0 -88.77732551299999,16.3155326397,0 -88.7773261132,16.3150807869,0 -88.7772335546,16.314674903,0 -88.77695337439999,16.3142163765,0 -88.77653286570001,16.3138584369,0 -88.7760641377,16.3137629737,0 -88.7755963063,16.3137669086,0 -88.7752219596,16.3137610194,0 -88.7750348897,16.3136722226,0 -88.7748942586,16.3134474806,0 -88.77494158499999,16.3130856041,0 -88.7750830099,16.312587382,0 -88.7753183443,16.3122239249,0 -88.77545923530001,16.3118612616,0 -88.77545889060001,16.3117257101,0 -88.7750377946,16.3115936957,0 -88.77466400340001,16.3115516527,0 -88.7744763844,16.3114990076,0 -88.7741489691,16.311411389,0 -88.7738682733,16.3114137472,0 -88.77349311720001,16.3113174916,0 -88.7732596745,16.3112742672,0 -88.7728850068,16.3112322282,0 -88.7725107285,16.3111359635,0 -88.77218320030001,16.3110031577,0 -88.7719026333,16.3108247725,0 -88.7715275434,16.3106381429,0 -88.7710597337,16.3104161422,0 -88.7706388049,16.3101395254,0 -88.7702650331,16.3098715493,0 -88.7700785051,16.3096471881,0 -88.7698923362,16.309007122,0 -88.7697059576,16.3083760945,0 -88.76966026629999,16.3078794427,0 -88.7696140387,16.3075183503,0 -88.7694739075,16.3070224897,0 -88.76933458880001,16.306616992,0 -88.76919382280001,16.3064735792,0 -88.7689134915,16.3063855571,0 -88.76844533630001,16.3062539222,0 -88.7682576574,16.3062916415,0 -88.7681173789,16.3062024458,0 -88.76825832750001,16.3059753409,0 -88.7683523962,16.3058028504,0 -88.76844615740001,16.3055309554,0 -88.7679314345,16.305390672,0 -88.7675108741,16.3053490065,0 -88.76704257430001,16.3052987025,0 -88.76676100900001,16.3053010577,0 -88.76643352550001,16.3052043894,0 -88.766200158,16.3050707856,0 -88.76601229009999,16.3048916162,0 -88.7661066844,16.3047552718,0 -88.76624716240001,16.3045733571,0 -88.7663888769,16.3043010619,0 -88.76638903270001,16.3038943952,0 -88.7663892341,16.3036232832,0 -88.76634382410001,16.3033525526,0 -88.7663898622,16.3031714274,0 -88.76648425560001,16.303035083,0 -88.76676603270001,16.3028610236,0 -88.7670466715,16.3027231213,0 -88.76742145599999,16.3025844311,0 -88.767656338,16.3023655779,0 -88.7677037237,16.3021392563,0 -88.76765688250001,16.301904686,0 -88.76751674099999,16.3016347483,0 -88.76733051710001,16.301410381,0 -88.76700278289999,16.3011871969,0 -88.7666752609,16.3009549736,0 -88.766348338,16.3008221517,0 -88.7660677236,16.3007341273,0 -88.7657865561,16.3006822552,0 -88.76559909780001,16.3005482666,0 -88.76536562440001,16.3003694771,0 -88.76522494690001,16.3002350971,0 -88.76508510239999,16.2999651549,0 -88.76489803689999,16.2997769401,0 -88.7643830513,16.2997360558,0 -88.76414948679999,16.2998735613,0 -88.7638210428,16.3000931919,0 -88.76353975150001,16.3003214654,0 -88.7632580984,16.3006401119,0 -88.76307047829999,16.3009127883,0 -88.76292944550001,16.3011308537,0 -88.76292948850001,16.3012664088,0 -88.7629757392,16.3015009855,0 -88.7631627927,16.3015897948,0 -88.76353667630001,16.3016770446,0 -88.7638644079,16.3019002343,0 -88.76386386679999,16.3020357941,0 -88.7637698763,16.3022173192,0 -88.7637701438,16.3024432426,0 -88.76372198830001,16.3027147552,0 -88.7636282898,16.3028962779,0 -88.76344066839999,16.3031689547,0 -88.7633470379,16.3032601065,0 -88.76311266019999,16.3033072478,0 -88.76287875529999,16.3033091998,0 -88.7626907163,16.3034372872,0 -88.7626437287,16.30370879,0 -88.7624566043,16.3037103512,0 -88.7621759868,16.3036223219,0 -88.7619889317,16.3035335119,0 -88.76184803450001,16.3035708351,0 -88.76161369810001,16.3037535299,0 -88.7612847828,16.3041177537,0 -88.76100341340001,16.3044363955,0 -88.7608161795,16.304654845,0 -88.7606284411,16.3048823356,0 -88.7604871217,16.3051998096,0 -88.7603462753,16.3054720944,0 -88.7602516953,16.3056536232,0 -88.76006413659999,16.3058359268,0 -88.75978329589999,16.3059196001,0 -88.7590334081,16.3061969573,0 -88.7587053811,16.306235837,0 -88.7582375632,16.3062397316,0 -88.757628442,16.306235764,0 -88.756974042,16.3061056527,0 -88.7565058122,16.3059649541,0 -88.756177937,16.3059224951,0 -88.7560838272,16.3060588333,0 -88.7559892726,16.3062765086,0 -88.75594234720001,16.3064576397,0 -88.7557083322,16.3067758818,0 -88.75552051370001,16.3070937397,0 -88.7552386517,16.3070960822,0 -88.7548178972,16.3070001708,0 -88.7545378968,16.3066861999,0 -88.7543508765,16.3063714564,0 -88.7542110409,16.306101506,0 -88.75393001250001,16.3058688762,0 -88.75369708940001,16.305554513,0 -88.7534638379,16.3051045963,0 -88.7534644223,16.304743109,0 -88.7535122634,16.3043360441,0 -88.7535591908,16.3041549133,0 -88.7536057161,16.3039286006,0 -88.7536071047,16.3036574772,0 -88.7536075431,16.3034767323,0 -88.7535609079,16.3032963781,0 -88.7534670165,16.3031616015,0 -88.75336491020001,16.3029579854,0 -88.7531406016,16.3026582349,0 -88.7530007707,16.3023882832,0 -88.7530009546,16.3019816138,0 -88.7530479556,16.3017101118,0 -88.7530956507,16.3014837894,0 -88.7529081257,16.30144016,0 -88.7525343479,16.3012986676,0 -88.7522064808,16.3012562016,0 -88.7518322346,16.301259305,0 -88.7518322733,16.3010333779,0 -88.7518328967,16.3008074459,0 -88.7519268982,16.3006259251,0 -88.7520210089,16.3004895887,0 -88.7522078033,16.3003524836,0 -88.7523485111,16.300260946,0 -88.7525834381,16.3000782562,0 -88.7527703122,16.2999501871,0 -88.7530055308,16.2997674944,0 -88.7532395795,16.2995848112,0 -88.7535679559,16.2993561596,0 -88.75384926610001,16.299227306,0 -88.7542240193,16.2989530833,0 -88.7544116878,16.2988159693,0 -88.7545996484,16.2986788528,0 -88.7546461795,16.2985519475,0 -88.7547406524,16.2983252365,0 -88.75478798010001,16.2981892876,0 -88.7547408706,16.2980541228,0 -88.75469452100001,16.2977743588,0 -88.7545076201,16.2975047987,0 -88.7543214871,16.2971900467,0 -88.7541344046,16.2969656731,0 -88.77730910219999,16.2871578332,0 -88.7964456887,16.2787770512,0 -88.7970076341,16.2786514097,0 -88.80619719569999,16.2549044474,0 -88.8105586658,16.2436321255,0 -88.81601410099999,16.229530884,0 -88.8345937971,16.2730072674,0 -88.84853398510001,16.2673125685,0 -88.86224001150001,16.2995695041,0 -88.8602469348,16.3007268038,0 -88.8599410227,16.3009045815,0 -88.8595230545,16.3010438098,0 -88.8587709025,16.3013396003,0 -88.8586044262,16.3013591381,0 -88.8583539198,16.3013974882,0 -88.85811552200001,16.3014176583,0 -88.8576977837,16.3014574784,0 -88.8575500397,16.3014791098,0 -88.8569111792,16.301572833,0 -88.8563630459,16.3016137965,0 -88.8560172279,16.3016529813,0 -88.8558738956,16.3017084603,0 -88.8556949427,16.3018003985,0 -88.8552892482,16.3019395111,0 -88.8548479855,16.3020586028,0 -88.8546686278,16.3021076198,0 -88.85402425,16.3023301551,0 -88.8533221406,16.3026943926,0 -88.85283015100001,16.3028918665,0 -88.8523759385,16.3031579124,0 -88.85189805269999,16.3034874216,0 -88.851599405,16.3036617358,0 -88.851168833,16.3039546822,0 -88.8507477134,16.3041334573,0 -88.8504288491,16.3042413019,0 -88.85028547509999,16.3043238876,0 -88.84997562060001,16.3044260047,0 -88.8497481667,16.3044912532,0 -88.8495927961,16.304510687,0 -88.84945070480001,16.3045119311,0 -88.84921176349999,16.3045682429,0 -88.84893715290001,16.3046248667,0 -88.8486985503,16.3047173217,0 -88.84837662220001,16.3048105055,0 -88.8480786213,16.3048673329,0 -88.8478758015,16.3048781439,0 -88.847708782,16.304933825,0 -88.84755395729999,16.3049803625,0 -88.8474343398,16.3050085187,0 -88.8470717515,16.3051935526,0 -88.84647934589999,16.3054415925,0 -88.846033463,16.305724497,0 -88.8459296896,16.3057897903,0 -88.8453207182,16.306111395,0 -88.8450571831,16.306258284,0 -88.8448664022,16.3063683906,0 -88.844759032,16.3064868052,0 -88.84460280419999,16.3066960132,0 -88.84450708999999,16.3068414359,0 -88.8444708506,16.3069682659,0 -88.84431544589999,16.3070780631,0 -88.8442429134,16.30723232,0 -88.8441352039,16.3073145906,0 -88.8439800912,16.3074243851,0 -88.84382443210001,16.3075070742,0 -88.8436086108,16.3076286942,0 -88.8418541099,16.3086177054,0 -88.8415879267,16.3087634841,0 -88.84132087640001,16.3089103997,0 -88.84021747280001,16.3095175687,0 -88.8390747788,16.310239163,0 -88.83838962599999,16.310672113,0 -88.836970486,16.311444676,0 -88.8367531621,16.3115629141,0 -88.8365020114,16.3116283556,0 -88.8363585413,16.311701897,0 -88.8360611048,16.3116954468,0 -88.83590552280001,16.3117871667,0 -88.83575077330001,16.3118427324,0 -88.8352322943,16.3122459844,0 -88.8337632109,16.3102638919,0 -88.83111654859999,16.3122015158,0 -88.8321326375,16.313707483,0 -88.8317848407,16.3138200711,0 -88.8315936714,16.3139843907,0 -88.8312240218,16.3141683317,0 -88.8310199463,16.314359873,0 -88.8307334173,16.3145521291,0 -88.8306015977,16.3146526762,0 -88.8304224984,16.314825927,0 -88.8303258311,16.3149962038,0 -88.83013468030001,16.3151627813,0 -88.8300389481,16.3152449418,0 -88.8299082942,16.3152822212,0 -88.8292035632,16.3154690633,0 -88.82859552479999,16.3155827717,0 -88.8280593003,16.3157466882,0 -88.82786773540001,16.3158059562,0 -88.8270085794,16.3160844957,0 -88.82639932870001,16.316288576,0 -88.82579974630001,16.3164948303,0 -88.82397242,16.3171228672,0 -88.8237249227,16.3172368354,0 -88.82361369980001,16.3172886281,0 -88.8234931092,16.3173077433,0 -88.82333475759999,16.3172910376,0 -88.8232045594,16.3172831254,0 -88.8230819634,16.3172751475,0 -88.8226097921,16.3173153719,0 -88.8223324376,16.3173629503,0 -88.8220536624,16.3173834303,0 -88.82170437889999,16.3174316287,0 -88.82146231980001,16.3174698646,0 -88.82117276770001,16.3175265835,0 -88.820766718,16.3177288953,0 -88.820473197,16.3177675739,0 -88.8201966347,16.3179326208,0 -88.8200311816,16.318033452,0 -88.817623748,16.3194944333,0 -88.8151223528,16.3210126783,0 -88.8138245366,16.3218010006,0 -88.8135734846,16.3219748574,0 -88.8133340875,16.3221124665,0 -88.8131314494,16.3222407227,0 -88.8128924679,16.3224235119,0 -88.8126883649,16.3226150379,0 -88.8124856808,16.3228336621,0 -88.8123892262,16.3229338953,0 -88.8122460252,16.3231339348,0 -88.81204200409999,16.3233344965,0 -88.8115869642,16.3238083172,0 -88.8113592947,16.3241084862,0 -88.81116842989999,16.3243089343,0 -88.8110485359,16.3244997363,0 -88.8109163205,16.3246544967,0 -88.8107606694,16.3248365687,0 -88.8105811268,16.3249646247,0 -88.8104133204,16.3251287271,0 -88.81029422509999,16.3251839697,0 -88.81019881170001,16.3253022668,0 -88.810007575,16.3253671651,0 -88.8088134505,16.3261477937,0 -88.8085370111,16.3263286405,0 -88.806561696,16.3275452014,0 -88.80617058190001,16.3277857668,0 -88.8059714418,16.3279139871,0 -88.8044312041,16.3288398863,0 -88.8023299268,16.3301026736,0 -88.800697161,16.3310835601,0 -88.798343962,16.3324975704,0 -88.79640100899999,16.3336855307,0 -88.7961316091,16.3339352093,0 
						</coordinates>
					</LinearRing>
				</outerBoundaryIs>
			</Polygon>
			<Point>
				<coordinates>-88.806873074,16.2825159162,0</coordinates>
			</Point>
		</MultiGeometry>
	</Placemark>
</Document>
</kml>
