<?xml version="1.0" encoding="iso-8859-1"?>
<kml xmlns="http://www.opengis.net/kml/2.2" xmlns:gx="http://www.google.com/kml/ext/2.2">
<Document>
  <!-- Begin Style Definitions -->
  <Style id="area1">
    <PolyStyle>
      <color>BFFFFFFF</color>
      <fill>1</fill>
      <outline>0</outline>
    </PolyStyle>
    <IconStyle><Icon></Icon></IconStyle>
  </Style>
  <Folder>
    <name>Lmmites fundo CV</name>
    <description>Lmmites fundo CV</description>
    <Placemark>
      <description>Unknown Area Type</description>
      <name>0</name>
      <styleUrl>#area1</styleUrl>
      <MultiGeometry>
      <Point>
      <coordinates>-74.7412663998,-8.5819170000,0</coordinates>
      </Point>
      <Polygon>
        <outerBoundaryIs>
          <LinearRing>
            <coordinates>
              -74.7002840000,-8.5652590000,0
              -74.7098990000,-8.5656230000,0
              -74.7108780000,-8.5656600000,0
              -74.7109950000,-8.5656650000,0
              -74.7139780000,-8.5657780000,0
              -74.7146430000,-8.5658030000,0
              -74.7164760000,-8.5658720000,0
              -74.7329660000,-8.5664950000,0
              -74.7329660000,-8.5664950000,0
              -74.7333470000,-8.5665100000,0
              -74.7341940000,-8.5665420000,0
              -74.7388160000,-8.5667160000,0
              -74.7388150000,-8.5667180000,0
              -74.7389210000,-8.5667200000,0
              -74.7414800000,-8.5668170000,0
              -74.7415130000,-8.5668180000,0
              -74.7447510000,-8.5669400000,0
              -74.7445620000,-8.5788480000,0
              -74.7445580000,-8.5790850000,0
              -74.7445380000,-8.5803420000,0
              -74.7445360000,-8.5804830000,0
              -74.7445290000,-8.5809020000,0
              -74.7445350000,-8.5809020000,0
              -74.7445870000,-8.5809020000,0
              -74.7446210000,-8.5809030000,0
              -74.7446700000,-8.5809030000,0
              -74.7463990000,-8.5809270000,0
              -74.7464760000,-8.5809280000,0
              -74.7466370000,-8.5809300000,0
              -74.7470730000,-8.5809360000,0
              -74.7471320000,-8.5809370000,0
              -74.7472610000,-8.5809390000,0
              -74.7472700000,-8.5809390000,0
              -74.7491310000,-8.5809640000,0
              -74.7524060000,-8.5810090000,0
              -74.7542370000,-8.5810340000,0
              -74.7543800000,-8.5810360000,0
              -74.7544540000,-8.5810370000,0
              -74.7546080000,-8.5810390000,0
              -74.7553650000,-8.5810490000,0
              -74.7558450000,-8.5810560000,0
              -74.7562540000,-8.5810610000,0
              -74.7564710000,-8.5810640000,0
              -74.7568170000,-8.5810690000,0
              -74.7576010000,-8.5810800000,0
              -74.7576430000,-8.5810800000,0
              -74.7584440000,-8.5810910000,0
              -74.7605710000,-8.5811200000,0
              -74.7618060000,-8.5811370000,0
              -74.7622630000,-8.5811430000,0
              -74.7639600000,-8.5811660000,0
              -74.7644700000,-8.5811730000,0
              -74.7647130000,-8.5811760000,0
              -74.7647540000,-8.5811770000,0
              -74.7647790000,-8.5811770000,0
              -74.7655860000,-8.5811880000,0
              -74.7663620000,-8.5811990000,0
              -74.7663720000,-8.5811990000,0
              -74.7664650000,-8.5812000000,0
              -74.7665260000,-8.5812010000,0
              -74.7668380000,-8.5812050000,0
              -74.7669540000,-8.5812070000,0
              -74.7671790000,-8.5812100000,0
              -74.7700900000,-8.5812490000,0
              -74.7704680000,-8.5812540000,0
              -74.7705300000,-8.5812550000,0
              -74.7706000000,-8.5812560000,0
              -74.7717210000,-8.5812710000,0
              -74.7717770000,-8.5812720000,0
              -74.7729600000,-8.5812880000,0
              -74.7747110000,-8.5813120000,0
              -74.7749310000,-8.5813150000,0
              -74.7766990000,-8.5813390000,0
              -74.7768060000,-8.5813400000,0
              -74.7769140000,-8.5813420000,0
              -74.7783460000,-8.5813610000,0
              -74.7786140000,-8.5813650000,0
              -74.7787380000,-8.5813660000,0
              -74.7792410000,-8.5813730000,0
              -74.7798050000,-8.5813810000,0
              -74.7802550000,-8.5813870000,0
              -74.7805200000,-8.5813910000,0
              -74.7809040000,-8.5813960000,0
              -74.7815090000,-8.5814040000,0
              -74.7815860000,-8.5814050000,0
              -74.7817640000,-8.5814070000,0
              -74.7819070000,-8.5818340000,0
              -74.7820300000,-8.5822030000,0
              -74.7820460000,-8.5822510000,0
              -74.7821960000,-8.5827000000,0
              -74.7822210000,-8.5827230000,0
              -74.7822880000,-8.5827870000,0
              -74.7835970000,-8.5840270000,0
              -74.7836030000,-8.5840340000,0
              -74.7836980000,-8.5841230000,0
              -74.7839260000,-8.5843390000,0
              -74.7844390000,-8.5848250000,0
              -74.7848680000,-8.5852320000,0
              -74.7850410000,-8.5853950000,0
              -74.7853670000,-8.5857050000,0
              -74.7855960000,-8.5857240000,0
              -74.7861340000,-8.5857670000,0
              -74.7861940000,-8.5857720000,0
              -74.7866030000,-8.5858050000,0
              -74.7869960000,-8.5863290000,0
              -74.7871170000,-8.5864890000,0
              -74.7873620000,-8.5868160000,0
              -74.7878460000,-8.5876860000,0
              -74.7879770000,-8.5879210000,0
              -74.7882260000,-8.5883680000,0
              -74.7888360000,-8.5891390000,0
              -74.7891290000,-8.5895090000,0
              -74.7892210000,-8.5895160000,0
              -74.7893380000,-8.5894070000,0
              -74.7895250000,-8.5891610000,0
              -74.7896870000,-8.5888900000,0
              -74.7896880000,-8.5888890000,0
              -74.7896880000,-8.5888880000,0
              -74.7901750000,-8.5881800000,0
              -74.7905060000,-8.5876740000,0
              -74.7907580000,-8.5872840000,0
              -74.7907580000,-8.5872840000,0
              -74.7907590000,-8.5872830000,0
              -74.7909540000,-8.5870050000,0
              -74.7912900000,-8.5864660000,0
              -74.7912900000,-8.5864650000,0
              -74.7912900000,-8.5864650000,0
              -74.7914690000,-8.5861990000,0
              -74.7916670000,-8.5858100000,0
              -74.7916940000,-8.5856540000,0
              -74.7916960000,-8.5856460000,0
              -74.7917000000,-8.5856400000,0
              -74.7918570000,-8.5854120000,0
              -74.7918610000,-8.5854060000,0
              -74.7918620000,-8.5854060000,0
              -74.7918620000,-8.5854050000,0
              -74.7920170000,-8.5852620000,0
              -74.7920570000,-8.5852250000,0
              -74.7921810000,-8.5851100000,0
              -74.7921820000,-8.5851100000,0
              -74.7921870000,-8.5851060000,0
              -74.7924560000,-8.5849390000,0
              -74.7924610000,-8.5849360000,0
              -74.7924660000,-8.5849350000,0
              -74.7927770000,-8.5848580000,0
              -74.7930320000,-8.5847470000,0
              -74.7930320000,-8.5847470000,0
              -74.7930330000,-8.5847470000,0
              -74.7933130000,-8.5846360000,0
              -74.7933130000,-8.5846360000,0
              -74.7933180000,-8.5846340000,0
              -74.7936650000,-8.5845510000,0
              -74.7936730000,-8.5845500000,0
              -74.7936760000,-8.5845500000,0
              -74.7940230000,-8.5845780000,0
              -74.7940250000,-8.5845780000,0
              -74.7940280000,-8.5845790000,0
              -74.7944020000,-8.5846620000,0
              -74.7948650000,-8.5847290000,0
              -74.7948720000,-8.5847310000,0
              -74.7948730000,-8.5847310000,0
              -74.7951330000,-8.5848300000,0
              -74.7953890000,-8.5848760000,0
              -74.7957090000,-8.5848800000,0
              -74.7959750000,-8.5848470000,0
              -74.7959800000,-8.5848460000,0
              -74.7961810000,-8.5848460000,0
              -74.7961860000,-8.5848470000,0
              -74.7964330000,-8.5848800000,0
              -74.7964350000,-8.5848810000,0
              -74.7964370000,-8.5848810000,0
              -74.7966760000,-8.5849480000,0
              -74.7968050000,-8.5849670000,0
              -74.7970040000,-8.5842370000,0
              -74.8012110000,-8.5841730000,0
              -74.8012020000,-8.5847680000,0
              -74.8011780000,-8.5863390000,0
              -74.8011310000,-8.5863420000,0
              -74.8011310000,-8.5863420000,0
              -74.8011780000,-8.5863390000,0
              -74.8011770000,-8.5864120000,0
              -74.8011770000,-8.5864120000,0
              -74.8011720000,-8.5867100000,0
              -74.8011420000,-8.5880040000,0
              -74.8011420000,-8.5886370000,0
              -74.8011140000,-8.5896410000,0
              -74.8011130000,-8.5900350000,0
              -74.8011000000,-8.5903470000,0
              -74.8011020000,-8.5903490000,0
              -74.8010840000,-8.5906070000,0
              -74.8010800000,-8.5909900000,0
              -74.8011050000,-8.5910790000,0
              -74.8010830000,-8.5925490000,0
              -74.8010610000,-8.5939780000,0
              -74.8004810000,-8.5939500000,0
              -74.8003150000,-8.5939420000,0
              -74.8003050000,-8.5939410000,0
              -74.8001230000,-8.5939320000,0
              -74.8001100000,-8.5939320000,0
              -74.8000140000,-8.5939270000,0
              -74.7961110000,-8.5937360000,0
              -74.7955460000,-8.5937090000,0
              -74.7954630000,-8.5937040000,0
              -74.7954630000,-8.5937050000,0
              -74.7949580000,-8.5936800000,0
              -74.7939370000,-8.5936230000,0
              -74.7939360000,-8.5936300000,0
              -74.7934600000,-8.5936070000,0
              -74.7934500000,-8.5936060000,0
              -74.7903110000,-8.5934530000,0
              -74.7902020000,-8.5934470000,0
              -74.7882530000,-8.5933520000,0
              -74.7882520000,-8.5933500000,0
              -74.7874790000,-8.5933140000,0
              -74.7874230000,-8.5933110000,0
              -74.7820320000,-8.5930480000,0
              -74.7820470000,-8.5955460000,0
              -74.7820510000,-8.5961670000,0
              -74.7820540000,-8.5967410000,0
              -74.7820540000,-8.5968140000,0
              -74.7820550000,-8.5969920000,0
              -74.7820650000,-8.5985750000,0
              -74.7807460000,-8.5985340000,0
              -74.7801950000,-8.5985170000,0
              -74.7775500000,-8.5984350000,0
              -74.7739140000,-8.5983220000,0
              -74.7739160000,-8.5983190000,0
              -74.7737810000,-8.5983150000,0
              -74.7737800000,-8.5983180000,0
              -74.7710510000,-8.5982340000,0
              -74.7710320000,-8.5982330000,0
              -74.7709120000,-8.5982290000,0
              -74.7693960000,-8.5981830000,0
              -74.7691580000,-8.5981750000,0
              -74.7691480000,-8.5981630000,0
              -74.7677510000,-8.5981240000,0
              -74.7673070000,-8.5981120000,0
              -74.7657010000,-8.5980670000,0
              -74.7657010000,-8.5980680000,0
              -74.7588700000,-8.5978560000,0
              -74.7587360000,-8.5978520000,0
              -74.7582360000,-8.5978370000,0
              -74.7540240000,-8.5977060000,0
              -74.7539520000,-8.5977040000,0
              -74.7469060000,-8.5974850000,0
              -74.7469030000,-8.5974850000,0
              -74.7411530000,-8.5973060000,0
              -74.7404960000,-8.5972860000,0
              -74.7375290000,-8.5971930000,0
              -74.7373720000,-8.5971880000,0
              -74.7256120000,-8.5968230000,0
              -74.7248770000,-8.5968000000,0
              -74.7239100000,-8.5967700000,0
              -74.7228440000,-8.5967360000,0
              -74.7227500000,-8.5967330000,0
              -74.7224640000,-8.5967250000,0
              -74.7219870000,-8.5967100000,0
              -74.7211730000,-8.5966840000,0
              -74.7107480000,-8.5963590000,0
              -74.7107450000,-8.5963590000,0
              -74.7057840000,-8.5962050000,0
              -74.7034700000,-8.5961330000,0
              -74.7030020000,-8.5961180000,0
              -74.7023710000,-8.5960980000,0
              -74.7023130000,-8.5960970000,0
              -74.7008680000,-8.5960510000,0
              -74.7008630000,-8.5960510000,0
              -74.7008500000,-8.5957390000,0
              -74.7008620000,-8.5957400000,0
              -74.7002950000,-8.5660370000,0
              -74.7002950000,-8.5660360000,0
              -74.7002900000,-8.5657960000,0
              -74.7002910000,-8.5657960000,0
              -74.7002840000,-8.5652590000,0
            </coordinates>
          </LinearRing>
        </outerBoundaryIs>
        <innerBoundaryIs>
          <LinearRing>
            <coordinates>
              -74.7341910000,-8.5665680000,0
              -74.7341870000,-8.5665770000,0
              -74.7341890000,-8.5665770000,0
              -74.7341910000,-8.5665680000,0
            </coordinates>
          </LinearRing>
        </innerBoundaryIs>
        <innerBoundaryIs>
          <LinearRing>
            <coordinates>
              -74.7340850000,-8.5666050000,0
              -74.7340830000,-8.5666060000,0
              -74.7340850000,-8.5666060000,0
              -74.7340850000,-8.5666050000,0
            </coordinates>
          </LinearRing>
        </innerBoundaryIs>
        <innerBoundaryIs>
          <LinearRing>
            <coordinates>
              -74.7404000000,-8.5714580000,0
              -74.7403990000,-8.5714600000,0
              -74.7404010000,-8.5714600000,0
              -74.7404000000,-8.5714580000,0
            </coordinates>
          </LinearRing>
        </innerBoundaryIs>
        <innerBoundaryIs>
          <LinearRing>
            <coordinates>
              -74.7816860000,-8.5867170000,0
              -74.7816860000,-8.5867170000,0
              -74.7816860000,-8.5867170000,0
              -74.7816860000,-8.5867170000,0
            </coordinates>
          </LinearRing>
        </innerBoundaryIs>
        <innerBoundaryIs>
          <LinearRing>
            <coordinates>
              -74.7870630000,-8.5867510000,0
              -74.7870620000,-8.5867510000,0
              -74.7870620000,-8.5867520000,0
              -74.7870630000,-8.5867510000,0
            </coordinates>
          </LinearRing>
        </innerBoundaryIs>
        <innerBoundaryIs>
          <LinearRing>
            <coordinates>
              -74.7804340000,-8.5894340000,0
              -74.7804300000,-8.5894340000,0
              -74.7804340000,-8.5894400000,0
              -74.7804340000,-8.5894340000,0
            </coordinates>
          </LinearRing>
        </innerBoundaryIs>
        <innerBoundaryIs>
          <LinearRing>
            <coordinates>
              -74.7739750000,-8.5939650000,0
              -74.7739640000,-8.5939630000,0
              -74.7739630000,-8.5939680000,0
              -74.7739750000,-8.5939650000,0
            </coordinates>
          </LinearRing>
        </innerBoundaryIs>
      </Polygon>
      </MultiGeometry>
    </Placemark>
  </Folder>
</Document>
</kml>
