<?xml version="1.0" encoding="utf-8"?><kml xmlns="http://earth.google.com/kml/2.0"><Folder><name>Shapefile Converter Generated File</name><open>1</open><Placemark><name>7a15c919 8459 4c22 8c2c 6781bffdb2ac</name><description><![CDATA[0]]></description><Style><LineStyle><color>800000ff</color><width>3</width></LineStyle><PolyStyle><color>800000ff</color></PolyStyle></Style><Polygon><altitudeMode>clampToGround</altitudeMode><outerBoundaryIs><LinearRing><coordinates>
117.823901984111,5.16126605322319,0 117.832109280711,5.1563804063922,0 117.830077991688,5.1534457733149,0 117.829151261959,5.15210637431218,0 117.828461062299,5.15110885292743,0 117.830172333482,5.14783961760482,0 117.831459523614,5.14538017218263,0 117.832188855983,5.145358274531,0 117.836196797236,5.1452375637661,0 117.837862705618,5.1417165609752,0 117.837392017592,5.14037259990861,0 117.835117557868,5.13388054858225,0 117.833412322571,5.12901263192973,0 117.831814851926,5.12445308125739,0 117.830868933738,5.12175218603179,0 117.82963557634,5.11823160890835,0 117.829041650936,5.11653530203237,0 117.827286593413,5.11425538366982,0 117.826543134434,5.11328991685189,0 117.826306944522,5.11314077952117,0 117.823805736687,5.11156396901645,0 117.82360987882,5.1100257500487,0 117.823292428015,5.10753150828796,0 117.823403877579,5.10698239373132,0 117.823925265953,5.10441683542591,0 117.824701638764,5.10059736958451,0 117.824518129816,5.10010530428141,0 117.823375911398,5.09699947850226,0 117.826166148346,5.09532968759976,0 117.829985584491,5.093044503552,0 117.830268076456,5.09312998450107,0 117.833588501554,5.09413592052271,0 117.836793108247,5.09510597109573,0 117.838816338044,5.09571922549324,0 117.845274750469,5.09767470108663,0 117.846953346679,5.09818313937359,0 117.849174310724,5.10154583215683,0 117.851286958686,5.10474428982403,0 117.852468453807,5.10653276680022,0 117.856599400636,5.10534497783742,0 117.859593537253,5.10448401695121,0 117.859619021767,5.10233482168386,0 117.859627983746,5.10158073795149,0 117.859661166901,5.09873399289007,0 117.860405029405,5.09803198326446,0 117.86273378765,5.09580651377529,0 117.862715109677,5.09579648155972,0 117.862520716159,5.09565834690893,0 117.862383471139,5.09547399458373,0 117.862303502724,5.09518577037263,0 117.862303844404,5.09493254550858,0 117.862417923348,5.094587454954,0 117.862624319941,5.09429988162849,0 117.863001819438,5.0939776599376,0 117.863345669286,5.09367830282964,0 117.86370023272,5.0933794293811,0 117.864123648192,5.09294211694017,0 117.864318334293,5.092596978938,0 117.864467183792,5.09222844967363,0 117.864501993216,5.09183704749472,0 117.864581947343,5.09152669506348,0 117.864616411133,5.09123873223412,0 117.871533286213,5.08331195056436,0 117.872483219423,5.0844442165833,0 117.876231204681,5.08057722352795,0 117.877523779697,5.07924418150805,0 117.880371812322,5.07631043083321,0 117.884098969318,5.07246108086556,0 117.882424947016,5.06942785945307,0 117.881299614998,5.06738976559061,0 117.882408887344,5.06552737159401,0 117.883965477819,5.06296633919363,0 117.885736628826,5.05993566275668,0 117.885539615997,5.0554408200281,0 117.890027722322,5.05005616321996,0 117.894821033634,5.04849852048262,0 117.897424802827,5.04638389721218,0 117.897127687879,5.04504094560416,0 117.895835930613,5.04379773244465,0 117.895231270184,5.03981246691957,0 117.90419180695,5.02727233741989,0 117.908158903578,5.02819376298411,0 117.91282248013,5.02621138100737,0 117.9200063596,5.02589846236124,0 117.924769952335,5.02491565156737,0 117.939544991818,5.02104251648432,0 117.942212485127,5.01977844414382,0 117.945902963494,5.01771176224841,0 117.95380692514,5.01600074154698,0 117.957207432825,5.01624795595557,0 117.961362278924,5.0177655456209,0 117.962634095542,5.01795010909635,0 117.964139401251,5.01735116932334,0 117.964147569222,5.01709506509844,0 117.963287372519,5.01671457287316,0 117.963014739666,5.01556648366263,0 117.963450590503,5.01427498409113,0 117.963202845305,5.01335730843075,0 117.962111684858,5.01291812909846,0 117.961976037728,5.0117000212177,0 117.963037550947,5.00997749934972,0 117.963749128112,5.00607315474389,0 117.963171131991,5.00537677969404,0 117.962685408027,5.00480572995258,0 117.96220095928,5.00432679913942,0 117.961820002008,5.00389341229454,0 117.961392030612,5.00335639118545,0 117.960895249367,5.0027396435726,0 117.960559288095,5.00229403744863,0 117.960269539899,5.00184807276413,0 117.960047924249,5.00132075460168,0 117.959709778813,5.00051851739663,0 117.959384238854,4.99988913654644,0 117.959232057895,4.99952236465752,0 117.959033907644,4.99904121148136,0 117.958812381553,4.99852519643811,0 117.959046552038,4.99819555958505,0 117.959299257278,4.99793077811628,0 117.959584914184,4.99711522694261,0 117.960065896819,4.99641459462574,0 117.960272031477,4.99610382683205,0 117.960385984446,4.99567903625731,0 117.960179157587,4.99546133864973,0 117.959846281784,4.99541531140967,0 117.959432995366,4.99539308089605,0 117.959100101153,4.99519840327557,0 117.958640869331,4.99499170481687,0 117.957883262309,4.99490092528064,0 117.957263314782,4.99490177250858,0 117.957214935067,4.99476706227318,0 117.956862365585,4.99472514228068,0 117.956161803086,4.99486961086433,0 117.955230569544,4.99513964602044,0 117.954838389399,4.99551628679598,0 117.954353949869,4.99591511973028,0 117.953963444693,4.99592379539533,0 117.95337942047,4.99575931902959,0 117.95216641549,4.99515432462981,0 117.951241249221,4.99452844851138,0 117.951016764177,4.9936998918668,0 117.950770189189,4.99271042129071,0 117.950351289532,4.99181158689235,0 117.949780614595,4.99125700844374,0 117.948910220293,4.99100996038593,0 117.94727045389,4.99082707513343,0 117.944988673057,4.99055984223186,0 117.943176827617,4.99035283988238,0 117.942499024006,4.99045189872012,0 117.942094510706,4.99047084783585,0 117.939510549012,4.98828081856972,0 117.938200166109,4.9859978690894,0 117.93698007911,4.98277371098817,0 117.934457416688,4.98364888434591,0 117.932256638372,4.98490308539069,0 117.929617722826,4.98443506307441,0 117.926859776628,4.98328856024456,0 117.926200379754,4.98277250785307,0 117.925145974375,4.98255961923831,0 117.924067555205,4.98244921642732,0 117.923897010193,4.98233070273099,0 117.923187616217,4.98183537854284,0 117.92223785251,4.98145042105875,0 117.921329873123,4.98085431712162,0 117.920964692712,4.98137372559652,0 117.920143811957,4.98236745532957,0 117.919961293496,4.98304258929454,0 117.919936357097,4.98346725471135,0 117.919932345003,4.9835322848608,0 117.915233748613,4.98553076986014,0 117.912161288605,4.9871872347003,0 117.910281888449,4.98891141119523,0 117.909480000307,4.98973881147195,0 117.90789692766,4.98982102714442,0 117.905246283552,4.98914667857644,0 117.904557878998,4.98911294863097,0 117.903902890151,4.98813788143239,0 117.902624102169,4.987545714252,0 117.902440851124,4.98746063856212,0 117.901167859057,4.9859256472807,0 117.901087086023,4.98582791787015,0 117.901183425076,4.98515627264044,0 117.901033598349,4.98435255455152,0 117.900826069678,4.98359449483337,0 117.900652864629,4.98260669607079,0 117.900514055841,4.98191763215138,0 117.900284314085,4.9815734783121,0 117.899992025233,4.98137901883762,0 117.899698600873,4.98118343745741,0 117.898607826362,4.98063334440436,0 117.89813089699,4.98031877419844,0 117.898033472079,4.98025451917607,0 117.897895254502,4.98001366412201,0 117.89783736311,4.9797377172489,0 117.898066900503,4.97946183489753,0 117.898640181784,4.97925454236005,0 117.898812192446,4.97904749020408,0 117.898719785303,4.97853102658332,0 117.898581909166,4.9781867351946,0 117.89827167061,4.97800315098423,0 117.897778053992,4.97786561960173,0 117.896377551829,4.97771749398842,0 117.895264216208,4.97753495489401,0 117.894965949307,4.97744340710583,0 117.8947638179,4.97732060361467,0 117.894587170752,4.97721399665384,0 117.894494637558,4.97675461965511,0 117.895251511998,4.97645549494271,0 117.895687538883,4.97628260131546,0 117.89598565747,4.97598358775983,0 117.895961880669,4.97552425129152,0 117.895892360602,4.97490417856374,0 117.895788767655,4.97439853906833,0 117.895489745768,4.97383617504426,0 117.895439045167,4.97376478018845,0 117.895317150373,4.97359501674023,0 117.895179101756,4.97322755217813,0 117.895236008685,4.97292868539472,0 117.895396133164,4.97249224905146,0 117.895934749333,4.97180253333073,0 117.896232819851,4.97142326035261,0 117.896323788859,4.97086017936251,0 117.896300354175,4.97029740694038,0 117.896174447826,4.96982189459348,0 117.896069425695,4.96942478725047,0 117.89551799733,4.96857496241666,0 117.894816800173,4.96781784475691,0 117.894571030949,4.96766259195504,0 117.894472494447,4.96760004037962,0 117.894128018313,4.96750827937532,0 117.89374943298,4.9676004724201,0 117.893359139291,4.96763510293693,0 117.892980382191,4.96770468831568,0 117.892827338567,4.96758885720964,0 117.892647649948,4.96745231651425,0 117.892532624248,4.96707337156785,0 117.892405548097,4.96674030073843,0 117.892267900088,4.966499440124,0 117.8922790715,4.9661890534391,0 117.892668565947,4.96575199887916,0 117.893057909742,4.96529516287869,0 117.893207053934,4.96511993954118,0 117.89343628661,4.9648785404432,0 117.894274220699,4.96486592811163,0 117.894870735672,4.96489980923816,0 117.895869285177,4.96473844823093,0 117.896832578457,4.96446148643147,0 117.897428819166,4.96416245747453,0 117.897784456035,4.96379461447514,0 117.898047919642,4.96331160713185,0 117.898150366804,4.96255344152825,0 117.898139187475,4.96249135370036,0 117.897942145168,4.96140539270437,0 117.897826707895,4.96060141398443,0 117.897837352899,4.96022207613899,0 117.898009488903,4.95995793826427,0 117.898284727779,4.96006096504813,0 117.898836339086,4.96041622519799,0 117.899226862009,4.96078345461896,0 117.899490881215,4.96096739165857,0 117.899869689745,4.9611278429503,0 117.900409057016,4.96105815651874,0 117.900672836555,4.96083966475301,0 117.900798187035,4.96042610286282,0 117.900923911297,4.95969093331416,0 117.901302256316,4.9593455237765,0 117.901612083753,4.9592538521191,0 117.902139837367,4.95928768654756,0 117.902851436232,4.95926359366732,0 117.903344642495,4.95927508273518,0 117.903619737354,4.9591367631898,0 117.903297882312,4.95875827293108,0 117.902620726853,4.95849441090476,0 117.902436691461,4.95823073441926,0 117.902906722487,4.95786257988382,0 117.903560609149,4.95758627867528,0 117.90387055608,4.95743638839906,0 117.90409956569,4.9572407698137,0 117.90420245789,4.95683868375403,0 117.904179115219,4.95643699804118,0 117.904156303863,4.95632752179573,0 117.904121224367,4.95616105318596,0 117.903891105073,4.95584007835,0 117.903351311054,4.95518573692472,0 117.902960258644,4.95460034370164,0 117.902649960449,4.95388829103502,0 117.902350722312,4.95322250087533,0 117.902063418596,4.95286635424714,0 117.901718693074,4.95274068671833,0 117.901248515273,4.95271828075204,0 117.900675051492,4.95312057105038,0 117.89994097756,4.95352352286312,0 117.899562306135,4.95345463437437,0 117.899231239558,4.9532723399596,0 117.898896079538,4.95299625175228,0 117.898941746864,4.95247930102174,0 117.899571587077,4.95170863019071,0 117.900087116152,4.95095013654422,0 117.900201417263,4.95064009356361,0 117.900189434379,4.95024962531469,0 117.900097688873,4.94989367908516,0 117.899913829411,4.94965260892799,0 117.899637855975,4.94952641473671,0 117.899571010792,4.94933249332849,0 117.899511082447,4.94915886661788,0 117.899682946846,4.94871103823577,0 117.899969603853,4.94838893977105,0 117.90024491054,4.94820483899947,0 117.900795102557,4.94807798468249,0 117.901288590102,4.94790521605543,0 117.901529384918,4.94762924940094,0 117.901597551074,4.94718108285191,0 117.901447672698,4.94681371198793,0 117.901217896058,4.94638873513613,0 117.900896044046,4.94586102852223,0 117.900723148132,4.94550513755085,0 117.900630879618,4.94508024022922,0 117.900596220015,4.94459781667486,0 117.900627185739,4.94444553891147,0 117.900698891271,4.94409230076622,0 117.900985061611,4.94363229516776,0 117.901226077167,4.94345976053468,0 117.901684970515,4.94333303835178,0 117.902178328287,4.94321792179529,0 117.902567545506,4.94289560413244,0 117.902601465983,4.94239061374097,0 117.902417636896,4.94193080876989,0 117.901865932866,4.94111603832352,0 117.901325467327,4.9405193518581,0 117.901061143446,4.94007146568923,0 117.901175436148,4.93961220856748,0 117.901446995833,4.9391579671276,0 117.901484838125,4.9390949398758,0 117.901736461896,4.93876124003322,0 117.901976892385,4.93814106523088,0 117.901883865895,4.93724535637499,0 117.90158503302,4.93670560547417,0 117.900999629615,4.9363500407149,0 117.900517227633,4.93605190492386,0 117.900264358832,4.93577631943403,0 117.90014947268,4.93548950618088,0 117.900378509683,4.93507572028355,0 117.900409082061,4.935020096402,0 117.900779236787,4.93434015011989,0 117.901076495344,4.9337082380946,0 117.90114433699,4.93284634367899,0 117.9012696708,4.93213435536433,0 117.901659837038,4.93178942419129,0 117.902049753555,4.93170844647143,0 117.902451430505,4.93191450385881,0 117.902761694328,4.93217891066865,0 117.903300937376,4.93194814143147,0 117.90335758042,4.93161536675684,0 117.90324211282,4.93102956438657,0 117.9031723729,4.93030606729264,0 117.90300030671,4.92998464914236,0 117.90290786417,4.92953658134731,0 117.902929861043,4.9290198142355,0 117.903099031766,4.92873761368704,0 117.902872236763,4.92818487905223,0 117.902664955522,4.92753025805204,0 117.902129218643,4.92688662464588,0 117.902105900516,4.92685854246864,0 117.902044475913,4.92678440448262,0 117.901148000428,4.92598187690959,0 117.90057383301,4.92554596630272,0 117.900206091417,4.92513278263896,0 117.900137153115,4.92481114134829,0 117.900159510166,4.92448993333001,0 117.899963815276,4.92395052508064,0 117.899699466641,4.92372080889422,0 117.898734555479,4.92303297151162,0 117.898103263505,4.9226432760221,0 117.8976782609,4.92218418074454,0 117.897310528407,4.92192020954165,0 117.896943102526,4.92162232335917,0 117.896403676365,4.92153091911587,0 117.896013720496,4.92168028252513,0 117.895750086054,4.92184168186438,0 117.895521090496,4.92218650904145,0 117.895234834434,4.92263464054827,0 117.894914294557,4.9232435522117,0 117.89456998883,4.92354234649265,0 117.89421471086,4.92365753203245,0 117.893945211515,4.92341711331855,0 117.893789755039,4.92327869257368,0 117.893720514456,4.9228423155792,0 117.893811185153,4.92231428624194,0 117.893936172009,4.92140674159922,0 117.893763722098,4.920959282374,0 117.893465627867,4.9212582886361,0 117.893178799501,4.92140799431659,0 117.892880648445,4.92132774701868,0 117.892650811391,4.92118989294616,0 117.89248972162,4.92090286538389,0 117.89252387183,4.92050130829252,0 117.892523118597,4.91988128230275,0 117.892304418445,4.91950256515669,0 117.892132059519,4.91921562342479,0 117.892085883076,4.91884802586372,0 117.892233990203,4.91838851459894,0 117.89237169651,4.91804381953973,0 117.892205760826,4.91786082690788,0 117.892038126209,4.91767671675965,0 117.891602178512,4.91763143116991,0 117.891269789722,4.91779222175474,0 117.890811222705,4.91803423285101,0 117.890398339541,4.91820694039253,0 117.889847515909,4.91817270234188,0 117.889583090848,4.91808089214699,0 117.889365176364,4.91780560061376,0 117.889238288515,4.91734648878111,0 117.889042526103,4.91709420188829,0 117.888813169523,4.91694503835987,0 117.888388841122,4.91709465808003,0 117.888285764122,4.91732435167121,0 117.888217893535,4.91788724919908,0 117.888011655874,4.91848454755652,0 117.887737006958,4.91867993945627,0 117.887415324767,4.91869199704799,0 117.886967883002,4.91854279737752,0 117.886657644052,4.91842872626185,0 117.886428727432,4.91863563881888,0 117.886256815224,4.91900320147653,0 117.885993259979,4.91917533471324,0 117.885784218169,4.91932783594282,0 117.885614970595,4.91945177391496,0 117.885213480223,4.9194175254529,0 117.88458212177,4.91931550513991,0 117.884031158105,4.9190393538796,0 117.883801108215,4.91864941518748,0 117.883777650829,4.91815560245314,0 117.883937902082,4.91781073746924,0 117.884039457155,4.91760309911909,0 117.884326940061,4.9170181836435,0 117.884567124001,4.91651275696817,0 117.884669242218,4.91585803564478,0 117.884439363043,4.91534148975471,0 117.884106059735,4.91500885752494,0 117.883704618903,4.91490621732612,0 117.883360177202,4.91496366210101,0 117.883050633856,4.9150903617365,0 117.882488500801,4.9151251575754,0 117.882315801213,4.91464321874825,0 117.882395644425,4.91432157410997,0 117.882590187417,4.91396571013601,0 117.883174722199,4.91324175690492,0 117.883380093103,4.91267837964167,0 117.883138862287,4.91229983008798,0 117.882565073836,4.91235788782832,0 117.882129823455,4.91270258197791,0 117.881865795673,4.91288658586657,0 117.881498989912,4.9128181582974,0 117.881222952645,4.91268065050949,0 117.881185728033,4.91260180450476,0 117.880993338446,4.91219857877174,0 117.880740446876,4.91184272498062,0 117.880430297749,4.91159073905737,0 117.880097127019,4.91134966682634,0 117.880016240844,4.91108576470886,0 117.880016065686,4.91076416340326,0 117.880076815427,4.91052574975052,0 117.880152868868,4.91022448187755,0 117.880255252038,4.90930580837277,0 117.880517844048,4.90855887076445,0 117.880654864103,4.90797340610645,0 117.880585854103,4.90764045881704,0 117.880333093196,4.90752538186241,0 117.879919649932,4.90739965636103,0 117.879162635291,4.90744610260074,0 117.87888716859,4.90745836891476,0 117.878634583379,4.90721724880711,0 117.878496044549,4.90678083134486,0 117.87848895845,4.90673792948216,0 117.878426993542,4.90636762475723,0 117.878438132096,4.90597698258935,0 117.878632329743,4.90557534154209,0 117.879010832352,4.90525312499046,0 117.87935496592,4.90523016337246,0 117.879859610544,4.90519524315404,0 117.879939497019,4.90495385842507,0 117.879858825741,4.90449439364482,0 117.879663247226,4.90411606110358,0 117.879180533494,4.90362234687351,0 117.878640478202,4.90307198193258,0 117.878341903511,4.90278486413515,0 117.878422140848,4.90244060957836,0 117.878708401407,4.90229091673118,0 117.879098478608,4.90208391462352,0 117.879224442501,4.90175061684523,0 117.879178259844,4.90130615076698,0 117.87895885984,4.90068326500336,0 117.878660244554,4.90016667425435,0 117.878338049159,4.89966156653549,0 117.877866960665,4.89906489551708,0 117.877718665045,4.89890324233641,0 117.877665254738,4.898844866497,0 117.877326729671,4.89886382769148,0 117.877038700883,4.89870436558903,0 117.876762901275,4.89867198175105,0 117.876395766904,4.89870811573435,0 117.876017844122,4.89888280675685,0 117.87566345422,4.89911440474013,0 117.875412184427,4.89934578518979,0 117.875057406808,4.89945134491435,0 117.874701025475,4.89941900637221,0 117.874436921302,4.89944305327983,0 117.873931563937,4.8994576262322,0 117.873873612929,4.89932015561884,0 117.873504970188,4.89908160917078,0 117.873105418723,4.89907842258265,0 117.872620214588,4.89907532010714,0 117.872276356628,4.89913444843034,0 117.871861806532,4.8990104206196,0 117.871308947614,4.89870374914512,0 117.870906193945,4.89849993710913,0 117.870468371666,4.89835347641676,0 117.869996651622,4.89819540296724,0 117.869501914451,4.89804880766846,0 117.869041383473,4.89787990968292,0 117.868673903822,4.89787025963649,0 117.86839935767,4.89792942562486,0 117.868360494881,4.89793198089167,0 117.868100322377,4.89795429943322,0 117.867744980309,4.89805985893554,0 117.867423705494,4.8980498580785,0 117.867056096193,4.89809785904182,0 117.86680365474,4.89809920581473,0 117.866665736897,4.89804316449951,0 117.866539080086,4.89798590745386,0 117.866217809518,4.89797647109159,0 117.865907070574,4.89794378133506,0 117.865643538269,4.89796895024829,0 117.865311683123,4.89820037152327,0 117.864956854837,4.89837431548569,0 117.864683892029,4.89856911738455,0 117.86456786901,4.89865195065529,0 117.86431629044,4.89876802679821,0 117.864029087338,4.89879280898827,0 117.863787955273,4.89887432823364,0 117.863581423069,4.89876115437434,0 117.863315940733,4.89860207959939,0 117.8630744689,4.89848860475246,0 117.862740542119,4.89844478462278,0 117.862430451412,4.89842339222275,0 117.86223488492,4.89834461250208,0 117.861913010469,4.89825491893264,0 117.861806970621,4.89824159096884,0 117.861729138604,4.89823257125075,0 117.861395346269,4.89813166339899,0 117.861038148145,4.89791563015823,0 117.860669461424,4.89774546533319,0 117.860450270255,4.89759734318656,0 117.860150810708,4.89741591553155,0 117.860025276038,4.89750786314571,0 117.859762645436,4.89772801898007,0 117.859236034375,4.89806377725992,0 117.85863056968,4.89862960539282,0 117.858244644917,4.89924012060384,0 117.857833070295,4.89958687769511,0 117.857536359907,4.89992146228846,0 117.857193574321,4.90019874382091,0 117.856861030612,4.90033916754948,0 117.856723881313,4.90038542056032,0 117.856322031475,4.90037658767899,0 117.855702663638,4.90051748230152,0 117.855069779489,4.90058443616263,0 117.855014037445,4.9005905093007,0 117.854658779701,4.90070792989114,0 117.852855706101,4.90103014942699,0 117.852800552898,4.90103960916042,0 117.850976788978,4.90138345715655,0 117.850724294828,4.90145318762306,0 117.850449524198,4.90155812900172,0 117.849853522821,4.90173444943249,0 117.849682250664,4.90196465107605,0 117.849216680216,4.90232594047273,0 117.84899650319,4.90249716400813,0 117.848860547925,4.90285314061555,0 117.84860044455,4.90348644077832,0 117.848270604021,4.90391283530449,0 117.848122992851,4.90429263860701,0 117.847791469502,4.9045698305256,0 117.847541214708,4.90493853850069,0 117.847107394869,4.90525097933697,0 117.846867032317,4.90543591956081,0 117.84667527771,4.90556510270038,0 117.846627063655,4.90559824836746,0 117.846214922407,4.90579578772672,0 117.845595761096,4.90604066938255,0 117.845136858827,4.90608934525981,0 117.844654370475,4.90614893751833,0 117.844159680033,4.90623462097245,0 117.843392135002,4.90630540360146,0 117.842022550766,4.90755353047724,0 117.841858948898,4.90752932830293,0 117.840583806559,4.90709128494653,0 117.838669789063,4.90757764422042,0 117.835034096919,4.90850085539413,0 117.835131941491,4.91261881101328,0 117.835218499516,4.9162818595848,0 117.835645390785,4.91662342740457,0 117.835784261958,4.91680664165389,0 117.835923386824,4.91702376665128,0 117.836015789309,4.91717228732159,0 117.836200484215,4.91722854933076,0 117.836441407617,4.91719282394431,0 117.836658796379,4.91709962397755,0 117.836854544423,4.91720214994241,0 117.836947805396,4.91746540191362,0 117.8369866802,4.91814223277693,0 117.837046809835,4.91864707943768,0 117.837037204498,4.91894501825096,0 117.837149514965,4.91919343138867,0 117.837177587313,4.91925482819531,0 117.838549049594,4.92209317227193,0 117.838642379073,4.92244064014468,0 117.838678318733,4.92257432478274,0 117.83870355668,4.92300991317392,0 117.838752175094,4.92333171795098,0 117.838925113027,4.92354858767772,0 117.839087001851,4.92371975837467,0 117.839594139396,4.92401493664461,0 117.83976678242,4.92411707028475,0 117.839940631444,4.92438028020741,0 117.84006895877,4.92473539728244,0 117.840242977406,4.92502121432184,0 117.840393685806,4.9252043382932,0 117.840750036231,4.92530565305552,0 117.841095201309,4.92541835609387,0 117.841348473345,4.92545092592917,0 117.841647689384,4.92559845273189,0 117.841683218393,4.92582766111067,0 117.841650563241,4.92605738324201,0 117.841434416256,4.9263919217101,0 117.841381343543,4.92660427612099,0 117.840897483983,4.92693461409001,0 117.840645887909,4.92705068229974,0 117.84035892262,4.92710936517989,0 117.840164808295,4.92722556542403,0 117.840051439104,4.92751354720826,0 117.839801166372,4.92788168986933,0 117.839803095298,4.9282145854716,0 117.83944965704,4.92865302623338,0 117.83916513983,4.92911412155711,0 117.839248288462,4.92960692601454,0 117.839355104694,4.93009955224893,0 117.839587503564,4.93058049360673,0 117.839934685542,4.9310373965708,0 117.840431460971,4.9315282155838,0 117.840754850256,4.93189316758068,0 117.8409631655,4.93216798715085,0 117.841077701362,4.93233668802188,0 117.841069936804,4.93272956945252,0 117.841038694756,4.93322323571167,0 117.841202517195,4.93372730170133,0 117.841364536363,4.93399060052029,0 117.841549923045,4.93413841975184,0 117.841801991473,4.93416025911515,0 117.842122555142,4.93399732272354,0 117.842467048733,4.93386924900661,0 117.84286823652,4.93378652998236,0 117.843062915795,4.93367032425993,0 117.843441948103,4.93371437953165,0 117.84377489957,4.93370056506757,0 117.844142403222,4.93371022881677,0 117.844417533139,4.93365106773818,0 117.844955713165,4.93334970742198,0 117.845227791759,4.93280844270588,0 117.845326410359,4.93258274435468,0 117.845454962711,4.93229069038267,0 117.845613241191,4.93197976019502,0 117.845761796107,4.93187520584378,0 117.845968744345,4.93181712362281,0 117.846094886026,4.93180486786808,0 117.846277768525,4.93176901035525,0 117.846439750865,4.93195204760883,0 117.846881203128,4.93272984056628,0 117.847402505827,4.9334844221707,0 117.847968555126,4.93404366731354,0 117.848360749312,4.93433970467972,0 117.849028034793,4.93449631860182,0 117.849318880326,4.93457890483997,0 117.849741308743,4.93469836670338,0 117.850673104079,4.93495754578182,0 117.851259758165,4.93518315659269,0 117.851455973059,4.93534671655623,0 117.851494297153,4.93542216552603,0 117.851573184305,4.9357211321586,0 117.851518762388,4.93620366932007,0 117.85133883964,4.93685897904883,0 117.850963546262,4.93753837294888,0 117.850621941745,4.93797616656414,0 117.850519629496,4.9381600681242,0 117.850578406614,4.93833257930634,0 117.850716940087,4.93846944495443,0 117.851051701509,4.9386963929415,0 117.851431772797,4.93887834666536,0 117.851856793107,4.93896726568887,0 117.852305096017,4.93907974741078,0 117.852570506383,4.93922695822691,0 117.852790444041,4.93954746756377,0 117.852872744597,4.93992553813006,0 117.852863805088,4.94023590742551,0 117.853014511209,4.94056767887402,0 117.852978787307,4.94098846709233,0 117.852972094188,4.94107273437007,0 117.853088943955,4.94147371763345,0 117.853194140141,4.94174874650113,0 117.853368085889,4.94202325578014,0 117.853564618065,4.94222863833362,0 117.853991539462,4.9425701913436,0 117.854349626861,4.94290096010594,0 117.854731215513,4.94335928906163,0 117.85477728127,4.94341489686832,0 117.854722563177,4.94378269892399,0 117.854749721398,4.94417192530824,0 117.854295910273,4.9454267378041,0 117.852458314899,4.94567292926113,0 117.848610268419,4.94618694776835,0 117.842453388219,4.94701113388631,0 117.841952646658,4.94697082222237,0 117.841496147809,4.94847264707758,0 117.840212983641,4.95269316955751,0 117.838882520555,4.95707174597791,0 117.841017527194,4.95837826000718,0 117.840994727152,4.95841912742404,0 117.839010454765,4.96203733563811,0 117.837640515183,4.96453461058008,0 117.837561094688,4.968152032166,0 117.837513365618,4.97035730434669,0 117.837488676864,4.9715003600644,0 117.833737531694,4.97015287098042,0 117.830609707884,4.96902958103279,0 117.83089506983,4.96536256337102,0 117.83081646655,4.96532698071511,0 117.828856349494,4.96442267764121,0 117.824626255674,4.96375811746462,0 117.82319033826,4.96384350959524,0 117.822479419355,4.96388558626249,0 117.820468304033,4.96362202820217,0 117.819380589303,4.9642247987039,0 117.818400752056,4.96553949880493,0 117.817777364673,4.9669662642521,0 117.817237856461,4.96702004933314,0 117.816916285362,4.96705128674982,0 117.814049900066,4.96969651952069,0 117.812497722643,4.96938427794725,0 117.809906184803,4.96814776681053,0 117.809317545359,4.96955165694948,0 117.809103135888,4.97080578890906,0 117.80906208503,4.97104518418949,0 117.808952827817,4.97196448440909,0 117.808374503744,4.97558848336591,0 117.808155343003,4.97696191388434,0 117.807836313982,4.97725991192803,0 117.807698628866,4.97738868220277,0 117.807183842294,4.97773675388976,0 117.806575820016,4.97790069555129,0 117.805887687751,4.97805393146238,0 117.805179689558,4.97864310057379,0 117.804929331806,4.97908132373347,0 117.804792402062,4.97931182760436,0 117.804323576488,4.97886824376771,0 117.804087643969,4.97859361488535,0 117.803882338223,4.97879976008924,0 117.803687726284,4.97915560890424,0 117.803630650905,4.97974160486843,0 117.803367625572,4.98052301166691,0 117.803150200224,4.98099433623453,0 117.802623190009,4.98182180385778,0 117.802038979639,4.98276387359472,0 117.801431288264,4.98358007407726,0 117.800812049333,4.98413183658561,0 117.80018121646,4.98448868359248,0 117.799378142147,4.98479933805531,0 117.79864384539,4.98496082433531,0 117.798127508528,4.98494998486423,0 117.797610846893,4.98474358043011,0 117.797358459488,4.98460585509085,0 117.796496881536,4.98402049982728,0 117.795452105883,4.98335511845446,0 117.7949238154,4.98325223395028,0 117.794579595611,4.983194888953,0 117.794017247123,4.98328725946801,0 117.793432016202,4.98333401712478,0 117.792869771719,4.98328847146812,0 117.79207760044,4.98309372551819,0 117.791159547017,4.98279591603154,0 117.790401317021,4.98231378151498,0 117.789379202694,4.98151087044763,0 117.788782481037,4.98122366226717,0 117.788357479526,4.98129296001041,0 117.788070643394,4.98137366301335,0 117.787726640661,4.98164979361504,0 117.786890204896,4.98270733876779,0 117.786316719057,4.98335087726554,0 117.786030339075,4.98356949044157,0 117.785227375029,4.98397225621485,0 117.784932946609,4.98424575551678,0 117.784745999256,4.98442067089661,0 117.784401829289,4.9849031077421,0 117.784184237816,4.98520203505384,0 117.784173259697,4.98554633787641,0 117.784082304595,4.98643102457996,0 117.784013766242,4.98699393229138,0 117.784105876752,4.98740755557519,0 117.784312788675,4.98779771527855,0 117.784519907133,4.98829187454476,0 117.784669682185,4.98895772350852,0 117.784774010338,4.98972734683856,0 117.784781120504,4.98977420748123,0 117.784843354392,4.99018692277903,0 117.78496967266,4.99057711718257,0 117.785222689409,4.99087593227522,0 117.78549833311,4.99118588322529,0 117.785808355182,4.99149557799705,0 117.786624048444,4.99189702882944,0 117.787749012527,4.99212604169273,0 117.788104729097,4.99213695645002,0 117.788402982515,4.99199908013134,0 117.78865495197,4.99169989461522,0 117.78899887597,4.99141245859697,0 117.789400386286,4.99136650890547,0 117.789745289418,4.99151541785844,0 117.790031888958,4.99163028261136,0 117.790513938042,4.99165268898928,0 117.790984631826,4.99166387516235,0 117.79126026389,4.99174377720044,0 117.791501553686,4.99190476218317,0 117.791823190089,4.99226014994789,0 117.792110432407,4.99276557831466,0 117.792444222985,4.99369570749964,0 117.792536863617,4.99440776351579,0 117.792456690505,4.99484471433184,0 117.792262014546,4.99526951917514,0 117.7919870023,4.99572940190619,0 117.791540225726,4.99613178238911,0 117.791092478216,4.99632729784144,0 117.790667893656,4.99645424813849,0 117.790347095506,4.99659229399095,0 117.790140400063,4.99676453284136,0 117.790060528746,4.99716643753746,0 117.790084228338,4.99762635336685,0 117.790418050747,4.99863674620709,0 117.79078938024,4.99908050439805,0 117.791106790545,4.99939748899064,0 117.791177592937,4.99967279043099,0 117.79128336914,5.00002809288761,0 117.791377366644,5.00031509103338,0 117.791517354033,5.00064752931749,0 117.791622791127,5.0009570510886,0 117.791716872827,5.00125535306271,0 117.791776180103,5.00157652341286,0 117.791928858585,5.00202417276807,0 117.792069186371,5.00240239161261,0 117.792220530313,5.00274604954613,0 117.79233715611,5.00304418327441,0 117.792454601395,5.00337678957518,0 117.792572250579,5.00381283045785,0 117.792688788757,5.00409909507417,0 117.792819212961,5.00466165096018,0 117.792799743254,5.00507610600667,0 117.792572461441,5.00528467418878,0 117.792299277257,5.00545967128929,0 117.792002641985,5.00558849479309,0 117.791603261622,5.00569491040499,0 117.791078240917,5.00588365531433,0 117.790701487503,5.00600120606381,0 117.79041651925,5.00610733279346,0 117.790028837392,5.00627131309494,0 117.789641415106,5.00647033518503,0 117.789219693194,5.00668035205644,0 117.788911872688,5.00682112722907,0 117.788569756835,5.00697346242372,0 117.788251342842,5.00720588276041,0 117.787921264935,5.0074615641339,0 117.787625054741,5.00764803542184,0 117.787352207059,5.00786881122172,0 117.787033875818,5.00811253489728,0 117.786761027682,5.008333310475,0 117.786397388389,5.0086237199921,0 117.786057146594,5.00902926104993,0 117.785819355069,5.00934134166462,0 117.785535405687,5.00958537376271,0 117.785274510537,5.00989819156992,0 117.78501327183,5.01016466333054,0 117.784786073009,5.01038509814877,0 117.784320143455,5.01079100945704,0 117.784093340296,5.01098883207684,0 117.783809248481,5.0112899524227,0 117.783502528883,5.01157993664482,0 117.783207472898,5.01184665961799,0 117.782729199235,5.01218426945928,0 117.782467927776,5.01237047845066,0 117.782148605777,5.01255711949691,0 117.781852783071,5.01272041117817,0 117.781590692294,5.01287214711425,0 117.781078513145,5.01319813840749,0 117.780828885889,5.01351087086574,0 117.780601512652,5.0137081314046,0 117.780455072429,5.0139505729665,0 117.780733032538,5.01441990348136,0 117.781180167422,5.01452001212706,0 117.781695885663,5.01459587037154,0 117.782199178501,5.01459212369452,0 117.782736846569,5.01458755540445,0 117.783251803278,5.0145605466739,0 117.783755263374,5.0145794064527,0 117.784373442019,5.01456293250035,0 117.78475130355,5.01459403144473,0 117.785106145525,5.01463717138393,0 117.785438443631,5.01468047906161,0 117.785919192328,5.01467689708754,0 117.786376318354,5.01460396791583,0 117.786719804651,5.01463588694643,0 117.787029250812,5.01471384280252,0 117.78744209092,5.01482550660649,0 117.787900666358,5.01494813368477,0 117.788278699915,5.01500240326787,0 117.788667666056,5.01501080776518,0 117.789091319597,5.01498447454956,0 117.789583168362,5.01495763245283,0 117.790006425831,5.0149539105646,0 117.790338979948,5.01503169224466,0 117.790660465782,5.01521299264862,0 117.790904362801,5.01564809293654,0 117.790953563006,5.0160501668436,0 117.790990843875,5.01644102516963,0 117.791027952912,5.01680871052658,0 117.791363237956,5.01725443338223,0 117.791768134025,5.0178143775263,0 117.791965953698,5.01819216815817,0 117.79224380914,5.01856992666765,0 117.792452081972,5.0189131603256,0 117.792718406,5.01925596063411,0 117.792983910855,5.01956428812696,0 117.793214436363,5.01979204924506,0 117.79346807393,5.02002020295731,0 117.793721795611,5.02025966044788,0 117.79393003774,5.020522631649,0 117.793954713426,5.02080958237548,0 117.793854357396,5.02110933636137,0 117.793754773323,5.02151308624596,0 117.793691528458,5.0221805256062,0 117.793683243881,5.02258302871427,0 117.793696647529,5.02287006371534,0 117.793722742902,5.0232723101923,0 117.793737826384,5.02370968295977,0 117.793752561637,5.02410014454659,0 117.793686877464,5.02451494610824,0 117.793575369035,5.02490691553008,0 117.79350956015,5.0252290208863,0 117.793478171879,5.02563226194056,0 117.793032614282,5.02567006711389,0 117.792437876765,5.02573272499656,0 117.791994365924,5.02604634486104,0 117.791045973807,5.02622694703637,0 117.790365901728,5.02709512308669,0 117.789361773197,5.02743666308704,0 117.78915895655,5.02782931320445,0 117.788981549022,5.02853208365828,0 117.788870464354,5.02898170281007,0 117.788804824399,5.02932698117692,0 117.788807808985,5.02972940095433,0 117.78881212433,5.03023524749334,0 117.788850772109,5.03081036101242,0 117.788512530235,5.03141089470039,0 117.788182523415,5.0316778824581,0 117.787671015899,5.03209600889008,0 117.787331613411,5.03261628845348,0 117.786031933085,5.0332364240813,0 117.785782437309,5.03349150601349,0 117.785579871887,5.03391863269885,0 117.785377306187,5.03434575937039,0 117.785254007286,5.03466885847124,0 117.785039657754,5.03502711507649,0 117.784709391746,5.03525962429471,0 117.784345140868,5.0354697774499,0 117.784083124814,5.03563281991873,0 117.783775543463,5.03580807157006,0 117.783053909442,5.03571001079868,0 117.782290628563,5.03615318316441,0 117.782007942048,5.03656960122749,0 117.781817155888,5.03706559731545,0 117.781671172991,5.03744651828651,0 117.781547783542,5.03775774784843,0 117.781277270821,5.03821985866461,0 117.781072860498,5.03847460337787,0 117.780802091814,5.0389022370132,0 117.780483098433,5.03913522556348,0 117.779924649074,5.0393813011776,0 117.779399246772,5.03952312812461,0 117.7789767361,5.03963027507556,0 117.778370876413,5.03971561176892,0 117.777878921691,5.03973114231766,0 117.777296002912,5.03979369802213,0 117.776804131637,5.03982053162786,0 117.776323022708,5.03977832675919,0 117.775842001597,5.03974799065068,0 117.775474543277,5.03960150278761,0 117.775094705147,5.03930532088685,0 117.774703599133,5.03900978772747,0 117.774322517047,5.03862148210859,0 117.773769334135,5.03813158375857,0 117.773357071995,5.03810016911379,0 117.77290017992,5.03820756712261,0 117.772477752109,5.03832601326865,0 117.772066341784,5.0384098982403,0 117.771459888765,5.03841496938667,0 117.770190394835,5.03847131367787,0 117.769649844189,5.03816501698604,0 117.76903203111,5.03815830008609,0 117.76872797806,5.03873596180096,0 117.768723920907,5.03971327474036,0 117.76835221052,5.04044122485322,0 117.76751938506,5.04078145851017,0 117.766583539515,5.04251405309435,0 117.764956130799,5.04364245933639,0 117.762539949192,5.0434433308224,0 117.761706352931,5.04368012526991,0 117.761021470435,5.04390451169723,0 117.760325056524,5.04409393848261,0 117.759434222067,5.04436563309693,0 117.758566721836,5.04459136981149,0 117.758041308013,5.04473317822901,0 117.757377864627,5.04480761542092,0 117.75649776487,5.04493000508,0 117.755708631469,5.04500537101801,0 117.755011877003,5.04514901039803,0 117.754475276292,5.04530276834829,0 117.754007013917,5.04539836647787,0 117.753486184005,5.04547400485157,0 117.753393051902,5.04545660652387,0 117.75316370421,5.04546508620174,0 117.752842725905,5.04550702713204,0 117.752566536305,5.04558424617204,0 117.752255821436,5.04571880889895,0 117.751899443988,5.04585257875101,0 117.751519389695,5.04598595827588,0 117.751104582928,5.04622246680407,0 117.750734167163,5.04651686573099,0 117.75031927655,5.04674206974413,0 117.749880652216,5.04703584205974,0 117.749487995992,5.04729536033547,0 117.7491421029,5.04747540018608,0 117.748647472783,5.0476650176779,0 117.748278946615,5.04783335445863,0 117.747819234967,5.04794245021631,0 117.747520017455,5.04803114182512,0 117.747071752549,5.04816389219847,0 117.746726867987,5.04825122512211,0 117.746405270836,5.04836269082239,0 117.746082629316,5.04848546872243,0 117.74589888561,5.04856369759901,0 117.745634446674,5.04862952208546,0 117.745336015261,5.04867185773063,0 117.744991838092,5.0487020959306,0 117.744671084486,5.04869824699405,0 117.744339591976,5.04861364887858,0 117.744043053173,5.04852992296368,0 117.743630808293,5.04850187868254,0 117.743379136958,5.04846417027737,0 117.743013656557,5.04835664772632,0 117.742659531926,5.04826034577928,0 117.742328603504,5.0481757423075,0 117.7418822007,5.04810159973818,0 117.741539602028,5.0480396912372,0 117.741265923976,5.04792188118416,0 117.740890182368,5.04772173473839,0 117.740650098974,5.04765002563502,0 117.740499866113,5.04776305004496,0 117.740463218271,5.04799223977062,0 117.740378939551,5.04833652318342,0 117.740224869789,5.048771758734,0 117.740013694379,5.04918311049422,0 117.739884063232,5.04949211877366,0 117.739743242157,5.04981251425099,0 117.739578909898,5.05015512723197,0 117.739484202911,5.05038418001303,0 117.739297324886,5.05072695925657,0 117.739098751091,5.05101217092138,0 117.738900429957,5.05133185992409,0 117.738726150149,5.05154793387128,0 117.738471431639,5.05178664504615,0 117.738227194109,5.0520710627721,0 117.737959702097,5.05241274048153,0 117.737586311775,5.05299485794926,0 117.737284204824,5.0533820093602,0 117.737016628809,5.05371238273499,0 117.736738567225,5.05399648414001,0 117.736505463844,5.05433903839371,0 117.736311471203,5.05463438990687,0 117.7361784347,5.05486372497422,0 117.735922921965,5.0551482251508,0 117.735691003229,5.05542181192099,0 117.73545820552,5.0557293191512,0 117.735157422573,5.0559898476201,0 117.734832825162,5.05630820532426,0 117.734543235801,5.05655791161219,0 117.734323687473,5.05675057833723,0 117.734057916104,5.05694302028589,0 117.733768321942,5.0571921610597,0 117.733501451319,5.05746543941469,0 117.733120703622,5.05773673026922,0 117.732889853125,5.05784865126374,0 117.732555473423,5.05806307684055,0 117.732092929406,5.0584027976433,0 117.731643548903,5.05861580864409,0 117.731264442472,5.05872655970043,0 117.730862052623,5.05881374206579,0 117.730472602592,5.05882056557256,0 117.73011776344,5.05878135005079,0 117.729821445185,5.05865126603666,0 117.729399563479,5.05846275625137,0 117.729047014504,5.05827430120129,0 117.728601392836,5.05815379367299,0 117.728225876686,5.05790785312456,0 117.727873557104,5.05767361160854,0 117.727669355031,5.05749876047037,0 117.727499145384,5.05734739908492,0 117.727421921934,5.05711622081821,0 117.727229702804,5.05688419265682,0 117.72691145915,5.05668474444269,0 117.726547781142,5.05643871567081,0 117.726184249631,5.05613559685979,0 117.725855668489,5.05583278606636,0 117.725617787083,5.05559996259947,0 117.725322488708,5.05537773536511,0 117.724821661138,5.05510727812405,0 117.724367116425,5.05476808683655,0 117.724025367123,5.05459141909329,0 117.723660279635,5.05446070666473,0 117.723260407584,5.05435229375032,0 117.722861099303,5.05424387640727,0 117.722427152996,5.05410066867921,0 117.721958197056,5.05402611120855,0 117.721500600731,5.05396333984931,0 117.721168964852,5.05393638332967,0 117.720698904318,5.05394209630277,0 117.720321752022,5.0538572543242,0 117.719875905712,5.05378252544057,0 117.719498441667,5.05373216453957,0 117.719029880688,5.05363442710236,0 117.718652022276,5.05360724317243,0 117.718320217465,5.05355711158918,0 117.717875394227,5.05339080551585,0 117.717498637097,5.05328278409809,0 117.71713519444,5.05299096328895,0 117.716783987289,5.05267644306372,0 117.716489629852,5.05235076610224,0 117.716252377691,5.05204897520622,0 117.71601639617,5.05168952090041,0 117.715803276812,5.05129598470354,0 117.715635734197,5.05089137469499,0 117.715467654033,5.05056759720986,0 117.715312429498,5.05015159208063,0 117.715168230654,5.04970159196281,0 117.715035014237,5.04936625400259,0 117.714901858798,5.04896195689925,0 117.714802720598,5.04866197882004,0 117.714682425152,5.04816601932877,0 117.714607480457,5.04770533712478,0 117.714577652435,5.04732515273403,0 117.714604846422,5.04695755068467,0 117.714597259867,5.04661281305876,0 117.714623742799,5.04630230498087,0 117.714661901318,5.04596966715955,0 117.714687677292,5.04571681824136,0 117.714713847924,5.04544079181741,0 117.714784974186,5.04522322019924,0 117.714731807513,5.04488899109193,0 117.714575314764,5.04453064922123,0 117.714235785831,5.04419343238176,0 117.713905487184,5.0440398489248,0 117.713539927043,5.04392043780577,0 117.713117514312,5.04381161734321,0 117.712751728564,5.04373855660492,0 117.712408657046,5.04368850380938,0 117.712053120342,5.04370693554311,0 117.711731743337,5.04377203127404,0 117.71126177677,5.04378960518714,0 117.710849534929,5.04376153710071,0 117.710482412892,5.04381453206444,0 117.710126168565,5.04389062176523,0 117.709919936609,5.04390004541647,0 117.709690900019,5.04387402619355,0 117.709498462057,5.04368777739273,0 117.70935128767,5.04352493695468,0 117.709125796923,5.04321175219118,0 117.708946133446,5.04292197167491,0 117.708778767049,5.04254053302203,0 117.708646016833,5.04211362211566,0 117.708581495049,5.04176760552215,0 117.708608610584,5.04138869969715,0 117.708693224601,5.04101050342635,0 117.708811199776,5.04072419619198,0 117.708907168484,5.04035722151238,0 117.709038941738,5.03987580731636,0 117.709157064553,5.03953241032067,0 117.70928781736,5.03914313686017,0 117.709418878489,5.03871881661236,0 117.709606565575,5.03833025676021,0 117.709700888289,5.03812438601356,0 117.709819010432,5.03778098904081,0 117.709995901655,5.03738063829508,0 117.710138633476,5.03693362324259,0 117.710268591307,5.03659013961071,0 117.710421974297,5.03621257038052,0 117.710610285087,5.03575504734086,0 117.710741661313,5.03529681080424,0 117.710816098997,5.03483729559468,0 117.710876973216,5.03452766676095,0 117.710857323346,5.03422880189961,0 117.710721506006,5.03407718341029,0 117.710412512906,5.03406192399601,0 117.710023620927,5.03398846512979,0 117.709680325037,5.0339841959407,0 117.709222432578,5.03395589521354,0 117.708741114813,5.03396167964188,0 117.708328879952,5.03393360921675,0 117.707894244233,5.03384804855548,0 117.707345571658,5.03373788651477,0 117.706979788663,5.03366425645536,0 117.706545799127,5.03358999471021,0 117.706157302786,5.03349335568952,0 117.705814550462,5.03340881693929,0 117.705449080644,5.03330070430341,0 117.705004675455,5.03311177499172,0 117.70460584176,5.0329112073825,0 117.704276576939,5.03266604250974,0 117.704003847203,5.03244420391389,0 117.703708568683,5.03222196480579,0 117.703470705845,5.03198913157284,0 117.70316367387,5.03177828278207,0 117.702743318025,5.03148573795142,0 117.702266654743,5.03112351527039,0 117.70196002296,5.03089005350551,0 117.701505428077,5.03053953880441,0 117.701005340638,5.03021140024403,0 117.700608330507,5.02987346445437,0 117.700291049864,5.02957055572612,0 117.699917066866,5.0292211465359,0 117.699553648156,5.02892931383232,0 117.699133609332,5.02860228461308,0 117.69875922818,5.02827548690974,0 117.698408441444,5.02793777722491,0 117.698045419648,5.02762276601278,0 117.697740208794,5.0272739837066,0 117.697412203353,5.02689088833222,0 117.697128915305,5.02661146947576,0 117.69687969887,5.02636684632327,0 117.696551944719,5.02601822789213,0 117.696098461156,5.02558687207705,0 117.695690411999,5.02520266405745,0 117.695316203055,5.0248990373436,0 117.694929676956,5.02460680491223,0 117.694566036111,5.02436131971805,0 117.694110673891,5.02413685169584,0 117.693699786302,5.02398271323981,0 117.693210044169,5.02375849519958,0 117.692787880651,5.02360387305649,0 117.692320370039,5.02341397142763,0 117.69186302701,5.02330482380011,0 117.691485583885,5.02325444303484,0 117.691245283431,5.02322849802311,0 117.690890470966,5.02318982184253,0 117.690478011713,5.02320752373479,0 117.689995991824,5.02327095093962,0 117.689548042547,5.02336917407068,0 117.689042991946,5.02344350775056,0 117.688526436859,5.02356370880221,0 117.687986605482,5.02366090430968,0 117.687550009604,5.02377034795889,0 117.687147884109,5.02389197546342,0 117.686767825364,5.02402531197039,0 117.686365221799,5.02415881237483,0 117.685986040324,5.0242576626872,0 117.685468687801,5.02442365096516,0 117.685123808825,5.02451151159993,0 117.684676339296,5.02459842292703,0 117.684273248836,5.02474266496562,0 117.683778611696,5.02493222639844,0 117.683432789511,5.02512353096862,0 117.683155887212,5.02525837569914,0 117.682867875969,5.02541591052823,0 117.68249933677,5.02558363997047,0 117.682210847396,5.0257530479255,0 117.68192195773,5.02594506807835,0 117.681494581724,5.02623870709886,0 117.681217613376,5.02644251020234,0 117.680790632701,5.02671297125185,0 117.680478715411,5.02691646292753,0 117.680131384103,5.02721121483872,0 117.679842260303,5.02744901989182,0 117.679611266545,5.02761913924158,0 117.679436887918,5.02782389161006,0 117.679194135484,5.02800483577267,0 117.678867861215,5.02848370088484,0 117.678518792433,5.02892825215776,0 117.678274466852,5.02928160439933,0 117.678052293763,5.02965853551742,0 117.677829720135,5.03005807894434,0 117.677688785781,5.03036715661656,0 117.67748955713,5.0307213114834,0 117.677326698422,5.03096045914421,0 117.677175349004,5.03115430426942,0 117.677043631873,5.03164701667752,0 117.676934549351,5.03215199986913,0 117.676885411393,5.0324502363612,0 117.67678894101,5.03282851504813,0 117.676739888694,5.03313862091056,0 117.676700287003,5.03358657580919,0 117.676612409107,5.03421801805983,0 117.676551120177,5.03455082234436,0 117.676479036536,5.03487183509654,0 117.676393690993,5.03530768722327,0 117.676320961918,5.03561739996413,0 117.676282785565,5.03595060165438,0 117.676323941776,5.03634201167514,0 117.676330479727,5.03677889213392,0 117.676326292591,5.03713558691856,0 117.676322019723,5.03748041237434,0 117.676280448659,5.03812395383971,0 117.676275150465,5.03856092040736,0 117.676271588402,5.03884808661633,0 117.676255495498,5.03927326167928,0 117.676308410785,5.03965384696023,0 117.676258161106,5.04003235554993,0 117.676276919653,5.04036627434303,0 117.676260973934,5.04073379426081,0 117.676231786588,5.04129698243528,0 117.676270892823,5.04187267496464,0 117.676334366341,5.04231027262875,0 117.67637655274,5.04261010708626,0 117.676463221245,5.04305940623623,0 117.676436235857,5.04338122229997,0 117.676444199935,5.04370334969114,0 117.676450738501,5.04414023063402,0 117.676492443207,5.04445137340157,0 117.676511447267,5.04481920485662,0 117.676563881556,5.04521109863756,0 117.676627523302,5.04567186996776,0 117.676736260283,5.0461328788764,0 117.676890995249,5.04664103348507,0 117.677046588171,5.04703387337624,0 117.677245957467,5.04763440252429,0 117.677492807546,5.04809723380168,0 117.677670718285,5.04853626083622,0 117.677882390711,5.04904513189367,0 117.678128131231,5.04958823473907,0 117.678295795045,5.04993520235394,0 117.678575612329,5.05051366728068,0 117.678867417578,5.05103495590751,0 117.679069468587,5.05138223853061,0 117.679361670821,5.05188034927774,0 117.679631074404,5.05234358092971,0 117.679948126058,5.05269228788168,0 117.680137880883,5.05313179333161,0 117.680328574696,5.05346728812726,0 117.680541590239,5.05384953524114,0 117.680721407642,5.05416193427057,0 117.681145644354,5.05413284715776,0 117.68174323755,5.05399058132444,0 117.68237433905,5.05388311579836,0 117.682822794858,5.05377358747421,0 117.683258303954,5.05374441680374,0 117.683763691615,5.05363503862385,0 117.684269397168,5.05349174344728,0 117.684718398349,5.05330194600405,0 117.685029385418,5.0532018955085,0 117.685294149485,5.05310161621721,0 117.68568359867,5.05309482343942,0 117.68607367566,5.05301906685967,0 117.686453439082,5.05292021041599,0 117.686854956563,5.05286754472675,0 117.68735923722,5.0528390005278,0 117.687703422621,5.05280879620917,0 117.688081680505,5.05281338812084,0 117.688459456654,5.05282928804041,0 117.688768146379,5.05287904021529,0 117.689018395104,5.05303152610751,0 117.689279607196,5.05321897668248,0 117.689529624425,5.05341724824392,0 117.689811732185,5.05376563885892,0 117.68999178603,5.05403224870246,0 117.690125553398,5.05436758965357,0 117.690110807758,5.05466614244362,0 117.690138570623,5.05523004688235,0 117.690157024613,5.05559844709894,0 117.690186519868,5.05601255106427,0 117.690194014681,5.05634655173874,0 117.690213260039,5.05666859676997,0 117.690255537098,5.05697973437671,0 117.690296787203,5.05738244795789,0 117.690338269063,5.05773937562547,0 117.690448528365,5.05809749752695,0 117.690615574841,5.05851342480572,0 117.690840121966,5.05893006320844,0 117.690997064328,5.05919627610182,0 117.691221216444,5.05963609198607,0 117.691412400442,5.05996027451903,0 117.691637180313,5.06033112667318,0 117.69187362904,5.06067871887782,0 117.692075777362,5.06103786595243,0 117.692209066184,5.06138451482676,0 117.692411296999,5.06175496594375,0 117.692680947149,5.06217240508163,0 117.69296385233,5.06247443886938,0 117.693268767242,5.0628577061475,0 117.693517454323,5.06318259885354,0 117.693742236882,5.06355345016647,0 117.693933655037,5.06383184589317,0 117.694033267572,5.06412052065198,0 117.694212073282,5.06452505638385,0 117.694436770686,5.06488403805969,0 117.694673622588,5.06520901664894,0 117.694854082019,5.06545301255424,0 117.695102289576,5.0657892128228,0 117.695430548826,5.06612652422728,0 117.695724820829,5.06644090884747,0 117.695996456605,5.06674302337135,0 117.696314070292,5.06701145295495,0 117.696756937977,5.06737336229262,0 117.697153496005,5.06772317430166,0 117.6974946201,5.06796882195144,0 117.697857500197,5.06826065995758,0 117.698233407384,5.06848344351392,0 117.698448256581,5.06872775221038,0 117.698686842145,5.06890292834861,0 117.69902709081,5.06918306095213,0 117.699300150265,5.06937042012737,0 117.699652067872,5.06962729230571,0 117.699912895692,5.06983791533009,0 117.700208275362,5.07007146041342,0 117.700468950847,5.07033860807914,0 117.700706829511,5.07057144277193,0 117.701013487168,5.07080547020512,0 117.701504693079,5.07091492615129,0 117.701802741608,5.07089522427547,0 117.702285510548,5.07077468943237,0 117.702437803056,5.07047795621628,0 117.702660594678,5.07003148457327,0 117.702756344186,5.06971085967506,0 117.70314674185,5.06960060888469,0 117.703362469899,5.06981042968749,0 117.703600263037,5.07003139373495,0 117.703837039842,5.0703450640971,0 117.704040219652,5.07061206544782,0 117.704254755103,5.07089028838899,0 117.704640523891,5.07122830389939,0 117.70492469461,5.07139296945396,0 117.705394457754,5.07142174994504,0 117.705671292861,5.07127558808769,0 117.706040078318,5.0710614897478,0 117.70642962047,5.07106598618364,0 117.706969182239,5.07100381640743,0 117.707290969717,5.07091554415583,0 117.707601796468,5.0707928725109,0 117.707900469575,5.07070420396273,0 117.708256960656,5.07058232804349,0 117.708566224443,5.07063206476284,0 117.708838012228,5.07087651748673,0 117.70907487443,5.07120148963342,0 117.709208883189,5.07149047473359,0 117.709389038073,5.07176894746373,0 117.709534489188,5.07208102340022,0 117.709656912762,5.07240457276772,0 117.709759105895,5.07265931136735,0 117.70987966577,5.07295913437846,0 117.71041905977,5.07287378774986,0 117.710749058184,5.07306128920769,0 117.71097558622,5.07328289782166,0 117.71127167883,5.07345877747204,0 117.711626834895,5.0734629570765,0 117.711913445916,5.07342072424228,0 117.71247626226,5.07330072449383,0 117.712807597033,5.07336216699595,0 117.713069701496,5.07351512015928,0 117.713342285888,5.07371378056941,0 117.71360203404,5.073930057337,0 117.714013423888,5.07414748275022,0 117.714366057121,5.07434668600822,0 117.714477210642,5.07467031690269,0 117.714654763537,5.07513250909544,0 117.714870411023,5.07533045593034,0 117.7151086093,5.07552880247466,0 117.715381676493,5.0757161535741,0 117.715470267845,5.07580594155275,0 117.715879828617,5.07623590821736,0 117.715968823141,5.07653539622458,0 117.715987234781,5.07697275487061,0 117.716031816692,5.07713408562399,0 117.716099261374,5.07726133435362,0 117.716246048176,5.07744678550975,0 117.716475406102,5.07743775419313,0 117.716762803411,5.07734859832992,0 117.717072521875,5.07730562795699,0 117.717232935205,5.07727279719301,0 117.717360732732,5.07717350779876,0 117.717373375999,5.07697501668457,0 117.717319474758,5.07661818236438,0 117.71726503219,5.07634161572086,0 117.717198835274,5.07607644010442,0 117.717213562477,5.0757773215003,0 117.717284521407,5.07553657482892,0 117.717343271134,5.07539935618689,0 117.718105393612,5.07563229153315,0 117.72300754087,5.07713485549783,0 117.728936811839,5.0789520015519,0 117.732551447977,5.08005924762559,0 117.738003374033,5.08173002577691,0 117.744204475408,5.08362978890418,0 117.744483003543,5.08371477740775,0 117.750897721251,5.08568241138104,0 117.752601892974,5.08156223241148,0 117.761742711673,5.05946677956237,0 117.761731006075,5.06001966380204,0 117.761673525373,5.06048018938449,0 117.761695887202,5.06083725059247,0 117.761741977286,5.06112517747197,0 117.761867264468,5.06152782452152,0 117.762073249061,5.06194287344139,0 117.76231372229,5.06221918447737,0 117.762588073698,5.06242685096396,0 117.76312586005,5.06273769644549,0 117.763561113974,5.06297977846915,0 117.76399628483,5.06321055610707,0 117.764396334718,5.06341785424117,0 117.764545262111,5.06351001249795,0 117.765209348685,5.06390187739994,0 117.765701398778,5.06420175513474,0 117.766033077433,5.06438638503447,0 117.766513822246,5.06460551768853,0 117.766994767538,5.06492808600491,0 117.76750953643,5.06525096794833,0 117.767830110218,5.06545828852432,0 117.768230726532,5.06566557963423,0 117.768597044036,5.06588442987993,0 117.76898613736,5.06605789207236,0 117.76934132007,5.06621917081102,0 117.769684803976,5.06632288251977,0 117.770119573895,5.06634621789817,0 117.770497719903,5.06633492933358,0 117.770886893382,5.06651912900588,0 117.771206993055,5.06673832099984,0 117.771504493076,5.06702663916167,0 117.771687785078,5.06726832663152,0 117.771813584909,5.06751044143878,0 117.771881800567,5.06774054919478,0 117.77198463817,5.06815523060628,0 117.772041782069,5.06848885823344,0 117.772121785018,5.06878840196141,0 117.772190112874,5.06949104337895,0 117.772178232369,5.06979013980625,0 117.772178158772,5.07000888541683,0 117.772200974,5.0702738099429,0 117.772292750251,5.07041217483561,0 117.772510004464,5.07059652104386,0 117.772750402671,5.07086152335118,0 117.772818569681,5.07116115505888,0 117.77281847258,5.07152912233933,0 117.772772635886,5.0718861251164,0 117.772726372796,5.07218547733036,0 117.772680334751,5.07243904401876,0 117.77265754384,5.0726347840887,0 117.772577373554,5.07292251858233,0 117.772462541385,5.07332525312788,0 117.77240508855,5.07363599327425,0 117.772427884505,5.07405070483984,0 117.772404338803,5.07437306279266,0 117.772427546754,5.07461480999916,0 117.772564400991,5.07490319170661,0 117.772781942031,5.07520227801215,0 117.77291929197,5.07532899926366,0 117.773193790615,5.07547900548915,0 117.773732147449,5.07555978621413,0 117.774499057711,5.07567560624435,0 117.775266360362,5.07576824775356,0 117.775758379426,5.07575723836006,0 117.77631959145,5.07580336731461,0 117.776559893842,5.07582644896211,0 117.776960869763,5.07570024344611,0 117.777201362068,5.07559671124606,0 117.777625241223,5.07536633195061,0 117.777923111933,5.07517080456894,0 117.77819764787,5.07502123465988,0 117.778541517639,5.07487171356448,0 117.778827841288,5.07479157922432,0 117.779205600161,5.07480346191838,0 117.779571826306,5.07478038584061,0 117.779869506601,5.07471147105819,0 117.780327837288,5.0746424898089,0 117.780636794706,5.07457405586257,0 117.781003465197,5.07445884267942,0 117.781507063895,5.07441326298925,0 117.782033891572,5.07445964262764,0 117.782766858224,5.07448300642522,0 117.783270316259,5.07449451470753,0 117.783717069206,5.07446066150652,0 117.784174835326,5.07439168144308,0 117.784598474002,5.07435743468273,0 117.784942377227,5.07428873787135,0 117.785446023145,5.07417363085142,0 117.785824256989,5.07417363578543,0 117.786213084601,5.07408199384545,0 117.786556643511,5.0739669496375,0 117.78682051887,5.07374849707159,0 117.786957903021,5.07357564151854,0 117.787267366003,5.07319575755377,0 117.787485240796,5.07293129898183,0 117.787816925785,5.07273551456408,0 117.788011790643,5.07271258153143,0 117.788148938934,5.07273586295839,0 117.788412693931,5.07280511366113,0 117.788767577667,5.07300086118659,0 117.789133775305,5.07327791739748,0 117.789419446213,5.0735657487074,0 117.789614020647,5.07380734574794,0 117.789843122172,5.07399216175315,0 117.790231966123,5.07413056635014,0 117.790781800395,5.07431468266333,0 117.791331467043,5.0744761904106,0 117.791697509261,5.07458028514193,0 117.792063975707,5.07474146486227,0 117.792441635663,5.07489182130915,0 117.792819613401,5.07485734437098,0 117.793208831403,5.07474252030883,0 117.793449506241,5.07451236832227,0 117.79359869236,5.07425916022332,0 117.793839171648,5.073775220647,0 117.794091100078,5.07331493519257,0 117.794343456649,5.07291230009059,0 117.79452671748,5.0726933163159,0 117.794824850593,5.07238247163713,0 117.795099431226,5.07216393559139,0 117.795466077216,5.07181866463339,0 117.795683947518,5.07155420336539,0 117.795924228711,5.07134722805646,0 117.796084877899,5.07134715739892,0 117.796268026469,5.07141644188602,0 117.79658856201,5.07169270401675,0 117.7968626594,5.0720156621825,0 117.797148883551,5.07245327142775,0 117.797388884381,5.0728906610167,0 117.797652171984,5.0733516160367,0 117.797801093591,5.07359355150156,0 117.798006489471,5.07407698341527,0 117.798098111551,5.07457257101691,0 117.798109270404,5.07486019023745,0 117.798051562042,5.07528624108642,0 117.798017354763,5.07568894167627,0 117.797822450541,5.0761612374046,0 117.797570389398,5.07667917918751,0 117.797352248689,5.07705895073164,0 117.797214546788,5.07741607656407,0 117.797123250231,5.07764624343587,0 117.796973980901,5.07788814853462,0 117.796722252058,5.07807203580772,0 117.796446886867,5.07833692788201,0 117.796195195098,5.0786016428262,0 117.796068960311,5.07868171923795,0 117.795771331519,5.07868168383021,0 117.79533625915,5.07854306362202,0 117.794912720682,5.0784394012193,0 117.794500455519,5.07833565422578,0 117.793928173032,5.07839306353495,0 117.793481576462,5.07859988471312,0 117.792965803238,5.07897961825476,0 117.792530907419,5.07924400501095,0 117.791912062905,5.07963524725573,0 117.791236539706,5.08006082622004,0 117.790583221867,5.08044045483524,0 117.789930466787,5.08082007859177,0 117.789415029056,5.08124559072941,0 117.789059786624,5.08153368546179,0 117.788922620981,5.08166019114008,0 117.788693386739,5.08191343099045,0 117.788269811592,5.08210877205683,0 117.787777344798,5.08221192886862,0 117.787296187303,5.08239582915561,0 117.786734833467,5.08278720271134,0 117.785887104629,5.08332823819372,0 117.785142545186,5.08371928149454,0 117.784432795896,5.08416771808907,0 117.783813768278,5.08453577951782,0 117.783183946348,5.08489261617667,0 117.782828830376,5.08512248764294,0 117.782531143126,5.08557124134688,0 117.782404739087,5.08600910912472,0 117.782381385477,5.08658469090726,0 117.782381194677,5.08709114157408,0 117.782449314728,5.08783956823553,0 117.78255194256,5.0886804360198,0 117.782711585369,5.08953218345918,0 117.782745647059,5.09009659804227,0 117.782791510267,5.09058009623569,0 117.782804374445,5.09087053052054,0 117.782769523821,5.09149198243013,0 117.782677706462,5.09203303070073,0 117.782609051916,5.0925049477606,0 117.782574221933,5.09297717789274,0 117.782505514929,5.09351805398166,0 117.78239051509,5.09389761829952,0 117.78218452248,5.09447343208453,0 117.782023948342,5.09486464088697,0 117.781794840152,5.09544006177622,0 117.781416960599,5.09594593738603,0 117.781164642403,5.09628017609059,0 117.780775796297,5.09675165386519,0 117.780305863643,5.09723504046855,0 117.779779144747,5.09789068130041,0 117.77941281251,5.09828172732241,0 117.779229401756,5.09855836328843,0 117.779103398257,5.09882270156246,0 117.779000254243,5.09905295541768,0 117.778931719095,5.09923716738707,0 117.779000114041,5.09949044828137,0 117.779046150936,5.0996172831322,0 117.779171324008,5.10007758219798,0 117.779239768309,5.10064174196493,0 117.779331204654,5.10111359712609,0 117.779490767217,5.10157420517038,0 117.779639567494,5.10210385207117,0 117.779673332781,5.10255239714329,0 117.779627601495,5.1031513220038,0 117.779604021457,5.10377269125805,0 117.779684132533,5.1043135896465,0 117.779740740761,5.10487783786823,0 117.779820323972,5.10549956890848,0 117.779934292332,5.10612104370876,0 117.779979966763,5.10673115760531,0 117.779991084548,5.10731835445856,0 117.780013559989,5.10791677142194,0 117.779990446113,5.10829678204425,0 117.779932859154,5.1086651796874,0 117.779818247252,5.10902156719501,0 117.779783792648,5.10924057022527,0 117.77980644257,5.10948232231046,0 117.779795046781,5.10977011225849,0 117.77971453289,5.11001150280879,0 117.779497429649,5.11023017146444,0 117.779165188426,5.11050622171109,0 117.778707204022,5.11070181482745,0 117.777997985,5.11077040564871,0 117.777494151516,5.11071254845243,0 117.777002551822,5.11063199023807,0 117.776579075216,5.11053961950212,0 117.776304712159,5.11056257659496,0 117.776029648713,5.11064319285936,0 117.775812284188,5.11082681756042,0 117.775503376722,5.11105690796858,0 117.775297188063,5.11137949740967,0 117.775113630623,5.11171322303584,0 117.774987586383,5.11227713686515,0 117.774998717816,5.11271454694112,0 117.775078536317,5.11314014090551,0 117.77522677277,5.11366979419381,0 117.775272602451,5.11407303179159,0 117.775375075209,5.11436053938007,0 117.775615666164,5.11464871415496,0 117.77598148586,5.11494782617743,0 117.776210341293,5.1150976051402,0 117.776518770175,5.11525922652264,0 117.776988063833,5.11552421818885,0 117.777502541617,5.11580074278902,0 117.777914810553,5.11605372329239,0 117.778234941618,5.1162729106302,0 117.778681037234,5.11652620372723,0 117.779001305154,5.11668773547319,0 117.779173105035,5.11674523963266,0 117.779481703162,5.11692946753155,0 117.77974484514,5.11721747236804,0 117.780030570944,5.11758613753416,0 117.780316156752,5.11801189248053,0 117.780784889003,5.1186567239634,0 117.781231246215,5.11932489660259,0 117.781688258452,5.1200613830471,0 117.782031164595,5.12061445309038,0 117.782328303222,5.12130521682187,0 117.782545444697,5.12192705307579,0 117.782899486861,5.12253712845269,0 117.783231341444,5.12304393083789,0 117.783585964504,5.12350421372316,0 117.78400883683,5.12404538116184,0 117.784454774276,5.12465590025447,0 117.78485504834,5.12526619459487,0 117.785335029608,5.1258301094509,0 117.785895458176,5.12637137902184,0 117.786398968296,5.12676328527275,0 117.786764940923,5.1270052999397,0 117.787119346844,5.12713209243542,0 117.78749708848,5.12721292622703,0 117.787725794068,5.127189738965,0 117.788035081309,5.1270862512926,0 117.788286884734,5.12683340516815,0 117.78851605147,5.12656885810287,0 117.788848036016,5.12625775863048,0 117.788950825444,5.12613150812529,0 117.788996723356,5.12593559334327,0 117.788917045916,5.12568239743523,0 117.788653723257,5.12537122370385,0 117.788093414183,5.12492208970245,0 117.787578499443,5.12458848956836,0 117.787201561629,5.12431207788824,0 117.786846916242,5.12400102004665,0 117.786549414058,5.12379353881286,0 117.786183271562,5.12352835054479,0 117.785897491365,5.12322921311088,0 117.785702863515,5.12290678558415,0 117.78558907336,5.12253853561073,0 117.785520515197,5.12211229385034,0 117.785509510662,5.12161722886476,0 117.785555480668,5.12120313264888,0 117.785749931986,5.12074270912901,0 117.785967615174,5.12037424567556,0 117.78624287065,5.11978773640227,0 117.786494635428,5.11945406304383,0 117.786758134475,5.11925821961181,0 117.78702119442,5.11915507807717,0 117.787319012455,5.11917772451348,0 117.787593400678,5.11938537797069,0 117.787798859205,5.11979985728058,0 117.787993403003,5.12011097983346,0 117.788233690755,5.12043306535979,0 117.788473433785,5.12060593250999,0 117.788794060999,5.12066345237922,0 117.789056985845,5.12061796495496,0 117.789457677053,5.1205256639646,0 117.789835209406,5.12050305978539,0 117.79021294685,5.12058389201482,0 117.790682213312,5.12076804334501,0 117.791002314242,5.12090639463168,0 117.791391498379,5.12101031517258,0 117.791791817451,5.12117124102755,0 117.792524117633,5.12155182213682,0 117.793232995526,5.12196649157711,0 117.793942522202,5.12239245995557,0 117.794788907495,5.12287675331072,0 117.795268996686,5.12330274068353,0 117.795795091521,5.12377473270685,0 117.79618399254,5.12414318233789,0 117.79651578744,5.12448888443181,0 117.796721304586,5.12483440104398,0 117.796870190625,5.12514529685424,0 117.796938815916,5.1253522247653,0 117.796915998818,5.12546770369469,0 117.796743821137,5.12566286842037,0 117.796458031569,5.1258933628563,0 117.796194432582,5.1262271292986,0 117.795931186535,5.12645688957032,0 117.795644744181,5.12667551860559,0 117.795198591819,5.12687103741846,0 117.794694680272,5.12703194339955,0 117.794134073485,5.12737697488685,0 117.793767444568,5.12765329181711,0 117.793504112749,5.12787174705078,0 117.793332656203,5.12823986791726,0 117.793274853816,5.12865405334902,0 117.793285987364,5.12924125082886,0 117.793308554528,5.13000132524474,0 117.793365348765,5.13058818131262,0 117.79336524183,5.13125572664916,0 117.793341779263,5.13173917956396,0 117.793341786708,5.13211901862761,0 117.793272932996,5.13248750281535,0 117.793146711124,5.13279819672186,0 117.793055200053,5.13292492901262,0 117.792837577112,5.13307408352159,0 117.792596980864,5.13316632083962,0 117.792242725082,5.13321192813052,0 117.791750284681,5.13309691068402,0 117.791452981502,5.13299286906091,0 117.791098352069,5.13291243057423,0 117.790388595835,5.13291208396755,0 117.7898395901,5.1329229702858,0 117.789404756095,5.13304944172222,0 117.789095587129,5.13324506322226,0 117.788843804397,5.1337285267713,0 117.788717649686,5.13420031207664,0 117.788751686349,5.13468390090156,0 117.789071641492,5.13502913100455,0 117.789403625475,5.13524822309221,0 117.789677985328,5.13537504673285,0 117.789998057255,5.13543256960881,0 117.790341553109,5.13545600296745,0 117.790650569883,5.13546725865115,0 117.790982227736,5.13549078011735,0 117.791302812649,5.13561725735756,0 117.791519842223,5.13576711821198,0 117.791646072048,5.13583626377157,0 117.791966316725,5.13591695894999,0 117.792240593287,5.13603247718718,0 117.79260680631,5.13607834874974,0 117.792984638525,5.13617048261289,0 117.793384973065,5.13633197206089,0 117.793739596258,5.13656276212541,0 117.793968107148,5.1368159745064,0 117.794173846604,5.13711514137907,0 117.794402568258,5.13747235564417,0 117.79457400559,5.13778308377838,0 117.794780326158,5.13793302345691,0 117.795043241472,5.13803675531083,0 117.795340543632,5.13814022968212,0 117.79564947758,5.1381401784298,0 117.795993193648,5.13811725717021,0 117.796267879434,5.13806037299246,0 117.796519667123,5.13795674542922,0 117.796874155768,5.13771499626479,0 117.797160641039,5.13757719444703,0 117.797286660989,5.13754233666406,0 117.79762969453,5.13742785117207,0 117.798018814197,5.13737010928879,0 117.798396491007,5.13728984337074,0 117.798854253879,5.13728980622563,0 117.799128934672,5.13723235552602,0 117.799598159939,5.13710618411842,0 117.799941667914,5.13697982376861,0 117.800342233958,5.13694516929059,0 117.800628054704,5.13694528856911,0 117.801108884042,5.13701460090082,0 117.80148641535,5.13714177593215,0 117.801943726759,5.13738366098315,0 117.802115742279,5.13754459450643,0 117.802401542217,5.13784428845574,0 117.802698478798,5.13820098766605,0 117.803053042525,5.13864995346025,0 117.803282076674,5.1389726820288,0 117.803533694759,5.13937550476721,0 117.803796503249,5.1397669387406,0 117.803968024721,5.14023932083049,0 117.804047439702,5.14060725962383,0 117.804139032907,5.14117180949874,0 117.80436726875,5.14168955034356,0 117.804561607318,5.14204645285577,0 117.804882129683,5.14254145703365,0 117.805271089183,5.1429907286512,0 117.805533776781,5.14329002912766,0 117.805842387684,5.14362402959337,0 117.806117269417,5.14381979993333,0 117.806254559283,5.14393520852859,0 117.806597828917,5.14415420538461,0 117.80686095737,5.14436136828839,0 117.807112198951,5.14463757918697,0 117.80721517318,5.14491377238729,0 117.807237703893,5.14521317886104,0 117.807317911702,5.14553589237217,0 117.807443168699,5.1459272266432,0 117.807614651284,5.1463182138971,0 117.807775094616,5.14651427719556,0 117.808003442512,5.14674431012015,0 117.808266910042,5.14714760704934,0 117.808403664402,5.14749307060851,0 117.808529446407,5.14780357182729,0 117.80875835444,5.14818395330333,0 117.808929638361,5.14832171544229,0 117.809227076691,5.1485178800402,0 117.809592935178,5.14881696900039,0 117.810085073267,5.14926659273475,0 117.810439734422,5.14972685780988,0 117.810759839794,5.15016477277948,0 117.810999847448,5.15052132997035,0 117.811125595462,5.15075156718884,0 117.811194225833,5.1511088466747,0 117.811319792948,5.15146569835311,0 117.811537030857,5.15186821063178,0 117.811788270339,5.15229420728196,0 117.811982657961,5.15273193582411,0 117.812154065652,5.15311218280959,0 117.812291556754,5.15348024944063,0 117.812394193027,5.15371066010481,0 117.812417213916,5.15384897022926,0 117.812485325792,5.15413672934526,0 117.812462326139,5.154378258581,0 117.812439359528,5.15485040444979,0 117.812530488348,5.15527590853435,0 117.812690791677,5.15567884839266,0 117.81281619186,5.15601309160813,0 117.812804801945,5.15645010584166,0 117.812506631853,5.15691075482834,0 117.812209032588,5.15722161145225,0 117.811808212837,5.15760107224582,0 117.811384710379,5.15803835752693,0 117.8109728363,5.15837211666339,0 117.810777763076,5.1585216747552,0 117.810571930423,5.15874027265547,0 117.810480282667,5.15892409832642,0 117.810434293774,5.15925793424209,0 117.810480085551,5.15935028921913,0 117.810605968397,5.15952287145464,0 117.810822963692,5.15974168379953,0 117.811051532101,5.16007571764021,0 117.811177617022,5.16050152485254,0 117.811268959892,5.16103103170056,0 117.811337177745,5.16170993521195,0 117.81141680756,5.16233166395436,0 117.811451124556,5.16284972945444,0 117.811530802923,5.1634024988379,0 117.811678867465,5.16397792902513,0 117.811873252168,5.16456544628392,0 117.812067423359,5.16504896124964,0 117.812284966201,5.16556678001061,0 117.812513088016,5.16614217348819,0 117.812661681655,5.16663733570295,0 117.812753159842,5.16710918729775,0 117.812775735994,5.16748942306329,0 117.812832611871,5.16785753095501,0 117.812958218149,5.16844499988905,0 117.813072468111,5.16887089597771,0 117.813290061463,5.16931975499579,0 117.813484025688,5.16969983251262,0 117.813712901567,5.16999881829182,0 117.813884197729,5.17013714400126,0 117.814170381307,5.17018360215509,0 117.814571142198,5.17017210923434,0 117.814845920942,5.17012595370071,0 117.815097327968,5.17004549430692,0 117.815223320811,5.16993093352523,0 117.815555479963,5.16979277734692,0 117.815761745751,5.16963182819885,0 117.816082377861,5.16930949073749,0 117.816322610731,5.16894140858499,0 117.816574334988,5.16852689035451,0 117.816769246632,5.16820493345096,0 117.816941430544,5.16785940754954,0 117.817170298538,5.16747954072679,0 117.817410703507,5.16713463178715,0 117.817593812857,5.16689302737647,0 117.817937471268,5.16655921110489,0 117.818212427243,5.16638643945352,0 117.818567137502,5.16624867725934,0 117.819002198968,5.16622561842858,0 117.819345407741,5.1662835146957,0 117.819848596233,5.16639899075667,0 117.820146180603,5.16638714061128,0 117.820294758919,5.16635267257784,0 117.820684382957,5.16613438237192,0 117.820936013016,5.16585834666125,0 117.821199223045,5.16554774413288,0 117.821382593618,5.16519082824482,0 117.821497488636,5.16479938345675,0 117.821680694301,5.16427007131133,0 117.822013210356,5.16372889474617,0 117.822230493268,5.16338359324576,0 117.822413693115,5.16300406902477,0 117.822608557548,5.16260128215646,0 117.822837631398,5.16232485065134,0 117.823043939198,5.16209494010279,0 117.823318731006,5.16159998234347,0 117.82351350511,5.16133567913088,0 117.823627910107,5.1612551184542,0 117.823799600078,5.16122047545316,0 117.823901984111,5.16126605322319,0
</coordinates></LinearRing></outerBoundaryIs></Polygon></Placemark><Placemark><name>6faa2bb1 58df 4c92 b598 826513842242</name><description><![CDATA[0]]></description><Style><LineStyle><color>800000ff</color><width>3</width></LineStyle><PolyStyle><color>800000ff</color></PolyStyle></Style><Polygon><altitudeMode>clampToGround</altitudeMode><outerBoundaryIs><LinearRing><coordinates>
117.900063946956,4.97330972787402,0 117.901361198467,4.9718356125425,0 117.900604707387,4.97168501792991,0 117.900122855666,4.97197241973248,0 117.899774414203,4.97204751164248,0 117.899169928755,4.97188177216955,0 117.896997543152,4.97335908692858,0 117.896327229143,4.97425949461441,0 117.89670729821,4.97536609962875,0 117.896727548111,4.9758632055891,0 117.896575314127,4.9767769566191,0 117.896634195472,4.97714479960297,0 117.897826035121,4.97747627797652,0 117.899041066736,4.97722368908052,0 117.899216736271,4.97746854405879,0 117.899956099443,4.97849910377203,0 117.899554807451,4.97922965918242,0 117.901072790907,4.98124273660165,0 117.901575412485,4.98084215848811,0 117.902065525548,4.98072250963002,0 117.902844889606,4.98151586742709,0 117.902833156006,4.98226958953358,0 117.902826648293,4.9830998061499,0 117.902833670362,4.98384513741842,0 117.902712260991,4.98443921457847,0 117.902502449033,4.98493667907227,0 117.902274468287,4.98538338622456,0 117.902010172966,4.98587383380221,0 117.902061066642,4.98627920447469,0 117.914709557828,4.9854334060159,0 117.912701109897,4.9764311568058,0 117.908979360406,4.97553983011835,0 117.900063946956,4.97330972787402,0
</coordinates></LinearRing></outerBoundaryIs></Polygon></Placemark></Folder></kml>