<kml xmlns="http://www.opengis.net/kml/2.2" xmlns:gx="http://www.google.com/kml/ext/2.2" xmlns:kml="http://www.opengis.net/kml/2.2" xmlns:atom="http://www.w3.org/2005/Atom">
<Document>
	<name>PIL Plantations.kml</name>
	<open>1</open>
	<Style id="sn_ylw-pushpin16">
		<IconStyle>
			<scale>1.1</scale>
			<Icon>
				<href>http://maps.google.com/mapfiles/kml/pushpin/ylw-pushpin.png</href>
			</Icon>
			<hotSpot x="20" y="2" xunits="pixels" yunits="pixels"/>
		</IconStyle>
	</Style>
	<Style id="sh_ylw-pushpin12">
		<IconStyle>
			<scale>1.3</scale>
			<Icon>
				<href>http://maps.google.com/mapfiles/kml/pushpin/ylw-pushpin.png</href>
			</Icon>
			<hotSpot x="20" y="2" xunits="pixels" yunits="pixels"/>
		</IconStyle>
	</Style>
	<Style id="sn_ylw-pushpin130">
		<IconStyle>
			<scale>1.1</scale>
			<Icon>
				<href>http://maps.google.com/mapfiles/kml/pushpin/ylw-pushpin.png</href>
			</Icon>
			<hotSpot x="20" y="2" xunits="pixels" yunits="pixels"/>
		</IconStyle>
	</Style>
	<Style id="sn_ylw-pushpin15">
		<IconStyle>
			<scale>1.1</scale>
			<Icon>
				<href>http://maps.google.com/mapfiles/kml/pushpin/ylw-pushpin.png</href>
			</Icon>
			<hotSpot x="20" y="2" xunits="pixels" yunits="pixels"/>
		</IconStyle>
	</Style>
	<StyleMap id="msn_ylw-pushpin13">
		<Pair>
			<key>normal</key>
			<styleUrl>#sn_ylw-pushpin14</styleUrl>
		</Pair>
		<Pair>
			<key>highlight</key>
			<styleUrl>#sh_ylw-pushpin11</styleUrl>
		</Pair>
	</StyleMap>
	<Style id="sn_ylw-pushpin14">
		<IconStyle>
			<scale>1.1</scale>
			<Icon>
				<href>http://maps.google.com/mapfiles/kml/pushpin/ylw-pushpin.png</href>
			</Icon>
			<hotSpot x="20" y="2" xunits="pixels" yunits="pixels"/>
		</IconStyle>
	</Style>
	<Style id="sh_ylw-pushpin2">
		<IconStyle>
			<scale>1.3</scale>
			<Icon>
				<href>http://maps.google.com/mapfiles/kml/pushpin/ylw-pushpin.png</href>
			</Icon>
			<hotSpot x="20" y="2" xunits="pixels" yunits="pixels"/>
		</IconStyle>
	</Style>
	<StyleMap id="msn_ylw-pushpin14">
		<Pair>
			<key>normal</key>
			<styleUrl>#sn_ylw-pushpin15</styleUrl>
		</Pair>
		<Pair>
			<key>highlight</key>
			<styleUrl>#sh_ylw-pushpin12</styleUrl>
		</Pair>
	</StyleMap>
	<StyleMap id="msn_ylw-pushpin11">
		<Pair>
			<key>normal</key>
			<styleUrl>#sn_ylw-pushpin13</styleUrl>
		</Pair>
		<Pair>
			<key>highlight</key>
			<styleUrl>#sh_ylw-pushpin14</styleUrl>
		</Pair>
	</StyleMap>
	<StyleMap id="msn_ylw-pushpin120">
		<Pair>
			<key>normal</key>
			<styleUrl>#sn_ylw-pushpin140</styleUrl>
		</Pair>
		<Pair>
			<key>highlight</key>
			<styleUrl>#sh_ylw-pushpin110</styleUrl>
		</Pair>
	</StyleMap>
	<Style id="sh_ylw-pushpin110">
		<IconStyle>
			<scale>0.827273</scale>
			<Icon>
				<href>http://maps.google.com/mapfiles/kml/pushpin/ylw-pushpin.png</href>
			</Icon>
			<hotSpot x="20" y="2" xunits="pixels" yunits="pixels"/>
		</IconStyle>
		<LabelStyle>
			<scale>0.7</scale>
		</LabelStyle>
	</Style>
	<Style id="sh_ylw-pushpin11">
		<IconStyle>
			<scale>1.3</scale>
			<Icon>
				<href>http://maps.google.com/mapfiles/kml/pushpin/ylw-pushpin.png</href>
			</Icon>
			<hotSpot x="20" y="2" xunits="pixels" yunits="pixels"/>
		</IconStyle>
	</Style>
	<Style id="sn_ylw-pushpin13">
		<IconStyle>
			<scale>1.1</scale>
			<Icon>
				<href>http://maps.google.com/mapfiles/kml/pushpin/ylw-pushpin.png</href>
			</Icon>
			<hotSpot x="20" y="2" xunits="pixels" yunits="pixels"/>
		</IconStyle>
	</Style>
	<Style id="sh_ylw-pushpin120">
		<IconStyle>
			<scale>1.3</scale>
			<Icon>
				<href>http://maps.google.com/mapfiles/kml/pushpin/ylw-pushpin.png</href>
			</Icon>
			<hotSpot x="20" y="2" xunits="pixels" yunits="pixels"/>
		</IconStyle>
	</Style>
	<Style id="sn_ylw-pushpin0">
		<IconStyle>
			<scale>1.1</scale>
			<Icon>
				<href>http://maps.google.com/mapfiles/kml/pushpin/ylw-pushpin.png</href>
			</Icon>
			<hotSpot x="20" y="2" xunits="pixels" yunits="pixels"/>
		</IconStyle>
	</Style>
	<Style id="sh_ylw-pushpin14">
		<IconStyle>
			<scale>1.3</scale>
			<Icon>
				<href>http://maps.google.com/mapfiles/kml/pushpin/ylw-pushpin.png</href>
			</Icon>
			<hotSpot x="20" y="2" xunits="pixels" yunits="pixels"/>
		</IconStyle>
	</Style>
	<StyleMap id="msn_ylw-pushpin">
		<Pair>
			<key>normal</key>
			<styleUrl>#sn_ylw-pushpin0</styleUrl>
		</Pair>
		<Pair>
			<key>highlight</key>
			<styleUrl>#sh_ylw-pushpin2</styleUrl>
		</Pair>
	</StyleMap>
	<Style id="sn_ylw-pushpin140">
		<IconStyle>
			<scale>0.7</scale>
			<Icon>
				<href>http://maps.google.com/mapfiles/kml/pushpin/ylw-pushpin.png</href>
			</Icon>
			<hotSpot x="20" y="2" xunits="pixels" yunits="pixels"/>
		</IconStyle>
		<LabelStyle>
			<scale>0.7</scale>
		</LabelStyle>
	</Style>
	<StyleMap id="msn_ylw-pushpin12">
		<Pair>
			<key>normal</key>
			<styleUrl>#sn_ylw-pushpin16</styleUrl>
		</Pair>
		<Pair>
			<key>highlight</key>
			<styleUrl>#sh_ylw-pushpin13</styleUrl>
		</Pair>
	</StyleMap>
	<Style id="sh_ylw-pushpin13">
		<IconStyle>
			<scale>1.3</scale>
			<Icon>
				<href>http://maps.google.com/mapfiles/kml/pushpin/ylw-pushpin.png</href>
			</Icon>
			<hotSpot x="20" y="2" xunits="pixels" yunits="pixels"/>
		</IconStyle>
	</Style>
	<StyleMap id="msn_ylw-pushpin110">
		<Pair>
			<key>normal</key>
			<styleUrl>#sn_ylw-pushpin130</styleUrl>
		</Pair>
		<Pair>
			<key>highlight</key>
			<styleUrl>#sh_ylw-pushpin120</styleUrl>
		</Pair>
	</StyleMap>
	<Document>
		<name>Saleh PIL.kml</name>
		<open>1</open>
		<Style id="sn_ylw-pushpin252">
			<IconStyle>
				<scale>0.7</scale>
				<Icon>
					<href>http://maps.google.com/mapfiles/kml/pushpin/ylw-pushpin.png</href>
				</Icon>
				<hotSpot x="20" y="2" xunits="pixels" yunits="pixels"/>
			</IconStyle>
			<LabelStyle>
				<scale>0.7</scale>
			</LabelStyle>
		</Style>
		<Style id="sh_ylw-pushpin242">
			<IconStyle>
				<scale>0.827273</scale>
				<Icon>
					<href>http://maps.google.com/mapfiles/kml/pushpin/ylw-pushpin.png</href>
				</Icon>
				<hotSpot x="20" y="2" xunits="pixels" yunits="pixels"/>
			</IconStyle>
			<LabelStyle>
				<scale>0.7</scale>
			</LabelStyle>
		</Style>
		<StyleMap id="msn_ylw-pushpin232">
			<Pair>
				<key>normal</key>
				<styleUrl>#sn_ylw-pushpin252</styleUrl>
			</Pair>
			<Pair>
				<key>highlight</key>
				<styleUrl>#sh_ylw-pushpin242</styleUrl>
			</Pair>
		</StyleMap>
		<Placemark>
			<name>Pendravan PIL</name>
			<LookAt>
				<longitude>81.25411528661765</longitude>
				<latitude>21.54624866224538</latitude>
				<altitude>0</altitude>
				<heading>0.02878788826666463</heading>
				<tilt>0</tilt>
				<range>1419.208365439301</range>
				<altitudeMode>relativeToGround</altitudeMode>
				<gx:altitudeMode>relativeToSeaFloor</gx:altitudeMode>
			</LookAt>
			<styleUrl>#msn_ylw-pushpin232</styleUrl>
			<Point>
				<altitudeMode>clampToGround</altitudeMode>
				<gx:altitudeMode>clampToSeaFloor</gx:altitudeMode>
				<coordinates>81.25426070261545,21.54392217631182,0</coordinates>
			</Point>
		</Placemark>
	</Document>
	<Document>
		<name>lara.kml</name>
		<Style id="sn_ylw-pushpin600">
			<IconStyle>
				<scale>1.1</scale>
				<Icon>
					<href>http://maps.google.com/mapfiles/kml/pushpin/ylw-pushpin.png</href>
				</Icon>
				<hotSpot x="20" y="2" xunits="pixels" yunits="pixels"/>
			</IconStyle>
			<LineStyle>
				<color>ff00ffff</color>
				<width>0.5</width>
			</LineStyle>
			<PolyStyle>
				<color>00ffffff</color>
				<outline>0</outline>
			</PolyStyle>
		</Style>
		<Style id="sh_ylw-pushpin81">
			<IconStyle>
				<scale>1.3</scale>
				<Icon>
					<href>http://maps.google.com/mapfiles/kml/pushpin/ylw-pushpin.png</href>
				</Icon>
				<hotSpot x="20" y="2" xunits="pixels" yunits="pixels"/>
			</IconStyle>
		</Style>
		<Style id="sh_ylw-pushpin51">
			<IconStyle>
				<scale>1.3</scale>
				<Icon>
					<href>http://maps.google.com/mapfiles/kml/pushpin/ylw-pushpin.png</href>
				</Icon>
				<hotSpot x="20" y="2" xunits="pixels" yunits="pixels"/>
			</IconStyle>
		</Style>
		<Style id="sn_ylw-pushpin400">
			<IconStyle>
				<scale>1.1</scale>
				<Icon>
					<href>http://maps.google.com/mapfiles/kml/pushpin/ylw-pushpin.png</href>
				</Icon>
				<hotSpot x="20" y="2" xunits="pixels" yunits="pixels"/>
			</IconStyle>
		</Style>
		<StyleMap id="msn_ylw-pushpin300">
			<Pair>
				<key>normal</key>
				<styleUrl>#sn_ylw-pushpin500</styleUrl>
			</Pair>
			<Pair>
				<key>highlight</key>
				<styleUrl>#sh_ylw-pushpin400</styleUrl>
			</Pair>
		</StyleMap>
		<Style id="sn_ylw-pushpin410">
			<IconStyle>
				<scale>1.1</scale>
				<Icon>
					<href>http://maps.google.com/mapfiles/kml/pushpin/ylw-pushpin.png</href>
				</Icon>
				<hotSpot x="20" y="2" xunits="pixels" yunits="pixels"/>
			</IconStyle>
		</Style>
		<Style id="sh_ylw-pushpin500">
			<IconStyle>
				<scale>1.3</scale>
				<Icon>
					<href>http://maps.google.com/mapfiles/kml/pushpin/ylw-pushpin.png</href>
				</Icon>
				<hotSpot x="20" y="2" xunits="pixels" yunits="pixels"/>
			</IconStyle>
			<LineStyle>
				<color>ff00ffff</color>
				<width>0.5</width>
			</LineStyle>
			<PolyStyle>
				<color>00ffffff</color>
				<outline>0</outline>
			</PolyStyle>
		</Style>
		<StyleMap id="msn_ylw-pushpin81">
			<Pair>
				<key>normal</key>
				<styleUrl>#sn_ylw-pushpin51</styleUrl>
			</Pair>
			<Pair>
				<key>highlight</key>
				<styleUrl>#sh_ylw-pushpin71</styleUrl>
			</Pair>
		</StyleMap>
		<Style id="sh_ylw-pushpin61">
			<IconStyle>
				<scale>0.827273</scale>
				<Icon>
					<href>http://maps.google.com/mapfiles/kml/pushpin/ylw-pushpin.png</href>
				</Icon>
				<hotSpot x="20" y="2" xunits="pixels" yunits="pixels"/>
			</IconStyle>
			<LabelStyle>
				<scale>0.7</scale>
			</LabelStyle>
		</Style>
		<StyleMap id="msn_ylw-pushpin601">
			<Pair>
				<key>normal</key>
				<styleUrl>#sn_ylw-pushpin410</styleUrl>
			</Pair>
			<Pair>
				<key>highlight</key>
				<styleUrl>#sh_ylw-pushpin41</styleUrl>
			</Pair>
		</StyleMap>
		<StyleMap id="msn_ylw-pushpin61">
			<Pair>
				<key>normal</key>
				<styleUrl>#sn_ylw-pushpin61</styleUrl>
			</Pair>
			<Pair>
				<key>highlight</key>
				<styleUrl>#sh_ylw-pushpin51</styleUrl>
			</Pair>
		</StyleMap>
		<Style id="sn_ylw-pushpin71">
			<IconStyle>
				<scale>0.7</scale>
				<Icon>
					<href>http://maps.google.com/mapfiles/kml/pushpin/ylw-pushpin.png</href>
				</Icon>
				<hotSpot x="20" y="2" xunits="pixels" yunits="pixels"/>
			</IconStyle>
			<LabelStyle>
				<scale>0.7</scale>
			</LabelStyle>
		</Style>
		<Style id="sn_ylw-pushpin42">
			<IconStyle>
				<scale>1.1</scale>
				<Icon>
					<href>http://maps.google.com/mapfiles/kml/pushpin/ylw-pushpin.png</href>
				</Icon>
				<hotSpot x="20" y="2" xunits="pixels" yunits="pixels"/>
			</IconStyle>
		</Style>
		<Style id="sn_ylw-pushpin61">
			<IconStyle>
				<scale>1.1</scale>
				<Icon>
					<href>http://maps.google.com/mapfiles/kml/pushpin/ylw-pushpin.png</href>
				</Icon>
				<hotSpot x="20" y="2" xunits="pixels" yunits="pixels"/>
			</IconStyle>
		</Style>
		<Style id="sn_ylw-pushpin500">
			<IconStyle>
				<scale>1.1</scale>
				<Icon>
					<href>http://maps.google.com/mapfiles/kml/pushpin/ylw-pushpin.png</href>
				</Icon>
				<hotSpot x="20" y="2" xunits="pixels" yunits="pixels"/>
			</IconStyle>
		</Style>
		<StyleMap id="msn_ylw-pushpin400">
			<Pair>
				<key>normal</key>
				<styleUrl>#sn_ylw-pushpin400</styleUrl>
			</Pair>
			<Pair>
				<key>highlight</key>
				<styleUrl>#sh_ylw-pushpin300</styleUrl>
			</Pair>
		</StyleMap>
		<Style id="sh_ylw-pushpin71">
			<IconStyle>
				<scale>1.3</scale>
				<Icon>
					<href>http://maps.google.com/mapfiles/kml/pushpin/ylw-pushpin.png</href>
				</Icon>
				<hotSpot x="20" y="2" xunits="pixels" yunits="pixels"/>
			</IconStyle>
		</Style>
		<StyleMap id="msn_ylw-pushpin50">
			<Pair>
				<key>normal</key>
				<styleUrl>#sn_ylw-pushpin600</styleUrl>
			</Pair>
			<Pair>
				<key>highlight</key>
				<styleUrl>#sh_ylw-pushpin500</styleUrl>
			</Pair>
		</StyleMap>
		<Style id="sn_ylw-pushpin51">
			<IconStyle>
				<scale>1.1</scale>
				<Icon>
					<href>http://maps.google.com/mapfiles/kml/pushpin/ylw-pushpin.png</href>
				</Icon>
				<hotSpot x="20" y="2" xunits="pixels" yunits="pixels"/>
			</IconStyle>
		</Style>
		<Style id="sh_ylw-pushpin41">
			<IconStyle>
				<scale>1.3</scale>
				<Icon>
					<href>http://maps.google.com/mapfiles/kml/pushpin/ylw-pushpin.png</href>
				</Icon>
				<hotSpot x="20" y="2" xunits="pixels" yunits="pixels"/>
			</IconStyle>
		</Style>
		<Style id="sh_ylw-pushpin400">
			<IconStyle>
				<scale>1.3</scale>
				<Icon>
					<href>http://maps.google.com/mapfiles/kml/pushpin/ylw-pushpin.png</href>
				</Icon>
				<hotSpot x="20" y="2" xunits="pixels" yunits="pixels"/>
			</IconStyle>
		</Style>
		<Style id="sh_ylw-pushpin300">
			<IconStyle>
				<scale>1.3</scale>
				<Icon>
					<href>http://maps.google.com/mapfiles/kml/pushpin/ylw-pushpin.png</href>
				</Icon>
				<hotSpot x="20" y="2" xunits="pixels" yunits="pixels"/>
			</IconStyle>
		</Style>
		<StyleMap id="msn_ylw-pushpin71">
			<Pair>
				<key>normal</key>
				<styleUrl>#sn_ylw-pushpin42</styleUrl>
			</Pair>
			<Pair>
				<key>highlight</key>
				<styleUrl>#sh_ylw-pushpin81</styleUrl>
			</Pair>
		</StyleMap>
		<StyleMap id="msn_ylw-pushpin91">
			<Pair>
				<key>normal</key>
				<styleUrl>#sn_ylw-pushpin71</styleUrl>
			</Pair>
			<Pair>
				<key>highlight</key>
				<styleUrl>#sh_ylw-pushpin61</styleUrl>
			</Pair>
		</StyleMap>
		<Placemark>
			<name>Lara PIL</name>
			<styleUrl>#msn_ylw-pushpin400</styleUrl>
			<Polygon>
				<tessellate>1</tessellate>
				<outerBoundaryIs>
					<LinearRing>
						<coordinates>
						</coordinates>
					</LinearRing>
				</outerBoundaryIs>
			</Polygon>
		</Placemark>
		<Placemark>
			<name>Untitled Polygon</name>
			<styleUrl>#msn_ylw-pushpin50</styleUrl>
			<Polygon>
				<tessellate>1</tessellate>
				<outerBoundaryIs>
					<LinearRing>
						<coordinates>
							83.45297460223132,21.73045322169375,0 83.45276116815484,21.73035408122626,0 83.452618877123,21.73032103366912,0 83.45247658962117,21.73022189395389,0 83.45226315634305,21.73012275343362,0 83.45208516543825,21.73012294501246,0 83.4519069307279,21.73009043808597,0 83.45172879961308,21.73005773984469,0 83.45151493885801,21.72995911026462,0 83.45130104539214,21.7298604649536,0 83.4513008636756,21.7297284744878,0 83.45130073745052,21.72959640937378,0 83.45130074504735,21.72946417618453,0 83.45126508282449,21.72933203970882,0 83.45122941763933,21.72923295890351,0 83.45122985609244,21.72903413685177,0 83.45123033363508,21.72893445996319,0 83.45123081120465,21.72883480105214,0 83.45119570303051,21.72870212448895,0 83.45116002234785,21.72857004484795,0 83.45105234037335,21.72830655487204,0 83.45098072973759,21.72814168858638,0 83.45083794577477,21.72800983821632,0 83.45069511338387,21.72781186509115,0 83.45062363795691,21.72764677950699,0 83.4507307708074,21.72764651248706,0 83.45087359380129,21.72764615574453,0 83.45105207995067,21.72761266404793,0 83.45119482160339,21.72751317845401,0 83.45137323407435,21.72744666482658,0 83.45140890705085,21.72741353986467,0 83.4514088249166,21.72711617102719,0 83.45140877942981,21.72695096134054,0 83.4514087242557,21.72675270511567,0 83.45140867864319,21.72658748805964,0 83.45137294844487,21.72642233251926,0 83.45130153898754,21.72629027398217,0 83.45123012255229,21.72615820216972,0 83.45108734637985,21.72615843607136,0 83.45094454683878,21.72615867129415,0 83.45080172401863,21.72615890505261,0 83.45062318341265,21.72622531796155,0 83.45048033010211,21.72629168306111,0 83.45040886180125,21.72622567739679,0 83.45033784836102,21.72606024211852,0 83.45026693891323,21.72586170820168,0 83.45016048928649,21.72563010540147,0 83.44998242917546,21.72549786659717,0 83.44987525942723,21.72539878792532,0 83.44976795172379,21.72526666592106,0 83.44966072508805,21.72520064146578,0 83.44948215144606,21.72520078944874,0 83.44930417790458,21.72520076748953,0 83.44923314493678,21.72516764264459,0 83.44923273234087,21.72490314158773,0 83.44919698193813,21.72473778716856,0 83.44916112563327,21.72450628852221,0 83.44916091717715,21.72437400684999,0 83.4492315971616,21.72417560225053,0 83.44940924506743,21.72424183046006,0 83.44955214488374,21.72424177395422,0 83.44980204554949,21.72420861385369,0 83.44998008818736,21.72420862035396,0 83.45015813986744,21.72420862611081,0 83.4502293083811,21.72414247834415,0 83.45022909244325,21.72401018943242,0 83.4502288763119,21.72387789120097,0 83.45022860638012,21.72371250539277,0 83.45019242003079,21.72338168814331,0 83.45015642221014,21.72324934432933,0 83.45015568112359,21.72311697632819,0 83.45004846310884,21.72285221521478,0 83.45001248516186,21.7227860002242,0 83.44990454304397,21.72258731535212,0 83.44979746305162,21.72242178365287,0 83.44965480440597,21.72225624813254,0 83.44965450733174,21.72212378819352,0 83.44958298526549,21.72195821582738,0 83.44958260980167,21.72179261022138,0 83.44961803694049,21.72172635096095,0 83.44979535276701,21.72146125692622,0 83.44990182162835,21.72132867481789,0 83.45025711941561,21.72103024027834,0 83.45043465248574,21.72079810241904,0 83.45057641124861,21.72063209611737,0 83.45064681770667,21.72046601117529,0 83.45082406437214,21.72043234196147,0 83.45089525051321,21.72046540577468,0 83.45114398077902,21.72046489666417,0 83.45142980212117,21.72046510641815,0 83.45160859140556,21.720465334221,0 83.45175160039145,21.72053180009256,0 83.45175159875845,21.72059808348579,0 83.4517515932547,21.72079693267299,0 83.45182358408724,21.72126119452389,0 83.45182385723156,21.7213938516277,0 83.45182412973618,21.72152649273751,0 83.45182500000463,21.72172557485205,0 83.45182533091113,21.72189130593563,0 83.45186119844608,21.72205698344316,0 83.45186176136257,21.72222272266279,0 83.4518982035261,21.72242157902157,0 83.45200613853879,21.72268661164815,0 83.45204267204461,21.72291841886191,0 83.45215090860826,21.72328249909437,0 83.45215138463624,21.72344792089775,0 83.45225842158878,21.72371258076262,0 83.45236545287307,21.72384488759826,0 83.45254347833203,21.72384489737694,0 83.4525432560287,21.72374567907747,0 83.45254288581486,21.72358029119303,0 83.45254229315518,21.72331560607926,0 83.45254207435524,21.72324942212305,0 83.45254126266839,21.72301771756366,0 83.4525407989243,21.72288527229868,0 83.45254033517078,21.72275279557205,0 83.45253975516155,21.72258715539701,0 83.45253917441673,21.72242146787877,0 83.45253836146208,21.72218942085849,0 83.45253802145018,21.72205681871342,0 83.45257347883525,21.7219573686181,0 83.45282290836612,21.72195730380752,0 83.45303677734171,21.72199039887187,0 83.45310820213651,21.72208983098902,0 83.45325094433252,21.72222238772511,0 83.45339363423537,21.722321795094,0 83.4536076359214,21.72242119713153,0 83.45378586616432,21.72245430788412,0 83.4538929168647,21.72252058847965,0 83.45403552256941,21.72255370847734,0 83.4542137702967,21.72258682248744,0 83.45428517641692,21.7226531079208,0 83.45439233501107,21.7227856702722,0 83.45453493359216,21.72281879061718,0 83.45453515508797,21.72301758765695,0 83.45453533967449,21.72318321824644,0 83.45453556106207,21.7233819326701,0 83.45457145217824,21.72351437151563,0 83.454678957121,21.72387842665556,0 83.4546792367058,21.72411001762409,0 83.4546794763382,21.72430846674389,0 83.45464411487646,21.72447376234958,0 83.4546443590958,21.72467210915336,0 83.45464456239284,21.72483735837129,0 83.45464468450048,21.72493649023301,0 83.45464488784745,21.72510168152718,0 83.4546450503662,21.72523380787462,0 83.45457422382677,21.72543181576244,0 83.45457431976391,21.72559702539844,0 83.45464543892699,21.725729368576,0 83.45471651290121,21.72572952632673,0 83.45489423686955,21.72572992073243,0 83.45510757973621,21.72573039396074,0 83.45528542764988,21.72573078794871,0 83.45549892602894,21.72576433322914,0 83.45557016754027,21.72576433253351,0 83.45578391935598,21.72579732377409,0 83.45596198613362,21.72579745832621,0 83.45621130001314,21.72579774221859,0 83.45642504156498,21.72579798430284,0 83.45667446197039,21.72566592677311,0 83.4566744794046,21.72540134885497,0 83.45667450114479,21.72500431258529,0 83.45667452469556,21.72457407140403,0 83.45671019421225,21.72430927179605,0 83.45678151314311,21.72417685998965,0 83.45706671210114,21.72407746062926,0 83.45724494009014,21.72401119091844,0 83.45742313944645,21.72394491566701,0 83.45753000496987,21.72387863470565,0 83.45767249978211,21.7238454757268,0 83.45785064248881,21.72384544356891,0 83.45802876642883,21.72384541145112,0 83.45817130119002,21.72391161684564,0 83.45831383274978,21.72397782107587,0 83.45845630226999,21.72397778898149,0 83.45863432677984,21.72387842510382,0 83.45863423941175,21.72374599302897,0 83.45856288499802,21.72358047080757,0 83.45845595536521,21.72348116663449,0 83.45845589513691,21.72338186354285,0 83.45845577448338,21.72318327615977,0 83.45845563417694,21.72295162061069,0 83.45845557425299,21.72285234964622,0 83.45852672005688,21.72268691051366,0 83.45849110506192,21.72255454179381,0 83.4584198767981,21.72252144447091,0 83.45831303107832,21.72228978931342,0 83.45827741503859,21.72219050821546,0 83.45817056646541,21.72202503173999,0 83.45806371631284,21.72185955055097,0 83.45795686384609,21.72172715988202,0 83.45788562661558,21.72159477195712,0 83.45774315173144,21.72149546310933,0 83.45767191197916,21.72146235506691,0 83.45742263360006,21.72146217670029,0 83.45724452573208,21.72146209907102,0 83.45703077331892,21.72146201507751,0 83.45685263091487,21.72146194413588,0 83.45678136992038,21.721461915342,0 83.45678135831911,21.72136269064285,0 83.45678135040737,21.72106483392556,0 83.45678135055479,21.72083312825521,0 83.4568525980911,21.7207670253963,0 83.45699507647407,21.72076722182585,0 83.45717314208166,21.72076746803969,0 83.45738677464679,21.72076776366946,0 83.45752916803883,21.7207017856601,0 83.45763596791078,21.72070189099255,0 83.45784965215707,21.72070189058045,0 83.45788520566255,21.72060275019886,0 83.45788508902082,21.72040448473866,0 83.45788508818683,21.72023907731049,0 83.45781390956422,21.72010665278974,0 83.45767154112549,21.72010645506905,0 83.4575291664941,21.72010621756094,0 83.45738671602338,21.72010617651111,0 83.45717301954599,21.72010617821346,0 83.45703053649088,21.72004012196958,0 83.45703050333998,21.71990799713214,0 83.45713730348169,21.71977586410152,0 83.45731535383479,21.71977586477048,0 83.45749340448749,21.71977586367265,0 83.45767143924492,21.71977590966127,0 83.45781375755465,21.71971007214793,0 83.45784924388376,21.71954501002752,0 83.45792041660212,21.71947894686779,0 83.45809842795156,21.71951201982159,0 83.45827643932843,21.7195120182398,0 83.45827644057124,21.7196443178701,0 83.45827644139712,21.71980969248578,0 83.45827644191681,21.71990891774425,0 83.458312074115,21.72000809155253,0 83.45859689048385,21.72007425260377,0 83.45881050842765,21.72007424897894,0 83.45902413558025,21.72010730933295,0 83.4592021825564,21.72020649894874,0 83.45923782838062,21.72033875794094,0 83.45938026688202,21.72040488694223,0 83.45941587106056,21.72040488709197,0 83.4597007066062,21.72040488052556,0 83.45984307531296,21.72040491828546,0 83.45998532359123,21.72047120241301,0 83.46016312862339,21.72057057411073,0 83.46026983592569,21.72066985407278,0 83.4603410289748,21.72080214507999,0 83.46034117285956,21.72096741834249,0 83.46041238109947,21.72106663445053,0 83.46051918316265,21.72106663171418,0 83.46083951717269,21.72106665978933,0 83.46108821242831,21.72106689506492,0 83.46119478016396,21.72106699509079,0 83.46144466579084,21.72109973892302,0 83.46162329972678,21.72113254234125,0 83.46180197856161,21.72116535399755,0 83.46187375254776,21.72126438653336,0 83.46187464732273,21.72152877132642,0 83.46176768550018,21.72159498742851,0 83.46169623523856,21.72159505827613,0 83.46148192120752,21.72159527027902,0 83.4613391759668,21.7216284583576,0 83.46119674061377,21.72176078578277,0 83.46119683800981,21.7217938363773,0 83.46119761910279,21.72205829032841,0 83.46119815128539,21.72228979247235,0 83.46119857132604,21.72248826851351,0 83.46119899164175,21.72268677952537,0 83.4611992026236,21.72278604884423,0 83.46119948365802,21.72291842124102,0 83.46119983486449,21.72308390801512,0 83.46120039743815,21.72334873791972,0 83.46120074835228,21.72351428839186,0 83.46120113567302,21.72361364607451,0 83.46120190578399,21.7238455215827,0 83.46120182405691,21.72401109064474,0 83.46120179120692,21.72407731716806,0 83.46120169302229,21.72427599009575,0 83.46120186812108,21.72447472389264,0 83.46116635516945,21.72460722921808,0 83.46116667146488,21.72480603622381,0 83.46116693481032,21.72497172952349,0 83.46109573935657,21.72513738300664,0 83.46098866255683,21.72520357974135,0 83.46091731338865,21.72526980398276,0 83.46073898868212,21.72546850216991,0 83.46073899321219,21.72560098526738,0 83.46077472180159,21.7257997481147,0 83.46077472799726,21.7259653541089,0 83.46077473533225,21.72616408142973,0 83.46063186060412,21.72626325700581,0 83.46056043036445,21.72632939792159,0 83.4604175832151,21.7264285525124,0 83.46031058811886,21.72642851128554,0 83.46013235096542,21.72649474492348,0 83.45991836681884,21.72659399796432,0 83.45977558337044,21.72656068672378,0 83.4595614045306,21.72662656877021,0 83.45931157812667,21.72672547476792,0 83.45916921210275,21.72679192517446,0 83.45902681272294,21.72692458254847,0 83.45895536267258,21.72699054322739,0 83.45884823766789,21.727056417539,0 83.45870503440035,21.72725382851941,0 83.45849073090608,21.72745120912302,0 83.45838361721768,21.72761600183117,0 83.45845484495278,21.72771525698816,0 83.45863317746594,21.72768276818482,0 83.45877591684783,21.72761714185298,0 83.45895440892296,21.72751857022664,0 83.45909743240016,21.72742013688442,0 83.45924046547559,21.72735469584183,0 83.45945465581376,21.7273551919097,0 83.45959727483202,21.72735525270388,0 83.45977531707621,21.72735502821345,0 83.45984676349539,21.72718967615103,0 83.45995386924655,21.7271567639201,0 83.46020366592562,21.72712394068966,0 83.46031060923968,21.72709082312751,0 83.46052473663639,21.72692546645676,0 83.46066760056385,21.72689257897503,0 83.4608819316137,21.72685979974573,0 83.46106057342439,21.72686008384954,0 83.46116806217717,21.72699299088549,0 83.46116814923948,21.72709244637863,0 83.46116846701042,21.72745714881016,0 83.46116852481312,21.72752346328003,0 83.46113262912307,21.72775515852035,0 83.46109670644016,21.72788741931801,0 83.46102514302635,21.72808592592125,0 83.46098895703065,21.72831721387293,0 83.46098863523632,21.72848244576834,0 83.46088152016785,21.72851537843691,0 83.46073878569786,21.72848211151853,0 83.46056039432931,21.72848194163638,0 83.46038183711113,21.72848153069513,0 83.46016751740048,21.72848090886694,0 83.4599888282974,21.72851330361449,0 83.45984589355412,21.72847960185914,0 83.45977439293523,21.72831373613979,0 83.45973864172237,21.72821425551675,0 83.45963206151346,21.72798304696704,0 83.45948928638433,21.72794956805704,0 83.45941788539281,21.72794934532555,0 83.45927492246631,21.72801477302946,0 83.45902485211931,21.72811268159965,0 83.45884626008549,21.72821081091011,0 83.45870359378039,21.72821026069935,0 83.45852530803533,21.72820957473419,0 83.45827579091015,21.72820861499887,0 83.45813325961768,21.72827419826848,0 83.45813327483342,21.72837341478895,0 83.4581332899597,21.72847263321229,0 83.45813330993664,21.72860492705211,0 83.45813334462777,21.72883644832524,0 83.45813327644606,21.7289684403846,0 83.45813311275403,21.72919923474094,0 83.45813299618341,21.72936405998556,0 83.45813285578868,21.72956181694223,0 83.45813273935293,21.72972658792972,0 83.45799008658888,21.72979110714712,0 83.45795444439426,21.72979076127971,0 83.45774074742467,21.72978909379349,0 83.45745625578452,21.72978872869551,0 83.45710079614472,21.72975647694668,0 83.45674525594669,21.72975734446249,0 83.45660301323788,21.72979077293099,0 83.4564251861808,21.72985735870472,0 83.45624733300998,21.72985783023452,0 83.4561050323416,21.72985820741456,0 83.45582038188886,21.72985896174504,0 83.45567802401737,21.72992550104844,0 83.45560682822895,21.7300249422345,0 83.45539324520271,21.73002558650486,0 83.45525089043152,21.72992655226118,0 83.45507297349626,21.72989349575726,0 83.45500180673517,21.72989349524481,0 83.45485949817777,21.72992644475678,0 83.45457507879829,21.72999169832915,0 83.45446844063704,21.72999137640396,0 83.45429060411381,21.73012341529456,0 83.45414829965417,21.73012341400932,0 83.45389929674782,21.7301563807261,0 83.45372157797037,21.73022207094144,0 83.45343727199203,21.73032054742152,0 83.45333065609324,21.73041945437749,0 83.45315257127118,21.73055212871269,0 83.45301016870653,21.73061845104875,0 83.45290345198568,21.73055235807248,0 83.45297460223132,21.73045322169375,0 
						</coordinates>
					</LinearRing>
				</outerBoundaryIs>
			</Polygon>
		</Placemark>
		<Placemark>
			<name>Untitled Path</name>
			<styleUrl>#msn_ylw-pushpin601</styleUrl>
			<LineString>
				<tessellate>1</tessellate>
				<coordinates>
					83.45346559973986,21.73022485031427,0 83.45442020223443,21.72995786561146,0 83.4550059559128,21.72972360595661,0 83.45525155184046,21.72957411960137,0 83.45545502802236,21.72964353438756,0 83.45549837765627,21.72984708858168,0 83.45620422976086,21.72989724524229,0 83.45787181258739,21.72990292645942,0 83.45827939699333,21.72977234115159,0 83.45812965243768,21.72831597379879,0 83.45989832063296,21.72805184315719,0 83.45996647554534,21.72841950408013,0 83.46087621346071,21.72837004232341,0 83.46131292735431,21.72817713837668,0 83.46120090483811,21.72686175359074,0 83.46092791357484,21.72684947024417,0 83.46046645032003,21.72687970639755,0 83.46005106474176,21.7268618641443,0 83.45989601693185,21.72707926073761,0 83.45909490274923,21.7271556518019,0 83.45879623164203,21.72743644562807,0 83.45855360205587,21.72749645840476,0 83.45850260676191,21.72743348761094,0 83.45879312037707,21.72709201636876,0 83.459109081652,21.7268929873629,0 83.45992907297301,21.7264911189609,0 83.46072522977579,21.72634300139287,0 83.46088569654239,21.72620801347552,0 83.46109648762902,21.72615643465509,0 83.46094912973871,21.72558943346021,0 83.46132727446478,21.72462235425686,0 83.46139455687086,21.72374458481567,0 83.46157270177771,21.7234596642439,0 83.46126247259579,21.72169930794963,0 83.46182624061285,21.72154175202315,0 83.46180295251754,21.72100821215221,0 83.46029056493461,21.7210291211237,0 83.46023780130051,21.72059254543192,0 83.45916720085667,21.72049272166428,0 83.45918495188678,21.72016035910768,0 83.45863796290199,21.72002408655907,0 83.45846285627223,21.71965271903348,0 83.45826582043307,21.7196738346151,0 83.45815195722683,21.71917429698708,0 83.4574662321298,21.71917245368795,0 83.45732315128527,21.71957953584952,0 83.45709128087053,21.71963953369503,0 83.45708190983713,21.72000285616559,0 83.45783531482067,21.72016893080002,0 83.4578165751504,21.72071383031491,0 83.45677697133132,21.72075780133,0 83.45674375313354,21.721161286561,0 83.4569185231522,21.72175659048834,0 83.4578596216612,21.72150532262576,0 83.45794923219441,21.72187320724872,0 83.45867994275061,21.72287637141685,0 83.45874605603294,21.7230617675594,0 83.45858049016691,21.72310477915754,0 83.45853230512442,21.72368389232507,0 83.45870639044962,21.7236923739793,0 83.45863809350756,21.7239413526007,0 83.45833300284269,21.72412877835672,0 83.45782873188929,21.72415517136325,0 83.45783871440995,21.72397344090861,0 83.45705418633354,21.72413928944191,0 83.45667243547248,21.72434478694573,0 83.45672086644032,21.72554303504546,0 83.45615587115518,21.72551697959083,0 83.45615037799955,21.72563816769758,0 83.45459088836901,21.72562609827098,0 83.45457486261202,21.72281533650163,0 83.45411350488315,21.72266160170793,0 83.45408064269516,21.72246659437285,0 83.45321576358043,21.72226590187768,0 83.45265871740644,21.72185391716369,0 83.45257044287548,21.72166647457993,0 83.45230268375246,21.72156285347247,0 83.45195980568279,21.7212297986164,0 83.45184957030931,21.72062536114895,0 83.45136460153731,21.72047066357778,0 83.45064012249367,21.72057989880885,0 83.44961692322696,21.721850011175,0 83.45012125850685,21.72402698402782,0 83.44916729035843,21.72414462179892,0 83.44930462469537,21.72526183769893,0 83.44982300026994,21.72515385634963,0 83.45020503845522,21.72593848576804,0 83.45036758784018,21.72594600632564,0 83.45054764345012,21.72641013797118,0 83.45116899629549,21.72620461111443,0 83.45135119509477,21.7275705410579,0 83.45075646405985,21.72770380563916,0 83.45087150994415,21.72825448614723,0 83.45119378785836,21.72892415240944,0 83.45144595870526,21.72989251559081,0 83.45240041198628,21.73029832717245,0 83.45312632812195,21.73050293477757,0 83.45337494526413,21.73051440182128,0 83.45320352941469,21.73027497593423,0 83.45346559973986,21.73022485031427,0 
				</coordinates>
			</LineString>
		</Placemark>
		<Placemark>
			<name>Lara PIL</name>
			<LookAt>
				<longitude>83.46397771711813</longitude>
				<latitude>21.72434177820463</latitude>
				<altitude>0</altitude>
				<heading>0.6072617887593673</heading>
				<tilt>0</tilt>
				<range>4292.501308687901</range>
				<altitudeMode>relativeToGround</altitudeMode>
				<gx:altitudeMode>relativeToSeaFloor</gx:altitudeMode>
			</LookAt>
			<styleUrl>#msn_ylw-pushpin91</styleUrl>
			<Point>
				<altitudeMode>clampToGround</altitudeMode>
				<gx:altitudeMode>clampToSeaFloor</gx:altitudeMode>
				<coordinates>83.4586066926782,21.72123439479824,0</coordinates>
			</Point>
		</Placemark>
		<Placemark>
			<name>Untitled Path</name>
			<styleUrl>#msn_ylw-pushpin71</styleUrl>
			<LineString>
				<tessellate>1</tessellate>
				<coordinates>
					83.45767880812392,21.71804213289587,0 83.45753794984252,21.71705142036137,0 83.45810249654038,21.71697100370933,0 83.4582751711245,21.7179005775255,0 83.45767880812392,21.71804213289587,0 
				</coordinates>
			</LineString>
		</Placemark>
		<Placemark>
			<name>Untitled Path</name>
			<styleUrl>#msn_ylw-pushpin61</styleUrl>
			<LineString>
				<tessellate>1</tessellate>
				<coordinates>
					83.45413907954452,21.71742245896475,0 83.45406386152587,21.71691813763899,0 83.45395282724941,21.71693291575724,0 83.45385208577625,21.7153479068174,0 83.45517512765754,21.71580368207582,0 83.45652898749029,21.7159035890176,0 83.4568688354216,21.71669243249929,0 83.45417876873414,21.71745786030903,0 
				</coordinates>
			</LineString>
		</Placemark>
		<Placemark>
			<name>Untitled Path</name>
			<styleUrl>#msn_ylw-pushpin81</styleUrl>
			<LineString>
				<tessellate>1</tessellate>
				<coordinates>
					83.45727317610296,21.71677358523204,0 83.45686802093819,21.71578341635777,0 83.45673387981104,21.7151503136635,0 83.45744956668052,21.71507067426397,0 83.45745606336759,21.71501505121854,0 83.45822739099131,21.71490952107035,0 83.45843584594596,21.71596546578093,0 83.45844252525606,21.71653566393803,0 83.4580226729537,21.71664831277195,0 83.45803507859375,21.71678699788629,0 83.45734634804185,21.71678201500522,0 83.45727317610296,21.71677358523204,0 
				</coordinates>
			</LineString>
		</Placemark>
	</Document>
	<Document>
		<name>Saleh PIL.kml</name>
		<StyleMap id="msn_ylw-pushpin19">
			<Pair>
				<key>normal</key>
				<styleUrl>#sn_ylw-pushpin21</styleUrl>
			</Pair>
			<Pair>
				<key>highlight</key>
				<styleUrl>#sh_ylw-pushpin18</styleUrl>
			</Pair>
		</StyleMap>
		<StyleMap id="msn_ylw-pushpin18">
			<Pair>
				<key>normal</key>
				<styleUrl>#sn_ylw-pushpin20</styleUrl>
			</Pair>
			<Pair>
				<key>highlight</key>
				<styleUrl>#sh_ylw-pushpin19</styleUrl>
			</Pair>
		</StyleMap>
		<Style id="sh_ylw-pushpin19">
			<IconStyle>
				<scale>1.3</scale>
				<Icon>
					<href>http://maps.google.com/mapfiles/kml/pushpin/ylw-pushpin.png</href>
				</Icon>
				<hotSpot x="20" y="2" xunits="pixels" yunits="pixels"/>
			</IconStyle>
		</Style>
		<Style id="sn_ylw-pushpin20">
			<IconStyle>
				<scale>1.1</scale>
				<Icon>
					<href>http://maps.google.com/mapfiles/kml/pushpin/ylw-pushpin.png</href>
				</Icon>
				<hotSpot x="20" y="2" xunits="pixels" yunits="pixels"/>
			</IconStyle>
		</Style>
		<Style id="sh_ylw-pushpin18">
			<IconStyle>
				<scale>0.827273</scale>
				<Icon>
					<href>http://maps.google.com/mapfiles/kml/pushpin/ylw-pushpin.png</href>
				</Icon>
				<hotSpot x="20" y="2" xunits="pixels" yunits="pixels"/>
			</IconStyle>
			<LabelStyle>
				<scale>0.7</scale>
			</LabelStyle>
		</Style>
		<Style id="sn_ylw-pushpin21">
			<IconStyle>
				<scale>0.7</scale>
				<Icon>
					<href>http://maps.google.com/mapfiles/kml/pushpin/ylw-pushpin.png</href>
				</Icon>
				<hotSpot x="20" y="2" xunits="pixels" yunits="pixels"/>
			</IconStyle>
			<LabelStyle>
				<scale>0.7</scale>
			</LabelStyle>
		</Style>
		<Document>
			<name>Saleh PIL.kml</name>
			<visibility>0</visibility>
			<StyleMap id="msn_ylw-pushpin23">
				<Pair>
					<key>normal</key>
					<styleUrl>#sn_ylw-pushpin25</styleUrl>
				</Pair>
				<Pair>
					<key>highlight</key>
					<styleUrl>#sh_ylw-pushpin24</styleUrl>
				</Pair>
			</StyleMap>
			<Style id="sh_ylw-pushpin24">
				<IconStyle>
					<scale>0.827273</scale>
					<Icon>
						<href>http://maps.google.com/mapfiles/kml/pushpin/ylw-pushpin.png</href>
					</Icon>
					<hotSpot x="20" y="2" xunits="pixels" yunits="pixels"/>
				</IconStyle>
				<LabelStyle>
					<scale>0.7</scale>
				</LabelStyle>
			</Style>
			<Style id="sn_ylw-pushpin25">
				<IconStyle>
					<scale>0.7</scale>
					<Icon>
						<href>http://maps.google.com/mapfiles/kml/pushpin/ylw-pushpin.png</href>
					</Icon>
					<hotSpot x="20" y="2" xunits="pixels" yunits="pixels"/>
				</IconStyle>
				<LabelStyle>
					<scale>0.7</scale>
				</LabelStyle>
			</Style>
			<Placemark>
				<name>Pendravan PIL</name>
				<visibility>0</visibility>
				<LookAt>
					<longitude>81.25411528661765</longitude>
					<latitude>21.54624866224538</latitude>
					<altitude>0</altitude>
					<heading>0.02878788826666463</heading>
					<tilt>0</tilt>
					<range>1419.208365439301</range>
					<altitudeMode>relativeToGround</altitudeMode>
					<gx:altitudeMode>relativeToSeaFloor</gx:altitudeMode>
				</LookAt>
				<styleUrl>#msn_ylw-pushpin23</styleUrl>
				<Point>
					<altitudeMode>clampToGround</altitudeMode>
					<gx:altitudeMode>clampToSeaFloor</gx:altitudeMode>
					<coordinates>81.25426070261545,21.54392217631182,0</coordinates>
				</Point>
			</Placemark>
		</Document>
		<Placemark>
			<name>Untitled Path</name>
			<styleUrl>#msn_ylw-pushpin18</styleUrl>
			<LineString>
				<tessellate>1</tessellate>
				<coordinates>
					81.19307301396347,21.52901091443635,0 81.19306233792263,21.527743956075,0 81.19324540512589,21.52584508578809,0 81.19234594721868,21.52575930987104,0 81.19244354868371,21.52424863900082,0 81.1925414154625,21.52334740038284,0 81.19300433786734,21.52334782382715,0 81.19298435577925,21.52243649770474,0 81.19263863321592,21.52242020205856,0 81.19252326111872,21.5213984063327,0 81.19264281759273,21.52133975450238,0 81.19267126432861,21.52117948354057,0 81.19298133038103,21.52117976116174,0 81.19304015031983,21.52221549352062,0 81.19362580860603,21.52220697685309,0 81.1936527182318,21.52230884162886,0 81.19423971673227,21.52230969850641,0 81.19435659225125,21.52271708844045,0 81.19379735116677,21.52277650976553,0 81.1937154870527,21.52263187629797,0 81.19365053634633,21.52293836113162,0 81.19483262133574,21.52300666718839,0 81.19488349298072,21.5219911383035,0 81.19372065263954,21.52194544723817,0 81.19360416217724,21.52180263234058,0 81.19324944518293,21.52179500370896,0 81.19322657093512,21.52113679134582,0 81.19372695257498,21.52103143672089,0 81.19373095627697,21.52036435655316,0 81.19450321702055,21.52049096109965,0 81.19527696863811,21.52046669687913,0 81.19546499003093,21.52187865381238,0 81.19611198286574,21.52199756046779,0 81.19678782109634,21.52187924855093,0 81.19662162300381,21.52035571938646,0 81.19691278500569,21.52027908805059,0 81.19726782344294,21.52018551206181,0 81.19731587103502,21.52122550401586,0 81.19843807737756,21.52107266933836,0 81.19831706301281,21.52048002911818,0 81.19844251102579,21.52037108593387,0 81.19845706374754,21.52011116268228,0 81.19987640535601,21.52008105273986,0 81.20004872957259,21.52063846345037,0 81.19958168535855,21.52063883310204,0 81.19958748226395,21.52124237528141,0 81.20020367423214,21.52125033973233,0 81.20020529118655,21.52073163897498,0 81.20052419708392,21.52068933515937,0 81.20053475614543,21.52076552793282,0 81.20088006006932,21.52067966044094,0 81.20213114582552,21.52042528898321,0 81.20215797851836,21.51989303839314,0 81.20259502039386,21.51978343779413,0 81.20272440998673,21.52042531075474,0 81.20343456058262,21.52045179093951,0 81.20377896525538,21.5203171846225,0 81.20394560784041,21.52077392534759,0 81.20394612259379,21.5210962286744,0 81.20417542444022,21.5216649034517,0 81.20517287750805,21.52152868691107,0 81.20557430239717,21.52248063092964,0 81.20627237362032,21.52237306081867,0 81.20658080085563,21.52212577929288,0 81.20696217131967,21.52281935724773,0 81.20746903613527,21.52268155795161,0 81.20721696874816,21.52206554552536,0 81.20809693323457,21.52266197178705,0 81.2080958471947,21.52283092891529,0 81.20776197050871,21.52294528052614,0 81.20787448838138,21.52322740817051,0 81.20874254719681,21.52298010051909,0 81.20884480101039,21.52327732160234,0 81.20872681244468,21.52339764054945,0 81.20887506983189,21.52388102771583,0 81.20814016041976,21.52409433230328,0 81.20790349740017,21.5235679703319,0 81.20724287378813,21.52378748574825,0 81.20747520702278,21.52430748779226,0 81.20771431145343,21.52429653972447,0 81.20802547604382,21.52505286229108,0 81.20860225946272,21.52486759300908,0 81.20886217454128,21.52538988121394,0 81.20906208883511,21.52535211362507,0 81.20919473782847,21.52555696025086,0 81.20963810702584,21.52537811372331,0 81.21010923206842,21.52619999231959,0 81.21042935942882,21.52617957259827,0 81.21134334504515,21.52710941709934,0 81.21075090254452,21.52757174882988,0 81.2113073787563,21.52830832635715,0 81.21223926031553,21.52873916078337,0 81.21259273291945,21.52916079058071,0 81.2108344611142,21.52965962887316,0 81.21094632411939,21.5298542693257,0 81.21117557128073,21.52976678393977,0 81.21153584186247,21.53070943523785,0 81.21185757844116,21.53060477042797,0 81.21206977377949,21.53133765578059,0 81.21156382158483,21.53146830851566,0 81.21131642926932,21.53084721786472,0 81.21105875683921,21.53082341336663,0 81.21074701918646,21.5300097329473,0 81.2103185732949,21.53014236962838,0 81.20998761266333,21.52931025073533,0 81.21035271409492,21.52915261023858,0 81.20999103240018,21.52810346720749,0 81.20910084010734,21.52859784701825,0 81.2098133255962,21.53076988395762,0 81.20917329278557,21.53096600236906,0 81.20936304879173,21.53141436497261,0 81.20724189094567,21.53182780775,0 81.20727183302493,21.53266181874287,0 81.20752866721169,21.5326846657972,0 81.20756703941837,21.5330264622906,0 81.20617249819996,21.53336245716136,0 81.20617301177917,21.53348270395996,0 81.2044923150947,21.5338974520117,0 81.20447777663775,21.53451596565059,0 81.20465932542651,21.5351152042931,0 81.2037066769079,21.53530799039014,0 81.20335521155468,21.53434091801297,0 81.20346486715663,21.53419319880615,0 81.20328629664886,21.5327779021281,0 81.2032875704693,21.53223773319647,0 81.20328416971555,21.53198900243701,0 81.20429119854575,21.53164351612641,0 81.2040820269701,21.53047761078573,0 81.20404392548203,21.53038301480494,0 81.20378439571522,21.53031696300059,0 81.20343374237422,21.52938223241825,0 81.20501385763544,21.52838063128639,0 81.20490884946537,21.52815151258893,0 81.20468014092751,21.52824810184044,0 81.20448970056953,21.52779147973273,0 81.20338309869761,21.52787399107164,0 81.20328467897627,21.5272801697169,0 81.20374287736858,21.52702263583836,0 81.20414602964137,21.52619026528768,0 81.20389355266447,21.52571574720236,0 81.20421998330797,21.52546519542889,0 81.20393745343156,21.52484615788178,0 81.20299010558664,21.52449027973239,0 81.20197687787918,21.52385515228819,0 81.20106375046034,21.52374472857519,0 81.20114368875224,21.52335708890562,0 81.20094952954987,21.52334182582614,0 81.19810696740842,21.52308366055398,0 81.19807021217109,21.52380212221121,0 81.19787851091836,21.52389870346628,0 81.19804638750385,21.52485089732275,0 81.19719923231067,21.5248329173286,0 81.19714557830974,21.52419954360188,0 81.19696078436648,21.52418501405314,0 81.1969153078016,21.52487718558239,0 81.19655867131893,21.52485219261207,0 81.19612634815954,21.52580473613932,0 81.19490068514158,21.52582513355445,0 81.19495219064962,21.52498957467433,0 81.19447138053411,21.52492762019684,0 81.19443472124962,21.52475586967974,0 81.1942196333267,21.52477277125257,0 81.19416607631672,21.52459254514539,0 81.19378176451956,21.5244903150871,0 81.19381342577721,21.52578120309303,0 81.19463175634304,21.52578488905484,0 81.19479693652895,21.52653072943206,0 81.19477043828238,21.52665098589486,0 81.19522848788854,21.52797872772025,0 81.19425563972104,21.52861245080181,0 81.1941565025313,21.52871024624119,0 81.19415584343422,21.52918830894159,0 81.19332146636521,21.52918534641367,0 81.19331590749339,21.52901002996888,0 81.19314285394007,21.5290245469646,0 
				</coordinates>
			</LineString>
		</Placemark>
	</Document>
	<Document>
		<name>Saleh PIL.kml</name>
		<Style id="sn_ylw-pushpin19">
			<IconStyle>
				<scale>0.7</scale>
				<Icon>
					<href>http://maps.google.com/mapfiles/kml/pushpin/ylw-pushpin.png</href>
				</Icon>
				<hotSpot x="20" y="2" xunits="pixels" yunits="pixels"/>
			</IconStyle>
			<LabelStyle>
				<scale>0.6</scale>
			</LabelStyle>
		</Style>
		<Style id="sh_ylw-pushpin16">
			<IconStyle>
				<scale>0.827273</scale>
				<Icon>
					<href>http://maps.google.com/mapfiles/kml/pushpin/ylw-pushpin.png</href>
				</Icon>
				<hotSpot x="20" y="2" xunits="pixels" yunits="pixels"/>
			</IconStyle>
			<LabelStyle>
				<scale>0.7</scale>
			</LabelStyle>
		</Style>
		<Style id="sh_ylw-pushpin17">
			<IconStyle>
				<scale>0.827273</scale>
				<Icon>
					<href>http://maps.google.com/mapfiles/kml/pushpin/ylw-pushpin.png</href>
				</Icon>
				<hotSpot x="20" y="2" xunits="pixels" yunits="pixels"/>
			</IconStyle>
			<LabelStyle>
				<scale>0.6</scale>
			</LabelStyle>
		</Style>
		<StyleMap id="msn_ylw-pushpin17">
			<Pair>
				<key>normal</key>
				<styleUrl>#sn_ylw-pushpin18</styleUrl>
			</Pair>
			<Pair>
				<key>highlight</key>
				<styleUrl>#sh_ylw-pushpin16</styleUrl>
			</Pair>
		</StyleMap>
		<Style id="sn_ylw-pushpin18">
			<IconStyle>
				<scale>0.7</scale>
				<Icon>
					<href>http://maps.google.com/mapfiles/kml/pushpin/ylw-pushpin.png</href>
				</Icon>
				<hotSpot x="20" y="2" xunits="pixels" yunits="pixels"/>
			</IconStyle>
			<LabelStyle>
				<scale>0.7</scale>
			</LabelStyle>
		</Style>
		<StyleMap id="msn_ylw-pushpin16">
			<Pair>
				<key>normal</key>
				<styleUrl>#sn_ylw-pushpin19</styleUrl>
			</Pair>
			<Pair>
				<key>highlight</key>
				<styleUrl>#sh_ylw-pushpin17</styleUrl>
			</Pair>
		</StyleMap>
		<Document>
			<name>Saleh PIL.kml</name>
			<StyleMap id="msn_ylw-pushpin20">
				<Pair>
					<key>normal</key>
					<styleUrl>#sn_ylw-pushpin23</styleUrl>
				</Pair>
				<Pair>
					<key>highlight</key>
					<styleUrl>#sh_ylw-pushpin21</styleUrl>
				</Pair>
			</StyleMap>
			<Style id="sn_ylw-pushpin22">
				<IconStyle>
					<scale>0.7</scale>
					<Icon>
						<href>http://maps.google.com/mapfiles/kml/pushpin/ylw-pushpin.png</href>
					</Icon>
					<hotSpot x="20" y="2" xunits="pixels" yunits="pixels"/>
				</IconStyle>
				<LabelStyle>
					<scale>0.7</scale>
				</LabelStyle>
			</Style>
			<Style id="sn_ylw-pushpin23">
				<IconStyle>
					<scale>0.7</scale>
					<Icon>
						<href>http://maps.google.com/mapfiles/kml/pushpin/ylw-pushpin.png</href>
					</Icon>
					<hotSpot x="20" y="2" xunits="pixels" yunits="pixels"/>
				</IconStyle>
				<LabelStyle>
					<scale>0.7</scale>
				</LabelStyle>
			</Style>
			<StyleMap id="msn_ylw-pushpin21">
				<Pair>
					<key>normal</key>
					<styleUrl>#sn_ylw-pushpin22</styleUrl>
				</Pair>
				<Pair>
					<key>highlight</key>
					<styleUrl>#sh_ylw-pushpin22</styleUrl>
				</Pair>
			</StyleMap>
			<Style id="sh_ylw-pushpin22">
				<IconStyle>
					<scale>0.827273</scale>
					<Icon>
						<href>http://maps.google.com/mapfiles/kml/pushpin/ylw-pushpin.png</href>
					</Icon>
					<hotSpot x="20" y="2" xunits="pixels" yunits="pixels"/>
				</IconStyle>
				<LabelStyle>
					<scale>0.7</scale>
				</LabelStyle>
			</Style>
			<Style id="sh_ylw-pushpin21">
				<IconStyle>
					<scale>0.827273</scale>
					<Icon>
						<href>http://maps.google.com/mapfiles/kml/pushpin/ylw-pushpin.png</href>
					</Icon>
					<hotSpot x="20" y="2" xunits="pixels" yunits="pixels"/>
				</IconStyle>
				<LabelStyle>
					<scale>0.7</scale>
				</LabelStyle>
			</Style>
			<Placemark>
				<name>Rano I PIL</name>
				<LookAt>
					<longitude>81.21439216114885</longitude>
					<latitude>21.53301328646047</latitude>
					<altitude>0</altitude>
					<heading>0.01421001060067553</heading>
					<tilt>0</tilt>
					<range>7469.414314371876</range>
					<altitudeMode>relativeToGround</altitudeMode>
					<gx:altitudeMode>relativeToSeaFloor</gx:altitudeMode>
				</LookAt>
				<styleUrl>#msn_ylw-pushpin20</styleUrl>
				<Point>
					<altitudeMode>clampToGround</altitudeMode>
					<gx:altitudeMode>clampToSeaFloor</gx:altitudeMode>
					<coordinates>81.2055938517811,21.52690607078432,0</coordinates>
				</Point>
			</Placemark>
		</Document>
		<Placemark>
			<name>Rano II PIL</name>
			<LookAt>
				<longitude>81.18773892277693</longitude>
				<latitude>21.5168863116954</latitude>
				<altitude>0</altitude>
				<heading>-0.01541242702522812</heading>
				<tilt>0</tilt>
				<range>3456.328605975096</range>
				<altitudeMode>relativeToGround</altitudeMode>
				<gx:altitudeMode>relativeToSeaFloor</gx:altitudeMode>
			</LookAt>
			<styleUrl>#msn_ylw-pushpin16</styleUrl>
			<Point>
				<altitudeMode>clampToGround</altitudeMode>
				<gx:altitudeMode>clampToSeaFloor</gx:altitudeMode>
				<coordinates>81.17926659984826,21.52055348270796,0</coordinates>
			</Point>
		</Placemark>
	</Document>
	<Document>
		<name>saleh.kml</name>
		<open>1</open>
		<StyleMap id="msn_ylw-pushpin70">
			<Pair>
				<key>normal</key>
				<styleUrl>#sn_ylw-pushpin8</styleUrl>
			</Pair>
			<Pair>
				<key>highlight</key>
				<styleUrl>#sh_ylw-pushpin70</styleUrl>
			</Pair>
		</StyleMap>
		<Style id="sh_ylw-pushpin80">
			<IconStyle>
				<scale>0.827273</scale>
				<Icon>
					<href>http://maps.google.com/mapfiles/kml/pushpin/ylw-pushpin.png</href>
				</Icon>
				<hotSpot x="20" y="2" xunits="pixels" yunits="pixels"/>
			</IconStyle>
			<LabelStyle>
				<scale>0.6</scale>
			</LabelStyle>
		</Style>
		<Style id="sh_ylw-pushpin70">
			<IconStyle>
				<scale>1.3</scale>
				<Icon>
					<href>http://maps.google.com/mapfiles/kml/pushpin/ylw-pushpin.png</href>
				</Icon>
				<hotSpot x="20" y="2" xunits="pixels" yunits="pixels"/>
			</IconStyle>
		</Style>
		<Style id="sn_ylw-pushpin8">
			<IconStyle>
				<scale>1.1</scale>
				<Icon>
					<href>http://maps.google.com/mapfiles/kml/pushpin/ylw-pushpin.png</href>
				</Icon>
				<hotSpot x="20" y="2" xunits="pixels" yunits="pixels"/>
			</IconStyle>
		</Style>
		<Style id="sn_ylw-pushpin9">
			<IconStyle>
				<scale>0.7</scale>
				<Icon>
					<href>http://maps.google.com/mapfiles/kml/pushpin/ylw-pushpin.png</href>
				</Icon>
				<hotSpot x="20" y="2" xunits="pixels" yunits="pixels"/>
			</IconStyle>
			<LabelStyle>
				<scale>0.6</scale>
			</LabelStyle>
		</Style>
		<StyleMap id="msn_ylw-pushpin80">
			<Pair>
				<key>normal</key>
				<styleUrl>#sn_ylw-pushpin9</styleUrl>
			</Pair>
			<Pair>
				<key>highlight</key>
				<styleUrl>#sh_ylw-pushpin80</styleUrl>
			</Pair>
		</StyleMap>
		<Placemark>
			<name>Saleh PIL</name>
			<LookAt>
				<longitude>81.17848609616449</longitude>
				<latitude>21.49999420694996</latitude>
				<altitude>0</altitude>
				<heading>-0.0188124969006385</heading>
				<tilt>0</tilt>
				<range>3457.021047597399</range>
				<altitudeMode>relativeToGround</altitudeMode>
				<gx:altitudeMode>relativeToSeaFloor</gx:altitudeMode>
			</LookAt>
			<styleUrl>#msn_ylw-pushpin80</styleUrl>
			<Point>
				<altitudeMode>clampToGround</altitudeMode>
				<gx:altitudeMode>clampToSeaFloor</gx:altitudeMode>
				<coordinates>81.17848609616451,21.49999420694996,0</coordinates>
			</Point>
		</Placemark>
	</Document>
	<Placemark>
		<name>Saleh PIL</name>
		<styleUrl>#msn_ylw-pushpin</styleUrl>
		<LineString>
			<tessellate>1</tessellate>
			<coordinates>
				81.17832642296126,21.50220983399485,0 81.17772638208349,21.50084426161769,0 81.17748172890347,21.4997466559877,0 81.17658225222215,21.49977033632949,0 81.17580115405023,21.49825929780825,0 81.17612008510191,21.49814439770853,0 81.17630398553393,21.49797216978648,0 81.17664819610782,21.4978686449349,0 81.17743761924945,21.49851106082981,0 81.17798242352464,21.49879810841167,0 81.17798344060839,21.49903843874381,0 81.17858627291871,21.49912987138946,0 81.17884344164131,21.49854628813059,0 81.17773424048407,21.49794978539355,0 81.17789474305843,21.49773236949755,0 81.17767187267631,21.49720405605697,0 81.17742378685371,21.49700748793025,0 81.17746117165235,21.4966637046238,0 81.1771892261297,21.49665150217235,0 81.17718963463453,21.49639950413315,0 81.17753614602401,21.49640121488303,0 81.17773493653461,21.49627771031068,0 81.17777228067109,21.49617531455881,0 81.17854947060086,21.49616958089994,0 81.17888146379706,21.49607990803914,0 81.17990059171351,21.49597613973092,0 81.18009545855945,21.49728288373064,0 81.18213187393526,21.4970096932513,0 81.18219937144256,21.49756322962873,0 81.18239829865726,21.49757356448542,0 81.18245619583901,21.49863835581007,0 81.18270120003716,21.49871843417844,0 81.18264966376923,21.49930107390535,0 81.18227024281143,21.49924406342275,0 81.18218398879741,21.49964384376392,0 81.18148286247326,21.49968910944735,0 81.18137187528838,21.50027094622761,0 81.18040102776529,21.50047364515569,0 81.18043863762448,21.50122736332421,0 81.17988733220081,21.50161560153221,0 81.17980208029439,21.50206465084161,0 81.17833830010423,21.50229127538129,0 
			</coordinates>
		</LineString>
	</Placemark>
	<Placemark>
		<name>pendravan pil</name>
		<styleUrl>#msn_ylw-pushpin110</styleUrl>
		<LineString>
			<tessellate>1</tessellate>
			<coordinates>
				81.24979323561151,21.54791342624767,0 81.24996403487455,21.54721058355812,0 81.2500244886305,21.54703881882907,0 81.25011610139447,21.54662319057468,0 81.25020716462808,21.54604969729628,0 81.25060870156257,21.54602088828343,0 81.25063956716095,21.54549051064382,0 81.25060973936111,21.54513253198809,0 81.25067497275241,21.54447536508336,0 81.25095071411118,21.54447453847029,0 81.25111713197802,21.54348422069259,0 81.25299743272898,21.5434563588591,0 81.25305910225696,21.54261314283781,0 81.25332072072135,21.54255584499578,0 81.25332064328764,21.54232703182812,0 81.25433601580286,21.54220178276529,0 81.25438299278891,21.54305506139421,0 81.2549516682203,21.54285782889919,0 81.25507551315008,21.54334253316539,0 81.25566030957074,21.54319891332057,0 81.25584468670185,21.54365772301377,0 81.25565991537847,21.54371535367035,0 81.25565951932666,21.54401664037063,0 81.25515395731077,21.54417059768048,0 81.25524780832217,21.54449817697213,0 81.25602950508409,21.54443059482203,0 81.25629838421661,21.54548692318,0 81.25507824319232,21.54577517073182,0 81.25456950196757,21.54415231060323,0 81.2538444312264,21.5443128171864,0 81.2539531770031,21.54551814948627,0 81.25290823184908,21.54566299149272,0 81.25289214078951,21.5467072522287,0 81.25206399288432,21.54683565945983,0 81.25200342786506,21.54620677936575,0 81.25102779662332,21.54635033861273,0 81.25084129934038,21.54669443318761,0 81.25033193801487,21.54675210840051,0 81.25016449802516,21.54723910831884,0 81.25203085093673,21.54755210896513,0 81.2520309997208,21.54783837100295,0 81.25075469293331,21.54808182416626,0 81.25018221989724,21.54798331484918,0 81.24988639003104,21.54799912695055,0 
			</coordinates>
		</LineString>
	</Placemark>
	<Placemark>
		<name>Untitled Path</name>
		<styleUrl>#msn_ylw-pushpin13</styleUrl>
		<LineString>
			<tessellate>1</tessellate>
			<coordinates>
				81.18117140218962,21.52680123912579,0 81.18108806054779,21.52618048412117,0 81.18039838578009,21.52620694483356,0 81.18035544024963,21.5254723020294,0 81.17877691793738,21.52565521342056,0 81.1782335329885,21.52437810007931,0 81.17854555251191,21.52426216556431,0 81.17842418240677,21.52365920788062,0 81.1789868003966,21.52336836555884,0 81.17890536954701,21.52280635044516,0 81.18019559927399,21.52230299597905,0 81.18038318243735,21.52265067920748,0 81.1798606558969,21.52296184392187,0 81.18016939887626,21.52393453887918,0 81.18192066499252,21.52384918989955,0 81.18204519599975,21.52423452274111,0 81.18269026146477,21.52425682135482,0 81.18268998617074,21.5246428201942,0 81.18198295701706,21.52464050439056,0 81.18212908611996,21.52520617505225,0 81.18237888430357,21.52520692424166,0 81.18248376522682,21.52579155701244,0 81.18231719793565,21.52590819075213,0 81.1823171155818,21.52672078359744,0 81.18117140218962,21.52680123912579,0 
			</coordinates>
		</LineString>
	</Placemark>
	<Placemark>
		<name>Untitled Path</name>
		<styleUrl>#msn_ylw-pushpin12</styleUrl>
		<LineString>
			<tessellate>1</tessellate>
			<coordinates>
				81.17920067952502,21.52212877837972,0 81.18000940219352,21.52189698594436,0 81.17998936629837,21.52162656172555,0 81.17907725817051,21.521761882245,0 81.1790761998214,21.52205152797029,0 81.17920067952502,21.52212877837972,0 
			</coordinates>
		</LineString>
	</Placemark>
	<Placemark>
		<name>Rano II PIL</name>
		<styleUrl>#msn_ylw-pushpin11</styleUrl>
		<LineString>
			<tessellate>1</tessellate>
			<coordinates>
				81.17801534588742,21.52187779554584,0 81.17810388356814,21.52114459576687,0 81.17837425819955,21.52108687449347,0 81.17837516874462,21.52075926368601,0 81.1786061075541,21.51989336424331,0 81.17918428281173,21.51979563114339,0 81.17912171041955,21.51925548102059,0 81.17887413735222,21.51935290038501,0 81.17858406557605,21.51850493365082,0 81.17843973894875,21.51850565409724,0 81.17862662816256,21.51935381144352,0 81.17850287866966,21.51937348058804,0 81.1781925394429,21.51854548119371,0 81.17796593255376,21.518681290546,0 81.17769634490203,21.51833427818188,0 81.17674107625875,21.51852486778716,0 81.17678670519605,21.51785388006051,0 81.17754938436731,21.51787015161631,0 81.17754665689051,21.51744340072622,0 81.17796035194476,21.51726890404122,0 81.17837495388289,21.51734604660708,0 81.17860309681439,21.51757759335414,0 81.1790161073727,21.51763298161092,0 81.17943051394197,21.51840404021678,0 81.17967870274595,21.51840276345065,0 81.17982412630663,21.5189241774181,0 81.17936938572271,21.51908072407951,0 81.17953518250251,21.51950495325882,0 81.17992817359232,21.51952291311386,0 81.17999010570337,21.51932946356383,0 81.18032136040073,21.51921217590616,0 81.18111006219651,21.51926890596933,0 81.18108929849619,21.5194041508419,0 81.18050801836101,21.51938554760365,0 81.18050830909814,21.51986892286814,0 81.18025963179937,21.51979235585384,0 81.180301360744,21.52023664853519,0 81.1801358032684,21.52035292763183,0 81.18034257957434,21.52102795761512,0 81.1788919386794,21.52122170736569,0 81.17889095690249,21.52162680279056,0 81.17811990738436,21.5218005073047,0 
			</coordinates>
		</LineString>
	</Placemark>
	<Placemark>
		<name>Rano II PIL</name>
		<styleUrl>#msn_ylw-pushpin14</styleUrl>
		<LineString>
			<tessellate>1</tessellate>
			<coordinates>
				81.1767069106026,21.51957561411653,0 81.17670695406622,21.51956879194121,0 81.17670829583852,21.51942587332097,0 81.17816362135243,21.51927518979415,0 81.17820744813521,21.51942446554863,0 81.1767069106026,21.51957561411653,0 
			</coordinates>
		</LineString>
	</Placemark>
</Document>
</kml>
