<?xml version="1.0" encoding="utf-8" ?>
<kml xmlns="http://www.opengis.net/kml/2.2">
<Document><Folder><name>Instance__1</name>
<Schema name="Instance__1" id="Instance__1">
	<SimpleField name="Name" type="string"></SimpleField>
	<SimpleField name="Description" type="string"></SimpleField>
	<SimpleField name="CODECOMMUN" type="string"></SimpleField>
	<SimpleField name="COMMUNE" type="string"></SimpleField>
	<SimpleField name="CODEVILLAG" type="string"></SimpleField>
	<SimpleField name="VILLAGE" type="string"></SimpleField>
	<SimpleField name="PRENOM" type="string"></SimpleField>
	<SimpleField name="NOM" type="string"></SimpleField>
	<SimpleField name="CODEPLANTE" type="string"></SimpleField>
	<SimpleField name="CODEPARCEL" type="string"></SimpleField>
	<SimpleField name="SUPERRECEN" type="float"></SimpleField>
	<SimpleField name="SUPERFGEOR" type="int"></SimpleField>
	<SimpleField name="PERIMETRE" type="string"></SimpleField>
	<SimpleField name="NBARBRES" type="float"></SimpleField>
	<SimpleField name="SYSTEMEPLA" type="string"></SimpleField>
	<SimpleField name="ANNEEPLANT" type="int"></SimpleField>
	<SimpleField name="MOISPLANTA" type="string"></SimpleField>
</Schema>
  <Placemark>
	<Style><LineStyle><color>ff0000ff</color></LineStyle><PolyStyle><fill>0</fill></PolyStyle></Style>
	<ExtendedData><SchemaData schemaUrl="#Instance__1">
		<SimpleData name="CODECOMMUN">01_03</SimpleData>
		<SimpleData name="COMMUNE">Kita Nord</SimpleData>
		<SimpleData name="CODEVILLAG">01_03_01</SimpleData>
		<SimpleData name="VILLAGE">Siraninkoto</SimpleData>
		<SimpleData name="PRENOM">Sambou</SimpleData>
		<SimpleData name="NOM">Kante</SimpleData>
		<SimpleData name="CODEPLANTE">01_03_01_001</SimpleData>
		<SimpleData name="CODEPARCEL">01_03_01_001_01</SimpleData>
		<SimpleData name="SUPERRECEN">1.00</SimpleData>
		<SimpleData name="SUPERFGEOR">1</SimpleData>
		<SimpleData name="PERIMETRE">550.67 m</SimpleData>
		<SimpleData name="NBARBRES">1100.00</SimpleData>
		<SimpleData name="SYSTEMEPLA">3x3</SimpleData>
		<SimpleData name="ANNEEPLANT">2007</SimpleData>
		<SimpleData name="MOISPLANTA">AoC;t</SimpleData>
	</SchemaData></ExtendedData>
      <Polygon><outerBoundaryIs><LinearRing><coordinates>-9.320544099999923,13.182825999873721 -9.320558499999921,13.182811699873724 -9.320556799999908,13.182814899873724 -9.320554099999926,13.182823399873724 -9.320548799999926,13.182831599873726 -9.320542899999909,13.182840699873724 -9.320538699999902,13.182850099873722 -9.3205379,13.182859799873725 -9.320539599999904,13.182870399873721 -9.320541899999911,13.182883899873723 -9.3205448,13.182895899873722 -9.3205486,13.182908699873723 -9.320551899999915,13.182921399873724 -9.320554599999925,13.182933899873724 -9.3205553,13.182950099873722 -9.320556199999913,13.182962299873726 -9.320557899999926,13.18297759987372 -9.320559699999905,13.182990899873722 -9.320562799999919,13.183006099873722 -9.320560699999902,13.183019799873726 -9.320558799999931,13.183030899873719 -9.3205577,13.183042599873721 -9.320557599999917,13.183054999873725 -9.320563899999913,13.183069499873721 -9.320568899999927,13.183081099873721 -9.320572199999932,13.183091799873722 -9.320576899999908,13.183098699873721 -9.320582299999929,13.18310929987372 -9.320583599999907,13.183119799873722 -9.320583799999923,13.18313009987372 -9.320586399999913,13.18314359987372 -9.320588599999924,13.183155799873722 -9.320591299999904,13.183168599873721 -9.320592899999923,13.183179499873718 -9.320594699999901,13.183191899873719 -9.3205965,13.183204999873723 -9.320598399999911,13.183218499873721 -9.320600099999924,13.183229499873722 -9.320601199999913,13.183241299873721 -9.320600699999915,13.18325379987372 -9.320595099999906,13.18326339987372 -9.320583199999902,13.18326979987372 -9.320571299999926,13.183273699873721 -9.320559799999927,13.183277999873722 -9.320548199999905,13.183282099873722 -9.320536599999912,13.183286099873719 -9.320524899999924,13.183290399873721 -9.320512499999923,13.183293999873721 -9.320499499999928,13.183296899873724 -9.320486399999908,13.183299599873717 -9.3204736,13.183302799873719 -9.32046,13.18330669987372 -9.320448499999912,13.183311199873719 -9.320436299999926,13.18331569987372 -9.320424199999907,13.18331979987372 -9.32041,13.18332309987372 -9.320399099999918,13.183325899873717 -9.320385699999919,13.183328899873722 -9.320372699999924,13.18333319987372 -9.320359799999922,13.183337599873719 -9.32035,13.183341599873721 -9.3203343,13.183345699873721 -9.320321299999904,13.183349299873719 -9.320308099999922,13.18335319987372 -9.3202949,13.183356999873721 -9.3202815,13.183361699873723 -9.320268399999918,13.18336629987372 -9.320255799999927,13.183369999873719 -9.320242899999926,13.183373199873719 -9.320230099999918,13.183376899873721 -9.320217299999912,13.183380499873721 -9.320204199999921,13.183384599873717 -9.320191199999925,13.183388199873717 -9.32018,13.183391599873723 -9.320164699999909,13.183394599873719 -9.320151299999907,13.183397699873719 -9.320137699999918,13.183399899873718 -9.320124699999923,13.183402099873719 -9.320111799999923,13.183404699873723 -9.320098499999915,13.183407199873717 -9.320084899999928,13.183409699873719 -9.320071099999922,13.183412599873721 -9.320057499999907,13.183416099873719 -9.320044199999929,13.183418999873718 -9.320030599999912,13.183420799873719 -9.320016599999919,13.183422599873721 -9.320003099999925,13.183424899873721 -9.319989699999924,13.183427899873717 -9.319976499999912,13.183430399873721 -9.3199631,13.183432799873719 -9.3199497,13.183434899873721 -9.319936199999916,13.18343649987372 -9.319922699999921,13.183438599873721 -9.319909,13.183441599873721 -9.319895299999928,13.183444599873718 -9.319881599999917,13.183447999873717 -9.319868399999905,13.183451899873718 -9.319855899999908,13.183454899873718 -9.319842399999914,13.18345799987372 -9.319828099999912,13.183460799873716 -9.319813799999906,13.183463499873719 -9.319800299999912,13.183466799873719 -9.31979,13.183470499873717 -9.319772799999926,13.18347439987372 -9.319758399999927,13.183478599873721 -9.319744499999928,13.183483099873717 -9.319730299999918,13.183487099873719 -9.3197159,13.183489499873721 -9.319701799999907,13.18349079987372 -9.319687699999918,13.183491999873718 -9.319673699999926,13.183494699873716 -9.319660199999904,13.183499299873716 -9.319647699999907,13.183504699873721 -9.31963,13.183509099873717 -9.319622099999918,13.183512599873719 -9.319608799999914,13.183516299873718 -9.31959,13.183519899873717 -9.31958,13.183523699873719 -9.319567199999911,13.183527699873714 -9.319553399999904,13.183532099873716 -9.319539799999918,13.183536699873718 -9.319527099999904,13.183539899873717 -9.319514599999907,13.183543299873717 -9.319501899999921,13.183546899873718 -9.31949,13.183550399873718 -9.319474299999911,13.18355429987372 -9.31946,13.183558799873717 -9.319447599999904,13.183563399873719 -9.319434299999928,13.183567199873721 -9.319422199999906,13.183569399873717 -9.319409099999918,13.183572199873716 -9.319395799999912,13.183574999873716 -9.319382299999916,13.183578099873719 -9.319368799999921,13.183581699873718 -9.319355299999927,13.183586099873716 -9.31934,13.183590199873716 -9.31933,13.183593399873716 -9.319315399999908,13.183596899873718 -9.319301799999922,13.183599399873719 -9.319288299999926,13.183601699873718 -9.319274799999903,13.183604599873718 -9.319260899999904,13.183607899873715 -9.319247199999921,13.18361059987372 -9.319233799999923,13.183613199873717 -9.31922,13.183616199873718 -9.3192083,13.18361849987372 -9.31919,13.183620999873714 -9.319181499999928,13.183624499873718 -9.319167899999911,13.183628099873719 -9.319154299999923,13.183631899873717 -9.319140399999924,13.183635299873716 -9.319126299999908,13.183637799873715 -9.319112199999921,13.183640499873716 -9.319098299999922,13.183643999873718 -9.319084699999907,13.183647899873717 -9.319071299999907,13.183651499873719 -9.3190575,13.183654899873718 -9.319043499999907,13.183657999873715 -9.3190299,13.183661499873713 -9.319016899999925,13.183665299873716 -9.319003599999917,13.183668999873714 -9.318989699999918,13.183672499873717 -9.31898,13.183675999873719 -9.318962199999902,13.183679499873715 -9.31895,13.18368319987372 -9.318933899999905,13.183687399873719 -9.318920199999924,13.183691199873715 -9.318906299999925,13.183694699873719 -9.318892199999908,13.183698499873717 -9.318878299999909,13.183702599873717 -9.31886,13.183707299873715 -9.318851699999927,13.183711999873717 -9.318838299999925,13.183717199873719 -9.318825799999928,13.183722399873718 -9.318812299999907,13.183725899873719 -9.3188,13.183728899873715 -9.3187902,13.183730699873717 -9.3187784,13.18373229987372 -9.318759599999908,13.183735799873714 -9.318748199999904,13.183737999873719 -9.318735799999928,13.183741299873718 -9.318722799999904,13.183744499873718 -9.318710499999925,13.183747399873715 -9.318696699999919,13.183749199873713 -9.318683699999923,13.183751199873715 -9.3186702,13.183752199873718 -9.318657399999921,13.183753199873713 -9.318643399999901,13.183753999873716 -9.318628399999909,13.183754599873714 -9.318616499999907,13.183757399873716 -9.318607499999928,13.183759899873714 -9.318600899999922,13.183760799873715 -9.318595399999909,13.183758199873717 -9.318592499999911,13.183749199873716 -9.318592499999911,13.183736599873718 -9.318592199999928,13.183723499873716 -9.318590799999926,13.183709899873717 -9.3185896,13.183696099873716 -9.318588899999924,13.183682199873717 -9.318587199999911,13.18366829987372 -9.318586099999921,13.183655299873717 -9.318585499999926,13.183642499873718 -9.318584399999908,13.183629199873717 -9.318583199999923,13.183615699873714 -9.318582099999929,13.183601499873717 -9.318581399999914,13.183586199873714 -9.318580299999923,13.183570599873716 -9.318579599999907,13.183556499873719 -9.318579099999909,13.183543299873719 -9.318578199999905,13.183529499873721 -9.318577399999924,13.18351529987372 -9.318577,13.183501799873719 -9.318578499999917,13.183489099873714 -9.318580699999929,13.183475999873719 -9.3185839,13.183461899873715 -9.318588099999916,13.183448699873718 -9.318586799999906,13.183437499873719 -9.318585199999916,13.18342629987372 -9.318582899999912,13.183414399873721 -9.318581199999928,13.183402399873717 -9.318580599999905,13.183389299873719 -9.318582799999916,13.183376299873721 -9.3185815,13.183363199873721 -9.318577199999908,13.183351899873726 -9.318574299999909,13.183338799873718 -9.318573699999916,13.183325199873719 -9.318574299999909,13.183311799873715 -9.318576799999905,13.183298999873719 -9.318580499999912,13.183287599873722 -9.318588099999916,13.183279399873717 -9.318598499999922,13.183274099873719 -9.31861,13.183270599873723 -9.318622099999915,13.183268399873722 -9.318634699999905,13.183266499873723 -9.318647599999908,13.183263899873719 -9.318660299999921,13.183260499873718 -9.318672399999912,13.183257099873723 -9.318684599999926,13.183253699873719 -9.3186975,13.183250899873721 -9.318711399999929,13.183247999873721 -9.31872,13.183244299873721 -9.3187377,13.183240399873718 -9.318750099999905,13.183236799873718 -9.318762299999918,13.183232999873718 -9.318775499999902,13.183228499873723 -9.318786499999902,13.183224699873719 -9.318797499999903,13.183220699873724 -9.318812299999907,13.183217299873721 -9.318826199999904,13.183213699873718 -9.31884,13.183210299873725 -9.318853499999904,13.183207199873719 -9.318865699999918,13.183203699873719 -9.318877199999919,13.18319999987372 -9.318890699999912,13.183196899873719 -9.3189,13.18319379987372 -9.318917799999925,13.183190099873716 -9.318932099999927,13.183186099873717 -9.3189461,13.18318209987372 -9.3189597,13.183178499873721 -9.318973499999913,13.183175599873721 -9.3189873,13.183172699873724 -9.319001299999913,13.183168999873718 -9.319015199999912,13.183165299873725 -9.319028699999906,13.183161999873724 -9.319042299999921,13.183158499873716 -9.3190559,13.183155099873721 -9.319069599999921,13.183151799873723 -9.319082899999927,13.183148499873719 -9.319095699999906,13.183145199873723 -9.319108699999903,13.183142799873721 -9.319121699999927,13.183140499873723 -9.319134899999911,13.183137799873723 -9.319149299999907,13.183134899873721 -9.31916,13.183131299873724 -9.319178699999926,13.183127599873723 -9.319193199999917,13.183124299873723 -9.319207199999909,13.183121199873719 -9.31922,13.183118599873724 -9.3192348,13.183116099873724 -9.319248699999919,13.183113099873722 -9.3192624,13.183109899873724 -9.3192771,13.183106299873723 -9.319291699999923,13.183102499873721 -9.319305899999904,13.183098799873722 -9.319319799999903,13.183095199873723 -9.319333499999914,13.183091699873721 -9.319347699999923,13.183088599873722 -9.319362199999915,13.183085699873722 -9.319376599999913,13.183082599873725 -9.319390699999902,13.183079799873719 -9.3194054,13.183077199873722 -9.319420099999919,13.183074399873721 -9.319434599999909,13.183071799873721 -9.319448699999926,13.18306879987372 -9.319462399999908,13.18306459987372 -9.319476399999902,13.183060699873725 -9.319490299999929,13.183056899873723 -9.3195045,13.183052899873722 -9.319519299999911,13.183048699873723 -9.319534299999901,13.183045299873722 -9.319549,13.183041599873722 -9.319563099999925,13.183037699873724 -9.31958,13.183034399873724 -9.31959,13.183031399873721 -9.319607499999904,13.183027799873724 -9.319622299999908,13.183023299873723 -9.319637099999909,13.183018799873725 -9.319652199999922,13.183014899873719 -9.319667499999925,13.183010699873725 -9.319683199999902,13.183006699873722 -9.3197,13.183002899873721 -9.319714899999923,13.182998799873724 -9.319729099999904,13.182995199873725 -9.3197424,13.182990999873722 -9.319755299999912,13.182987299873725 -9.319769399999929,13.18298419987372 -9.319783299999928,13.182981599873726 -9.3198,13.182978999873718 -9.319810799999914,13.182976399873723 -9.319824299999908,13.182974299873722 -9.319838599999912,13.182972499873722 -9.319852399999917,13.182971299873726 -9.319863499999911,13.18296819987372 -9.319874699999929,13.182966799873725 -9.319888399999911,13.182965199873722 -9.319902299999912,13.182962699873723 -9.319914499999927,13.182959599873721 -9.319924399999906,13.182956399873724 -9.319939099999914,13.182953399873723 -9.319952599999908,13.182950399873722 -9.319966599999901,13.182946299873723 -9.319978699999922,13.182942099873722 -9.319992199999916,13.18293779987372 -9.320005499999922,13.182933599873722 -9.320019799999928,13.182929299873724 -9.320037099999922,13.182923599873721 -9.320050899999929,13.182919999873723 -9.320065199999902,13.182916199873722 -9.320078899999913,13.182912199873723 -9.320091299999918,13.182908299873722 -9.320104099999924,13.182906799873722 -9.320119799999901,13.182906699873723 -9.320134599999905,13.182907099873725 -9.320146499999908,13.182906899873723 -9.320157399999914,13.182906199873722 -9.320169699999923,13.182903499873724 -9.320181799999917,13.182900199873721 -9.32019,13.182895399873722 -9.320208199999911,13.182890799873723 -9.320221899999922,13.182886999873723 -9.320235899999917,13.182884599873722 -9.320249399999911,13.182883099873722 -9.32026,13.182881799873725 -9.3202762,13.182879399873721 -9.320288799999931,13.182875999873726 -9.320301699999902,13.182873199873724 -9.320315399999913,13.182870899873723 -9.32033,13.182869399873722 -9.320342299999908,13.182867999873725 -9.320355799999902,13.182866099873726 -9.32037,13.182863499873726 -9.320383199999924,13.182859499873723 -9.3204,13.182855599873724 -9.3204117,13.182851899873723 -9.320424899999923,13.182849699873723 -9.320438399999915,13.182847099873726 -9.320451799999917,13.182844099873725 -9.320465099999922,13.182840999873726 -9.32048,13.18283839987372 -9.320490599999914,13.182836499873723 -9.320503299999928,13.182834499873723 -9.320515499999916,13.182832599873727 -9.320527099999907,13.182830499873727 -9.320537699999905,13.182827899873724 -9.320544199999915,13.182826499873723 -9.320545799999907,13.182826799873725 -9.320545199999913,13.182826799873725 -9.320544599999922,13.182826299873724 -9.320544099999923,13.182825999873721</coordinates></LinearRing></outerBoundaryIs></Polygon>
  </Placemark>
</Folder></Document></kml>
