<?xml version="1.0" encoding="UTF-8"?>
<kml xmlns="http://www.opengis.net/kml/2.2" xmlns:gx="http://www.google.com/kml/ext/2.2" xmlns:kml="http://www.opengis.net/kml/2.2" xmlns:atom="http://www.w3.org/2005/Atom">
<Document>
	<name>BERL.kml</name>
	<StyleMap>
		<Pair>
			<key>normal</key>
			<styleUrl>#style</styleUrl>
		</Pair>
		<Pair>
			<key>highlight</key>
			<styleUrl>#style0</styleUrl>
		</Pair>
	</StyleMap>
	<Style id="style">
		<IconStyle>
			<Icon>
				<href>http://maps.google.com/mapfiles/kml/pal4/icon56.png</href>
				<x>32</x>
				<y>32</y>
				<w>32</w>
				<h>32</h>
			</Icon>
		</IconStyle>
	</Style>
	<Style id="style0">
		<IconStyle>
			<Icon>
				<href>http://maps.google.com/mapfiles/kml/pal4/icon56.png</href>
				<x>32</x>
				<y>32</y>
				<w>32</w>
				<h>32</h>
			</Icon>
		</IconStyle>
	</Style>
	<Placemark>
		<name>BERL</name>
		<visibility>0</visibility>
		<description>Fuelling a greener future for farmers in Malawi through the use of Jatropha curcas</description>
		<LookAt>
			<longitude>33.731211111111</longitude>
			<latitude>-13.975727777778</latitude>
			<altitude>0</altitude>
			<heading>0</heading>
			<tilt>0</tilt>
			<range>300</range>
		</LookAt>
		<styleUrl>#</styleUrl>
		<Point>
			<extrude>1</extrude>
			<altitudeMode>relativeToGround</altitudeMode>
			<coordinates>33.731211111111,-13.975727777778,0</coordinates>
		</Point>
	</Placemark>
</Document>
</kml>
