<?xml version="1.0" encoding="UTF-8"?>
<kml xmlns="http://earth.google.com/kml/2.2">
<Document><name>Kenya</name>
<Style id="routeStyle"><LineStyle><color>FF009900</color><width>2</width></LineStyle></Style>
<Style id="pathStyle"><LineStyle><color>FFFF0000</color><width>2</width></LineStyle></Style>
<Style id="waypntStyle"><IconStyle><scale>  1.00</scale><Icon><href>http://maps.google.com/mapfiles/kml/pushpin/wht-pushpin.png</href></Icon><hotSpot x="20" y="2" xunits="pixels" yunits="pixels"/><color>FF003399</color></IconStyle></Style>
<Style id="trkpntStyle"><IconStyle><scale>  1.00</scale><Icon><href>http://maps.google.com/mapfiles/kml/paddle/wht-diamond.png</href></Icon><hotSpot x="20" y="2" xunits="pixels" yunits="pixels"/><color>FF00FFFF</color></IconStyle></Style>
<Folder>
<name>Trackpoints</name>
<Folder><name>Kenya</name>
<Placemark><visibility>0</visibility>
<name>2011-06-15 19:39:06Z</name>
<TimeStamp><when>2011-06-15T19:39:06Z</when></TimeStamp>
<description></description>
<Point><coordinates>33.928857,-1.012117,0</coordinates></Point>
<styleUrl>#trkpntStyle</styleUrl></Placemark>
<Placemark><visibility>0</visibility>
<name>2011-06-15 19:39:06Z</name>
<TimeStamp><when>2011-06-15T19:39:06Z</when></TimeStamp>
<description> 0:00:00    39.08 ####.#</description>
<Point><coordinates>33.905439,-0.446984,0</coordinates></Point>
<styleUrl>#trkpntStyle</styleUrl></Placemark>
<Placemark><visibility>0</visibility>
<name>2011-06-15 19:39:06Z</name>
<TimeStamp><when>2011-06-15T19:39:06Z</when></TimeStamp>
<description> 0:00:00    60.27 ####.#</description>
<Point><coordinates>34.025069,-0.164528,0</coordinates></Point>
<styleUrl>#trkpntStyle</styleUrl></Placemark>
<Placemark><visibility>0</visibility>
<name>2011-06-15 19:39:06Z</name>
<TimeStamp><when>2011-06-15T19:39:06Z</when></TimeStamp>
<description> 0:00:00    81.38 ####.#</description>
<Point><coordinates>33.880826,0.104794,0</coordinates></Point>
<styleUrl>#trkpntStyle</styleUrl></Placemark>
<Placemark><visibility>0</visibility>
<name>2011-06-15 19:39:06Z</name>
<TimeStamp><when>2011-06-15T19:39:06Z</when></TimeStamp>
<description> 0:00:00   104.37 ####.#</description>
<Point><coordinates>34.076371,0.373930,0</coordinates></Point>
<styleUrl>#trkpntStyle</styleUrl></Placemark>
<Placemark><visibility>0</visibility>
<name>2011-06-15 19:39:06Z</name>
<TimeStamp><when>2011-06-15T19:39:06Z</when></TimeStamp>
<description> 0:00:00   115.01 ####.#</description>
<Point><coordinates>34.075548,0.527886,0</coordinates></Point>
<styleUrl>#trkpntStyle</styleUrl></Placemark>
<Placemark><visibility>0</visibility>
<name>2011-06-15 19:39:06Z</name>
<TimeStamp><when>2011-06-15T19:39:06Z</when></TimeStamp>
<description> 0:00:00   134.56 ####.#</description>
<Point><coordinates>34.271182,0.732434,0</coordinates></Point>
<styleUrl>#trkpntStyle</styleUrl></Placemark>
<Placemark><visibility>0</visibility>
<name>2011-06-15 19:39:06Z</name>
<TimeStamp><when>2011-06-15T19:39:06Z</when></TimeStamp>
<description> 0:00:00   143.41 ####.#</description>
<Point><coordinates>34.388766,0.783208,0</coordinates></Point>
<styleUrl>#trkpntStyle</styleUrl></Placemark>
<Placemark><visibility>0</visibility>
<name>2011-06-15 19:39:06Z</name>
<TimeStamp><when>2011-06-15T19:39:06Z</when></TimeStamp>
<description> 0:00:00   167.96 ####.#</description>
<Point><coordinates>34.544150,1.102784,0</coordinates></Point>
<styleUrl>#trkpntStyle</styleUrl></Placemark>
<Placemark><visibility>0</visibility>
<name>2011-06-15 19:39:06Z</name>
<TimeStamp><when>2011-06-15T19:39:06Z</when></TimeStamp>
<description> 0:00:00   178.85 ####.#</description>
<Point><coordinates>34.674334,1.191609,0</coordinates></Point>
<styleUrl>#trkpntStyle</styleUrl></Placemark>
<Placemark><visibility>0</visibility>
<name>2011-06-15 19:39:06Z</name>
<TimeStamp><when>2011-06-15T19:39:06Z</when></TimeStamp>
<description> 0:00:00   186.25 ####.#</description>
<Point><coordinates>34.778568,1.216493,0</coordinates></Point>
<styleUrl>#trkpntStyle</styleUrl></Placemark>
<Placemark><visibility>0</visibility>
<name>2011-06-15 19:39:06Z</name>
<TimeStamp><when>2011-06-15T19:39:06Z</when></TimeStamp>
<description> 0:00:00   193.86 ####.#</description>
<Point><coordinates>34.843341,1.305622,0</coordinates></Point>
<styleUrl>#trkpntStyle</styleUrl></Placemark>
<Placemark><visibility>0</visibility>
<name>2011-06-15 19:39:06Z</name>
<TimeStamp><when>2011-06-15T19:39:06Z</when></TimeStamp>
<description> 0:00:00   202.82 ####.#</description>
<Point><coordinates>34.764667,1.408676,0</coordinates></Point>
<styleUrl>#trkpntStyle</styleUrl></Placemark>
<Placemark><visibility>0</visibility>
<name>2011-06-15 19:39:06Z</name>
<TimeStamp><when>2011-06-15T19:39:06Z</when></TimeStamp>
<description> 0:00:00   208.47 ####.#</description>
<Point><coordinates>34.842532,1.433758,0</coordinates></Point>
<styleUrl>#trkpntStyle</styleUrl></Placemark>
<Placemark><visibility>0</visibility>
<name>2011-06-15 19:39:06Z</name>
<TimeStamp><when>2011-06-15T19:39:06Z</when></TimeStamp>
<description> 0:00:00   215.59 ####.#</description>
<Point><coordinates>34.841107,1.536700,0</coordinates></Point>
<styleUrl>#trkpntStyle</styleUrl></Placemark>
<Placemark><visibility>0</visibility>
<name>2011-06-15 19:39:06Z</name>
<TimeStamp><when>2011-06-15T19:39:06Z</when></TimeStamp>
<description> 0:00:00   225.00 ####.#</description>
<Point><coordinates>34.944148,1.625857,0</coordinates></Point>
<styleUrl>#trkpntStyle</styleUrl></Placemark>
<Placemark><visibility>0</visibility>
<name>2011-06-15 19:39:06Z</name>
<TimeStamp><when>2011-06-15T19:39:06Z</when></TimeStamp>
<description> 0:00:00   244.13 ####.#</description>
<Point><coordinates>35.005726,1.895798,0</coordinates></Point>
<styleUrl>#trkpntStyle</styleUrl></Placemark>
<Placemark><visibility>0</visibility>
<name>2011-06-15 19:39:06Z</name>
<TimeStamp><when>2011-06-15T19:39:06Z</when></TimeStamp>
<description> 0:00:00   250.67 ####.#</description>
<Point><coordinates>34.978460,1.986416,0</coordinates></Point>
<styleUrl>#trkpntStyle</styleUrl></Placemark>
<Placemark><visibility>0</visibility>
<name>2011-06-15 19:39:06Z</name>
<TimeStamp><when>2011-06-15T19:39:06Z</when></TimeStamp>
<description> 0:00:00   279.03 ####.#</description>
<Point><coordinates>34.894721,2.388293,0</coordinates></Point>
<styleUrl>#trkpntStyle</styleUrl></Placemark>
<Placemark><visibility>0</visibility>
<name>2011-06-15 19:39:06Z</name>
<TimeStamp><when>2011-06-15T19:39:06Z</when></TimeStamp>
<description> 0:00:00   288.16 ####.#</description>
<Point><coordinates>34.958549,2.503983,0</coordinates></Point>
<styleUrl>#trkpntStyle</styleUrl></Placemark>
<Placemark><visibility>0</visibility>
<name>2011-06-15 19:39:06Z</name>
<TimeStamp><when>2011-06-15T19:39:06Z</when></TimeStamp>
<description> 0:00:00   308.13 ####.#</description>
<Point><coordinates>34.759824,2.714076,0</coordinates></Point>
<styleUrl>#trkpntStyle</styleUrl></Placemark>
<Placemark><visibility>0</visibility>
<name>2011-06-15 19:39:06Z</name>
<TimeStamp><when>2011-06-15T19:39:06Z</when></TimeStamp>
<description> 0:00:00   314.40 ####.#</description>
<Point><coordinates>34.758719,2.804893,0</coordinates></Point>
<styleUrl>#trkpntStyle</styleUrl></Placemark>
<Placemark><visibility>0</visibility>
<name>2011-06-15 19:39:06Z</name>
<TimeStamp><when>2011-06-15T19:39:06Z</when></TimeStamp>
<description> 0:00:00   321.80 ####.#</description>
<Point><coordinates>34.704485,2.897184,0</coordinates></Point>
<styleUrl>#trkpntStyle</styleUrl></Placemark>
<Placemark><visibility>0</visibility>
<name>2011-06-15 19:39:06Z</name>
<TimeStamp><when>2011-06-15T19:39:06Z</when></TimeStamp>
<description> 0:00:00   328.17 ####.#</description>
<Point><coordinates>34.612946,2.885444,0</coordinates></Point>
<styleUrl>#trkpntStyle</styleUrl></Placemark>
<Placemark><visibility>0</visibility>
<name>2011-06-15 19:39:06Z</name>
<TimeStamp><when>2011-06-15T19:39:06Z</when></TimeStamp>
<description> 0:00:00   345.55 ####.#</description>
<Point><coordinates>34.529016,3.122733,0</coordinates></Point>
<styleUrl>#trkpntStyle</styleUrl></Placemark>
<Placemark><visibility>0</visibility>
<name>2011-06-15 19:39:06Z</name>
<TimeStamp><when>2011-06-15T19:39:06Z</when></TimeStamp>
<description> 0:00:00   351.47 ####.#</description>
<Point><coordinates>34.462057,3.176345,0</coordinates></Point>
<styleUrl>#trkpntStyle</styleUrl></Placemark>
<Placemark><visibility>0</visibility>
<name>2011-06-15 19:39:06Z</name>
<TimeStamp><when>2011-06-15T19:39:06Z</when></TimeStamp>
<description> 0:00:00   365.31 ####.#</description>
<Point><coordinates>34.431282,3.374222,0</coordinates></Point>
<styleUrl>#trkpntStyle</styleUrl></Placemark>
<Placemark><visibility>0</visibility>
<name>2011-06-15 19:39:06Z</name>
<TimeStamp><when>2011-06-15T19:39:06Z</when></TimeStamp>
<description> 0:00:00   387.22 ####.#</description>
<Point><coordinates>34.450456,3.690678,0</coordinates></Point>
<styleUrl>#trkpntStyle</styleUrl></Placemark>
<Placemark><visibility>0</visibility>
<name>2011-06-15 19:39:06Z</name>
<TimeStamp><when>2011-06-15T19:39:06Z</when></TimeStamp>
<description> 0:00:00   396.52 ####.#</description>
<Point><coordinates>34.342904,3.772015,0</coordinates></Point>
<styleUrl>#trkpntStyle</styleUrl></Placemark>
<Placemark><visibility>0</visibility>
<name>2011-06-15 19:39:06Z</name>
<TimeStamp><when>2011-06-15T19:39:06Z</when></TimeStamp>
<description> 0:00:00   407.70 ####.#</description>
<Point><coordinates>34.183460,3.801387,0</coordinates></Point>
<styleUrl>#trkpntStyle</styleUrl></Placemark>
<Placemark><visibility>0</visibility>
<name>2011-06-15 19:39:06Z</name>
<TimeStamp><when>2011-06-15T19:39:06Z</when></TimeStamp>
<description> 0:00:00   419.88 ####.#</description>
<Point><coordinates>34.086998,3.949132,0</coordinates></Point>
<styleUrl>#trkpntStyle</styleUrl></Placemark>
<Placemark><visibility>0</visibility>
<name>2011-06-15 19:39:06Z</name>
<TimeStamp><when>2011-06-15T19:39:06Z</when></TimeStamp>
<description> 0:00:00   438.44 ####.#</description>
<Point><coordinates>34.000791,4.203573,0</coordinates></Point>
<styleUrl>#trkpntStyle</styleUrl></Placemark>
<Placemark><visibility>0</visibility>
<name>2011-06-15 19:39:06Z</name>
<TimeStamp><when>2011-06-15T19:39:06Z</when></TimeStamp>
<description> 0:00:00   482.37 ####.#</description>
<Point><coordinates>34.436428,4.668021,0</coordinates></Point>
<styleUrl>#trkpntStyle</styleUrl></Placemark>
<Placemark><visibility>0</visibility>
<name>2011-06-15 19:39:06Z</name>
<TimeStamp><when>2011-06-15T19:39:06Z</when></TimeStamp>
<description> 0:00:00   541.68 ####.#</description>
<Point><coordinates>35.232296,4.996350,0</coordinates></Point>
<styleUrl>#trkpntStyle</styleUrl></Placemark>
<Placemark><visibility>0</visibility>
<name>2011-06-15 19:39:06Z</name>
<TimeStamp><when>2011-06-15T19:39:06Z</when></TimeStamp>
<description> 0:00:00   547.16 ####.#</description>
<Point><coordinates>35.293685,4.945791,0</coordinates></Point>
<styleUrl>#trkpntStyle</styleUrl></Placemark>
<Placemark><visibility>0</visibility>
<name>2011-06-15 19:39:06Z</name>
<TimeStamp><when>2011-06-15T19:39:06Z</when></TimeStamp>
<description> 0:00:00   558.62 ####.#</description>
<Point><coordinates>35.434046,5.035086,0</coordinates></Point>
<styleUrl>#trkpntStyle</styleUrl></Placemark>
<Placemark><visibility>0</visibility>
<name>2011-06-15 19:39:06Z</name>
<TimeStamp><when>2011-06-15T19:39:06Z</when></TimeStamp>
<description> 0:00:00   568.00 ####.#</description>
<Point><coordinates>35.395275,4.905050,0</coordinates></Point>
<styleUrl>#trkpntStyle</styleUrl></Placemark>
<Placemark><visibility>0</visibility>
<name>2011-06-15 19:39:06Z</name>
<TimeStamp><when>2011-06-15T19:39:06Z</when></TimeStamp>
<description> 0:00:00   579.18 ####.#</description>
<Point><coordinates>35.556583,4.923995,0</coordinates></Point>
<styleUrl>#trkpntStyle</styleUrl></Placemark>
<Placemark><visibility>0</visibility>
<name>2011-06-15 19:39:06Z</name>
<TimeStamp><when>2011-06-15T19:39:06Z</when></TimeStamp>
<description> 0:00:00   589.04 ####.#</description>
<Point><coordinates>35.527855,4.784166,0</coordinates></Point>
<styleUrl>#trkpntStyle</styleUrl></Placemark>
<Placemark><visibility>0</visibility>
<name>2011-06-15 19:39:06Z</name>
<TimeStamp><when>2011-06-15T19:39:06Z</when></TimeStamp>
<description> 0:00:00   601.18 ####.#</description>
<Point><coordinates>35.600153,4.623882,0</coordinates></Point>
<styleUrl>#trkpntStyle</styleUrl></Placemark>
<Placemark><visibility>0</visibility>
<name>2011-06-15 19:39:06Z</name>
<TimeStamp><when>2011-06-15T19:39:06Z</when></TimeStamp>
<description> 0:00:00   610.20 ####.#</description>
<Point><coordinates>35.731052,4.623109,0</coordinates></Point>
<styleUrl>#trkpntStyle</styleUrl></Placemark>
<Placemark><visibility>0</visibility>
<name>2011-06-15 19:39:06Z</name>
<TimeStamp><when>2011-06-15T19:39:06Z</when></TimeStamp>
<description> 0:00:00   616.06 ####.#</description>
<Point><coordinates>35.760414,4.702787,0</coordinates></Point>
<styleUrl>#trkpntStyle</styleUrl></Placemark>
<Placemark><visibility>0</visibility>
<name>2011-06-15 19:39:06Z</name>
<TimeStamp><when>2011-06-15T19:39:06Z</when></TimeStamp>
<description> 0:00:00   622.28 ####.#</description>
<Point><coordinates>35.801468,4.622683,0</coordinates></Point>
<styleUrl>#trkpntStyle</styleUrl></Placemark>
<Placemark><visibility>0</visibility>
<name>2011-06-15 19:39:06Z</name>
<TimeStamp><when>2011-06-15T19:39:06Z</when></TimeStamp>
<description> 0:00:00   631.95 ####.#</description>
<Point><coordinates>35.941949,4.621993,0</coordinates></Point>
<styleUrl>#trkpntStyle</styleUrl></Placemark>
<Placemark><visibility>0</visibility>
<name>2011-06-15 19:39:06Z</name>
<TimeStamp><when>2011-06-15T19:39:06Z</when></TimeStamp>
<description> 0:00:00   637.61 ####.#</description>
<Point><coordinates>35.922669,4.542314,0</coordinates></Point>
<styleUrl>#trkpntStyle</styleUrl></Placemark>
<Placemark><visibility>0</visibility>
<name>2011-06-15 19:39:06Z</name>
<TimeStamp><when>2011-06-15T19:39:06Z</when></TimeStamp>
<description> 0:00:00   648.01 ####.#</description>
<Point><coordinates>36.043605,4.452204,0</coordinates></Point>
<styleUrl>#trkpntStyle</styleUrl></Placemark>
<Placemark><visibility>0</visibility>
<name>2011-06-15 19:39:06Z</name>
<TimeStamp><when>2011-06-15T19:39:06Z</when></TimeStamp>
<description> 0:00:00   701.61 ####.#</description>
<Point><coordinates>36.821514,4.439271,0</coordinates></Point>
<styleUrl>#trkpntStyle</styleUrl></Placemark>
<Placemark><visibility>0</visibility>
<name>2011-06-15 19:39:06Z</name>
<TimeStamp><when>2011-06-15T19:39:06Z</when></TimeStamp>
<description> 0:00:00   714.41 ####.#</description>
<Point><coordinates>37.000396,4.389232,0</coordinates></Point>
<styleUrl>#trkpntStyle</styleUrl></Placemark>
<Placemark><visibility>0</visibility>
<name>2011-06-15 19:39:06Z</name>
<TimeStamp><when>2011-06-15T19:39:06Z</when></TimeStamp>
<description> 0:00:00   797.90 ####.#</description>
<Point><coordinates>38.019638,3.735926,0</coordinates></Point>
<styleUrl>#trkpntStyle</styleUrl></Placemark>
<Placemark><visibility>0</visibility>
<name>2011-06-15 19:39:06Z</name>
<TimeStamp><when>2011-06-15T19:39:06Z</when></TimeStamp>
<description> 0:00:00   808.29 ####.#</description>
<Point><coordinates>38.098532,3.607943,0</coordinates></Point>
<styleUrl>#trkpntStyle</styleUrl></Placemark>
<Placemark><visibility>0</visibility>
<name>2011-06-15 19:39:06Z</name>
<TimeStamp><when>2011-06-15T19:39:06Z</when></TimeStamp>
<description> 0:00:00   838.24 ####.#</description>
<Point><coordinates>38.532850,3.617962,0</coordinates></Point>
<styleUrl>#trkpntStyle</styleUrl></Placemark>
<Placemark><visibility>0</visibility>
<name>2011-06-15 19:39:06Z</name>
<TimeStamp><when>2011-06-15T19:39:06Z</when></TimeStamp>
<description> 0:00:00   859.78 ####.#</description>
<Point><coordinates>38.829205,3.519498,0</coordinates></Point>
<styleUrl>#trkpntStyle</styleUrl></Placemark>
<Placemark><visibility>0</visibility>
<name>2011-06-15 19:39:06Z</name>
<TimeStamp><when>2011-06-15T19:39:06Z</when></TimeStamp>
<description> 0:00:00   877.54 ####.#</description>
<Point><coordinates>39.086493,3.509695,0</coordinates></Point>
<styleUrl>#trkpntStyle</styleUrl></Placemark>
<Placemark><visibility>0</visibility>
<name>2011-06-15 19:39:06Z</name>
<TimeStamp><when>2011-06-15T19:39:06Z</when></TimeStamp>
<description> 0:00:00   898.21 ####.#</description>
<Point><coordinates>39.383681,3.470227,0</coordinates></Point>
<styleUrl>#trkpntStyle</styleUrl></Placemark>
<Placemark><visibility>0</visibility>
<name>2011-06-15 19:39:06Z</name>
<TimeStamp><when>2011-06-15T19:39:06Z</when></TimeStamp>
<description> 0:00:00   909.93 ####.#</description>
<Point><coordinates>39.542813,3.411130,0</coordinates></Point>
<styleUrl>#trkpntStyle</styleUrl></Placemark>
<Placemark><visibility>0</visibility>
<name>2011-06-15 19:39:06Z</name>
<TimeStamp><when>2011-06-15T19:39:06Z</when></TimeStamp>
<description> 0:00:00   923.09 ####.#</description>
<Point><coordinates>39.662707,3.559330,0</coordinates></Point>
<styleUrl>#trkpntStyle</styleUrl></Placemark>
<Placemark><visibility>0</visibility>
<name>2011-06-15 19:39:06Z</name>
<TimeStamp><when>2011-06-15T19:39:06Z</when></TimeStamp>
<description> 0:00:00   934.27 ####.#</description>
<Point><coordinates>39.772971,3.678111,0</coordinates></Point>
<styleUrl>#trkpntStyle</styleUrl></Placemark>
<Placemark><visibility>0</visibility>
<name>2011-06-15 19:39:06Z</name>
<TimeStamp><when>2011-06-15T19:39:06Z</when></TimeStamp>
<description> 0:00:00   948.41 ####.#</description>
<Point><coordinates>39.853701,3.866238,0</coordinates></Point>
<styleUrl>#trkpntStyle</styleUrl></Placemark>
<Placemark><visibility>0</visibility>
<name>2011-06-15 19:39:06Z</name>
<TimeStamp><when>2011-06-15T19:39:06Z</when></TimeStamp>
<description> 0:00:00  1016.62 ####.#</description>
<Point><coordinates>40.762529,4.256806,0</coordinates></Point>
<styleUrl>#trkpntStyle</styleUrl></Placemark>
<Placemark><visibility>0</visibility>
<name>2011-06-15 19:39:06Z</name>
<TimeStamp><when>2011-06-15T19:39:06Z</when></TimeStamp>
<description> 0:00:00  1031.23 ####.#</description>
<Point><coordinates>40.955054,4.168157,0</coordinates></Point>
<styleUrl>#trkpntStyle</styleUrl></Placemark>
<Placemark><visibility>0</visibility>
<name>2011-06-15 19:39:06Z</name>
<TimeStamp><when>2011-06-15T19:39:06Z</when></TimeStamp>
<description> 0:00:00  1051.27 ####.#</description>
<Point><coordinates>41.157211,3.959629,0</coordinates></Point>
<styleUrl>#trkpntStyle</styleUrl></Placemark>
<Placemark><visibility>0</visibility>
<name>2011-06-15 19:39:06Z</name>
<TimeStamp><when>2011-06-15T19:39:06Z</when></TimeStamp>
<description> 0:00:00  1102.44 ####.#</description>
<Point><coordinates>41.899503,3.952929,0</coordinates></Point>
<styleUrl>#trkpntStyle</styleUrl></Placemark>
<Placemark><visibility>0</visibility>
<name>2011-06-15 19:39:06Z</name>
<TimeStamp><when>2011-06-15T19:39:06Z</when></TimeStamp>
<description> 0:00:00  1171.60 ####.#</description>
<Point><coordinates>41.324867,3.132552,0</coordinates></Point>
<styleUrl>#trkpntStyle</styleUrl></Placemark>
<Placemark><visibility>0</visibility>
<name>2011-06-15 19:39:06Z</name>
<TimeStamp><when>2011-06-15T19:39:06Z</when></TimeStamp>
<description> 0:00:00  1202.11 ####.#</description>
<Point><coordinates>41.007682,2.824923,0</coordinates></Point>
<styleUrl>#trkpntStyle</styleUrl></Placemark>
<Placemark><visibility>0</visibility>
<name>2011-06-15 19:39:06Z</name>
<TimeStamp><when>2011-06-15T19:39:06Z</when></TimeStamp>
<description> 0:00:00  1453.87 ####.#</description>
<Point><coordinates>40.998096,-0.818859,0</coordinates></Point>
<styleUrl>#trkpntStyle</styleUrl></Placemark>
<Placemark><visibility>0</visibility>
<name>2011-06-15 19:39:06Z</name>
<TimeStamp><when>2011-06-15T19:39:06Z</when></TimeStamp>
<description> 0:00:00  1521.22 ####.#</description>
<Point><coordinates>41.572785,-1.606240,0</coordinates></Point>
<styleUrl>#trkpntStyle</styleUrl></Placemark>
<Placemark><visibility>0</visibility>
<name>2011-06-15 19:39:06Z</name>
<TimeStamp><when>2011-06-15T19:39:06Z</when></TimeStamp>
<description> 0:00:00  1533.35 ####.#</description>
<Point><coordinates>41.500964,-1.766551,0</coordinates></Point>
<styleUrl>#trkpntStyle</styleUrl></Placemark>
<Placemark><visibility>0</visibility>
<name>2011-06-15 19:39:06Z</name>
<TimeStamp><when>2011-06-15T19:39:06Z</when></TimeStamp>
<description> 0:00:00  1559.01 ####.#</description>
<Point><coordinates>41.227132,-2.017558,0</coordinates></Point>
<styleUrl>#trkpntStyle</styleUrl></Placemark>
<Placemark><visibility>0</visibility>
<name>2011-06-15 19:39:06Z</name>
<TimeStamp><when>2011-06-15T19:39:06Z</when></TimeStamp>
<description> 0:00:00  1566.64 ####.#</description>
<Point><coordinates>41.116580,-2.018215,0</coordinates></Point>
<styleUrl>#trkpntStyle</styleUrl></Placemark>
<Placemark><visibility>0</visibility>
<name>2011-06-15 19:39:06Z</name>
<TimeStamp><when>2011-06-15T19:39:06Z</when></TimeStamp>
<description> 0:00:00  1584.09 ####.#</description>
<Point><coordinates>40.975226,-2.227542,0</coordinates></Point>
<styleUrl>#trkpntStyle</styleUrl></Placemark>
<Placemark><visibility>0</visibility>
<name>2011-06-15 19:39:06Z</name>
<TimeStamp><when>2011-06-15T19:39:06Z</when></TimeStamp>
<description> 0:00:00  1601.70 ####.#</description>
<Point><coordinates>40.784655,-2.396869,0</coordinates></Point>
<styleUrl>#trkpntStyle</styleUrl></Placemark>
<Placemark><visibility>0</visibility>
<name>2011-06-15 19:39:06Z</name>
<TimeStamp><when>2011-06-15T19:39:06Z</when></TimeStamp>
<description> 0:00:00  1618.38 ####.#</description>
<Point><coordinates>40.594669,-2.545997,0</coordinates></Point>
<styleUrl>#trkpntStyle</styleUrl></Placemark>
<Placemark><visibility>0</visibility>
<name>2011-06-15 19:39:06Z</name>
<TimeStamp><when>2011-06-15T19:39:06Z</when></TimeStamp>
<description> 0:00:00  1628.79 ####.#</description>
<Point><coordinates>40.445118,-2.566193,0</coordinates></Point>
<styleUrl>#trkpntStyle</styleUrl></Placemark>
<Placemark><visibility>0</visibility>
<name>2011-06-15 19:39:06Z</name>
<TimeStamp><when>2011-06-15T19:39:06Z</when></TimeStamp>
<description> 0:00:00  1646.12 ####.#</description>
<Point><coordinates>40.236030,-2.705030,0</coordinates></Point>
<styleUrl>#trkpntStyle</styleUrl></Placemark>
<Placemark><visibility>0</visibility>
<name>2011-06-15 19:39:06Z</name>
<TimeStamp><when>2011-06-15T19:39:06Z</when></TimeStamp>
<description> 0:00:00  1656.21 ####.#</description>
<Point><coordinates>40.166532,-2.833519,0</coordinates></Point>
<styleUrl>#trkpntStyle</styleUrl></Placemark>
<Placemark><visibility>0</visibility>
<name>2011-06-15 19:39:06Z</name>
<TimeStamp><when>2011-06-15T19:39:06Z</when></TimeStamp>
<description> 0:00:00  1670.47 ####.#</description>
<Point><coordinates>40.226579,-3.030932,0</coordinates></Point>
<styleUrl>#trkpntStyle</styleUrl></Placemark>
<Placemark><visibility>0</visibility>
<name>2011-06-15 19:39:06Z</name>
<TimeStamp><when>2011-06-15T19:39:06Z</when></TimeStamp>
<description> 0:00:00  1689.04 ####.#</description>
<Point><coordinates>40.068084,-3.248272,0</coordinates></Point>
<styleUrl>#trkpntStyle</styleUrl></Placemark>
<Placemark><visibility>0</visibility>
<name>2011-06-15 19:39:06Z</name>
<TimeStamp><when>2011-06-15T19:39:06Z</when></TimeStamp>
<description> 0:00:00  1726.81 ####.#</description>
<Point><coordinates>39.880998,-3.761954,0</coordinates></Point>
<styleUrl>#trkpntStyle</styleUrl></Placemark>
<Placemark><visibility>0</visibility>
<name>2011-06-15 19:39:06Z</name>
<TimeStamp><when>2011-06-15T19:39:06Z</when></TimeStamp>
<description> 0:00:00  1759.18 ####.#</description>
<Point><coordinates>39.683993,-4.187199,0</coordinates></Point>
<styleUrl>#trkpntStyle</styleUrl></Placemark>
<Placemark><visibility>0</visibility>
<name>2011-06-15 19:39:06Z</name>
<TimeStamp><when>2011-06-15T19:39:06Z</when></TimeStamp>
<description> 0:00:00  1788.23 ####.#</description>
<Point><coordinates>39.496953,-4.564052,0</coordinates></Point>
<styleUrl>#trkpntStyle</styleUrl></Placemark>
<Placemark><visibility>0</visibility>
<name>2011-06-15 19:39:06Z</name>
<TimeStamp><when>2011-06-15T19:39:06Z</when></TimeStamp>
<description> 0:00:00  1803.23 ####.#</description>
<Point><coordinates>39.388144,-4.752139,0</coordinates></Point>
<styleUrl>#trkpntStyle</styleUrl></Placemark>
<Placemark><visibility>0</visibility>
<name>2011-06-15 19:39:06Z</name>
<TimeStamp><when>2011-06-15T19:39:06Z</when></TimeStamp>
<description> 0:00:00  1816.36 ####.#</description>
<Point><coordinates>39.219506,-4.663424,0</coordinates></Point>
<styleUrl>#trkpntStyle</styleUrl></Placemark>
<Placemark><visibility>0</visibility>
<name>2011-06-15 19:39:06Z</name>
<TimeStamp><when>2011-06-15T19:39:06Z</when></TimeStamp>
<description> 0:00:00  1936.80 ####.#</description>
<Point><coordinates>37.775209,-3.681681,0</coordinates></Point>
<styleUrl>#trkpntStyle</styleUrl></Placemark>
<Placemark><visibility>0</visibility>
<name>2011-06-15 19:39:06Z</name>
<TimeStamp><when>2011-06-15T19:39:06Z</when></TimeStamp>
<description> 0:00:00  1943.51 ####.#</description>
<Point><coordinates>37.735778,-3.592995,0</coordinates></Point>
<styleUrl>#trkpntStyle</styleUrl></Placemark>
<Placemark><visibility>0</visibility>
<name>2011-06-15 19:39:06Z</name>
<TimeStamp><when>2011-06-15T19:39:06Z</when></TimeStamp>
<description> 0:00:00  1949.60 ####.#</description>
<Point><coordinates>37.656657,-3.553651,0</coordinates></Point>
<styleUrl>#trkpntStyle</styleUrl></Placemark>
<Placemark><visibility>0</visibility>
<name>2011-06-15 19:39:06Z</name>
<TimeStamp><when>2011-06-15T19:39:06Z</when></TimeStamp>
<description> 0:00:00  1954.18 ####.#</description>
<Point><coordinates>37.597301,-3.524128,0</coordinates></Point>
<styleUrl>#trkpntStyle</styleUrl></Placemark>
<Placemark><visibility>0</visibility>
<name>2011-06-15 19:39:06Z</name>
<TimeStamp><when>2011-06-15T19:39:06Z</when></TimeStamp>
<description> 0:00:00  1959.13 ####.#</description>
<Point><coordinates>37.577641,-3.455109,0</coordinates></Point>
<styleUrl>#trkpntStyle</styleUrl></Placemark>
<Placemark><visibility>0</visibility>
<name>2011-06-15 19:39:06Z</name>
<TimeStamp><when>2011-06-15T19:39:06Z</when></TimeStamp>
<description> 0:00:00  1971.21 ####.#</description>
<Point><coordinates>37.696690,-3.326863,0</coordinates></Point>
<styleUrl>#trkpntStyle</styleUrl></Placemark>
<Placemark><visibility>0</visibility>
<name>2011-06-15 19:39:06Z</name>
<TimeStamp><when>2011-06-15T19:39:06Z</when></TimeStamp>
<description> 0:00:00  1989.79 ####.#</description>
<Point><coordinates>37.657656,-3.060822,0</coordinates></Point>
<styleUrl>#trkpntStyle</styleUrl></Placemark>
<Placemark><visibility>0</visibility>
<name>2011-06-15 19:39:06Z</name>
<TimeStamp><when>2011-06-15T19:39:06Z</when></TimeStamp>
<description> 0:00:00  2274.49 ####.#</description>
<Point><coordinates>34.075322,-1.020910,0</coordinates></Point>
<styleUrl>#trkpntStyle</styleUrl></Placemark>
<Placemark><visibility>0</visibility>
<name>2011-06-15 19:39:06Z</name>
<TimeStamp><when>2011-06-15T19:39:06Z</when></TimeStamp>
<description> 0:00:00  2276.86 ####.#</description>
<Point><coordinates>34.048458,-1.042331,0</coordinates></Point>
<styleUrl>#trkpntStyle</styleUrl></Placemark>
<Placemark><visibility>0</visibility>
<name>2011-06-15 19:39:06Z</name>
<TimeStamp><when>2011-06-15T19:39:06Z</when></TimeStamp>
<description> 0:00:00  2281.32 ####.#</description>
<Point><coordinates>34.012125,-0.989089,0</coordinates></Point>
<styleUrl>#trkpntStyle</styleUrl></Placemark>
<Placemark><visibility>0</visibility>
<name>2011-06-15 19:39:06Z</name>
<TimeStamp><when>2011-06-15T19:39:06Z</when></TimeStamp>
<description> 0:00:00  2287.42 ####.#</description>
<Point><coordinates>33.927525,-1.014443,0</coordinates></Point>
<styleUrl>#trkpntStyle</styleUrl></Placemark>
</Folder>
</Folder>
<Folder>
<name>Paths</name>
<Placemark>
<name>Kenya</name>
<styleUrl>#pathStyle</styleUrl>
<MultiGeometry>
<LineString><coordinates>
33.928857,-1.012117,0 33.905439,-0.446984,0 34.025069,-0.164528,0 33.880826,0.104794,0 34.076371,0.373930,0 34.075548,0.527886,0 34.271182,0.732434,0 34.388766,0.783208,0 34.544150,1.102784,0 34.674334,1.191609,0 34.778568,1.216493,0 34.843341,1.305622,0 34.764667,1.408676,0 34.842532,1.433758,0 34.841107,1.536700,0 34.944148,1.625857,0 35.005726,1.895798,0 34.978460,1.986416,0 34.894721,2.388293,0 34.958549,2.503983,0 34.759824,2.714076,0 34.758719,2.804893,0 34.704485,2.897184,0 34.612946,2.885444,0 34.529016,3.122733,0 34.462057,3.176345,0 34.431282,3.374222,0 34.450456,3.690678,0 34.342904,3.772015,0 34.183460,3.801387,0 34.086998,3.949132,0 34.000791,4.203573,0 34.436428,4.668021,0 35.232296,4.996350,0 35.293685,4.945791,0 35.434046,5.035086,0 35.395275,4.905050,0 35.556583,4.923995,0 35.527855,4.784166,0 35.600153,4.623882,0 35.731052,4.623109,0 35.760414,4.702787,0 35.801468,4.622683,0 35.941949,4.621993,0 35.922669,4.542314,0 36.043605,4.452204,0 36.821514,4.439271,0 37.000396,4.389232,0 38.019638,3.735926,0 38.098532,3.607943,0 38.532850,3.617962,0 38.829205,3.519498,0 39.086493,3.509695,0 39.383681,3.470227,0 39.542813,3.411130,0 39.662707,3.559330,0 39.772971,3.678111,0 39.853701,3.866238,0 40.762529,4.256806,0 40.955054,4.168157,0 41.157211,3.959629,0 41.899503,3.952929,0 41.324867,3.132552,0 41.007682,2.824923,0 40.998096,-0.818859,0 41.572785,-1.606240,0 41.500964,-1.766551,0 41.227132,-2.017558,0 41.116580,-2.018215,0 40.975226,-2.227542,0 40.784655,-2.396869,0 40.594669,-2.545997,0 40.445118,-2.566193,0 40.236030,-2.705030,0 40.166532,-2.833519,0 40.226579,-3.030932,0 40.068084,-3.248272,0 39.880998,-3.761954,0 39.683993,-4.187199,0 39.496953,-4.564052,0 39.388144,-4.752139,0 39.219506,-4.663424,0 37.775209,-3.681681,0 37.735778,-3.592995,0 37.656657,-3.553651,0 37.597301,-3.524128,0 37.577641,-3.455109,0 37.696690,-3.326863,0 37.657656,-3.060822,0 34.075322,-1.020910,0 34.048458,-1.042331,0 34.012125,-0.989089,0 33.927525,-1.014443,0
</coordinates></LineString>
</MultiGeometry>
</Placemark>
</Folder>
</Document>
</kml>
