<?xml version="1.0" encoding="utf-8" ?>
<kml xmlns="http://www.opengis.net/kml/2.2">
<Document id="root_doc">
<Schema name="project_parcels_wgs84_utm48n_v3_complete" id="project_parcels_wgs84_utm48n_v3_complete">
	<SimpleField name="OBJECTID" type="int"></SimpleField>
	<SimpleField name="AREA_METER" type="float"></SimpleField>
	<SimpleField name="CF_Name" type="string"></SimpleField>
	<SimpleField name="Villages" type="string"></SimpleField>
	<SimpleField name="Commune" type="string"></SimpleField>
	<SimpleField name="District" type="string"></SimpleField>
</Schema>
<Folder><name>project_parcels_wgs84_utm48n_v3_complete</name>
  <Placemark>
	<Style><LineStyle><color>ff0000ff</color></LineStyle><PolyStyle><fill>0</fill></PolyStyle></Style>
	<ExtendedData><SchemaData schemaUrl="#project_parcels_wgs84_utm48n_v3_complete">
		<SimpleData name="OBJECTID">1</SimpleData>
		<SimpleData name="AREA_METER">3832441.67336948588</SimpleData>
		<SimpleData name="CF_Name">Chhouk Meas</SimpleData>
		<SimpleData name="Villages">Chhouk Meas</SimpleData>
		<SimpleData name="Commune">koun Kriel</SimpleData>
		<SimpleData name="District">Samraong</SimpleData>
	</SchemaData></ExtendedData>
      <MultiGeometry><Polygon><outerBoundaryIs><LinearRing><coordinates>103.797799806771,14.2867646914391,0 103.802946774489,14.2852990178876,0 103.805757243779,14.2860291036351,0 103.805794365554,14.2789888928926,0 103.796984811171,14.2789445624946,0 103.788424142951,14.2781255395693,0 103.788992911056,14.2747275782518,0 103.786403868874,14.2669580767212,0 103.785981096181,14.261653277313,0 103.7875978749,14.2596030908706,0 103.788719035373,14.2558499452334,0 103.788093705686,14.2526696511526,0 103.787834210978,14.2497149560395,0 103.787468628962,14.2494446100195,0 103.786591228522,14.2505141055388,0 103.785298529716,14.2520289635868,0 103.785014162698,14.2537279439597,0 103.783960414399,14.253454086501,0 103.783177135507,14.2540765655113,0 103.782987385997,14.2552390475337,0 103.783855471278,14.2559146953757,0 103.782106818604,14.2568902305052,0 103.782467601991,14.2580555221123,0 103.780950966239,14.2585400029011,0 103.780214983522,14.2588942240664,0 103.778827302902,14.260990278216,0 103.778452318509,14.2624650404581,0 103.778584414379,14.2634949201454,0 103.778941813374,14.2652866693332,0 103.77288252054,14.2658372798776,0 103.78017070316,14.2671276269785,0 103.779843521202,14.2682446519488,0 103.780383496018,14.270216326017,0 103.780470442583,14.2711117301789,0 103.781288364773,14.2725925972026,0 103.784303581307,14.2750243917393,0 103.778344754285,14.2824220637901,0 103.782704884076,14.282220651819,0 103.786376041187,14.2821498927268,0 103.78848668298,14.2821606390727,0 103.790457763084,14.2825286437812,0 103.795110451093,14.2862737823511,0 103.797799806771,14.2867646914391,0</coordinates></LinearRing></outerBoundaryIs></Polygon></MultiGeometry>
  </Placemark>
  <Placemark>
	<Style><LineStyle><color>ff0000ff</color></LineStyle><PolyStyle><fill>0</fill></PolyStyle></Style>
	<ExtendedData><SchemaData schemaUrl="#project_parcels_wgs84_utm48n_v3_complete">
		<SimpleData name="OBJECTID">2</SimpleData>
		<SimpleData name="AREA_METER">9657933.89519422315</SimpleData>
		<SimpleData name="CF_Name">Ou Yeay Kaov</SimpleData>
		<SimpleData name="Villages">Ou Pork</SimpleData>
		<SimpleData name="Commune">Koun Kriel</SimpleData>
		<SimpleData name="District">Samraong</SimpleData>
	</SchemaData></ExtendedData>
      <MultiGeometry><Polygon><outerBoundaryIs><LinearRing><coordinates>103.61102085201,14.4188103730655,0 103.610833510457,14.4129192006653,0 103.611970812328,14.409980851549,0 103.612541811921,14.4081299223051,0 103.61423117836,14.4063946290951,0 103.615489045103,14.4020389777464,0 103.617744565995,14.3992162112388,0 103.620549482206,14.3980327625003,0 103.619812413299,14.3905022219828,0 103.620733701085,14.3862536321666,0 103.620077059159,14.3838501299078,0 103.611081677573,14.3727808475953,0 103.607819370057,14.375597652853,0 103.60071400652,14.3846090056206,0 103.596426630288,14.3902555102566,0 103.593282204761,14.3964720496105,0 103.594903366125,14.4056384177706,0 103.594815212619,14.4197119395503,0 103.596928952839,14.4173090666861,0 103.598836190337,14.416556869841,0 103.601298201461,14.4165714679673,0 103.603315972485,14.4160380373131,0 103.605777982638,14.4160525882167,0 103.607005601615,14.4166052100714,0 103.60811793206,14.4177025224742,0 103.60888980297,14.4195613520481,0 103.60978171424,14.4201119826438,0 103.61102085201,14.4188103730655,0</coordinates></LinearRing></outerBoundaryIs></Polygon></MultiGeometry>
  </Placemark>
  <Placemark>
	<Style><LineStyle><color>ff0000ff</color></LineStyle><PolyStyle><fill>0</fill></PolyStyle></Style>
	<ExtendedData><SchemaData schemaUrl="#project_parcels_wgs84_utm48n_v3_complete">
		<SimpleData name="OBJECTID">3</SimpleData>
		<SimpleData name="AREA_METER">60169383.49930000305</SimpleData>
		<SimpleData name="CF_Name">Romdoul Veasna</SimpleData>
		<SimpleData name="Villages">Sambour Meas Tnort Romdoul Veasna CPM</SimpleData>
		<SimpleData name="Commune">Bansay Reak</SimpleData>
		<SimpleData name="District">Samraong</SimpleData>
	</SchemaData></ExtendedData>
      <MultiGeometry><Polygon><outerBoundaryIs><LinearRing><coordinates>103.524465722774,14.4071942475731,0 103.524167007386,14.3988310474602,0 103.512011537625,14.3987548365262,0 103.512136496722,14.3827029105438,0 103.512377829609,14.3516530999723,0 103.493318427607,14.3495934929734,0 103.471796246895,14.3252922439085,0 103.444907303625,14.3163584948215,0 103.419503948815,14.3167949474038,0 103.419042112378,14.382635914142,0 103.419558934066,14.3828656388683,0 103.419778338324,14.3829893255097,0 103.420809864763,14.3835724276637,0 103.422762981586,14.3846746179006,0 103.423176583678,14.3849078610212,0 103.424652556795,14.3856261013763,0 103.426481964078,14.3863579833937,0 103.427569905495,14.3867934265176,0 103.428129335411,14.3870174627487,0 103.428796190155,14.3875020742454,0 103.430573500923,14.388603038398,0 103.431908805281,14.3894298985385,0 103.432291045736,14.389675348513,0 103.433685337742,14.3902314291753,0 103.435039760086,14.3907714205836,0 103.435683370853,14.3908525087322,0 103.436040359059,14.3908966735028,0 103.436993269552,14.390587748711,0 103.437154334579,14.390428375797,0 103.438013932968,14.3895776353046,0 103.438164647817,14.3892396780756,0 103.438290323877,14.38850159107,0 103.438390011598,14.3879169917831,0 103.438505715871,14.3872375904295,0 103.438759552684,14.386278899725,0 103.439235292092,14.3847861279808,0 103.439228929569,14.3844087183088,0 103.439121398305,14.3831188592501,0 103.439048648488,14.3822450102253,0 103.438984457995,14.381474034313,0 103.438914362889,14.3806352288049,0 103.438981564759,14.3803464322244,0 103.439257780198,14.3799189137788,0 103.439130099111,14.3794446669901,0 103.43941578725,14.3791132474206,0 103.440089174276,14.3789911450489,0 103.441490090803,14.3793800023045,0 103.442430411588,14.379834741626,0 103.443111088554,14.3804595057382,0 103.444052616578,14.3809922066178,0 103.445051293956,14.3815580453057,0 103.445587296262,14.381860975992,0 103.446098757314,14.382151316084,0 103.44651731742,14.3817122947169,0 103.446768919978,14.3814484325837,0 103.446751698974,14.3810890281047,0 103.446732957071,14.3806979788152,0 103.446712711745,14.3802730233255,0 103.446696493624,14.3799362223566,0 103.446682045714,14.3796367188695,0 103.446655461525,14.3790806594503,0 103.446617978579,14.3782985598904,0 103.446579226838,14.3774904645766,0 103.446535515254,14.3768970086087,0 103.446780795695,14.3761630877224,0 103.446964237439,14.3756140556713,0 103.447139683874,14.3750898284731,0 103.447328456017,14.3745238831783,0 103.447558280592,14.3740553738208,0 103.448038496143,14.3730766845577,0 103.448465226056,14.3722061097039,0 103.448798490399,14.3715269947504,0 103.449018793159,14.3710516418045,0 103.449543210046,14.3703421417979,0 103.44981314785,14.3696434026051,0 103.450040068946,14.3693002840268,0 103.450840637762,14.368586938621,0 103.451145272042,14.3683188972553,0 103.452804832068,14.3681693070911,0 103.45433711229,14.3680313026564,0 103.455787919715,14.3679006648833,0 103.456403884161,14.3678651361542,0 103.457862592642,14.3676385002888,0 103.458964757888,14.3676027401957,0 103.459230861626,14.3675016550574,0 103.462046997726,14.3664341688025,0 103.464072507675,14.365646245117,0 103.464509449885,14.3654762103561,0 103.465347593547,14.365150593873,0 103.466164879098,14.364994318677,0 103.46766571005,14.3647057493314,0 103.46845858442,14.3652837153197,0 103.470672728159,14.368541846874,0 103.470679994125,14.3693486126022,0 103.470692374396,14.3706819258013,0 103.470696243526,14.3710932196026,0 103.470669210052,14.3713190168381,0 103.471265945682,14.3736458602301,0 103.47169076826,14.3743231287384,0 103.472356708914,14.3759340864208,0 103.473316682878,14.3769176088444,0 103.473930123345,14.3771723934381,0 103.474668973088,14.3774788286485,0 103.476011846737,14.3777631655792,0 103.477319833617,14.3779794780981,0 103.478916914461,14.3781671366503,0 103.479695333121,14.3785800185057,0 103.4798867612,14.3786818060992,0 103.480417067574,14.3794060639438,0 103.481251830259,14.3809163995941,0 103.481352228856,14.3814966630519,0 103.481638878501,14.3826882481481,0 103.482011787472,14.3842374234582,0 103.482801012695,14.3875179587503,0 103.483825375007,14.3873900733243,0 103.484598288484,14.3872933383869,0 103.485607531894,14.3874738012605,0 103.486311708234,14.3872997905956,0 103.486880334877,14.3871588056066,0 103.488196251757,14.3865943788623,0 103.489371787684,14.3860911893753,0 103.489710201192,14.3860120001178,0 103.490613223089,14.3859578806657,0 103.492294620935,14.3858556168915,0 103.493190906589,14.3860714830823,0 103.494138760748,14.3866786089577,0 103.494583486617,14.3874700876898,0 103.495123863358,14.388431653961,0 103.495302561069,14.388749154387,0 103.495963688755,14.3893352419426,0 103.496414012254,14.3896815851361,0 103.496860980337,14.389879894228,0 103.498550131637,14.4012765840925,0 103.524465722774,14.4071942475731,0</coordinates></LinearRing></outerBoundaryIs></Polygon></MultiGeometry>
  </Placemark>
  <Placemark>
	<Style><LineStyle><color>ff0000ff</color></LineStyle><PolyStyle><fill>0</fill></PolyStyle></Style>
	<ExtendedData><SchemaData schemaUrl="#project_parcels_wgs84_utm48n_v3_complete">
		<SimpleData name="OBJECTID">4</SimpleData>
		<SimpleData name="AREA_METER">15954539.76970000006</SimpleData>
		<SimpleData name="CF_Name">Prey Srors</SimpleData>
		<SimpleData name="Villages">Chheu Slab, Ou Torng</SimpleData>
		<SimpleData name="Commune">Kouk Khpos</SimpleData>
		<SimpleData name="District">Banteay Ampil</SimpleData>
	</SchemaData></ExtendedData>
      <MultiGeometry><Polygon><outerBoundaryIs><LinearRing><coordinates>103.419042112378,14.382635914142,0 103.419439897145,14.3259463459221,0 103.413532835418,14.3345740405487,0 103.387919240694,14.3386473288223,0 103.382056267908,14.3401996245827,0 103.377848187742,14.3387113689207,0 103.373910417988,14.3374902632943,0 103.368984636622,14.3411715804889,0 103.359701090944,14.3452207252395,0 103.358830476461,14.3526449148904,0 103.367817194032,14.3520435496696,0 103.380198517884,14.3525265257457,0 103.383449464437,14.3546716580836,0 103.387936712315,14.3552329565088,0 103.392548723653,14.3573872287389,0 103.40126066909,14.3571807940466,0 103.402200154785,14.3590447173102,0 103.401502721937,14.3614283378166,0 103.400394146353,14.3642072331029,0 103.399425414899,14.3664563263554,0 103.398863079133,14.3689735307275,0 103.400758133408,14.3704458666538,0 103.404025545546,14.370335228409,0 103.407018874371,14.3704880704812,0 103.410013149016,14.3705081959023,0 103.412048147969,14.371450648746,0 103.414455007591,14.377570302971,0 103.416474206163,14.3807682701719,0 103.419042112378,14.382635914142,0</coordinates></LinearRing></outerBoundaryIs></Polygon></MultiGeometry>
  </Placemark>
  <Placemark>
	<Style><LineStyle><color>ff0000ff</color></LineStyle><PolyStyle><fill>0</fill></PolyStyle></Style>
	<ExtendedData><SchemaData schemaUrl="#project_parcels_wgs84_utm48n_v3_complete">
		<SimpleData name="OBJECTID">5</SimpleData>
		<SimpleData name="AREA_METER">178479679.61500000954</SimpleData>
		<SimpleData name="CF_Name">Sorng Roka Vorn</SimpleData>
		<SimpleData name="Villages">6 villages</SimpleData>
		<SimpleData name="Commune">Samraong TrapeangTav LomTorng Sok</SimpleData>
		<SimpleData name="District">Samraong AlongVeang Varin ChongKal</SimpleData>
	</SchemaData></ExtendedData>
      <MultiGeometry><Polygon><outerBoundaryIs><LinearRing><coordinates>103.852511857971,14.2339547549485,0 103.856617485147,14.2323641472388,0 103.857902180379,14.2318958297678,0 103.858862248429,14.2314978434293,0 103.85994022708,14.2311004156926,0 103.861018345434,14.2306742282738,0 103.862230047931,14.2300617620751,0 103.861800250985,14.2291862978795,0 103.861559176792,14.2286351787625,0 103.861034621773,14.2274249564243,0 103.860700452494,14.2264600611377,0 103.860424088893,14.2257254828428,0 103.860263042552,14.2255090498728,0 103.860212733378,14.2237834918139,0 103.860247180904,14.2227915984467,0 103.860241086189,14.2210662499628,0 103.860364323607,14.2200028906472,0 103.860680110831,14.2158061184259,0 103.863842590802,14.2111627937149,0 103.866257256912,14.2057251015884,0 103.866671839307,14.2053388669499,0 103.867107440303,14.2007256849815,0 103.867366031043,14.1961404173748,0 103.867550856256,14.1954811472791,0 103.867182576449,14.1915386799719,0 103.867316992361,14.1911798719854,0 103.867310610949,14.1894976482126,0 103.867100562727,14.1872824852549,0 103.868054307085,14.1792067055369,0 103.867614187993,14.1758402358054,0 103.867409987158,14.1724461242113,0 103.86709128858,14.1708204281035,0 103.866605998506,14.1681721362292,0 103.866377454651,14.1670291565341,0 103.866148284738,14.1624188739755,0 103.866215456913,14.1577895544598,0 103.867001599859,14.1537674926848,0 103.866493030661,14.1523273161322,0 103.866183564999,14.1493640363013,0 103.866193162167,14.1473511935738,0 103.866203512926,14.1451801972994,0 103.866396135948,14.1421473979434,0 103.866912804428,14.1389723453224,0 103.866262056965,14.1364962981875,0 103.865831768558,14.1317244330418,0 103.865657184669,14.126433077643,0 103.865685312893,14.120750785809,0 103.863917189562,14.1129046176729,0 103.863566129304,14.1027137782638,0 103.865201500677,14.098973833874,0 103.8645668772,14.0967656093064,0 103.860540180189,14.0951714401315,0 103.855212311752,14.0956187442526,0 103.84359528966,14.0924821347178,0 103.839697145354,14.0909152052314,0 103.833817367674,14.0904275235136,0 103.828055268815,14.0899402721555,0 103.821283208191,14.0849839566969,0 103.817514852161,14.0822258147172,0 103.811215677831,14.0809638614934,0 103.807792569201,14.0831394695067,0 103.803583799531,14.0819090316952,0 103.797827007911,14.0828957924972,0 103.794189809764,14.0810845330825,0 103.791241041654,14.0799860229932,0 103.790766542569,14.0792118919333,0 103.790338304365,14.0787895689286,0 103.789866766143,14.0783517791706,0 103.788313910711,14.078533339547,0 103.785698609537,14.0785536846503,0 103.786000045722,14.0798593868396,0 103.785067118911,14.0813595208388,0 103.782592537847,14.0828518747871,0 103.779911145836,14.0835934072069,0 103.77715869776,14.0853121072958,0 103.778274032997,14.0879954736954,0 103.777127677874,14.0911399123234,0 103.775351704891,14.0915432029549,0 103.778544835827,14.097762621206,0 103.776914288211,14.1009045985201,0 103.77108082568,14.1021555360962,0 103.769732260548,14.1044560430851,0 103.76684834511,14.1055448300596,0 103.764559324193,14.1059859858682,0 103.764848495998,14.1069060750607,0 103.7648905537,14.1072063138712,0 103.764955459241,14.1074428922785,0 103.765196184221,14.1078838774639,0 103.765895276584,14.1091505450296,0 103.766416666734,14.1106459523924,0 103.766295312113,14.1113342858297,0 103.765048553043,14.1134521708534,0 103.764029984871,14.1147590199705,0 103.76350671108,14.11574077057,0 103.76320855541,14.1164856061959,0 103.762907300054,14.1178045528466,0 103.762547213401,14.1191231961817,0 103.762190221983,14.1198677262789,0 103.761417716096,14.1212990715094,0 103.760876947942,14.1216718470038,0 103.760804898875,14.1219231874336,0 103.761633285706,14.1331822826132,0 103.754029677035,14.1345713206757,0 103.754472516249,14.1361779925833,0 103.763204463242,14.1678544527612,0 103.763616790987,14.170098514188,0 103.762024717759,14.1932650591439,0 103.76190526019,14.1957055603223,0 103.768512923634,14.1948246874459,0 103.768293299254,14.1982612428049,0 103.767206503997,14.2152641902344,0 103.766689287301,14.2233545694895,0 103.765150783862,14.2262401539158,0 103.769854611355,14.2363757258453,0 103.772302374634,14.2361870393843,0 103.773040057622,14.2361613167293,0 103.773821288558,14.2361340724661,0 103.775324880816,14.2360156517856,0 103.776696771581,14.2359769287848,0 103.777875659427,14.2358561901903,0 103.779187740735,14.2358053901715,0 103.780794912027,14.2356985815004,0 103.78216610313,14.2356193131677,0 103.784584304667,14.2354447249499,0 103.786014221167,14.2354088649064,0 103.788550332644,14.2352348363237,0 103.790363770083,14.2351433851146,0 103.79316525829,14.2349562727317,0 103.795170454913,14.2348369998702,0 103.798738522075,14.2346249316986,0 103.800551957858,14.2345334033088,0 103.802969769522,14.2344305125182,0 103.806124534928,14.2343312809459,0 103.809633340017,14.2341762627128,0 103.811166581574,14.2341120112706,0 103.813554989715,14.2339944888379,0 103.816075825005,14.2339207309462,0 103.817580185754,14.2337412747623,0 103.820981414548,14.2344338263376,0 103.822621102891,14.2365841572477,0 103.823586826162,14.2379547755714,0 103.825113925657,14.239083736358,0 103.826055173114,14.2394909349643,0 103.82754186171,14.2398864307693,0 103.82983812156,14.2405015494569,0 103.832517257594,14.2411904068191,0 103.833088536201,14.2410344374081,0 103.834141128803,14.2407095054653,0 103.835632706319,14.2401560600344,0 103.83756720072,14.23946098568,0 103.839073869067,14.2388357034932,0 103.844552259979,14.2368925456475,0 103.848627852544,14.2354313359712,0 103.852511857971,14.2339547549485,0</coordinates></LinearRing></outerBoundaryIs></Polygon></MultiGeometry>
  </Placemark>
  <Placemark>
	<Style><LineStyle><color>ff0000ff</color></LineStyle><PolyStyle><fill>0</fill></PolyStyle></Style>
	<ExtendedData><SchemaData schemaUrl="#project_parcels_wgs84_utm48n_v3_complete">
		<SimpleData name="OBJECTID">6</SimpleData>
		<SimpleData name="AREA_METER">61141470.55600000173</SimpleData>
		<SimpleData name="CF_Name">Angdoung Bor</SimpleData>
		<SimpleData name="Villages">Kuntuy Chun Khang K_L  BangkorTapok SamraongTahae</SimpleData>
		<SimpleData name="Commune">Beng</SimpleData>
		<SimpleData name="District">Banteay Ampil</SimpleData>
	</SchemaData></ExtendedData>
      <MultiGeometry><Polygon><outerBoundaryIs><LinearRing><coordinates>103.259855964241,14.0112758238486,0 103.279014084096,13.9938709648632,0 103.273858632926,13.9626411842799,0 103.267741124944,13.9573361813979,0 103.264682477914,13.9546836335519,0 103.249698564271,13.9515697278595,0 103.231232192191,13.9510603515117,0 103.218543378831,13.9498403306082,0 103.209711119753,13.9475206372526,0 103.205892538339,13.9437344140311,0 103.20362470244,13.9384563534004,0 103.19658251251,13.9534366210291,0 103.186839885229,13.9691480416572,0 103.176326215755,13.9848531099795,0 103.171246376784,13.9945857503911,0 103.171204773735,13.9998466652202,0 103.175041327142,14.0013787787673,0 103.180020648257,14.0044226321079,0 103.184224488214,14.0082121972955,0 103.213074560661,14.0103056699288,0 103.211937406639,14.0080424271318,0 103.22232875876,14.0081188654165,0 103.237968973497,13.9996933922031,0 103.248005870628,13.9992690091579,0 103.257905996536,14.0083966806673,0 103.259855964241,14.0112758238486,0</coordinates></LinearRing></outerBoundaryIs></Polygon></MultiGeometry>
  </Placemark>
  <Placemark>
	<Style><LineStyle><color>ff0000ff</color></LineStyle><PolyStyle><fill>0</fill></PolyStyle></Style>
	<ExtendedData><SchemaData schemaUrl="#project_parcels_wgs84_utm48n_v3_complete">
		<SimpleData name="OBJECTID">7</SimpleData>
		<SimpleData name="AREA_METER">18433306.68079999834</SimpleData>
		<SimpleData name="CF_Name">Dung Beng</SimpleData>
		<SimpleData name="Villages">Beng TamaThmei YeayTep Pour Chas</SimpleData>
		<SimpleData name="Commune">Beng</SimpleData>
		<SimpleData name="District">Banteay Ampil</SimpleData>
	</SchemaData></ExtendedData>
      <MultiGeometry><Polygon><outerBoundaryIs><LinearRing><coordinates>103.349475765538,14.0598979669673,0 103.353333060809,14.051355665583,0 103.358507082257,14.0515806724951,0 103.37117063097,14.0493072442905,0 103.369067799391,14.0442313905053,0 103.368645115593,14.0398538056391,0 103.365473740002,14.0353401628685,0 103.361405290821,14.0320135247478,0 103.357261862969,14.0301325072936,0 103.348804818731,14.0333650216934,0 103.327947099988,14.033312182017,0 103.300708727347,14.0373343448647,0 103.290659267882,14.0379595014464,0 103.289839866133,14.0410900297916,0 103.291035382477,14.0434213459066,0 103.300457761709,14.042493525853,0 103.299464443328,14.0503861226375,0 103.300670947887,14.0537569012203,0 103.301882355036,14.0552115650243,0 103.31181122879,14.0559861389911,0 103.318246629175,14.0546390897975,0 103.322560060787,14.0573354317233,0 103.329765775464,14.0582892083288,0 103.33533944298,14.0570351639044,0 103.338299458835,14.0574261218726,0 103.339783878918,14.0595784698532,0 103.349475765538,14.0598979669673,0</coordinates></LinearRing></outerBoundaryIs></Polygon></MultiGeometry>
  </Placemark>
  <Placemark>
	<Style><LineStyle><color>ff0000ff</color></LineStyle><PolyStyle><fill>0</fill></PolyStyle></Style>
	<ExtendedData><SchemaData schemaUrl="#project_parcels_wgs84_utm48n_v3_complete">
		<SimpleData name="OBJECTID">8</SimpleData>
		<SimpleData name="AREA_METER">20254225.21220000088</SimpleData>
		<SimpleData name="CF_Name">Phaav</SimpleData>
		<SimpleData name="Villages">ThnolKeng OuChik Chroak OuBeng</SimpleData>
		<SimpleData name="Commune">Paav</SimpleData>
		<SimpleData name="District">Trapeang Prasat</SimpleData>
	</SchemaData></ExtendedData>
      <MultiGeometry><Polygon><outerBoundaryIs><LinearRing><coordinates>104.193353392652,14.3823573965241,0 104.194555981294,14.3818014985419,0 104.195084774096,14.381941723447,0 104.196418992633,14.3824810831643,0 104.197615468338,14.3836365922592,0 104.198234813729,14.3837267812188,0 104.199030882919,14.3831317302263,0 104.200260154156,14.3823305014427,0 104.20103921852,14.3810684260098,0 104.202373911753,14.3796572100144,0 104.202965256724,14.3785392116543,0 104.203646960624,14.3774215154598,0 104.204069716801,14.3765168776337,0 104.204388639687,14.3757691914503,0 104.20464902435,14.3751471498485,0 104.205565804146,14.3732563096565,0 104.206234103094,14.3722706935527,0 104.207745371735,14.3701804877921,0 104.209007544055,14.3691716796086,0 104.211632148629,14.3680038079141,0 104.212750358796,14.367773101603,0 104.212914995942,14.3677345574662,0 104.2130524557,14.3677026954998,0 104.213232891899,14.3676608177894,0 104.213378882789,14.367627136899,0 104.213553880046,14.3676055559294,0 104.213724455087,14.3675845758378,0 104.213887447005,14.3675648018324,0 104.214044440262,14.3675453161039,0 104.21421311853,14.3675246367544,0 104.214366951761,14.3675057560152,0 104.21452931295,14.3674859794702,0 104.214690188948,14.3674663081877,0 104.214865351191,14.3674444302399,0 104.215025844365,14.3674249536465,0 104.21509664026,14.3674227381727,0 104.215329981609,14.3674133031936,0 104.215533579424,14.3674049945217,0 104.215753933743,14.3673959238554,0 104.215976381651,14.3673872685655,0 104.21621642728,14.3673770385025,0 104.216441808141,14.3673679838275,0 104.216654202409,14.3673597032894,0 104.216861989793,14.3673509986751,0 104.217026204427,14.367345416341,0 104.217078533886,14.3673537560417,0 104.217284494922,14.3673883286894,0 104.217471200435,14.3674195701328,0 104.217661256249,14.3674512311502,0 104.217851312618,14.3674824833672,0 104.218027554005,14.3675116483695,0 104.218187467604,14.3675383101446,0 104.218357846489,14.3675670469007,0 104.218532832801,14.3675957996427,0 104.218707399978,14.3676245499707,0 104.218875267143,14.3676528703266,0 104.219034239605,14.3677097442901,0 104.219210358622,14.3677740249943,0 104.219382303226,14.3678346157509,0 104.219549642442,14.3678943757142,0 104.21971572794,14.3679533141281,0 104.219882228476,14.3680134788491,0 104.220057097944,14.3680761211235,0 104.220213563406,14.3681313532642,0 104.220374208668,14.3681890482661,0 104.220529840156,14.3682430524063,0 104.220700115333,14.3683020039415,0 104.220861187603,14.3683572499228,0 104.221033970606,14.3684178431813,0 104.221195881432,14.3684730926045,0 104.221347329369,14.3685258565098,0 104.22148246354,14.3685720345838,0 104.221623872064,14.3686210901557,0 104.221761515422,14.3686685004715,0 104.221922167158,14.368724561677,0 104.222067758451,14.3687752653444,0 104.22221669352,14.368828020457,0 104.222397425592,14.3688914967141,0 104.222548454932,14.3689442594055,0 104.222664759123,14.368985066143,0 104.22281537033,14.369037827297,0 104.222984387313,14.3690975895138,0 104.223142529211,14.369152825282,0 104.223268454979,14.3691973375515,0 104.223353437977,14.3692110909555,0 104.223510844035,14.3692369236894,0 104.223698392469,14.3692673466933,0 104.223896407751,14.3692994375599,0 104.224119958512,14.3693356948368,0 104.224338066806,14.3693715263312,0 104.224534407857,14.369403202536,0 104.224723630127,14.36943403797,0 104.224902805288,14.3694636162209,0 104.225086585597,14.3694936171563,0 104.225217573755,14.3695279377036,0 104.225400035198,14.3695763089917,0 104.225620163639,14.3696337873497,0 104.225819784289,14.3696862982481,0 104.225949518845,14.3697197969965,0 104.226088876267,14.3697565945381,0 104.22621149578,14.3697884361868,0 104.226363826906,14.3698285424727,0 104.226484770174,14.36986078716,0 104.226614610501,14.3698951456966,0 104.226822453131,14.3699496101616,0 104.227070132761,14.3700135528655,0 104.227390227932,14.3700879117524,0 104.22749644511,14.3701122259511,0 104.227859889579,14.3701980042664,0 104.228235616769,14.3702866419534,0 104.228549932349,14.370359570075,0 104.228883029596,14.3704381987229,0 104.229144595195,14.3704996756485,0 104.229437916328,14.3705795835369,0 104.229700894349,14.37065093361,0 104.229875728269,14.3706994385528,0 104.230074411425,14.3707522502944,0 104.230307768411,14.3708157480294,0 104.230545456813,14.3708813752086,0 104.230773024896,14.3709462649854,0 104.230960133105,14.371000447892,0 104.231117623761,14.3710453705283,0 104.23129317692,14.3710952871826,0 104.231479562003,14.371149467342,0 104.231639223068,14.3711943966847,0 104.231780817852,14.371235743128,0 104.23199032664,14.3712949333982,0 104.232080610319,14.371326948373,0 104.232199783559,14.3713696313482,0 104.232434515609,14.3714542802099,0 104.232698137428,14.371549596822,0 104.232965375536,14.371644925769,0 104.233226830971,14.3717395295956,0 104.235741253932,14.3726414328591,0 104.235692475543,14.3580975955532,0 104.234143036807,14.3579786783698,0 104.233855420571,14.3579505045298,0 104.233744213575,14.357968101345,0 104.233604999941,14.3580035638943,0 104.233400057311,14.3581304525522,0 104.233084343689,14.3581467681124,0 104.232629924845,14.3582356972788,0 104.232284599134,14.3587410679991,0 104.23198743154,14.3590924187773,0 104.231745207583,14.3590644102295,0 104.231541749792,14.3588803039442,0 104.231179519141,14.3588246253036,0 104.231095417061,14.3587450356696,0 104.230941458566,14.3588267902609,0 104.230820424672,14.3589732812595,0 104.230534141358,14.3589782266932,0 104.230446805584,14.3589632550709,0 104.23028117416,14.3589333410951,0 104.230169461041,14.3589976069379,0 104.230093978513,14.3590414266709,0 104.229955266476,14.3590703519973,0 104.229495447258,14.3587134002883,0 104.229139556079,14.3588062485244,0 104.22897386558,14.3587939588932,0 104.22876014275,14.3587286347102,0 104.228666569855,14.3587753325266,0 104.228600206778,14.3587956802729,0 104.228362589186,14.3586685875726,0 104.228302453519,14.3586302025554,0 104.228085587139,14.3586030567378,0 104.227211359149,14.3578305406997,0 104.226933895655,14.3579001392993,0 104.226945726911,14.3579648065848,0 104.226807166499,14.357949666548,0 104.226557225451,14.3579018486064,0 104.226428027078,14.3577927332983,0 104.226280557978,14.3577393737927,0 104.226157104234,14.3577125321161,0 104.222363269947,14.3562476013822,0 104.222144391969,14.3559072112154,0 104.220429357155,14.3551566829877,0 104.216261977454,14.3530036065267,0 104.215279102836,14.3526487656938,0 104.209421007132,14.3501591069265,0 104.20801395416,14.3519154701166,0 104.204572563179,14.3519397057458,0 104.20128563366,14.3506535345312,0 104.197430679839,14.3512665447589,0 104.193904640978,14.3524221206506,0 104.189852108378,14.3541185751478,0 104.18975257418,14.3546009230765,0 104.185962724306,14.3563220415538,0 104.183858037464,14.356094427401,0 104.183442809327,14.3564293492117,0 104.183278037587,14.3566763118502,0 104.180087187871,14.351665607335,0 104.17997157163,14.3515325745301,0 104.179773976952,14.3514653028561,0 104.179646846653,14.3514510855452,0 104.179637668258,14.3513844656447,0 104.179532001657,14.3512968452261,0 104.179349007307,14.3512757116053,0 104.178615336653,14.3514291456553,0 104.177994794836,14.3510894588659,0 104.178016243106,14.351020648717,0 104.177776181086,14.3509738929994,0 104.177620224354,14.3509956035822,0 104.177608235382,14.350955014417,0 104.177547978259,14.3509042169823,0 104.17746329181,14.3508763692139,0 104.177374798651,14.3508998316466,0 104.177259511319,14.3506714252875,0 104.177108898561,14.3505353070349,0 104.176915907551,14.3504978994074,0 104.176666266226,14.3504947362543,0 104.176347644412,14.3506773227817,0 104.173699650218,14.3483540119591,0 104.173439511843,14.3476201357181,0 104.173305327298,14.3475422000827,0 104.17288249227,14.3478386803961,0 104.170772991584,14.3480458420098,0 104.170039613759,14.3480194400226,0 104.169374854994,14.3476178538267,0 104.16881857915,14.3476337821892,0 104.167986176525,14.3479407361477,0 104.167561331468,14.3487794767464,0 104.167058609973,14.3491888892716,0 104.166655950986,14.3489848654192,0 104.1661059603,14.3489531367165,0 104.165017851274,14.3489850625031,0 104.164771419326,14.3495085940092,0 104.164521060255,14.3494421628544,0 104.16430113059,14.3494115917748,0 104.164363003596,14.3492092008912,0 104.164217481514,14.3488928564414,0 104.164047708997,14.3485227949911,0 104.163191114737,14.3481088203028,0 104.162656249923,14.3479458137646,0 104.162192121805,14.3478369116083,0 104.161783225137,14.3476686126404,0 104.161374373456,14.3474883945624,0 104.161051004493,14.3473323145176,0 104.160465012677,14.3471216730775,0 104.159774026373,14.3472026532919,0 104.159156385602,14.3472838915385,0 104.15866327951,14.3467517850003,0 104.158338623179,14.3469413240407,0 104.158155280503,14.3469347144348,0 104.155843005332,14.3459208437635,0 104.155463144192,14.3460372414878,0 104.155345986601,14.3463109415998,0 104.154960319239,14.3464704626184,0 104.154726962906,14.3467616257072,0 104.154512344954,14.3469455917823,0 104.154132227915,14.3472541083405,0 104.154076682068,14.3473969285635,0 104.153770559339,14.3475328949879,0 104.153507713951,14.3475379157216,0 104.153270077351,14.3473404186106,0 104.152462890643,14.3474388389158,0 104.152009873483,14.3476279101643,0 104.151641819838,14.3479781792389,0 104.15126414406,14.3476371608947,0 104.150720789197,14.3474683620119,0 104.150299252259,14.347413220711,0 104.149835110115,14.3473102525927,0 104.149492694145,14.3473447795579,0 104.149064933473,14.34731940881,0 104.148845165365,14.3472471114827,0 104.148264871004,14.3471496831553,0 104.1480682916,14.3474111762447,0 104.148069733004,14.3470298011705,0 104.148123787789,14.346740448456,0 104.14794917322,14.3464492020243,0 104.147486604827,14.3459672534152,0 104.14677588202,14.3455578303309,0 104.146384478469,14.3453422821419,0 104.145986822889,14.3451205919823,0 104.145412610106,14.3451215831206,0 104.144693454912,14.3444551556911,0 104.14398526467,14.3442078687656,0 104.14309093998,14.3442260536354,0 104.142914915127,14.3443080147937,0 104.142651836872,14.3441785800576,0 104.142122067032,14.3440451212055,0 104.141612980667,14.3442482425224,0 104.141035001414,14.3435914928843,0 104.140715960371,14.3433272515872,0 104.138460249514,14.3416028890027,0 104.137797424304,14.3568048917498,0 104.139828158171,14.3558998043387,0 104.141985749219,14.3553853873883,0 104.145402911497,14.3545923538221,0 104.147440858839,14.3549897960988,0 104.149601841909,14.3552806994667,0 104.150904414801,14.3555810937683,0 104.152271861827,14.355793624453,0 104.155522867771,14.3562771303657,0 104.158013382137,14.3564747508631,0 104.159949425229,14.3565193728911,0 104.16347185807,14.3569156441212,0 104.164974629909,14.3571915010153,0 104.167652588978,14.357320468978,0 104.169239852166,14.3574392944165,0 104.170639812494,14.3575952059528,0 104.172289608307,14.3582616389514,0 104.17328151841,14.3588125086414,0 104.174343205556,14.3596970973669,0 104.175108358662,14.3604862679755,0 104.175530781867,14.3614567146157,0 104.175417698053,14.3623749603925,0 104.175156444311,14.3632171860116,0 104.174647991288,14.3645870825598,0 104.173544863526,14.3661940005994,0 104.172823656895,14.3674939370432,0 104.173007016734,14.3685327651975,0 104.174208756404,14.3699589604356,0 104.17494837827,14.37067883194,0 104.174702967058,14.3724775015545,0 104.174008647244,14.3734818074989,0 104.172830721187,14.3743522892445,0 104.171369180955,14.3751148075558,0 104.170887373678,14.3762456876864,0 104.172373255865,14.3776414283518,0 104.173551714677,14.3783880059807,0 104.175975394524,14.3792836344483,0 104.176761523977,14.3796513084584,0 104.178044824552,14.3799766627972,0 104.180979652334,14.380546829239,0 104.182126433258,14.3811422482191,0 104.183258414115,14.3822598501968,0 104.184474866729,14.3832267300391,0 104.185530711252,14.3839854124503,0 104.186786707557,14.3847321953974,0 104.187993347011,14.3848495962864,0 104.189363127617,14.38447676984,0 104.191774341841,14.3834908722981,0 104.193353392652,14.3823573965241,0</coordinates></LinearRing></outerBoundaryIs></Polygon></MultiGeometry>
  </Placemark>
  <Placemark>
	<Style><LineStyle><color>ff0000ff</color></LineStyle><PolyStyle><fill>0</fill></PolyStyle></Style>
	<ExtendedData><SchemaData schemaUrl="#project_parcels_wgs84_utm48n_v3_complete">
		<SimpleData name="OBJECTID">9</SimpleData>
		<SimpleData name="AREA_METER">10791527.25219999999</SimpleData>
		<SimpleData name="CF_Name">Samaky</SimpleData>
		<SimpleData name="Villages">Ou Angre OuSama ToulSvay OuSamraong Trapeang Chas</SimpleData>
		<SimpleData name="Commune">Trapeang Tav</SimpleData>
		<SimpleData name="District">Anlong Veng</SimpleData>
	</SchemaData></ExtendedData>
      <MultiGeometry><Polygon><outerBoundaryIs><LinearRing><coordinates>103.92663668262,14.3338651420515,0 103.930202607889,14.3323041669041,0 103.934245532552,14.332480059691,0 103.938612703837,14.3324996256766,0 103.941533030887,14.3306201712681,0 103.945735484258,14.3312697018659,0 103.957518082031,14.3016724927378,0 103.940055405564,14.3008067754293,0 103.932125699079,14.3018752622757,0 103.92419068443,14.3040474083551,0 103.922064616957,14.3068305694235,0 103.922022515408,14.3156579981561,0 103.921940168152,14.3329065809218,0 103.921922065131,14.3366954995906,0 103.924038194692,14.3360612749746,0 103.92663668262,14.3338651420515,0</coordinates></LinearRing></outerBoundaryIs></Polygon></MultiGeometry>
  </Placemark>
  <Placemark>
	<Style><LineStyle><color>ff0000ff</color></LineStyle><PolyStyle><fill>0</fill></PolyStyle></Style>
	<ExtendedData><SchemaData schemaUrl="#project_parcels_wgs84_utm48n_v3_complete">
		<SimpleData name="OBJECTID">10</SimpleData>
		<SimpleData name="AREA_METER">41518531.11699999869</SimpleData>
		<SimpleData name="CF_Name">Sangkrous Preychheu</SimpleData>
		<SimpleData name="Villages">Romchek OuTameng DeiThmei</SimpleData>
		<SimpleData name="Commune">Anlong Veng</SimpleData>
		<SimpleData name="District">Along Veng</SimpleData>
	</SchemaData></ExtendedData>
      <MultiGeometry><Polygon><outerBoundaryIs><LinearRing><coordinates>104.116662959469,14.0414538223298,0 104.088587974329,14.0393770276366,0 104.088656530343,14.0220199753145,0 104.02806382248,14.0210445618619,0 104.027640470422,14.0391419056477,0 104.018200257408,14.0389236312423,0 104.048339982661,14.06514848582,0 104.056603421977,14.0699312413786,0 104.058347858595,14.0737787491195,0 104.069923973048,14.0788771932987,0 104.09957265167,14.0699942363688,0 104.116662959469,14.0414538223298,0</coordinates></LinearRing></outerBoundaryIs></Polygon></MultiGeometry>
  </Placemark>
  <Placemark>
	<Style><LineStyle><color>ff0000ff</color></LineStyle><PolyStyle><fill>0</fill></PolyStyle></Style>
	<ExtendedData><SchemaData schemaUrl="#project_parcels_wgs84_utm48n_v3_complete">
		<SimpleData name="OBJECTID">11</SimpleData>
		<SimpleData name="AREA_METER">63443328.65540000051</SimpleData>
		<SimpleData name="CF_Name">Prey Srorng</SimpleData>
		<SimpleData name="Villages">LumtongChas KokiKandal RoHal SralaoSrorng</SimpleData>
		<SimpleData name="Commune">Lumtong</SimpleData>
		<SimpleData name="District">Anlong Veng</SimpleData>
	</SchemaData></ExtendedData>
      <MultiGeometry><Polygon><outerBoundaryIs><LinearRing><coordinates>103.970473605346,14.0493127297194,0 103.970244187446,14.0448045488474,0 103.969252513785,14.0433385278066,0 103.969759236543,14.04163525829,0 103.96913972175,14.0406580880589,0 103.969770122845,14.0391989773366,0 103.969651880471,14.0377366769668,0 103.969910131356,14.0357887136746,0 103.9694208421,14.0335939344276,0 103.969801136326,14.0322555730235,0 103.969554317345,14.0316454402421,0 103.967190247693,14.0301735674313,0 103.965701763659,14.0282181512563,0 103.968083234448,14.0257919842104,0 103.968339843544,14.0242094632091,0 103.969468711024,14.0228742878105,0 103.969473604175,14.0217779597097,0 103.970729931218,14.0198342365261,0 103.970610054726,14.0187373775354,0 103.97124254841,14.016790997931,0 103.972369734749,14.0158212477927,0 103.975113391366,14.0160765023766,0 103.976491159321,14.0148641572871,0 103.97649331841,14.0143768995717,0 103.978618549818,14.013411330767,0 103.9797499928,14.0114670252546,0 103.980747525554,14.0115930392577,0 103.984125118556,14.0095363284888,0 103.985129064795,14.0082005445075,0 103.986254016509,14.0077179826639,0 103.987632211099,14.006383751568,0 103.990002048457,14.0065154525218,0 103.993126265958,14.0053102718434,0 103.994260726831,14.0026349941787,0 103.996019454553,13.9998404761285,0 103.999767842575,13.9985159663284,0 104.00214759896,13.9963330457266,0 104.003651960723,13.9946337773264,0 104.005283145074,13.9924477455182,0 104.006907501309,13.9918453080998,0 104.007160135486,13.9911154332863,0 104.007669054139,13.9888029700683,0 103.978955222574,13.9936783884382,0 103.928849456947,14.0111256006507,0 103.883103537686,14.0285820705708,0 103.875977166088,14.0315944175819,0 103.88794954812,14.0585704899459,0 103.889696474094,14.0585785239568,0 103.89044222177,14.059191015965,0 103.892195601368,14.0578591139709,0 103.894935505463,14.0589679820198,0 103.896930833926,14.059220727023,0 103.899789158455,14.0616700348563,0 103.904155393247,14.0619335082276,0 103.904648148407,14.0632756957741,0 103.906767157588,14.0637725511867,0 103.908521643109,14.0621969042741,0 103.911270332226,14.0614784232855,0 103.917032698924,14.0567535648322,0 103.91840814692,14.0561506530618,0 103.931052818775,14.0471926111526,0 103.933801274211,14.0464738550927,0 103.934796102511,14.0472091306582,0 103.937170783703,14.0463668739109,0 103.939288610131,14.0471070639468,0 103.938626006856,14.0555094049786,0 103.938361843694,14.05867543868,0 103.940430997114,14.070013328526,0 103.93852431036,14.0775574817842,0 103.943730910041,14.0851328616281,0 103.948340044503,14.0869802295502,0 103.961315793822,14.0877673557618,0 103.975916256926,14.0880734301702,0 103.966689807777,14.0583109818827,0 103.971079546395,14.053335247204,0 103.970473605346,14.0493127297194,0</coordinates></LinearRing></outerBoundaryIs></Polygon></MultiGeometry>
  </Placemark>
  <Placemark>
	<Style><LineStyle><color>ff0000ff</color></LineStyle><PolyStyle><fill>0</fill></PolyStyle></Style>
	<ExtendedData><SchemaData schemaUrl="#project_parcels_wgs84_utm48n_v3_complete">
		<SimpleData name="OBJECTID">12</SimpleData>
		<SimpleData name="AREA_METER">26494470.65150000155</SimpleData>
		<SimpleData name="CF_Name">Rolus Thom</SimpleData>
		<SimpleData name="Villages">Kdol</SimpleData>
		<SimpleData name="Commune">Koun Kriel</SimpleData>
		<SimpleData name="District">Samraong</SimpleData>
	</SchemaData></ExtendedData>
      <MultiGeometry><Polygon><outerBoundaryIs><LinearRing><coordinates>103.594903366125,14.4056384177706,0 103.593282204761,14.3964720496105,0 103.590050266323,14.3898360971185,0 103.590433577504,14.3893412249777,0 103.591389053734,14.3878102519791,0 103.591830827162,14.3868637648588,0 103.591892070711,14.385969247263,0 103.59140006055,14.3845742788624,0 103.591470577138,14.3836798156174,0 103.591922349258,14.3826158768385,0 103.592039112938,14.3817397677923,0 103.591517082169,14.380697150303,0 103.592106690583,14.3798328945421,0 103.592223790607,14.3789025512104,0 103.591764521426,14.3782037986287,0 103.591966091249,14.3771112514117,0 103.591732987097,14.3758353344614,0 103.591524136432,14.3751290323953,0 103.591333774239,14.3744318795486,0 103.590988388212,14.373317999599,0 103.590139074062,14.3727163544066,0 103.589913157879,14.3717749297907,0 103.589798850628,14.370779934952,0 103.590490316213,14.3699343652257,0 103.590282832309,14.3690111291959,0 103.590008179131,14.3684490625309,0 103.589752071564,14.3678871051818,0 103.589450455163,14.3671892888541,0 103.588759074641,14.3665433857669,0 103.588116495684,14.3655090847833,0 103.587109878613,14.3648612981843,0 103.586345694928,14.3641645065234,0 103.586156002461,14.3897495763316,0 103.558263076896,14.3895811771714,0 103.55820477124,14.3986651114378,0 103.539658395003,14.3985512495631,0 103.5398349057,14.3713809976244,0 103.512227175884,14.3710437332686,0 103.512011537625,14.3987548365262,0 103.524167007386,14.3988310474602,0 103.524465722774,14.4071942475731,0 103.594815212619,14.4197119395503,0 103.594903366125,14.4056384177706,0</coordinates></LinearRing></outerBoundaryIs></Polygon></MultiGeometry>
  </Placemark>
  <Placemark>
	<Style><LineStyle><color>ff0000ff</color></LineStyle><PolyStyle><fill>0</fill></PolyStyle></Style>
	<ExtendedData><SchemaData schemaUrl="#project_parcels_wgs84_utm48n_v3_complete">
		<SimpleData name="OBJECTID">13</SimpleData>
		<SimpleData name="AREA_METER">128142412.49500000477</SimpleData>
		<SimpleData name="CF_Name">Ratanak Ruka</SimpleData>
		<SimpleData name="Villages">16 Villages</SimpleData>
		<SimpleData name="Commune">Samraong  Koun Kriel</SimpleData>
		<SimpleData name="District">Samraong</SimpleData>
	</SchemaData></ExtendedData>
      <MultiGeometry><Polygon><outerBoundaryIs><LinearRing><coordinates>103.745631921129,14.1762368738898,0 103.745456386334,14.1981388262542,0 103.76190526019,14.1957055603223,0 103.763616790987,14.170098514188,0 103.758383909318,14.1873602705621,0 103.754663819976,14.1848007347633,0 103.750113222261,14.1833306514584,0 103.747791893471,14.1791691997088,0 103.745631921129,14.1762368738898,0</coordinates></LinearRing></outerBoundaryIs></Polygon><Polygon><outerBoundaryIs><LinearRing><coordinates>103.763204463242,14.1678544527612,0 103.754029677035,14.1345713206757,0 103.761633285706,14.1331822826132,0 103.760804898875,14.1219231874336,0 103.764318895661,14.1067012895459,0 103.749095331649,14.0932509959758,0 103.746207613956,14.0911929532873,0 103.745574000166,14.0909332110316,0 103.745465745024,14.1107402932106,0 103.704094989208,14.110521195287,0 103.704074007748,14.1105210823529,0 103.699198891409,14.1104947957587,0 103.698987829648,14.1104936553294,0 103.69811553348,14.1104889409962,0 103.698265677607,14.0840097758151,0 103.694358688962,14.0834237146019,0 103.686670422495,14.082053123933,0 103.684650151545,14.082286191521,0 103.685396476626,14.1072220564386,0 103.679533022193,14.1073074970448,0 103.673262890707,14.1072459187966,0 103.671412182374,14.1085478635943,0 103.671401795787,14.1103411661142,0 103.671243657935,14.1376120277721,0 103.671221521599,14.1414248140688,0 103.684405579093,14.1394615638949,0 103.686217389441,14.1627036891069,0 103.657362552165,14.162064883379,0 103.656136903852,14.1483906095961,0 103.639022609456,14.1482942482095,0 103.624993142963,14.1482137762131,0 103.624879096449,14.1570421998523,0 103.624327714311,14.2003681843049,0 103.670629995564,14.200675572912,0 103.683764003296,14.2006242317809,0 103.689361527461,14.2007475113829,0 103.689423633557,14.1899463934812,0 103.691035153959,14.1909558243672,0 103.692493540845,14.1911562162256,0 103.693868629465,14.1921258537722,0 103.697488225097,14.1929890536836,0 103.697511192553,14.1938730027161,0 103.69852741906,14.1941414890245,0 103.698764448889,14.1941729022555,0 103.698768686052,14.1941721035637,0 103.698776610044,14.1941729312761,0 103.699798156024,14.1941694394641,0 103.70014475029,14.1941025463905,0 103.700305863968,14.1940195922012,0 103.701601307331,14.1931841812923,0 103.702966587431,14.1927452739126,0 103.702991596242,14.1927303454341,0 103.703026430086,14.1927237813557,0 103.703135725324,14.1926719071394,0 103.703975559373,14.1922044890074,0 103.705265421719,14.1925229259915,0 103.705487582968,14.1925505331443,0 103.705776577439,14.1925070795531,0 103.706902041925,14.1921536890985,0 103.708884353421,14.1919817932487,0 103.708884885057,14.1919816677493,0 103.708886598696,14.1919815956291,0 103.71042392927,14.191844595775,0 103.712217334889,14.1919763267842,0 103.713999855116,14.1929511794626,0 103.714093634669,14.1929958914498,0 103.714341714766,14.1930600837199,0 103.71575698967,14.1932270038342,0 103.715863096204,14.1932335237575,0 103.716109124068,14.1932024404912,0 103.717123300906,14.1929359841629,0 103.718381066349,14.1926349099177,0 103.719251960887,14.1927021600037,0 103.719689091866,14.1932261773442,0 103.719748975307,14.193291260808,0 103.720048469801,14.1934888204634,0 103.720349756473,14.1935489636763,0 103.72035089111,14.1935467287594,0 103.720356694017,14.1935565146754,0 103.716173446487,14.2017587371923,0 103.711834508869,14.2078805863282,0 103.711837989699,14.2078810100534,0 103.713495475343,14.2113724150633,0 103.713888719953,14.2352395386844,0 103.729850000052,14.2344033584709,0 103.729523830055,14.2176036722884,0 103.722216164126,14.2100876110512,0 103.7348846974,14.1786088021087,0 103.734751742439,14.178467521615,0 103.733215278237,14.176857352711,0 103.724949932121,14.1827107918577,0 103.72493506906,14.182721316551,0 103.724754350176,14.1827742425268,0 103.724766199218,14.1827449892624,0 103.724808536151,14.1826404613676,0 103.724842156281,14.1645521494199,0 103.742676992444,14.1646462653949,0 103.741946235325,14.1605344102384,0 103.742814625198,14.154247158233,0 103.748415787499,14.1532368240102,0 103.751929890294,14.1543941514878,0 103.763204463242,14.1678544527612,0</coordinates></LinearRing></outerBoundaryIs></Polygon><Polygon><outerBoundaryIs><LinearRing><coordinates>103.724792743118,14.2461233241779,0 103.724792773701,14.2461233243413,0 103.724792696807,14.2461231539817,0 103.724792743118,14.2461233241779,0</coordinates></LinearRing></outerBoundaryIs></Polygon><Polygon><outerBoundaryIs><LinearRing><coordinates>103.724792743118,14.2461233241779,0 103.716784321673,14.2460802848817,0 103.716783822147,14.2460802821959,0 103.714809812369,14.2460696323571,0 103.714805518666,14.2460696092356,0 103.702625239625,14.2460035342665,0 103.698415401505,14.2459805527335,0 103.680167600597,14.245880200633,0 103.677619036801,14.2458660742233,0 103.677615018762,14.2458650368039,0 103.677614806185,14.2458660507823,0 103.635493163807,14.245628631184,0 103.639522614455,14.2499647295253,0 103.646051300153,14.2554888799128,0 103.650402985034,14.257773434918,0 103.652227008307,14.2565182067417,0 103.662709540219,14.2596235585565,0 103.662672308289,14.2596504686195,0 103.670712501792,14.2620366883886,0 103.684122784172,14.2638376514859,0 103.696649801018,14.2597120283789,0 103.707606104101,14.2579094638646,0 103.710944987537,14.2542483441103,0 103.713543247886,14.2536928632776,0 103.717103432755,14.2502045920532,0 103.722608096711,14.2470159482287,0 103.724871766138,14.2464156488742,0 103.724792743118,14.2461233241779,0</coordinates></LinearRing></outerBoundaryIs></Polygon></MultiGeometry>
  </Placemark>
</Folder>
</Document></kml>
