<?xml version="1.0" encoding="UTF-8"?>
<kml xmlns="http://www.opengis.net/kml/2.2" xmlns:gx="http://www.google.com/kml/ext/2.2" xmlns:xsi="http://www.w3.org/2001/XMLSchema-instance"
 xsi:schemaLocation="http://www.opengis.net/kml/2.2 http://schemas.opengis.net/kml/2.2.0/ogckml22.xsd http://www.google.com/kml/ext/2.2 http://code.google.com/apis/kml/schema/kml22gx.xsd">
<Document id="MaiNdombe_PA_UTM">
  <name>MaiNdombe_PA_UTM</name>
  <snippet></snippet>
  <Folder id="FeatureLayer0">
    <name>MaiNdombe_PA_UTM</name>
    <snippet></snippet>
    <Placemark id="ID_00000">
      <name>INONGO</name>
      <snippet></snippet>
      <description><![CDATA[<html xmlns:fo="http://www.w3.org/1999/XSL/Format" xmlns:msxsl="urn:schemas-microsoft-com:xslt">
<head>
<META http-equiv="Content-Type" content="text/html">
<meta http-equiv="content-type" content="text/html; charset=UTF-8">
</head>
<body style="margin:0px 0px 0px 0px;overflow:auto;background:#FFFFFF;">
<table style="font-family:Arial,Verdana,Times;font-size:12px;text-align:left;width:100%;border-collapse:collapse;padding:3px 3px 3px 3px">
<tr style="text-align:center;font-weight:bold;background:#9CBCE2">
<td>INONGO</td>
</tr>
<tr>
<td>
<table style="font-family:Arial,Verdana,Times;font-size:12px;text-align:left;width:100%;border-spacing:0px; padding:3px 3px 3px 3px">
<tr>
<td>OBJECTID_1</td>
<td>1</td>
</tr>
<tr bgcolor="#D4E4F3">
<td>TERRITOIRE</td>
<td>INONGO</td>
</tr>
<tr>
<td>PROVINCE</td>
<td>BANDUNDU</td>
</tr>
<tr bgcolor="#D4E4F3">
<td>Hectares</td>
<td>299666.223041</td>
</tr>
<tr>
<td>Shape_Leng</td>
<td>291039.611486</td>
</tr>
<tr bgcolor="#D4E4F3">
<td>Hectares_RDC</td>
<td>297171.940037</td>
</tr>
<tr>
<td>Hectares_WGS</td>
<td>299067.761782</td>
</tr>
<tr bgcolor="#D4E4F3">
<td>Hectares_N</td>
<td>299431.345928</td>
</tr>
</table>
</td>
</tr>
</table>
</body><script type="text/javascript">
				function changeImage(attElement, nameElement) {
				document.getElementById('imageAttachment').src = attElement;
				document.getElementById('imageName').innerHTML = nameElement;}
			</script></html>
]]></description>
      <styleUrl>#PolyStyle00</styleUrl>
      <MultiGeometry>
        <Polygon>
          <extrude>0</extrude><altitudeMode>clampToGround</altitudeMode>
          <outerBoundaryIs><LinearRing><coordinates> 17.89381609111609,-1.659041529444801,0 17.8921776097785,-1.655890067071109,0 17.88730369118169,-1.655502042652827,0 17.88225805792704,-1.655597814976157,0 17.87860246043795,-1.655708667035151,0 17.87415376145918,-1.656423067874043,0 17.87296284068568,-1.659568858022206,0 17.87018641624515,-1.662293347947361,0 17.86646871952378,-1.66407112793715,0 17.86352304916471,-1.66565875220514,0 17.86002674495722,-1.666825186083042,0 17.8569287313733,-1.667306260223401,0 17.85407012569199,-1.668517733958292,0 17.85173306469265,-1.66664614976737,0 17.84855226565213,-1.667427312401023,0 17.84526794315082,-1.668572538255575,0 17.84195822108948,-1.670261820386893,0 17.83868354398662,-1.671637611166989,0 17.83567691409482,-1.671884643537935,0 17.83145547106925,-1.670436443712562,0 17.82678676179406,-1.669398762152102,0 17.82393894722431,-1.671168441935636,0 17.81908029120732,-1.671123879767041,0 17.81654186438194,-1.6689733489977,0 17.81213029217052,-1.667294225369401,0 17.80795735716145,-1.667290953097283,0 17.80402404429364,-1.667830418294865,0 17.80001906236787,-1.668014486141765,0 17.79906634549931,-1.672450192672762,0 17.79560686856815,-1.675815825221152,0 17.79278259000074,-1.674977701317285,0 17.78927575656358,-1.673939172151104,0 17.78335018947549,-1.674142829305916,0 17.77857183855873,-1.673384965363242,0 17.77576014689556,-1.670111827709308,0 17.77119917403509,-1.669426510904243,0 17.76751035170321,-1.670149731411861,0 17.76382636591448,-1.670453860271923,0 17.75740408969739,-1.670713718772583,0 17.75251207823287,-1.67222598829461,0 17.74907652408016,-1.673226019306196,0 17.74667019082431,-1.674744546532928,0 17.74350642306921,-1.675947721455114,0 17.73978490664053,-1.678528591303525,0 17.7370873635087,-1.680799077392131,0 17.73691565499354,-1.683820825786588,0 17.73537604199545,-1.687725885988893,0 17.7320002587699,-1.691504364424636,0 17.72893393914889,-1.692987395704637,0 17.72585732048632,-1.696733894779997,0 17.72423916710652,-1.70174933021072,0 17.72120050943155,-1.703010410767401,0 17.72044139256387,-1.706104271774147,0 17.72053774479633,-1.710267897684149,0 17.71942282069457,-1.715275541053775,0 17.71477494761609,-1.71782095300141,0 17.71264631007464,-1.720763405419428,0 17.71285312891459,-1.72564239729037,0 17.70733317986021,-1.73042876332888,0 17.7071908872068,-1.734482772340298,0 17.70431122578485,-1.735970014866056,0 17.70306119295217,-1.739076306331809,0 17.70268877532427,-1.742827119432689,0 17.70042753414601,-1.744863223992749,0 17.6994304160497,-1.747675206588317,0 17.70073292696723,-1.750763555775703,0 17.69865183839886,-1.753833873257385,0 17.69785600833267,-1.758348082710676,0 17.69488741585144,-1.760925066033841,0 17.69507192270065,-1.765057914830003,0 17.69486751077815,-1.770381894504653,0 17.69393644687873,-1.776492774462564,0 17.69390554108752,-1.781202411462248,0 17.6934063346272,-1.784105202514159,0 17.69092091517315,-1.785970079117789,0 17.70568099604288,-1.801719215019975,0 17.71253382801568,-1.819745266524992,0 17.72489496207963,-1.837781717487991,0 17.7317476100747,-1.855808285195483,0 17.75098184382019,-1.880786806074185,0 17.76182011827183,-1.892462747309307,0 17.76739524280943,-1.898468767113547,0 17.76696065364304,-1.902348338088153,0 17.76681256510978,-1.904942488055493,0 17.76752235385489,-1.90840307020063,0 17.76952435649785,-1.910280617880718,0 17.77409949326839,-1.915045760368344,0 17.77647474632316,-1.918119751024247,0 17.7799625796089,-1.920534060800091,0 17.78253654455568,-1.922989274198766,0 17.78539918810034,-1.924291943334201,0 17.78696957882816,-1.927177679359112,0 17.78753772720153,-1.92977324035114,0 17.78696037194937,-1.932078346894601,0 17.78680679900121,-1.937555289836981,0 17.78808984089983,-1.940872912526151,0 17.7915211798768,-1.944482931644834,0 17.79438195705946,-1.946794625490055,0 17.79896674163869,-1.946515117310088,0 17.80183407726458,-1.94536747647094,0 17.80658028366039,-1.943629153283462,0 17.82703286127401,-1.961713176274026,0 17.84163427169905,-1.966900584779917,0 17.85266924144405,-1.976556361549607,0 17.85439001359811,-1.979401643644028,0 17.85780600818891,-1.97896980913355,0 17.86784807429994,-1.990485733138278,0 17.88297114092582,-2.005759372607659,0 17.89050235010076,-2.024690427979494,0 17.89806011090442,-2.039050067160707,0 17.89940830817408,-2.05429770407875,0 17.91211215262264,-2.066059488925622,0 17.91211210076079,-2.060932430373554,0 17.92143297277924,-2.062656216981797,0 17.93242953127661,-2.075151181301995,0 17.93378030816514,-2.089013373947117,0 17.93099538749216,-2.104253370046816,0 17.9213221285514,-2.119479509463607,0 17.92031364227566,-2.125492865372708,0 17.91724107476729,-2.143813069146696,0 17.91710897329745,-2.159663131861918,0 17.91708532046177,-2.17135152301923,0 17.9170781069133,-2.174908328115558,0 17.91390242498607,-2.187576793564446,0 17.9150430381887,-2.190998633771794,0 17.91513989672285,-2.195248546228515,0 17.91195963003194,-2.196628519494753,0 17.90817885200235,-2.198185068617214,0 17.90935421546574,-2.203669297741153,0 17.90696223733767,-2.207845191308669,0 17.90131412786269,-2.214622773938036,0 17.89102669358961,-2.238283871999966,0 17.89102671661835,-2.242582153402084,0 17.89102669396064,-2.253715023386785,0 17.8877654708944,-2.273282720261425,0 17.88664321638916,-2.278975452901203,0 17.8837966454906,-2.285024541863119,0 17.89066403769642,-2.288497347677862,0 17.9030666183892,-2.287138443921373,0 17.9035189089416,-2.305793252880993,0 17.91369475940449,-2.306452456014557,0 17.92608383936415,-2.300620704230849,0 17.93337043594505,-2.297707097133332,0 17.94573930431886,-2.301395547345844,0 17.95229328635258,-2.300677298061601,0 17.96322182654482,-2.297038913539117,0 17.97051781827119,-2.289730770894753,0 17.97781067391735,-2.283887240796006,0 17.98728157293478,-2.280977717081301,0 18.00549389887601,-2.275889200581616,0 18.01496189815879,-2.274444148471165,0 18.02806588379381,-2.275203779893386,0 18.03242241265091,-2.28107212365347,0 18.03969136408241,-2.286946547553088,0 18.05206166139,-2.290634311045101,0 18.06808021832533,-2.29066738725589,0 18.08263680672873,-2.29362707885848,0 18.09354847909225,-2.298776607076042,0 18.09645917417565,-2.30005848467499,0 18.11936868804358,-2.300067542886012,0 18.15105271772306,-2.305676453411317,0 18.1703293916924,-2.314032634209154,0 18.19234910931357,-2.329325685826581,0 18.20747311964023,-2.347377726055981,0 18.22373754872774,-2.369673872059793,0 18.23977070264212,-2.373049256404517,0 18.24644028612002,-2.377495661382726,0 18.25006192494209,-2.38060451051641,0 18.2539898823811,-2.380414806007495,0 18.25749042489179,-2.381596285395072,0 18.26179720961116,-2.381017665696553,0 18.26581629314662,-2.37830971057549,0 18.27144230665737,-2.374870869052716,0 18.27655674929878,-2.371797987095492,0 18.28050297341069,-2.369016375711495,0 18.28430151793319,-2.367115316029547,0 18.28766419293682,-2.364185689916973,0 18.29132018807534,-2.360522548879656,0 18.29526864194166,-2.356566321568378,0 18.29797800989553,-2.351800167161744,0 18.29995475433553,-2.348500702244099,0 18.30404712611264,-2.345572361578932,0 18.3068256099592,-2.34278826355895,0 18.30566680591402,-2.338161360407958,0 18.30524027867275,-2.332214543445699,0 18.30540046583592,-2.324727303986156,0 18.30854687019643,-2.320292187177921,0 18.30775238932281,-2.315922920938685,0 18.30805246648243,-2.311592451852209,0 18.30904697111133,-2.30663933774503,0 18.30690322678253,-2.3018270699916,0 18.30690901410469,-2.298743968052171,0 18.30428438628289,-2.297417653097714,0 18.30312174416832,-2.294772785293563,0 18.30225402400471,-2.290513522988236,0 18.30357278430492,-2.287726544514663,0 18.30401666262867,-2.284497463740027,0 18.30314836261438,-2.280531833577978,0 18.3008194853077,-2.277150714617521,0 18.29965764495547,-2.274065429564855,0 18.30061325858648,-2.270323466982946,0 18.29938033958065,-2.266210357725027,0 18.29778513317014,-2.260701843959114,0 18.29618964376488,-2.255340156668762,0 18.29634358196246,-2.251009440587393,0 18.29649561272959,-2.247706416081389,0 18.29562521685223,-2.244841928450321,0 18.29361379987605,-2.240776347696847,0 18.2909670450192,-2.238300070839799,0 18.28717146266862,-2.238880259422551,0 18.28878128034347,-2.236460845551639,0 18.29133971331682,-2.234043183452389,0 18.29310096132748,-2.228614356651695,0 18.29354562288439,-2.224871438175206,0 18.29362675363707,-2.220393778720718,0 18.29785480578007,-2.218821077893338,0 18.30360196840715,-2.219017383178445,0 18.30341429281975,-2.215199860840011,0 18.30065123016229,-2.209762669922491,0 18.29818031493627,-2.204179217183958,0 18.29658318316504,-2.199625073040361,0 18.2962984394272,-2.195660582015211,0 18.29645334496044,-2.19066919528135,0 18.29704210026609,-2.187880800217071,0 18.29806839913469,-2.185240008959455,0 18.29975154238713,-2.182526992243575,0 18.29953866063476,-2.179149882297564,0 18.29706517874428,-2.174961221134083,0 18.29430074307593,-2.17025820170348,0 18.28993415380344,-2.163790560295126,0 18.28636135786655,-2.16231600616795,0 18.28330169477998,-2.159521064785141,0 18.28911656893256,-2.158503822985778,0 18.29024293834983,-2.154248264754192,0 18.29127199835959,-2.149992522644892,0 18.29317844872986,-2.144710640596947,0 18.2953790493956,-2.13810793789591,0 18.29684852591138,-2.132311393440458,0 18.29080399091215,-2.125620697571459,0 18.29030014084891,-2.121655852727699,0 18.28994080647419,-2.118498737856562,0 18.28991242297003,-2.11383737102068,0 18.29421788874474,-2.113551301208314,0 18.29882910481318,-2.112274755794584,0 18.30141102990781,-2.110077053139355,0 18.30068896407856,-2.105671359154442,0 18.30020808611566,-2.10244060431239,0 18.29675591480408,-2.101553708938555,0 18.29208653929629,-2.101325347568515,0 18.28639897423097,-2.099186629410404,0 18.27790830359861,-2.093592932789727,0 18.27269319591513,-2.092556133435099,0 18.26875471466516,-2.091668372712841,0 18.26598390746245,-2.090635845431112,0 18.26044791322986,-2.085340989150565,0 18.25804740634598,-2.081152718182546,0 18.25459169143643,-2.079895224675022,0 18.25090555728961,-2.078235802045612,0 18.24731756733462,-2.076984635331831,0 18.24344638803754,-2.077056015023744,0 18.23997336621922,-2.073560258182161,0 18.23676616478004,-2.072057686388366,0 18.23524394256938,-2.069457965769887,0 18.23307620608076,-2.065864749425622,0 18.22899607317834,-2.061733192663315,0 18.2269088958142,-2.056631954893847,0 18.22459133816265,-2.049090342652393,0 18.22158303114607,-2.043518598253581,0 18.22109048277492,-2.037445203002829,0 18.21473798546737,-2.034693037724832,0 18.21097426247107,-2.035883889412904,0 18.20747660562817,-2.034398272669105,0 18.20298603733038,-2.035895555227692,0 18.19702478255018,-2.035798087475648,0 18.19481729400013,-2.033287848155145,0 18.19234861074002,-2.030837705670574,0 18.19067996666271,-2.026259416711492,0 18.18905101466278,-2.022967370116085,0 18.18660366657326,-2.020306443014816,0 18.18466232769238,-2.015875302544036,0 18.18366272113342,-2.012204854347371,0 18.18178261744458,-2.008722643759375,0 18.17864448883241,-2.005617780493665,0 18.17625992619793,-2.003020259314372,0 18.17255221073028,-2.00212828214742,0 18.16960061070829,-1.999576643292196,0 18.16702248132146,-1.998135368079183,0 18.16992932935677,-1.995728524421273,0 18.17379507859383,-1.992225786075563,0 18.17800981235134,-1.990531665737041,0 18.18303583189834,-1.992564430746532,0 18.18708051455039,-1.995628729515303,0 18.18956557537759,-1.997635971672881,0 18.19158168295023,-1.995109280132145,0 18.19009253648269,-1.983467992375159,0 18.18954547725096,-1.974474838120674,0 18.18869920364198,-1.969642792842873,0 18.18660790505378,-1.966359339645309,0 18.18510810768786,-1.963299569712384,0 18.18259005519982,-1.958659757136977,0 18.18423604265808,-1.955099972035916,0 18.18606597195095,-1.952063070963052,0 18.18404727103872,-1.948749894771149,0 18.18304015791848,-1.945209281713935,0 18.17770748526341,-1.946780094767249,0 18.17155170951964,-1.942954303049029,0 18.16603215264539,-1.935354670956966,0 18.16756353242915,-1.921694650088124,0 18.16757934657856,-1.912080255811327,0 18.1625593221311,-1.906505690318994,0 18.16055844043161,-1.899924120888377,0 18.16760754963948,-1.894812294469981,0 18.17112865875415,-1.894375316043152,0 18.17615780404099,-1.894383574398119,0 18.17816618940098,-1.896410975827904,0 18.18219117097968,-1.895405519603302,0 18.18320273256967,-1.891864972363385,0 18.18320873468477,-1.88814365916027,0 18.18887491141419,-1.883477197597085,0 18.18964527653587,-1.878618859469057,0 18.19027118635884,-1.874671415751694,0 18.19279543511924,-1.868603090556641,0 18.18901076052605,-1.85681869676368,0 18.18522148237298,-1.854369255665465,0 18.18275232966076,-1.851281926930576,0 18.18040433421995,-1.845069677471233,0 18.17825828353318,-1.838724044029476,0 18.18127886795657,-1.836704733674808,0 18.1777672897763,-1.831132857511291,0 18.17420836126422,-1.83202212577769,0 18.16822653154425,-1.822009298648051,0 18.168736531093,-1.817455898033556,0 18.17304765813311,-1.815543032159781,0 18.17327111465146,-1.810648033934277,0 18.17460405357445,-1.807261997552135,0 18.17387972434577,-1.80335610039889,0 18.16481947742607,-1.795488914083008,0 18.15822025457956,-1.788849223321733,0 18.15686536866308,-1.785203668619463,0 18.15308318429278,-1.783456620673156,0 18.14991133887673,-1.781137884560473,0 18.14785308592857,-1.77881577430539,0 18.14578219881033,-1.776343502565511,0 18.14164725127265,-1.774654990188767,0 18.13161828083257,-1.778169510993766,0 18.12706636644378,-1.781646762407712,0 18.12302562365683,-1.784745982417995,0 18.11996749711312,-1.786986647808151,0 18.11366477009715,-1.786795588332928,0 18.10944844236997,-1.784724547996964,0 18.10291767215592,-1.780666250378986,0 18.09638853587994,-1.775595996359413,0 18.09639353611007,-1.772391393932646,0 18.09639800250816,-1.769524117525798,0 18.09086671453917,-1.769515391980103,0 18.08382455879563,-1.77102221514323,0 18.07456645211849,-1.772225874646097,0 18.07074282270876,-1.7760612393985,0 18.06572085972642,-1.772005400035144,0 18.06340365698453,-1.764297756229469,0 18.06569219688837,-1.762190289532699,0 18.06582235936176,-1.759344373340983,0 18.06557845565954,-1.754534985058955,0 18.0682686622746,-1.75050537791795,0 18.06477300700583,-1.74972952121939,0 18.06173154737152,-1.750345812233539,0 18.0600801601476,-1.747939825834983,0 18.05764705172636,-1.745865395062642,0 18.05183772343734,-1.749178646896795,0 18.05010090348181,-1.751554025441549,0 18.04724143619575,-1.753210616968288,0 18.04175094149901,-1.752701352325838,0 18.03726753933026,-1.747585858810629,0 18.03911534089258,-1.743881707901167,0 18.03912008540929,-1.740845923969081,0 18.03535729127637,-1.739998257672946,0 18.03285703226101,-1.726669064189099,0 18.03615491362059,-1.70744761461448,0 18.03718290863666,-1.69277624031128,0 18.03689289576228,-1.685994028383159,0 18.03063005926844,-1.680896162770959,0 18.02704261071957,-1.679181394518069,0 18.02368359704584,-1.67655368092025,0 18.02071648840885,-1.673478366497882,0 18.01843727296088,-1.670605214018098,0 18.01490895022576,-1.669239334682032,0 18.01091954720217,-1.668322968252537,0 18.00812883501655,-1.666228838500159,0 18.00664497499212,-1.663411887554461,0 18.00155762520463,-1.661931948428249,0 17.99690831312548,-1.662770277803503,0 17.99277712240519,-1.661245385831289,0 17.98815410034513,-1.661880016528285,0 17.98382264199607,-1.663360935241607,0 17.98047747308642,-1.664279802128307,0 17.97613872352369,-1.664501626335071,0 17.9710933463396,-1.665624223505647,0 17.96715430067147,-1.666325594643026,0 17.96445312747696,-1.668488407233229,0 17.96133945077152,-1.670931136556634,0 17.95841679382964,-1.671937935926912,0 17.95457439997891,-1.670556203000717,0 17.95169987892662,-1.670651254767099,0 17.94880537245885,-1.670563192251864,0 17.94485857874808,-1.670473420817684,0 17.94090323923322,-1.668018288160094,0 17.93802079368716,-1.666913339191901,0 17.93557166915749,-1.668524115996648,0 17.93308347540173,-1.666199701051643,0 17.92945541904332,-1.664450937286595,0 17.9244687935096,-1.663049242297115,0 17.92020603426363,-1.662405053001682,0 17.91672794427611,-1.66268326936056,0 17.91321920900484,-1.663959339911556,0 17.90927527802877,-1.661581972667976,0 17.90464327638854,-1.659279691444484,0 17.90058236941906,-1.659565789976826,0 17.8964301298848,-1.66043010866268,0 17.89381609111609,-1.659041529444801,0</coordinates></LinearRing></outerBoundaryIs>
        </Polygon>
      </MultiGeometry>
    </Placemark>
  </Folder>
  <Style id="PolyStyle00">
    <LabelStyle>
      <color>00000000</color>
      <scale>0.000000</scale>
    </LabelStyle>
    <LineStyle>
      <color>ff6e6e6e</color>
      <width>0.700000</width>
    </LineStyle>
    <PolyStyle>
      <color>ffd2fced</color>
      <outline>1</outline>
    </PolyStyle>
  </Style>
</Document>
</kml>