<?xml version="1.0" encoding="UTF-8"?>
<kml xmlns="http://www.opengis.net/kml/2.2" xmlns:gx="http://www.google.com/kml/ext/2.2" xmlns:kml="http://www.opengis.net/kml/2.2" xmlns:atom="http://www.w3.org/2005/Atom">
<Document id="AKUMADAN_INDIGENOUS_2023_DEC" xsi:schemaLocation="http://www.opengis.net/kml/2.2 http://schemas.opengis.net/kml/2.2.0/ogckml22.xsd http://www.google.com/kml/ext/2.2 http://code.google.com/apis/kml/schema/kml22gx.xsd">
	<name>AKUMADAN_INDIGENOUS_2023_DEC</name>
	<Snippet maxLines="0"></Snippet>
	<Style id="PolyStyle00">
		<LabelStyle>
			<color>00000000</color>
			<scale>0</scale>
		</LabelStyle>
		<LineStyle>
			<color>ff6e6e6e</color>
			<width>0.4</width>
		</LineStyle>
		<PolyStyle>
			<color>ffd0f2c9</color>
		</PolyStyle>
	</Style>
	<Folder id="FeatureLayer0">
		<name>AKUMADAN_INDIGENOUS_2023_DEC</name>
		<Snippet maxLines="0"></Snippet>
		<Placemark id="ID_00000">
			<name>F</name>
			<Snippet maxLines="0"></Snippet>
			<description><![CDATA[<html xmlns:fo="http://www.w3.org/1999/XSL/Format" xmlns:msxsl="urn:schemas-microsoft-com:xslt">

<head>

<META http-equiv="Content-Type" content="text/html">

<meta http-equiv="content-type" content="text/html; charset=UTF-8">

</head>

<body style="margin:0px 0px 0px 0px;overflow:auto;background:#FFFFFF;">

<table style="font-family:Arial,Verdana,Times;font-size:12px;text-align:left;width:100%;border-collapse:collapse;padding:3px 3px 3px 3px">

<tr style="text-align:center;font-weight:bold;background:#9CBCE2">

<td>F</td>

</tr>

<tr>

<td>

<table style="font-family:Arial,Verdana,Times;font-size:12px;text-align:left;width:100%;border-spacing:0px; padding:3px 3px 3px 3px">

<tr>

<td>FID</td>

<td>0</td>

</tr>

<tr bgcolor="#D4E4F3">

<td>NAME</td>

<td>F</td>

</tr>

<tr>

<td>AREA</td>

<td>6.46294</td>

</tr>

<tr bgcolor="#D4E4F3">

<td>Plantation</td>

<td>Asubima</td>

</tr>

<tr>

<td>Area_ha</td>

<td>6.462943</td>

</tr>

<tr bgcolor="#D4E4F3">

<td>Block</td>

<td>F</td>

</tr>

<tr>

<td>Type_text</td>

<td>INDIGENOUS</td>

</tr>

<tr bgcolor="#D4E4F3">

<td>Name_1</td>

<td>Asubima 2010</td>

</tr>

<tr>

<td>PL_year</td>

<td>2010</td>

</tr>

<tr bgcolor="#D4E4F3">

<td>PROVENANCE</td>

<td></td>

</tr>

</table>

</td>

</tr>

</table>

</body>

</html>]]></description>
			<styleUrl>#PolyStyle00</styleUrl>
			<MultiGeometry>
				<Polygon>
					<outerBoundaryIs>
						<LinearRing>
							<coordinates>
								-1.859418999361232,7.399384999514359,0 -1.859437999690442,7.399431999492303,0 -1.859461999796241,7.399457999291951,0 -1.859492999923149,7.399491999296406,0 -1.859483999543416,7.39953299922397,0 -1.859476999872145,7.399593999789701,0 -1.859455999439024,7.399615999985005,0 -1.859454999648783,7.399630999716782,0 -1.859502999743034,7.399675999211678,0 -1.859503999414518,7.399738999996915,0 -1.859520999631137,7.39978199918807,0 -1.85960499955687,7.399814999806738,0 -1.859645999402464,7.399813999550524,0 -1.859738999319152,7.399749000003725,0 -1.859762999343032,7.399737999624301,0 -1.859846999631578,7.399712999715475,0 -1.859878999612686,7.399689999333409,0 -1.859893999913655,7.399669999685568,0 -1.859937999364151,7.39964999916598,0 -1.860009999995532,7.399650999146815,0 -1.860037999536989,7.399612999789281,0 -1.860037999841593,7.399602999768224,0 -1.86006299991981,7.399596999678579,0 -1.860099999776098,7.399571999763723,0 -1.86013299920131,7.39956199914158,0 -1.86016699944527,7.399537999960296,0 -1.860198999847454,7.399481999568229,0 -1.860199999456496,7.399435999489491,0 -1.860278999763847,7.399364999435582,0 -1.860263999621331,7.399331999975695,0 -1.860245999579906,7.399303999637268,0 -1.860182999315466,7.399297999650657,0 -1.860192999243344,7.399270999753931,0 -1.86020099993364,7.399221999577414,0 -1.860208999265331,7.399187999882969,0 -1.860220000003684,7.399134999953462,0 -1.860292999553827,7.399097999269017,0 -1.860302999333728,7.399099999162768,0 -1.860319999704676,7.399035999805175,0 -1.860318999312855,7.398998999784306,0 -1.860346999538521,7.398959999219845,0 -1.860375999837448,7.39893799953146,0 -1.860371999219722,7.398879999657051,0 -1.860374999845165,7.398837999454635,0 -1.860383999519964,7.398798999134518,0 -1.860409999441499,7.398766999885531,0 -1.860419999807065,7.398754999563367,0 -1.860456999845507,7.398701999176992,0 -1.860456999771939,7.398629999368277,0 -1.860436999452563,7.398602999624684,0 -1.860437999927072,7.398556999541871,0 -1.860438999189689,7.398508999812893,0 -1.860438999183084,7.398502999979566,0 -1.860421999665681,7.398464999472132,0 -1.860383999500548,7.398428999172161,0 -1.860376000011929,7.398419999768446,0 -1.860375999235663,7.398396999802874,0 -1.860366999196157,7.398349999198435,0 -1.860364999653875,7.39833799984549,0 -1.860357999910273,7.398301999226669,0 -1.860366999150445,7.398301999628232,0 -1.860376999807129,7.398291999853478,0 -1.860339999897595,7.398279999633861,0 -1.86027099934169,7.398231999976849,0 -1.860234999354714,7.398217999950632,0 -1.86019899968244,7.398217999231261,0 -1.860193999493734,7.398205999439593,0 -1.860177999766733,7.39816499975881,0 -1.860175999142975,7.398097999824693,0 -1.860148999433028,7.398024999432678,0 -1.860155999266888,7.397983999785426,0 -1.860158999889493,7.397935999752108,0 -1.860191999173329,7.397907999607192,0 -1.860139999633838,7.397823999199057,0 -1.860139999625862,7.397811999533269,0 -1.860138702855402,7.397804110893565,0 -1.860127999552433,7.397738999517031,0 -1.860116499313385,7.397711999799248,0 -1.860082499933462,7.397650999259756,0 -1.860061999410888,7.397616999931367,0 -1.859978999564619,7.397502999748459,0 -1.859952999375072,7.397448999871994,0 -1.859921999477696,7.397409999449867,0 -1.859899999851009,7.397317999409196,0 -1.859919999622133,7.397299999514805,0 -1.859939999836101,7.397254999469178,0 -1.85995299976309,7.39725399988625,0 -1.859980999135508,7.39723400000412,0 -1.860006999115052,7.397178999901,0 -1.860024999653237,7.397156999219191,0 -1.860080999745204,7.397131999931009,0 -1.860089999231536,7.397085999505522,0 -1.860087999690034,7.397061999582295,0 -1.860102999844415,7.396999999270155,0 -1.860092999912053,7.396936999870493,0 -1.860147999287662,7.396890999498281,0 -1.860179999789579,7.396872999524203,0 -1.860253999133301,7.396817999130393,0 -1.860297999783091,7.396801999625849,0 -1.86032799949976,7.396751999330675,0 -1.860349999323522,7.396713999953173,0 -1.860378999844271,7.396646999679656,0 -1.860390999502865,7.396621999997977,0 -1.860343999490313,7.396568999186925,0 -1.860341999958654,7.396562999667897,0 -1.860312999289245,7.396521999317241,0 -1.860281999525549,7.396459999863603,0 -1.860241999549768,7.396426999806296,0 -1.860200999345346,7.396375999497567,0 -1.860135999958945,7.396357999310214,0 -1.860052999626421,7.396358999886355,0 -1.860024999985099,7.396340999331967,0 -1.85998999946063,7.396326999151552,0 -1.859990999809956,7.396309999771197,0 -1.85992899972081,7.396282999337278,0 -1.859905999932118,7.396244999760284,0 -1.859866999622453,7.396225999732076,0 -1.859831999113357,7.396211999541328,0 -1.85977699975012,7.39608999914517,0 -1.859733999667591,7.3960779998371,0 -1.85970799972661,7.396054999396489,0 -1.859702999870785,7.396044999247401,0 -1.860518889727183,7.396170738571939,0 -1.860544411811259,7.396111261285254,0 -1.858036852068532,7.395729235365337,0 -1.858035505200917,7.395735264882818,0 -1.858027113912491,7.395733396986995,0 -1.858023785048035,7.395785963317289,0 -1.858372999881329,7.395839999678711,0 -1.858445999738374,7.395850999682785,0 -1.858881270635799,7.395918576099298,0 -1.859121999996853,7.395955999729424,0 -1.859094999546326,7.395966999661246,0 -1.859069999790945,7.39600399915632,0 -1.859051999581305,7.396015999781327,0 -1.85903299916054,7.396027999654456,0 -1.858978999866754,7.396078999293538,0 -1.858967999361221,7.396066999513119,0 -1.858913999393049,7.3960589992967,0 -1.858843999285366,7.396090999798409,0 -1.858832999787765,7.396109999444406,0 -1.858813999933527,7.396137999157907,0 -1.858759999454574,7.396156999966805,0 -1.858751999569586,7.396156999384418,0 -1.858731999196644,7.396182999603193,0 -1.858722999966812,7.396200999570774,0 -1.858665999250239,7.396240999327072,0 -1.858613999882232,7.396282999764052,0 -1.858547999355963,7.396318999785903,0 -1.858560999135526,7.396365999784395,0 -1.858532999593929,7.396396999867466,0 -1.858513999512316,7.396441999683622,0 -1.858514999367309,7.396463999208574,0 -1.858541999632499,7.396482000003979,0 -1.858496999343524,7.396507999502013,0 -1.858476999135784,7.396516999583949,0 -1.858496999198909,7.396561999779366,0 -1.858476999829725,7.396649999732632,0 -1.85848699972274,7.396695999917496,0 -1.858492999619962,7.396732499926618,0 -1.858493999143541,7.396736999193067,0 -1.858496999735007,7.396754999131048,0 -1.858490666003384,7.396773666132409,0 -1.858466999550073,7.396796999799144,0 -1.858441999924613,7.396804999463313,0 -1.85841399975181,7.396831999343394,0 -1.858341999505273,7.396866999960298,0 -1.858330999483015,7.396894999329977,0 -1.858292999393961,7.39693099956077,0 -1.858267999933431,7.396976999640228,0 -1.858267999451085,7.396985999382933,0 -1.858259999703589,7.397029999949626,0 -1.858156999279596,7.397145999309884,0 -1.85815899978916,7.397164999672496,0 -1.858230999214492,7.397209999227001,0 -1.858275999134455,7.397229999665568,0 -1.858339999583722,7.397274999518322,0 -1.858430999986061,7.39731099912986,0 -1.858475999982396,7.397312999157883,0 -1.858465999721481,7.397337999366712,0 -1.858465999704864,7.39739299991497,0 -1.858411999631322,7.397421999769397,0 -1.858405999653428,7.397436999351091,0 -1.858323000008657,7.397455999967956,0 -1.858274999442326,7.397472999232347,0 -1.8582220000049,7.397504999729114,0 -1.858184999814771,7.39752699958479,0 -1.858092999661184,7.397561999553146,0 -1.85811999951016,7.397619999540117,0 -1.858158999189614,7.397609999949657,0 -1.858167999317244,7.39760999949138,0 -1.858202999465696,7.397688999474522,0 -1.858201999940992,7.397705999745655,0 -1.858192999836062,7.39777999960212,0 -1.858220999401513,7.397815999759765,0 -1.858210999147214,7.397871999376219,0 -1.858210999373619,7.39789199940958,0 -1.858182999425867,7.397914999979042,0 -1.858199999425344,7.398006999906707,0 -1.85820999962902,7.398005999929025,0 -1.858212999961329,7.398009999663058,0 -1.858236999139515,7.398042999607533,0 -1.85823599990858,7.3980619995208,0 -1.8582559992197,7.398070999850557,0 -1.858291999235976,7.39809199922339,0 -1.858347999435047,7.398090999503415,0 -1.858381999778956,7.398067999823323,0 -1.858410999568104,7.398066999669197,0 -1.858436000007857,7.398063999576382,0 -1.858472999293539,7.398053999361784,0 -1.858501999695698,7.398001999747931,0 -1.858508999456335,7.397983999194162,0 -1.858520999334531,7.397983999177323,0 -1.858557999980864,7.398019999761917,0 -1.858554999573581,7.398039999348024,0 -1.858570999506879,7.398058999387887,0 -1.858607999974323,7.398056999540473,0 -1.858671999814643,7.398047999992398,0 -1.858707999226937,7.398021999157709,0 -1.858745999642116,7.398005999843767,0 -1.858773999781829,7.397959999284418,0 -1.858776999631221,7.397917999110933,0 -1.858788999389844,7.397904999152908,0 -1.858786999789242,7.397873999131261,0 -1.858808999881048,7.397866999284584,0 -1.858828999703258,7.39785499928034,0 -1.85885499917077,7.39783799970392,0 -1.858864999830995,7.397833999796745,0 -1.85886899973578,7.397857999410294,0 -1.85889699988003,7.397866999394836,0 -1.858916999848568,7.397855999659825,0 -1.858937999386149,7.397864999807285,0 -1.858931999351913,7.397909999453836,0 -1.858944999271329,7.397920999564424,0 -1.858952999475033,7.397928999621369,0 -1.858961999708737,7.397953999647755,0 -1.858961999533778,7.397964999939427,0 -1.858973999661334,7.397990999779299,0 -1.858972999915151,7.398054999330561,0 -1.858989999214504,7.398128999759717,0 -1.858999999249571,7.398138999151795,0 -1.859053999223764,7.398193999575625,0 -1.859062999936619,7.39820999985667,0 -1.859050999792826,7.398262999897164,0 -1.859058853512685,7.398277921968488,0 -1.859070999832703,7.398300999980105,0 -1.859083999768487,7.398311999184309,0 -1.859106999442756,7.398330999944826,0 -1.859116999622186,7.398347999439524,0 -1.859124999366719,7.398364999239697,0 -1.85915199911477,7.398408999885871,0 -1.859150999943019,7.398415999240974,0 -1.859173999495735,7.398506999776741,0 -1.859172999699363,7.398606999219781,0 -1.859166999125144,7.398617999526667,0 -1.859166999631837,7.398669999266544,0 -1.859168999597173,7.39867899961023,0 -1.859206999176469,7.398735999408011,0 -1.859215999273381,7.398765999894554,0 -1.859224999766821,7.398828999451319,0 -1.859212999934279,7.398871999476546,0 -1.85924099923324,7.398886999278391,0 -1.859266999160768,7.39889699982974,0 -1.859274999217565,7.398915999272116,0 -1.859303999196388,7.398927999907868,0 -1.85930299922623,7.39895999976251,0 -1.859287999155538,7.399023999658139,0 -1.85927799979021,7.399048999886715,0 -1.859274999410874,7.399062999649879,0 -1.859310999648201,7.399120999122268,0 -1.859320999537672,7.39914199970803,0 -1.859343999362227,7.399191999891876,0 -1.859348999384878,7.399202999417028,0 -1.859348999801987,7.399223999730742,0 -1.859356999367874,7.399269999315103,0 -1.859368999373794,7.399306999444336,0 -1.859383999451664,7.399333999997557,0 -1.859418999361232,7.399384999514359,0 
							</coordinates>
						</LinearRing>
					</outerBoundaryIs>
				</Polygon>
			</MultiGeometry>
		</Placemark>
		<Placemark id="ID_00001">
			<name>G</name>
			<Snippet maxLines="0"></Snippet>
			<description><![CDATA[<html xmlns:fo="http://www.w3.org/1999/XSL/Format" xmlns:msxsl="urn:schemas-microsoft-com:xslt">

<head>

<META http-equiv="Content-Type" content="text/html">

<meta http-equiv="content-type" content="text/html; charset=UTF-8">

</head>

<body style="margin:0px 0px 0px 0px;overflow:auto;background:#FFFFFF;">

<table style="font-family:Arial,Verdana,Times;font-size:12px;text-align:left;width:100%;border-collapse:collapse;padding:3px 3px 3px 3px">

<tr style="text-align:center;font-weight:bold;background:#9CBCE2">

<td>G</td>

</tr>

<tr>

<td>

<table style="font-family:Arial,Verdana,Times;font-size:12px;text-align:left;width:100%;border-spacing:0px; padding:3px 3px 3px 3px">

<tr>

<td>FID</td>

<td>1</td>

</tr>

<tr bgcolor="#D4E4F3">

<td>NAME</td>

<td>G</td>

</tr>

<tr>

<td>AREA</td>

<td>7.09483</td>

</tr>

<tr bgcolor="#D4E4F3">

<td>Plantation</td>

<td>Asubima</td>

</tr>

<tr>

<td>Area_ha</td>

<td>7.094829</td>

</tr>

<tr bgcolor="#D4E4F3">

<td>Block</td>

<td>G</td>

</tr>

<tr>

<td>Type_text</td>

<td>INDIGENOUS</td>

</tr>

<tr bgcolor="#D4E4F3">

<td>Name_1</td>

<td>Asubima 2010</td>

</tr>

<tr>

<td>PL_year</td>

<td>2010</td>

</tr>

<tr bgcolor="#D4E4F3">

<td>PROVENANCE</td>

<td></td>

</tr>

</table>

</td>

</tr>

</table>

</body>

</html>]]></description>
			<styleUrl>#PolyStyle00</styleUrl>
			<MultiGeometry>
				<Polygon>
					<outerBoundaryIs>
						<LinearRing>
							<coordinates>
								-1.855326999207682,7.398535999689359,0 -1.855219999466863,7.398463999206289,0 -1.855228999384877,7.398455999347295,0 -1.855273999161327,7.398397999676294,0 -1.855291999541669,7.398372999317759,0 -1.855302999747321,7.398363999800487,0 -1.855335999912426,7.398307999689115,0 -1.855385999630372,7.398254999732993,0 -1.855427999643363,7.398209999489423,0 -1.85547499913467,7.398172999784855,0 -1.855438999846006,7.398155999484556,0 -1.855420999991454,7.398145999377112,0 -1.8553569996392,7.39814499934247,0 -1.855319999409194,7.398154999284053,0 -1.855275999697229,7.398172999699516,0 -1.855265999570415,7.398180999704806,0 -1.855231999537874,7.398232999772999,0 -1.855200999227481,7.398271999485513,0 -1.855174999817063,7.398270999355588,0 -1.855157999166978,7.398298999475292,0 -1.855140999531471,7.398288999212772,0 -1.85510899979651,7.398281999217624,0 -1.855101999518653,7.398251999305937,0 -1.855039999715125,7.398225999374716,0 -1.854984999895971,7.3982019998753,0 -1.854950999736348,7.398181999336432,0 -1.854931999782014,7.398169499579383,0 -1.854874999235443,7.398152999679829,0 -1.854851999925553,7.398160999738245,0 -1.854833999532082,7.398159999340734,0 -1.85476599916542,7.398151999702456,0 -1.854757999253192,7.398151999947265,0 -1.854747999817655,7.398151999575966,0 -1.854704999965415,7.398134999320096,0 -1.854648999341928,7.398099999648998,0 -1.854622999966564,7.398033999913884,0 -1.854622999554977,7.398017999182656,0 -1.854633999491162,7.397980999308224,0 -1.854623999440593,7.397943999731609,0 -1.854614999326314,7.397917999382918,0 -1.854586999520794,7.397890999677934,0 -1.854577999205746,7.397843999952933,0 -1.854552999717558,7.397781999351335,0 -1.854515999873135,7.397761999217434,0 -1.854503999810813,7.397753999666314,0 -1.854570999141844,7.397710999183188,0 -1.854622999564056,7.397672999488752,0 -1.854723999325619,7.397619999521774,0 -1.854760999162008,7.397587999974951,0 -1.854814999493427,7.397539999960331,0 -1.854868999954835,7.397492999305148,0 -1.854932999904663,7.397465999921992,0 -1.854960999909977,7.39747499923362,0 -1.855004999974755,7.397459999656801,0 -1.855033999664531,7.397419999966084,0 -1.855058999221074,7.397410999331345,0 -1.855095999502468,7.397375999839921,0 -1.855131999643379,7.397347999679189,0 -1.855168999509946,7.397322999280753,0 -1.855167999171183,7.397276999576529,0 -1.855125999329045,7.397212999106599,0 -1.855077999647476,7.3971849993438,0 -1.854986999429295,7.397140999630426,0 -1.854977999237384,7.397120999109797,0 -1.854952999818597,7.397104999276309,0 -1.854925999909804,7.397094999551562,0 -1.854905999293158,7.397023999412761,0 -1.854943999407188,7.396895999822833,0 -1.854943999192492,7.396887999455959,0 -1.854922999787104,7.396852999305432,0 -1.854917999545374,7.396832999111175,0 -1.854853999572879,7.396787999733335,0 -1.85481599977385,7.396749999406939,0 -1.854837999132277,7.396724999383629,0 -1.85481499981845,7.396712999440958,0 -1.854752499257919,7.396677499251665,0 -1.854690999613472,7.396633999452104,0 -1.854607999921061,7.39658699952577,0 -1.854564999659887,7.396552999179595,0 -1.854544999254795,7.396534999873889,0 -1.854509999930069,7.396462999806777,0 -1.85449299960981,7.396440999886282,0 -1.854464999194924,7.396434999561492,0 -1.854411999630488,7.396407999830354,0 -1.854356999305899,7.396371999741909,0 -1.854336999892952,7.396360999620548,0 -1.85429299953054,7.396333999490344,0 -1.854282999231575,7.396333999112564,0 -1.854208999585449,7.396298999288878,0 -1.854165999309415,7.396270999638107,0 -1.854148999910572,7.3962619996242,0 -1.854109999923239,7.396242999129778,0 -1.854074999925476,7.396243999876348,0 -1.854082999950578,7.396231999996963,0 -1.854119999484352,7.39620499913519,0 -1.854112999276628,7.396187999134222,0 -1.854103999754661,7.396178999784971,0 -1.854092999813126,7.396169999815643,0 -1.854095999614768,7.396163999565692,0 -1.854150999590398,7.396027999982436,0 -1.854140999667706,7.395997999593301,0 -1.854129999867186,7.39598999989742,0 -1.854098788342988,7.395977100641328,0 -1.852996655255972,7.397845564077859,0 -1.853022999660414,7.397880999509141,0 -1.853041999515984,7.397889999292752,0 -1.853065999807259,7.397900999824151,0 -1.853109999179576,7.397906999814042,0 -1.853099999339766,7.397943999492354,0 -1.853118999422601,7.397967999724687,0 -1.853144999827953,7.398029999335551,0 -1.853155999195319,7.398047999962468,0 -1.853145999984565,7.398103000003481,0 -1.853117999485526,7.398156999575152,0 -1.853127999547082,7.398174999440257,0 -1.853174999544718,7.398193999822484,0 -1.853154999719644,7.398246999814955,0 -1.853153999764145,7.398308999587461,0 -1.853173999808488,7.39833099913737,0 -1.853217999223923,7.398356999121707,0 -1.85323499989407,7.398354999816736,0 -1.853262999764412,7.398382999869582,0 -1.853270999314438,7.398426999829569,0 -1.853280999522706,7.398465999963359,0 -1.853316999680909,7.39850999961611,0 -1.853352999846024,7.398553999266994,0 -1.853361999711239,7.39859199926841,0 -1.853389999785381,7.398627999678546,0 -1.853407999333322,7.398655999320034,0 -1.853415999568621,7.398664999734537,0 -1.853407999751046,7.398698999229572,0 -1.853397999769299,7.398734999547136,0 -1.853407999587251,7.398790999769234,0 -1.853416999238493,7.398853999317127,0 -1.853414999724084,7.398933999596553,0 -1.853417999743293,7.398955999717505,0 -1.853423999830602,7.399006999145332,0 -1.853460999268948,7.399096999374423,0 -1.853487999907281,7.39922499956192,0 -1.853476999829481,7.399241999387201,0 -1.853495999933304,7.399258999523328,0 -1.853560999189398,7.399315999524756,0 -1.853558999209783,7.399325999805875,0 -1.853578999570734,7.399309999889842,0 -1.853585999274298,7.399289999809234,0 -1.853630999756373,7.399327999270339,0 -1.853658999978944,7.3993579998538,0 -1.853676999420407,7.39936499921818,0 -1.853685999431555,7.399363999488609,0 -1.853748999508603,7.399409999479992,0 -1.853756999131254,7.399420999527999,0 -1.853858999420884,7.39944599916204,0 -1.853949999385268,7.399452999964652,0 -1.854020999360149,7.399471999602304,0 -1.854110999781993,7.399496999976427,0 -1.854138499668818,7.399524999610766,0 -1.854156999509008,7.399533999883258,0 -1.854156999978179,7.3995439998864,0 -1.854165999226596,7.399543999512604,0 -1.854184999178826,7.399552999261331,0 -1.85422199966871,7.399589999537199,0 -1.854265999362835,7.399688999371351,0 -1.854273999720512,7.399770999701738,0 -1.854300999957101,7.399788999851605,0 -1.854346999158781,7.399834999474821,0 -1.854427999787368,7.399815999980567,0 -1.854463999151908,7.399832999471604,0 -1.854473999944936,7.399835999768923,0 -1.854544999455229,7.399791999404902,0 -1.854609999887302,7.39972499996893,0 -1.854644999590303,7.399660999289202,0 -1.854669999976517,7.399656999153505,0 -1.854699999503747,7.399651999836387,0 -1.854763999495016,7.399661999729259,0 -1.854782999825167,7.3996539993587,0 -1.85479999951517,7.39962499989657,0 -1.85479999931061,7.399616999531,0 -1.854799999260664,7.399570999692937,0 -1.854826999392417,7.399535999880432,0 -1.854899999815799,7.399508999260512,0 -1.854981999337408,7.399454999941907,0 -1.855008999659236,7.399427999576731,0 -1.855081999916109,7.399399999554625,0 -1.855143999654149,7.399391999304565,0 -1.855171999498256,7.399398999885795,0 -1.855207999147626,7.399417999860693,0 -1.855226499124816,7.399437499328856,0 -1.85529099926444,7.39946399948803,0 -1.855461999460546,7.399553999245023,0 -1.855470999758974,7.399554999119546,0 -1.855469999349203,7.399572999636495,0 -1.855488999646559,7.399609999714335,0 -1.855515999984118,7.399608999151426,0 -1.855551999120157,7.399636999740825,0 -1.855615999542729,7.399681999991011,0 -1.855612999792363,7.399681999522294,0 -1.855663999452432,7.399715999562453,0 -1.855697999197569,7.399686999399226,0 -1.855723999740669,7.39964399930165,0 -1.85573299967835,7.399635999435113,0 -1.855802999203464,7.399600999631721,0 -1.855886999632774,7.399569999771524,0 -1.855950999551813,7.399527999815983,0 -1.855985999454846,7.399485999559948,0 -1.855978999729307,7.3994219994446,0 -1.855961999181155,7.399405999378307,0 -1.855950999125025,7.399396999438124,0 -1.855925999320719,7.399340999603177,0 -1.855913161208334,7.399290073954857,0 -1.855937999899427,7.399236999398365,0 -1.85591899937374,7.399204999791526,0 -1.855900999467688,7.399162999127484,0 -1.855868999680129,7.399136999432088,0 -1.855898999426017,7.399088999178854,0 -1.85590399977691,7.399070999882982,0 -1.855934999706932,7.399041999224782,0 -1.855997999255874,7.398973999553371,0 -1.856010999674609,7.398956999358645,0 -1.85600199999772,7.398921999288625,0 -1.855987999232387,7.39888699994649,0 -1.855988999363423,7.398879999704343,0 -1.855953999362101,7.398856999462516,0 -1.855931000017707,7.398832999909162,0 -1.855873999263172,7.398799999246455,0 -1.85581299925997,7.398771999618885,0 -1.855763999409944,7.398732999765527,0 -1.855691999673298,7.398697999822354,0 -1.855667999877781,7.398684999778084,0 -1.855626999515511,7.39866199948274,0 -1.855590999758969,7.398641999275347,0 -1.855572999539646,7.39863599935354,0 -1.855565999410402,7.398632999554065,0 -1.855517999211232,7.398608999995466,0 -1.855492999552617,7.398591999905055,0 -1.855457999621782,7.398581999549815,0 -1.855436999583448,7.398568999963651,0 -1.855399999504601,7.398560999533443,0 -1.855420999847821,7.398544000006407,0 -1.855428000002525,7.398514999243943,0 -1.855392000002865,7.398505999301385,0 -1.855372999608215,7.398525999353225,0 -1.855346999821428,7.3985159994956,0 -1.855326999207682,7.398535999689359,0 
							</coordinates>
						</LinearRing>
					</outerBoundaryIs>
				</Polygon>
			</MultiGeometry>
		</Placemark>
		<Placemark id="ID_00002">
			<name>E</name>
			<Snippet maxLines="0"></Snippet>
			<description><![CDATA[<html xmlns:fo="http://www.w3.org/1999/XSL/Format" xmlns:msxsl="urn:schemas-microsoft-com:xslt">

<head>

<META http-equiv="Content-Type" content="text/html">

<meta http-equiv="content-type" content="text/html; charset=UTF-8">

</head>

<body style="margin:0px 0px 0px 0px;overflow:auto;background:#FFFFFF;">

<table style="font-family:Arial,Verdana,Times;font-size:12px;text-align:left;width:100%;border-collapse:collapse;padding:3px 3px 3px 3px">

<tr style="text-align:center;font-weight:bold;background:#9CBCE2">

<td>E</td>

</tr>

<tr>

<td>

<table style="font-family:Arial,Verdana,Times;font-size:12px;text-align:left;width:100%;border-spacing:0px; padding:3px 3px 3px 3px">

<tr>

<td>FID</td>

<td>2</td>

</tr>

<tr bgcolor="#D4E4F3">

<td>NAME</td>

<td>E</td>

</tr>

<tr>

<td>AREA</td>

<td>80.4345</td>

</tr>

<tr bgcolor="#D4E4F3">

<td>Plantation</td>

<td>Afrenso</td>

</tr>

<tr>

<td>Area_ha</td>

<td>80.434513</td>

</tr>

<tr bgcolor="#D4E4F3">

<td>Block</td>

<td>E</td>

</tr>

<tr>

<td>Type_text</td>

<td>INDIGENOUS</td>

</tr>

<tr bgcolor="#D4E4F3">

<td>Name_1</td>

<td>Afrenso 2012</td>

</tr>

<tr>

<td>PL_year</td>

<td>2012</td>

</tr>

<tr bgcolor="#D4E4F3">

<td>PROVENANCE</td>

<td></td>

</tr>

</table>

</td>

</tr>

</table>

</body>

</html>]]></description>
			<styleUrl>#PolyStyle00</styleUrl>
			<MultiGeometry>
				<Polygon>
					<outerBoundaryIs>
						<LinearRing>
							<coordinates>
								-1.856716240617894,7.394335515300597,0 -1.856742133000327,7.394376271798742,0 -1.856727057177714,7.394457702907995,0 -1.856864234316891,7.394480208015458,0 -1.856897418228663,7.394561763756064,0 -1.85713470141185,7.394584615846252,0 -1.857238351638265,7.3946589369523,0 -1.857572079445184,7.394681945542612,0 -1.857889892990995,7.395141923888673,0 -1.858067459812912,7.395320058300531,0 -1.858036852068532,7.395729235365337,0 -1.860544411811259,7.396111261285254,0 -1.860826109436247,7.395652997450883,0 -1.860904217477792,7.39557914057068,0 -1.861152860476794,7.39551313454399,0 -1.861420693391688,7.395217595462284,0 -1.861536093181567,7.395051242285715,0 -1.861836646355176,7.394989075522586,0 -1.862237257070768,7.394975268393025,0 -1.862445034578433,7.394938815513991,0 -1.862749843701595,7.394702596706308,0 -1.862928151455115,7.394592012813668,0 -1.863767032857773,7.394327586080052,0 -1.86422303343146,7.394417632986539,0 -1.864404538306491,7.394488443728745,0 -1.864510245052048,7.394489617329158,0 -1.864566832929152,7.394475836255285,0 -1.864692673870095,7.394578967065102,0 -1.864640365023586,7.394730653235309,0 -1.864553470968203,7.394997900684716,0 -1.864931862667663,7.394967397047409,0 -1.865339656562957,7.395036885115118,0 -1.865434192390394,7.39505376317411,0 -1.86559356218485,7.39510417250743,0 -1.865958095041301,7.395088371729942,0 -1.866134699354643,7.394468871348558,0 -1.866237807594199,7.39410718265884,0 -1.866268051189792,7.394001092380031,0 -1.866803326707492,7.39226590062964,0 -1.865837802236199,7.392372227813643,0 -1.865969181696073,7.392061146878818,0 -1.865969643528589,7.391880122546155,0 -1.865604082903229,7.391567778067807,0 -1.865418695230804,7.391701312769616,0 -1.86525945753557,7.391570518266973,0 -1.865289866696636,7.391012960947899,0 -1.864945326224889,7.39101208445565,0 -1.864764357071664,7.390848682173887,0 -1.863911553302074,7.39095149220493,0 -1.863933765249997,7.390795841374905,0 -1.863585498117119,7.390791337640267,0 -1.863670581844822,7.390150640290472,0 -1.86327890235427,7.390120706927601,0 -1.863024739286488,7.390214189155977,0 -1.862774347228855,7.390235252255235,0 -1.862843892630013,7.390003676865412,0 -1.862826739850519,7.389612556424326,0 -1.86269992722098,7.389568740247638,0 -1.861593360827791,7.389638346924143,0 -1.86150325361957,7.389409981189231,0 -1.861372909868175,7.389315518796913,0 -1.861253270280775,7.389300656150033,0 -1.861105070362285,7.389090317080325,0 -1.860968621723081,7.388550418502867,0 -1.861009237701993,7.388268043256583,0 -1.860897947660953,7.387822429131177,0 -1.860691879523589,7.387543040961831,0 -1.860358619323586,7.387368398372699,0 -1.86006535399095,7.387153981515334,0 -1.859949114210759,7.387065975247895,0 -1.860145115755515,7.386842499451427,0 -1.860102554769507,7.386805137335735,0 -1.86019683730767,7.386803026643456,0 -1.860392666693002,7.386821701625558,0 -1.860578135830263,7.386626591653214,0 -1.860701389344573,7.386659549024911,0 -1.860846928870537,7.386507829935677,0 -1.861220637326582,7.386465290536419,0 -1.86154342595237,7.386469730626514,0 -1.861630725427345,7.386393907979586,0 -1.861612971076016,7.386238155398309,0 -1.861765562386603,7.386133474066843,0 -1.862531149837585,7.38607032082351,0 -1.862809895428732,7.38626652417289,0 -1.863005927900061,7.386234472079139,0 -1.863081746300343,7.386354113048125,0 -1.863357526188439,7.386307796092794,0 -1.863521403556399,7.386083694056723,0 -1.864083702944818,7.386056100068556,0 -1.864689287577506,7.386133685089699,0 -1.865015127880048,7.38640614280127,0 -1.865243713225867,7.386381405937399,0 -1.865236966220698,7.386185805015251,0 -1.86535385037712,7.385845752378247,0 -1.864966204191764,7.385670884462265,0 -1.864817781558408,7.385547441507117,0 -1.864269846154068,7.38562571088521,0 -1.864292564587851,7.385241925148405,0 -1.864078870082385,7.385110992052763,0 -1.863629945235559,7.384769500067622,0 -1.863726589931318,7.383871670557386,0 -1.863600656010368,7.383454864710086,0 -1.862686301219467,7.383561133696932,0 -1.862620509780743,7.383756549749001,0 -1.862576068931512,7.384104110809928,0 -1.862014689078221,7.383773181229431,0 -1.861673850469762,7.383699883912157,0 -1.861703799304065,7.383352286999086,0 -1.861693234998982,7.383218344442465,0 -1.861537017906768,7.383193169974815,0 -1.861317338540683,7.383591644397545,0 -1.861135838973628,7.383725277121413,0 -1.861037992448859,7.384127226549125,0 -1.86103413227905,7.384438993039351,0 -1.861202638524681,7.384507962455026,0 -1.861345384350085,7.384863776706887,0 -1.861388879455045,7.384944996696692,0 -1.861482286507305,7.38505120974432,0 -1.861644438324561,7.38515144990437,0 -1.861577452396441,7.385696887311862,0 -1.861061109377213,7.386069738050409,0 -1.860713994380235,7.386259010230636,0 -1.860114214475485,7.386307392377138,0 -1.859448705422085,7.386380561959037,0 -1.858980234323913,7.386379364727317,0 -1.858581531580847,7.385972982276516,0 -1.858298108789853,7.38567910863138,0 -1.858126436415243,7.385621070628911,0 -1.857943614173582,7.385658038156089,0 -1.85781476741806,7.385359857682353,0 -1.857851319883631,7.385118342668115,0 -1.857734419788093,7.385026084467547,0 -1.857581007351496,7.385159697811541,0 -1.857496577805257,7.38519384196062,0 -1.857380974007131,7.385237129441569,0 -1.857088789377861,7.385301123456344,0 -1.856961506300095,7.385295553845721,0 -1.856758345831235,7.385136251612931,0 -1.856476637107198,7.385106414614361,0 -1.856097912315672,7.385008512016139,0 -1.855884159404545,7.384988523196164,0 -1.855622372636317,7.384764780611264,0 -1.855369849081255,7.384715576661972,0 -1.855019435387872,7.384966955753153,0 -1.854698656723545,7.385024274496713,0 -1.854572331548391,7.385023950420187,0 -1.854359153180586,7.384780891701179,0 -1.853873578374753,7.384692388470537,0 -1.85348499405799,7.384652599062799,0 -1.853037215323633,7.384971543202443,0 -1.852939949902823,7.385000409727724,0 -1.85253209285743,7.384902338946372,0 -1.85241572993033,7.384805016241086,0 -1.851929656194805,7.384881349146442,0 -1.851793620216601,7.384880999318876,0 -1.851278485739756,7.38495734628371,0 -1.851102902913157,7.385199316430109,0 -1.850908224174792,7.385198815403462,0 -1.850910075863775,7.38572570885577,0 -1.851374424082898,7.385413411085423,0 -1.851647021010829,7.385210482085135,0 -1.851909381281057,7.385211156844356,0 -1.852249934565193,7.385047102541252,0 -1.852531417517528,7.385164199448155,0 -1.85296845943012,7.385242994603606,0 -1.853377167933088,7.385011208140936,0 -1.853824371890376,7.38491533276623,0 -1.854270900271029,7.385081408918357,0 -1.854562295830972,7.385150063890156,0 -1.854873239101924,7.385141095775262,0 -1.85529145792729,7.384987003942681,0 -1.85537913606447,7.384909647016719,0 -1.855660420526009,7.385104323278001,0 -1.855990337548052,7.385270098926354,0 -1.85608697940756,7.385483742906493,0 -1.856249615054413,7.38556933744495,0 -1.856254747424587,7.385578121521526,0 -1.856382430375054,7.385689306170497,0 -1.856719591546119,7.385827159222192,0 -1.85703101331038,7.385864939642049,0 -1.857324240819093,7.385773187647041,0 -1.857345780497595,7.386054546550385,0 -1.857404998797173,7.386121339293713,0 -1.857411642857166,7.386413871994536,0 -1.857485368355381,7.38659183077423,0 -1.857800791249277,7.386525996832829,0 -1.85767241750842,7.387410630689535,0 -1.857308963355625,7.387387456442837,0 -1.857156433230883,7.388310818956704,0 -1.857197079008488,7.388366442718866,0 -1.857612522337218,7.38833423058203,0 -1.857974239654978,7.388307306098028,0 -1.857912889453995,7.389099428821321,0 -1.857824466086418,7.39030995630825,0 -1.857835292318454,7.390428527245819,0 -1.857991080945138,7.3904178036625,0 -1.857931432330776,7.390547226145745,0 -1.857931194479484,7.390639817731945,0 -1.8582686563805,7.390633267161842,0 -1.858257276655174,7.390759106062194,0 -1.858227002443659,7.390970073579911,0 -1.858107277044275,7.391395565178754,0 -1.857957180944355,7.392069007793628,0 -1.857882770431918,7.392157702296961,0 -1.857837028526942,7.392631487599077,0 -1.856932180708114,7.392577357934126,0 -1.856878947084436,7.393088106727271,0 -1.856819250012731,7.393236064614445,0 -1.856685695481858,7.393228307935862,0 -1.856625655420188,7.393509548064773,0 -1.856624779063059,7.393850165771635,0 -1.856580054685187,7.393927814603908,0 -1.856579816442356,7.394020406132297,0 -1.856502039511903,7.393994346124486,0 -1.856413009985978,7.393986702598526,0 -1.856357228323015,7.394064232603252,0 -1.8563383407696,7.394175312989726,0 -1.856360165185619,7.394345633247178,0 -1.856560593736737,7.394290628499178,0 -1.856716240617894,7.394335515300597,0 
							</coordinates>
						</LinearRing>
					</outerBoundaryIs>
				</Polygon>
			</MultiGeometry>
		</Placemark>
		<Placemark id="ID_00003">
			<name>I</name>
			<Snippet maxLines="0"></Snippet>
			<description><![CDATA[<html xmlns:fo="http://www.w3.org/1999/XSL/Format" xmlns:msxsl="urn:schemas-microsoft-com:xslt">

<head>

<META http-equiv="Content-Type" content="text/html">

<meta http-equiv="content-type" content="text/html; charset=UTF-8">

</head>

<body style="margin:0px 0px 0px 0px;overflow:auto;background:#FFFFFF;">

<table style="font-family:Arial,Verdana,Times;font-size:12px;text-align:left;width:100%;border-collapse:collapse;padding:3px 3px 3px 3px">

<tr style="text-align:center;font-weight:bold;background:#9CBCE2">

<td>I</td>

</tr>

<tr>

<td>

<table style="font-family:Arial,Verdana,Times;font-size:12px;text-align:left;width:100%;border-spacing:0px; padding:3px 3px 3px 3px">

<tr>

<td>FID</td>

<td>3</td>

</tr>

<tr bgcolor="#D4E4F3">

<td>NAME</td>

<td>I</td>

</tr>

<tr>

<td>AREA</td>

<td>0.292184</td>

</tr>

<tr bgcolor="#D4E4F3">

<td>Plantation</td>

<td>ASUBIMA</td>

</tr>

<tr>

<td>Area_ha</td>

<td>0.292184</td>

</tr>

<tr bgcolor="#D4E4F3">

<td>Block</td>

<td>I</td>

</tr>

<tr>

<td>Type_text</td>

<td>INDIGENOUS</td>

</tr>

<tr bgcolor="#D4E4F3">

<td>Name_1</td>

<td>2010</td>

</tr>

<tr>

<td>PL_year</td>

<td>2010</td>

</tr>

<tr bgcolor="#D4E4F3">

<td>PROVENANCE</td>

<td></td>

</tr>

</table>

</td>

</tr>

</table>

</body>

</html>]]></description>
			<styleUrl>#PolyStyle00</styleUrl>
			<MultiGeometry>
				<Polygon>
					<outerBoundaryIs>
						<LinearRing>
							<coordinates>
								-1.875034000032237,7.415453999964186,0 -1.875063000107382,7.415479999927129,0 -1.875130000184148,7.415418999825745,0 -1.875236000121301,7.415288999981786,0 -1.875255000027687,7.415279999791858,0 -1.875272999977939,7.415247999943856,0 -1.875280000114876,7.415224999795704,0 -1.875391000040456,7.415073000000984,0 -1.875424999932553,7.415016999957331,0 -1.875443000115419,7.414988999874165,0 -1.875482999905829,7.414978000011997,0 -1.875491000118291,7.414974999845315,0 -1.87550800008511,7.414969999843246,0 -1.875565999972997,7.41502000000262,0 -1.875695000175132,7.415072999982048,0 -1.875729500089762,7.415094499997942,0 -1.875745999952346,7.415105999895084,0 -1.875821999971887,7.415156999932364,0 -1.875922000153541,7.415265999941957,0 -1.876004999888117,7.415236999957444,0 -1.876098000115759,7.415126999976672,0 -1.876170999989245,7.415064999950871,0 -1.876189000148867,7.41499700006431,0 -1.876163000061984,7.414982999775435,0 -1.876051000111124,7.414934999854059,0 -1.875989000165356,7.414944999797109,0 -1.875953000120244,7.414956000030053,0 -1.875850999962676,7.414885000054726,0 -1.875845999891487,7.414880999992644,0 -1.875780999931223,7.41485999995069,0 -1.875709000094397,7.41481099985268,0 -1.87563799992245,7.414789999872723,0 -1.875607000114998,7.414776999963874,0 -1.875605019740564,7.414776188305953,0 -1.875604127060161,7.414775822565916,0 -1.875533538318622,7.414869528221468,0 -1.875361822121581,7.415012273651877,0 -1.874953685499305,7.415351551998527,0 -1.874937761764397,7.415366435617591,0 -1.874938000045756,7.415366599843665,0 -1.874969000018976,7.415387999863853,0 -1.875008000060333,7.415432999840164,0 -1.875034000032237,7.415453999964186,0 
							</coordinates>
						</LinearRing>
					</outerBoundaryIs>
				</Polygon>
			</MultiGeometry>
		</Placemark>
		<Placemark id="ID_00004">
			<name>H</name>
			<Snippet maxLines="0"></Snippet>
			<description><![CDATA[<html xmlns:fo="http://www.w3.org/1999/XSL/Format" xmlns:msxsl="urn:schemas-microsoft-com:xslt">

<head>

<META http-equiv="Content-Type" content="text/html">

<meta http-equiv="content-type" content="text/html; charset=UTF-8">

</head>

<body style="margin:0px 0px 0px 0px;overflow:auto;background:#FFFFFF;">

<table style="font-family:Arial,Verdana,Times;font-size:12px;text-align:left;width:100%;border-collapse:collapse;padding:3px 3px 3px 3px">

<tr style="text-align:center;font-weight:bold;background:#9CBCE2">

<td>H</td>

</tr>

<tr>

<td>

<table style="font-family:Arial,Verdana,Times;font-size:12px;text-align:left;width:100%;border-spacing:0px; padding:3px 3px 3px 3px">

<tr>

<td>FID</td>

<td>4</td>

</tr>

<tr bgcolor="#D4E4F3">

<td>NAME</td>

<td>H</td>

</tr>

<tr>

<td>AREA</td>

<td>0.897281</td>

</tr>

<tr bgcolor="#D4E4F3">

<td>Plantation</td>

<td>ASUBIMA</td>

</tr>

<tr>

<td>Area_ha</td>

<td>0.897281</td>

</tr>

<tr bgcolor="#D4E4F3">

<td>Block</td>

<td>H</td>

</tr>

<tr>

<td>Type_text</td>

<td>INDIGENOUS</td>

</tr>

<tr bgcolor="#D4E4F3">

<td>Name_1</td>

<td>2010</td>

</tr>

<tr>

<td>PL_year</td>

<td>2010</td>

</tr>

<tr bgcolor="#D4E4F3">

<td>PROVENANCE</td>

<td></td>

</tr>

</table>

</td>

</tr>

</table>

</body>

</html>]]></description>
			<styleUrl>#PolyStyle00</styleUrl>
			<MultiGeometry>
				<Polygon>
					<outerBoundaryIs>
						<LinearRing>
							<coordinates>
								-1.874937761764397,7.415366435617591,0 -1.875361822121581,7.415012273651877,0 -1.875533538318622,7.414869528221468,0 -1.875604127060161,7.414775822565916,0 -1.875545999930662,7.414751999908954,0 -1.875420000085881,7.414699999829411,0 -1.875410999912003,7.414694999919062,0 -1.875395999897793,7.414645999918076,0 -1.875385999941778,7.414635999907741,0 -1.875316000006441,7.41458199980863,0 -1.875275000034857,7.414555999917664,0 -1.875205000037088,7.414525999927191,0 -1.875187000051471,7.414526999918252,0 -1.875163000101273,7.414506999838893,0 -1.875092999970879,7.414509999885315,0 -1.875082999953319,7.414508999802359,0 -1.875040000004858,7.414470999820536,0 -1.875042999915981,7.414444999941303,0 -1.874950000059879,7.414414999840488,0 -1.874850000162514,7.414364000025337,0 -1.874795000149734,7.414336999980153,0 -1.87474100015851,7.414318999801052,0 -1.874650999949605,7.414318999863678,0 -1.874642000134518,7.414325000063985,0 -1.874578000072998,7.414370999781116,0 -1.87452299990036,7.414391999948252,0 -1.874468000087926,7.414352999985943,0 -1.874458000131858,7.414352999991314,0 -1.874342000070694,7.414434000067063,0 -1.874315000038027,7.414487999770181,0 -1.874274999908343,7.414487999785156,0 -1.874262000072494,7.414524999777832,0 -1.874247999983388,7.414548999832902,0 -1.874278000063663,7.414577999793295,0 -1.874339000056678,7.414595999868275,0 -1.874387999899739,7.414633999807121,0 -1.874431000095475,7.414707000033626,0 -1.874476999892424,7.414778999983427,0 -1.874549000108515,7.414814999842996,0 -1.874583000014687,7.41489599984638,0 -1.874555999992813,7.414995999893383,0 -1.874566000072371,7.41505899999252,0 -1.874623000083118,7.41510299999542,0 -1.874756000155395,7.415168999815395,0 -1.874782000116914,7.415241999864846,0 -1.87484599991352,7.415276999805521,0 -1.874883000106669,7.415281999820315,0 -1.8748979999774,7.415338999962397,0 -1.874937761764397,7.415366435617591,0 
							</coordinates>
						</LinearRing>
					</outerBoundaryIs>
				</Polygon>
			</MultiGeometry>
		</Placemark>
		<Placemark id="ID_00005">
			<name>A</name>
			<Snippet maxLines="0"></Snippet>
			<description><![CDATA[<html xmlns:fo="http://www.w3.org/1999/XSL/Format" xmlns:msxsl="urn:schemas-microsoft-com:xslt">

<head>

<META http-equiv="Content-Type" content="text/html">

<meta http-equiv="content-type" content="text/html; charset=UTF-8">

</head>

<body style="margin:0px 0px 0px 0px;overflow:auto;background:#FFFFFF;">

<table style="font-family:Arial,Verdana,Times;font-size:12px;text-align:left;width:100%;border-collapse:collapse;padding:3px 3px 3px 3px">

<tr style="text-align:center;font-weight:bold;background:#9CBCE2">

<td>A</td>

</tr>

<tr>

<td>

<table style="font-family:Arial,Verdana,Times;font-size:12px;text-align:left;width:100%;border-spacing:0px; padding:3px 3px 3px 3px">

<tr>

<td>FID</td>

<td>5</td>

</tr>

<tr bgcolor="#D4E4F3">

<td>NAME</td>

<td>A</td>

</tr>

<tr>

<td>AREA</td>

<td>25.7155</td>

</tr>

<tr bgcolor="#D4E4F3">

<td>Plantation</td>

<td>ASUBIMA</td>

</tr>

<tr>

<td>Area_ha</td>

<td>25.715459</td>

</tr>

<tr bgcolor="#D4E4F3">

<td>Block</td>

<td>A</td>

</tr>

<tr>

<td>Type_text</td>

<td>INDIGENOUS</td>

</tr>

<tr bgcolor="#D4E4F3">

<td>Name_1</td>

<td>2010</td>

</tr>

<tr>

<td>PL_year</td>

<td>0</td>

</tr>

<tr bgcolor="#D4E4F3">

<td>PROVENANCE</td>

<td></td>

</tr>

</table>

</td>

</tr>

</table>

</body>

</html>]]></description>
			<styleUrl>#PolyStyle00</styleUrl>
			<MultiGeometry>
				<Polygon>
					<outerBoundaryIs>
						<LinearRing>
							<coordinates>
								-1.880350000441052,7.418472999890946,0 -1.880397000090819,7.418413999586222,0 -1.880419000225817,7.418373999502032,0 -1.880748500541684,7.41786799954004,0 -1.880768000399866,7.4178374994082,0 -1.881212000411082,7.417153999690156,0 -1.881790000463956,7.417422999834122,0 -1.881951000187913,7.41749799979759,0 -1.881961000347376,7.41748499960083,0 -1.882286000427508,7.417065999426304,0 -1.88288299981693,7.417347999897796,0 -1.883268999705329,7.417529999654483,0 -1.883613000425589,7.417395999422882,0 -1.88361899982896,7.417393999456724,0 -1.88371299970483,7.417393999446811,0 -1.88346700019412,7.416987999430351,0 -1.883486000244437,7.416847999722266,0 -1.883733000248882,7.416908000082104,0 -1.883977000215225,7.416566000199232,0 -1.884083999786031,7.416415999636499,0 -1.884193000331127,7.416532000083084,0 -1.88428299986735,7.416599999942432,0 -1.884348499885439,7.41663499958558,0 -1.884381500117092,7.416651000062807,0 -1.884953000546971,7.41693899978551,0 -1.884856999919743,7.417073000156035,0 -1.884571000437664,7.417467999622913,0 -1.884466999818535,7.417732000036586,0 -1.884491999671906,7.417819999761616,0 -1.884677000520835,7.417936999403364,0 -1.884910000033302,7.418085999955402,0 -1.885397999705297,7.417384999306417,0 -1.885915500373128,7.41664249952376,0 -1.885935999961849,7.416613499317422,0 -1.885947000499288,7.416594999969179,0 -1.885586999883012,7.416382999525255,0 -1.884808499987534,7.415922499207424,0 -1.884777000131766,7.415904000018672,0 -1.884749999712632,7.415888000154245,0 -1.884890999816043,7.415688999382272,0 -1.884896000537777,7.415685999322137,0 -1.884931999907017,7.415612999435389,0 -1.884837999869199,7.415587999965728,0 -1.884759000318031,7.415468999919983,0 -1.884768000189585,7.415433999991459,0 -1.884751000033676,7.415387999594587,0 -1.884751000141782,7.415348000108585,0 -1.884761000186616,7.415236000036296,0 -1.884750000313115,7.415170000022116,0 -1.884730000170031,7.415172999544677,0 -1.884678999722421,7.415088999965667,0 -1.884679000532536,7.415074999650276,0 -1.884829000309799,7.414935999407028,0 -1.884851000260771,7.414916000113659,0 -1.884995000431445,7.414710999657482,0 -1.884776999785195,7.414582999488206,0 -1.883775414455109,7.413953725451112,0 -1.884084852879485,7.413399341893376,0 -1.884565650999939,7.412622990000052,0 -1.885040051766432,7.411980732601729,0 -1.883364404052302,7.411075990634651,0 -1.883294625508012,7.411194614585478,0 -1.883174404622122,7.411398990623045,0 -1.883045404365096,7.411544990849417,0 -1.883006403904712,7.411674990923092,0 -1.882939404721931,7.411769990454678,0 -1.882920404508899,7.411797990399484,0 -1.882843404737199,7.411893990403839,0 -1.882792403872422,7.411950990472668,0 -1.882652404423914,7.412070990895252,0 -1.882527404307978,7.412241990788472,0 -1.882495403986839,7.412327990598944,0 -1.882364404396643,7.412477991170607,0 -1.882304404351086,7.412546990910944,0 -1.882240404100114,7.41258799082652,0 -1.882179404337548,7.412622991162255,0 -1.882208404324828,7.412727990369207,0 -1.882208404425718,7.412806990812094,0 -1.882191404289207,7.412920990905991,0 -1.882143404506655,7.413012991037422,0 -1.882114404151104,7.413127991091778,0 -1.882089404670653,7.413158990313072,0 -1.882028404131916,7.413171990776624,0 -1.881948404375084,7.413278990621521,0 -1.881945404381181,7.413282990532656,0 -1.881882404420014,7.413361990876123,0 -1.881815404544577,7.413418990362161,0 -1.881754404552738,7.413513991147347,0 -1.881690404277482,7.413513990320536,0 -1.881614404157312,7.413446990285829,0 -1.881471918939127,7.413350373942924,0 -1.881436999942195,7.414372999887667,0 -1.881436999916892,7.414375499570985,0 -1.881464000325632,7.414408999985342,0 -1.881462000063144,7.414414999348089,0 -1.88147700009098,7.414451000125982,0 -1.881497999941318,7.414533999310036,0 -1.881501000515416,7.414672999658013,0 -1.881500000175012,7.414765999671286,0 -1.881493000256199,7.414901999348998,0 -1.881468999693158,7.414996999953051,0 -1.881386000087832,7.415045999349997,0 -1.881367999752287,7.415063999809143,0 -1.881070000363667,7.415359999492046,0 -1.880835000521173,7.415606999968698,0 -1.880697999658206,7.415717499876818,0 -1.880603000114724,7.415800999337936,0 -1.880600000036531,7.415799999645412,0 -1.880417000347464,7.415949999601634,0 -1.88016800031088,7.416237999342659,0 -1.880033000393747,7.416373999398672,0 -1.879959000462771,7.41644899945907,0 -1.879761000189808,7.416586000155767,0 -1.879668000089454,7.41660099973342,0 -1.879577000033222,7.41650799948743,0 -1.879628000059881,7.416293000113563,0 -1.879466000226791,7.416117999725842,0 -1.879220999805487,7.416627999444616,0 -1.879432999743815,7.416924999944071,0 -1.879796000505756,7.417170000074467,0 -1.879828000524879,7.417192000027269,0 -1.87992800023811,7.417259999657261,0 -1.879962000132351,7.417330999339711,0 -1.879941999757914,7.417362000119416,0 -1.879939000389009,7.417360000143536,0 -1.879942000326832,7.417365000054678,0 -1.879920999832182,7.417391999908841,0 -1.879605000420775,7.417857000052103,0 -1.879913999657965,7.418175999624143,0 -1.880147000415467,7.418369999658912,0 -1.880172000311633,7.418395999362538,0 -1.880258999760213,7.418488999425098,0 -1.880337000532918,7.418510999471825,0 -1.880350000441052,7.418472999890946,0 
							</coordinates>
						</LinearRing>
					</outerBoundaryIs>
				</Polygon>
			</MultiGeometry>
		</Placemark>
		<Placemark id="ID_00006">
			<name>L</name>
			<Snippet maxLines="0"></Snippet>
			<description><![CDATA[<html xmlns:fo="http://www.w3.org/1999/XSL/Format" xmlns:msxsl="urn:schemas-microsoft-com:xslt">

<head>

<META http-equiv="Content-Type" content="text/html">

<meta http-equiv="content-type" content="text/html; charset=UTF-8">

</head>

<body style="margin:0px 0px 0px 0px;overflow:auto;background:#FFFFFF;">

<table style="font-family:Arial,Verdana,Times;font-size:12px;text-align:left;width:100%;border-collapse:collapse;padding:3px 3px 3px 3px">

<tr style="text-align:center;font-weight:bold;background:#9CBCE2">

<td>L</td>

</tr>

<tr>

<td>

<table style="font-family:Arial,Verdana,Times;font-size:12px;text-align:left;width:100%;border-spacing:0px; padding:3px 3px 3px 3px">

<tr>

<td>FID</td>

<td>6</td>

</tr>

<tr bgcolor="#D4E4F3">

<td>NAME</td>

<td>L</td>

</tr>

<tr>

<td>AREA</td>

<td>7.22208</td>

</tr>

<tr bgcolor="#D4E4F3">

<td>Plantation</td>

<td>ASUBIMA</td>

</tr>

<tr>

<td>Area_ha</td>

<td>7.222081</td>

</tr>

<tr bgcolor="#D4E4F3">

<td>Block</td>

<td>L</td>

</tr>

<tr>

<td>Type_text</td>

<td>INDIGENOUS</td>

</tr>

<tr bgcolor="#D4E4F3">

<td>Name_1</td>

<td>2010</td>

</tr>

<tr>

<td>PL_year</td>

<td>2010</td>

</tr>

<tr bgcolor="#D4E4F3">

<td>PROVENANCE</td>

<td></td>

</tr>

</table>

</td>

</tr>

</table>

</body>

</html>]]></description>
			<styleUrl>#PolyStyle00</styleUrl>
			<MultiGeometry>
				<Polygon>
					<outerBoundaryIs>
						<LinearRing>
							<coordinates>
								-1.854179994999933,7.395908888000063,0 -1.854153561122071,7.395884428113964,0 -1.854137330999945,7.395869410000043,0 -1.854094750999926,7.395817945000051,0 -1.854117130999952,7.395789195000019,0 -1.854119561999926,7.395760277000028,0 -1.854129870999933,7.395764552000057,0 -1.854162811999954,7.395750387000042,0 -1.854199943999962,7.395718703000052,0 -1.854229364999964,7.395708309000071,0 -1.854261713044751,7.395701022999935,0 -1.854263795798138,7.395697491043841,0 -1.854271608999955,7.395653659000042,0 -1.854269764999969,7.395593729000034,0 -1.854257359999951,7.395560453000007,0 -1.85424336199997,7.395551484000053,0 -1.854254342999974,7.395537905000045,0 -1.854271189999965,7.395510161000062,0 -1.854280493999954,7.395491134000075,0 -1.854292312999955,7.395449812000031,0 -1.854320056999927,7.395412680000051,0 -1.854296083999928,7.395336656000041,0 -1.854319720999968,7.395300278000077,0 -1.854333132999937,7.395263482000076,0 -1.854287534999963,7.39522492500006,0 -1.854192986999965,7.395201456000068,0 -1.854135822999982,7.395201204000051,0 -1.854084593756123,7.395181972636327,0 -1.85408402199993,7.395181758000057,0 -1.853981092999949,7.395153679000069,0 -1.853900625999929,7.395120068000036,0 -1.853842287999938,7.395097101000061,0 -1.85377380799996,7.395069944000084,0 -1.853765006999927,7.395097855000092,0 -1.853731478999978,7.395121073000019,0 -1.853632237999915,7.395109171000088,0 -1.853604660999961,7.395074470000054,0 -1.853514974999931,7.395033985000072,0 -1.853466694999947,7.395047899000079,0 -1.853387234999957,7.39503331500003,0 -1.853358484999941,7.395042116000095,0 -1.853242646999932,7.394992746000088,0 -1.853121360999962,7.39495083700006,0 -1.853013149999928,7.394979335000088,0 -1.852905358999977,7.394972797000033,0 -1.852789185999941,7.394926781000035,0 -1.852697152999945,7.394887051000062,0 -1.852577877999975,7.394880597000062,0 -1.852480982999948,7.394870203000037,0 -1.852352655999939,7.394839022000069,0 -1.85228459499995,7.394827958000072,0 -1.852188622999949,7.394795353000066,0 -1.852157761588046,7.394782535510814,0 -1.852080411999957,7.394784708000056,0 -1.852033473999935,7.394779595000052,0 -1.851897770999916,7.394738691000052,0 -1.851841695999941,7.394706421000032,0 -1.851735580999953,7.394696362000031,0 -1.851625274999938,7.394658392000049,0 -1.851672632999946,7.394642718000069,0 -1.851641702999922,7.394550769000039,0 -1.851603816999943,7.394448845000079,0 -1.85157330699997,7.394360919000076,0 -1.851552100999928,7.394303754000043,0 -1.851555117999953,7.394219851000057,0 -1.851519913999939,7.394195963000074,0 -1.851483284999982,7.394143911000069,0 -1.85141237499993,7.394073587000045,0 -1.851394436999935,7.394025223000057,0 -1.851372811999959,7.393967053000042,0 -1.851392425999954,7.393899243000016,0 -1.851403824999981,7.393868398000072,0 -1.851479764999978,7.393877199000027,0 -1.851554279999958,7.393915169000045,0 -1.851603062999967,7.393988762000044,0 -1.851657796999971,7.394072078000042,0 -1.851684199999962,7.39411180800007,0 -1.851698280999921,7.394145504000088,0 -1.851665926999939,7.394127147000069,0 -1.851722169999947,7.394175678000071,0 -1.851853513999973,7.394260755000065,0 -1.851927441999974,7.394266455000047,0 -1.851966669999967,7.394264108000093,0 -1.852000783999918,7.394241141000092,0 -1.852032383999921,7.394148186000057,0 -1.852019642999946,7.39405497900007,0 -1.851975554999953,7.393993875000032,0 -1.851982846999928,7.393933525000025,0 -1.851971782999957,7.393891951000058,0 -1.851927274999978,7.393859262000047,0 -1.851880251999944,7.393821040000026,0 -1.851818896999926,7.393762702000057,0 -1.851756534999941,7.39373697000004,0 -1.851738765999925,7.393694641000055,0 -1.85172822837296,7.39368610325859,0 -1.851669866999945,7.393638818000055,0 -1.851556207999967,7.393659521000068,0 -1.851543718999949,7.39366815400008,0 -1.851514968999926,7.393679637000052,0 -1.851503890225295,7.393685525558924,0 -1.851493678999926,7.393690953000054,0 -1.851453529999954,7.393677626000076,0 -1.851390916999949,7.39367636900004,0 -1.851350515999968,7.393684834000082,0 -1.851307767999958,7.393669914000043,0 -1.851232414999952,7.393643344000035,0 -1.851139794999934,7.393641500000054,0 -1.851080534999926,7.39365021700007,0 -1.851024794999942,7.393627083000106,0 -1.850971318999923,7.393629933000061,0 -1.850970144999963,7.393628173000039,0 -1.850961008999933,7.393648541000071,0 -1.851004845999969,7.39373403600007,0 -1.850969641999934,7.393821040000041,0 -1.85096888799995,7.393832104000073,0 -1.85097752099993,7.39392807700008,0 -1.850994787999969,7.39399094100003,0 -1.851040888999927,7.394047016000076,0 -1.851025130999969,7.394128907000063,0 -1.850993027999939,7.39421549300004,0 -1.851022364999937,7.394302748000046,0 -1.851087659999964,7.394353375000044,0 -1.851152115999982,7.394423364000073,0 -1.851235767999974,7.394499807000058,0 -1.851259152999944,7.394607347000029,0 -1.851255632999936,7.394644059000044,0 -1.851208061016498,7.394739659737822,0 -1.851203245999965,7.394749336000087,0 -1.851177261999963,7.394849751000034,0 -1.851192851999923,7.394932648000065,0 -1.851182961999941,7.394973133000089,0 -1.851227553999925,7.395033399000053,0 -1.851220512999932,7.395074805000059,0 -1.85123140899997,7.395124175000034,0 -1.851193019999914,7.395153008000031,0 -1.851124539999937,7.395215956000078,0 -1.851125712999913,7.395282509000051,0 -1.851144572999927,7.395318970000069,0 -1.85118279399994,7.395416871000058,0 -1.851230235999922,7.39546196500004,0 -1.851209448999951,7.395560117000045,0 -1.851150942999936,7.395585598000023,0 -1.851121270999943,7.395671010000077,0 -1.851179860999927,7.395747034000091,0 -1.851218332999943,7.395793051000052,0 -1.851283963999937,7.395745525000071,0 -1.851363339999957,7.395732952000085,0 -1.851427209999944,7.395762876000078,0 -1.851444392999948,7.39579699000008,0 -1.85146853299993,7.395775616000059,0 -1.851544640999969,7.395824315000036,0 -1.851598284999964,7.395860609000082,0 -1.851638769999963,7.39588064100009,0 -1.851747566999957,7.395899165000075,0 -1.851812442999973,7.395931017000098,0 -1.851840437999943,7.395938141000062,0 -1.851868181999977,7.395964460000096,0 -1.851924424999935,7.39599069600009,0 -1.852020229999919,7.39604073600004,0 -1.852102791999915,7.396030761000094,0 -1.852181748999935,7.396046938000045,0 -1.852217958999969,7.396067809000067,0 -1.852256934999959,7.396094464000062,0 -1.852365647999922,7.396103432000077,0 -1.852441923999943,7.39611634100006,0 -1.852520126999934,7.396197142000084,0 -1.852554492999948,7.396219103000034,0 -1.852641747999937,7.396287331000071,0 -1.852636718999973,7.396317422000044,0 -1.852631857999936,7.396484390000085,0 -1.852680388999935,7.39655789900009,0 -1.852672844999962,7.396610873000037,0 -1.852582739999948,7.396608442000065,0 -1.852481569999953,7.396654123000096,0 -1.852377717999949,7.396596707000093,0 -1.852268333999977,7.396567874000039,0 -1.852174456999936,7.396586733000036,0 -1.852182168999944,7.396662086000071,0 -1.852177809999924,7.396729058000069,0 -1.852168337999952,7.396797538000044,0 -1.85215291599996,7.396812625000066,0 -1.852114442999943,7.396853613000089,0 -1.852102120999975,7.396940365000062,0 -1.852162889999928,7.397021167000084,0 -1.852239332999953,7.396997781000034,0 -1.852311919999979,7.396975150000081,0 -1.852390458999924,7.397011863000056,0 -1.852475199999959,7.397053940000056,0 -1.852516857999943,7.39708713300007,0 -1.852581481999929,7.397150835000073,0 -1.852685920999934,7.397163576000056,0 -1.85275423299994,7.397182100000072,0 -1.852775858999956,7.397208922000093,0 -1.852747778999959,7.397258794000019,0 -1.852713329999963,7.397355186000052,0 -1.852654488999972,7.397407154000058,0 -1.85260260499996,7.397446297000068,0 -1.85260872399992,7.397496169000025,0 -1.852574273999938,7.397604380000104,0 -1.85255876699995,7.397635644000048,0 -1.852523814999916,7.397700939000079,0 -1.852485341999966,7.397830775000058,0 -1.852541164999932,7.397848545000061,0 -1.852589863999965,7.397802947000089,0 -1.852639568999972,7.397788614000044,0 -1.852664462999932,7.397785094000047,0 -1.852697152999945,7.397804623000062,0 -1.852703019999967,7.397844018000083,0 -1.852706036999952,7.397929598000096,0 -1.852744090999968,7.397939656000071,0 -1.852767811999951,7.397945104000065,0 -1.852786670999935,7.39794401500006,0 -1.852826401999941,7.397962706000049,0 -1.852855067999944,7.397967232000044,0 -1.852870154999942,7.397982823000064,0 -1.852903990584432,7.397998820291751,0 -1.852910220999925,7.398001766000045,0 -1.854179994999933,7.395908888000063,0 
							</coordinates>
						</LinearRing>
					</outerBoundaryIs>
				</Polygon>
			</MultiGeometry>
		</Placemark>
		<Placemark id="ID_00007">
			<name>D</name>
			<Snippet maxLines="0"></Snippet>
			<description><![CDATA[<html xmlns:fo="http://www.w3.org/1999/XSL/Format" xmlns:msxsl="urn:schemas-microsoft-com:xslt">

<head>

<META http-equiv="Content-Type" content="text/html">

<meta http-equiv="content-type" content="text/html; charset=UTF-8">

</head>

<body style="margin:0px 0px 0px 0px;overflow:auto;background:#FFFFFF;">

<table style="font-family:Arial,Verdana,Times;font-size:12px;text-align:left;width:100%;border-collapse:collapse;padding:3px 3px 3px 3px">

<tr style="text-align:center;font-weight:bold;background:#9CBCE2">

<td>D</td>

</tr>

<tr>

<td>

<table style="font-family:Arial,Verdana,Times;font-size:12px;text-align:left;width:100%;border-spacing:0px; padding:3px 3px 3px 3px">

<tr>

<td>FID</td>

<td>7</td>

</tr>

<tr bgcolor="#D4E4F3">

<td>NAME</td>

<td>D</td>

</tr>

<tr>

<td>AREA</td>

<td>5.67928</td>

</tr>

<tr bgcolor="#D4E4F3">

<td>Plantation</td>

<td>AFRENSO</td>

</tr>

<tr>

<td>Area_ha</td>

<td>5.679283</td>

</tr>

<tr bgcolor="#D4E4F3">

<td>Block</td>

<td>D</td>

</tr>

<tr>

<td>Type_text</td>

<td>INDIGENOUS</td>

</tr>

<tr bgcolor="#D4E4F3">

<td>Name_1</td>

<td>2011</td>

</tr>

<tr>

<td>PL_year</td>

<td>0</td>

</tr>

<tr bgcolor="#D4E4F3">

<td>PROVENANCE</td>

<td></td>

</tr>

</table>

</td>

</tr>

</table>

</body>

</html>]]></description>
			<styleUrl>#PolyStyle00</styleUrl>
			<MultiGeometry>
				<Polygon>
					<outerBoundaryIs>
						<LinearRing>
							<coordinates>
								-1.847400433313811,7.364307761312119,0 -1.847860798124909,7.364164559179813,0 -1.847915612317632,7.36415352371732,0 -1.849061629533652,7.364045137659784,0 -1.849778810097701,7.364056791511455,0 -1.849789014496285,7.363730565092822,0 -1.849796559290353,7.363675000432822,0 -1.849888627659109,7.363296543808657,0 -1.849892411761444,7.362529483534462,0 -1.849865712581543,7.362355747824024,0 -1.850132529618644,7.362314880967995,0 -1.849529913587646,7.36234607429992,0 -1.84923816922377,7.36236114904564,0 -1.848547843902116,7.362396899173405,0 -1.847884937291663,7.362431182181002,0 -1.84730361471988,7.362461333971963,0 -1.846896517091496,7.362482439236255,0 -1.846895437626938,7.362500288587961,0 -1.847168534201492,7.362499345278937,0 -1.847147703892604,7.362831033042989,0 -1.847144413565938,7.362859403520654,0 -1.84713921618571,7.362883377338359,0 -1.847052766077939,7.363209959643352,0 -1.84708710296249,7.36350592803668,0 -1.847400433313811,7.364307761312119,0 
							</coordinates>
						</LinearRing>
					</outerBoundaryIs>
				</Polygon>
			</MultiGeometry>
		</Placemark>
		<Placemark id="ID_00008">
			<name>B</name>
			<Snippet maxLines="0"></Snippet>
			<description><![CDATA[<html xmlns:fo="http://www.w3.org/1999/XSL/Format" xmlns:msxsl="urn:schemas-microsoft-com:xslt">

<head>

<META http-equiv="Content-Type" content="text/html">

<meta http-equiv="content-type" content="text/html; charset=UTF-8">

</head>

<body style="margin:0px 0px 0px 0px;overflow:auto;background:#FFFFFF;">

<table style="font-family:Arial,Verdana,Times;font-size:12px;text-align:left;width:100%;border-collapse:collapse;padding:3px 3px 3px 3px">

<tr style="text-align:center;font-weight:bold;background:#9CBCE2">

<td>B</td>

</tr>

<tr>

<td>

<table style="font-family:Arial,Verdana,Times;font-size:12px;text-align:left;width:100%;border-spacing:0px; padding:3px 3px 3px 3px">

<tr>

<td>FID</td>

<td>8</td>

</tr>

<tr bgcolor="#D4E4F3">

<td>NAME</td>

<td>B</td>

</tr>

<tr>

<td>AREA</td>

<td>15.7351</td>

</tr>

<tr bgcolor="#D4E4F3">

<td>Plantation</td>

<td>AFRENSO</td>

</tr>

<tr>

<td>Area_ha</td>

<td>15.735144</td>

</tr>

<tr bgcolor="#D4E4F3">

<td>Block</td>

<td></td>

</tr>

<tr>

<td>Type_text</td>

<td>INDIGENOUS</td>

</tr>

<tr bgcolor="#D4E4F3">

<td>Name_1</td>

<td>2011</td>

</tr>

<tr>

<td>PL_year</td>

<td>0</td>

</tr>

<tr bgcolor="#D4E4F3">

<td>PROVENANCE</td>

<td></td>

</tr>

</table>

</td>

</tr>

</table>

</body>

</html>]]></description>
			<styleUrl>#PolyStyle00</styleUrl>
			<MultiGeometry>
				<Polygon>
					<outerBoundaryIs>
						<LinearRing>
							<coordinates>
								-1.841351961112376,7.376478258719656,0 -1.841895145097993,7.376441420197771,0 -1.842130724737348,7.376425480876777,0 -1.842694573276485,7.376387206981073,0 -1.842951927655565,7.376369737457125,0 -1.843116851138475,7.37635855879855,0 -1.843117907235661,7.376307307142491,0 -1.843125405813532,7.376268494012598,0 -1.843139504020325,7.376229258114409,0 -1.84315945979461,7.376192643082106,0 -1.843184801519368,7.376159514240444,0 -1.843195433485638,7.37596777734666,0 -1.843172085224297,7.375728426707887,0 -1.84314858162723,7.375548898221228,0 -1.843119054567588,7.375381318657443,0 -1.843089465383552,7.37523766795455,0 -1.843069424972942,7.375062882018688,0 -1.842925801091794,7.374886482848537,0 -1.84228197485676,7.374231703322782,0 -1.842255765519365,7.374200721970925,0 -1.842234474357572,7.374166186952571,0 -1.842199638284595,7.374125389862993,0 -1.841989668561123,7.373464612865428,0 -1.84199397702852,7.373422051274307,0 -1.841993995013944,7.373156229991078,0 -1.841996200614231,7.373122091623938,0 -1.842002691851985,7.37308850170204,0 -1.842013365527434,7.373055994244435,0 -1.842074194628967,7.372903883287957,0 -1.842031045464586,7.372630259916491,0 -1.841713082532582,7.37224484782588,0 -1.841707965785918,7.372238451427744,0 -1.841692003410455,7.372215520321592,0 -1.841406723769332,7.371757022195833,0 -1.84021497388546,7.370801323949969,0 -1.839668092197744,7.370289688971005,0 -1.839641418087803,7.370260773190095,0 -1.839619209385064,7.37022831294495,0 -1.839601932269644,7.370192989606128,0 -1.839589949402723,7.370155544643067,0 -1.839583512314246,7.370116764059715,0 -1.839520071372844,7.369428115103627,0 -1.839038749832486,7.369600502489608,0 -1.839013006980789,7.369608309955574,0 -1.838968832610006,7.36961556108398,0 -1.838751446614932,7.369633071768662,0 -1.838892246823279,7.370423390307323,0 -1.839047633442682,7.37073425866817,0 -1.839300614511763,7.37108739330777,0 -1.839318909960219,7.371116711628003,0 -1.839324032381826,7.371126710736489,0 -1.839423599813007,7.371331412585921,0 -1.839441179819225,7.371378019203474,0 -1.839555929199527,7.371826278044568,0 -1.839557623167798,7.372159428522662,0 -1.839512162003168,7.37242190255947,0 -1.839516473229422,7.372636514130506,0 -1.839614548117782,7.372973020444428,0 -1.839838872238651,7.37339041683056,0 -1.839856667282137,7.373431260399041,0 -1.840039350741951,7.374163489685807,0 -1.840259147260292,7.374633131025544,0 -1.84065581702812,7.375157500653786,0 -1.840901518285406,7.375602769733349,0 -1.841028514853098,7.37588359040752,0 -1.841144152236193,7.376035766215054,0 -1.841178623450103,7.376131238455677,0 -1.841206265911572,7.376310201497387,0 -1.841351961112376,7.376478258719656,0 
							</coordinates>
						</LinearRing>
					</outerBoundaryIs>
				</Polygon>
			</MultiGeometry>
		</Placemark>
		<Placemark id="ID_00009">
			<name>C</name>
			<Snippet maxLines="0"></Snippet>
			<description><![CDATA[<html xmlns:fo="http://www.w3.org/1999/XSL/Format" xmlns:msxsl="urn:schemas-microsoft-com:xslt">

<head>

<META http-equiv="Content-Type" content="text/html">

<meta http-equiv="content-type" content="text/html; charset=UTF-8">

</head>

<body style="margin:0px 0px 0px 0px;overflow:auto;background:#FFFFFF;">

<table style="font-family:Arial,Verdana,Times;font-size:12px;text-align:left;width:100%;border-collapse:collapse;padding:3px 3px 3px 3px">

<tr style="text-align:center;font-weight:bold;background:#9CBCE2">

<td>C</td>

</tr>

<tr>

<td>

<table style="font-family:Arial,Verdana,Times;font-size:12px;text-align:left;width:100%;border-spacing:0px; padding:3px 3px 3px 3px">

<tr>

<td>FID</td>

<td>9</td>

</tr>

<tr bgcolor="#D4E4F3">

<td>NAME</td>

<td>C</td>

</tr>

<tr>

<td>AREA</td>

<td>7.22915</td>

</tr>

<tr bgcolor="#D4E4F3">

<td>Plantation</td>

<td>AFRENSO</td>

</tr>

<tr>

<td>Area_ha</td>

<td>7.229147</td>

</tr>

<tr bgcolor="#D4E4F3">

<td>Block</td>

<td></td>

</tr>

<tr>

<td>Type_text</td>

<td>INDIGENOUS</td>

</tr>

<tr bgcolor="#D4E4F3">

<td>Name_1</td>

<td>2011</td>

</tr>

<tr>

<td>PL_year</td>

<td>0</td>

</tr>

<tr bgcolor="#D4E4F3">

<td>PROVENANCE</td>

<td></td>

</tr>

</table>

</td>

</tr>

</table>

</body>

</html>]]></description>
			<styleUrl>#PolyStyle00</styleUrl>
			<MultiGeometry>
				<Polygon>
					<outerBoundaryIs>
						<LinearRing>
							<coordinates>
								-1.832648697649067,7.377029572678245,0 -1.832655272792795,7.376987275889042,0 -1.83266844630708,7.376946543186677,0 -1.832687888607583,7.376908393645653,0 -1.832713113274277,7.376873781713024,0 -1.832743489221007,7.376843573330119,0 -1.832778256484368,7.376818524267286,0 -1.832816545236978,7.37679926121637,0 -1.832857397549247,7.376786266111292,0 -1.83289979135519,7.376779864071057,0 -1.833460084625943,7.376741728206182,0 -1.833727135002209,7.376046872640532,0 -1.83392394808847,7.375625177907932,0 -1.834008215603467,7.375136895626926,0 -1.833793577055208,7.374575938546531,0 -1.8337823146099,7.374538683240036,0 -1.833776506797034,7.374500202675089,0 -1.833698485683245,7.373500714252491,0 -1.833379143869854,7.372959400360537,0 -1.833339478419438,7.372997317159099,0 -1.83304338398945,7.373506218503815,0 -1.833022407550037,7.373537151251834,0 -1.832990745308559,7.373571101755636,0 -1.832447699884668,7.374056059410843,0 -1.831904043915575,7.374908739001702,0 -1.831891358873289,7.375212035014856,0 -1.83191632443802,7.375416914477123,0 -1.831918299155226,7.375451959588647,0 -1.831907112703455,7.376238992785464,0 -1.831904228416075,7.376274748921226,0 -1.831896644205246,7.376309812683769,0 -1.831884492644229,7.376343571147315,0 -1.831729024831846,7.376699562565015,0 -1.831709396721505,7.376864819709472,0 -1.831751828709245,7.376872573670482,0 -1.83179249275183,7.376886944933885,0 -1.83183036036449,7.376907570018413,0 -1.831864473789997,7.376933927269806,0 -1.831893970222468,7.376965350054395,0 -1.83191810362953,7.377001043619197,0 -1.831936263621481,7.377040105193689,0 -1.831947990889292,7.377081546822399,0 -1.831952012006548,7.377115960109516,0 -1.832230443146152,7.377097059581126,0 -1.832648869107279,7.377068665472772,0 -1.832648697649067,7.377029572678245,0 
							</coordinates>
						</LinearRing>
					</outerBoundaryIs>
				</Polygon>
			</MultiGeometry>
		</Placemark>
	</Folder>
</Document>
</kml>
